<?xml version="1.0" encoding="UTF-8"?>
<gpx version="1.1" creator="dirt-bikes build-area-routes (MVUM geometry + SRTM elevation)" xmlns="http://www.topografix.com/GPX/1/1">
  <trk><name>Arrastre Creek Road</name><trkseg>
    <trkpt lat="34.27945" lon="-116.79622"><ele>2063.0</ele></trkpt>
    <trkpt lat="34.27955" lon="-116.79620"><ele>2063.0</ele></trkpt>
    <trkpt lat="34.27967" lon="-116.79617"><ele>2063.0</ele></trkpt>
    <trkpt lat="34.27979" lon="-116.79614"><ele>2063.0</ele></trkpt>
    <trkpt lat="34.27988" lon="-116.79609"><ele>2063.0</ele></trkpt>
    <trkpt lat="34.27993" lon="-116.79605"><ele>2063.0</ele></trkpt>
    <trkpt lat="34.27998" lon="-116.79599"><ele>2063.0</ele></trkpt>
    <trkpt lat="34.28003" lon="-116.79590"><ele>2063.0</ele></trkpt>
    <trkpt lat="34.28007" lon="-116.79578"><ele>2071.0</ele></trkpt>
    <trkpt lat="34.28010" lon="-116.79565"><ele>2071.0</ele></trkpt>
    <trkpt lat="34.28010" lon="-116.79545"><ele>2071.0</ele></trkpt>
    <trkpt lat="34.28011" lon="-116.79528"><ele>2071.0</ele></trkpt>
    <trkpt lat="34.28014" lon="-116.79504"><ele>2071.0</ele></trkpt>
    <trkpt lat="34.28015" lon="-116.79490"><ele>2071.0</ele></trkpt>
    <trkpt lat="34.28015" lon="-116.79478"><ele>2071.0</ele></trkpt>
    <trkpt lat="34.28014" lon="-116.79471"><ele>2071.0</ele></trkpt>
    <trkpt lat="34.28013" lon="-116.79463"><ele>2071.0</ele></trkpt>
    <trkpt lat="34.28009" lon="-116.79449"><ele>2071.0</ele></trkpt>
    <trkpt lat="34.27998" lon="-116.79418"><ele>2071.0</ele></trkpt>
    <trkpt lat="34.27990" lon="-116.79392"><ele>2071.0</ele></trkpt>
    <trkpt lat="34.27988" lon="-116.79386"><ele>2071.0</ele></trkpt>
    <trkpt lat="34.27983" lon="-116.79375"><ele>2071.0</ele></trkpt>
    <trkpt lat="34.27975" lon="-116.79359"><ele>2094.0</ele></trkpt>
    <trkpt lat="34.27969" lon="-116.79346"><ele>2094.0</ele></trkpt>
    <trkpt lat="34.27965" lon="-116.79333"><ele>2094.0</ele></trkpt>
    <trkpt lat="34.27963" lon="-116.79321"><ele>2094.0</ele></trkpt>
    <trkpt lat="34.27960" lon="-116.79286"><ele>2094.0</ele></trkpt>
    <trkpt lat="34.27958" lon="-116.79231"><ele>2094.0</ele></trkpt>
    <trkpt lat="34.27957" lon="-116.79197"><ele>2094.0</ele></trkpt>
    <trkpt lat="34.27958" lon="-116.79171"><ele>2094.0</ele></trkpt>
    <trkpt lat="34.27960" lon="-116.79152"><ele>2094.0</ele></trkpt>
    <trkpt lat="34.27965" lon="-116.79137"><ele>2094.0</ele></trkpt>
    <trkpt lat="34.27970" lon="-116.79122"><ele>2094.0</ele></trkpt>
    <trkpt lat="34.27978" lon="-116.79108"><ele>2094.0</ele></trkpt>
    <trkpt lat="34.27983" lon="-116.79097"><ele>2094.0</ele></trkpt>
    <trkpt lat="34.27989" lon="-116.79081"><ele>2094.0</ele></trkpt>
    <trkpt lat="34.27997" lon="-116.79063"><ele>2094.0</ele></trkpt>
    <trkpt lat="34.28006" lon="-116.79042"><ele>2108.0</ele></trkpt>
    <trkpt lat="34.28012" lon="-116.79032"><ele>2108.0</ele></trkpt>
    <trkpt lat="34.28017" lon="-116.79024"><ele>2108.0</ele></trkpt>
    <trkpt lat="34.28025" lon="-116.79015"><ele>2108.0</ele></trkpt>
    <trkpt lat="34.28038" lon="-116.79001"><ele>2108.0</ele></trkpt>
    <trkpt lat="34.28048" lon="-116.78990"><ele>2108.0</ele></trkpt>
    <trkpt lat="34.28057" lon="-116.78977"><ele>2108.0</ele></trkpt>
    <trkpt lat="34.28068" lon="-116.78963"><ele>2108.0</ele></trkpt>
    <trkpt lat="34.28089" lon="-116.78937"><ele>2108.0</ele></trkpt>
    <trkpt lat="34.28098" lon="-116.78924"><ele>2108.0</ele></trkpt>
    <trkpt lat="34.28103" lon="-116.78914"><ele>2108.0</ele></trkpt>
    <trkpt lat="34.28121" lon="-116.78866"><ele>2108.0</ele></trkpt>
    <trkpt lat="34.28134" lon="-116.78835"><ele>2108.0</ele></trkpt>
    <trkpt lat="34.28136" lon="-116.78826"><ele>2108.0</ele></trkpt>
    <trkpt lat="34.28136" lon="-116.78816"><ele>2117.0</ele></trkpt>
    <trkpt lat="34.28135" lon="-116.78809"><ele>2117.0</ele></trkpt>
    <trkpt lat="34.28134" lon="-116.78802"><ele>2117.0</ele></trkpt>
    <trkpt lat="34.28129" lon="-116.78789"><ele>2117.0</ele></trkpt>
    <trkpt lat="34.28120" lon="-116.78770"><ele>2117.0</ele></trkpt>
    <trkpt lat="34.28107" lon="-116.78744"><ele>2117.0</ele></trkpt>
    <trkpt lat="34.28098" lon="-116.78722"><ele>2117.0</ele></trkpt>
    <trkpt lat="34.28094" lon="-116.78716"><ele>2117.0</ele></trkpt>
    <trkpt lat="34.28089" lon="-116.78709"><ele>2117.0</ele></trkpt>
    <trkpt lat="34.28083" lon="-116.78704"><ele>2117.0</ele></trkpt>
    <trkpt lat="34.28047" lon="-116.78663"><ele>2117.0</ele></trkpt>
    <trkpt lat="34.28029" lon="-116.78637"><ele>2117.0</ele></trkpt>
    <trkpt lat="34.28002" lon="-116.78602"><ele>2117.0</ele></trkpt>
    <trkpt lat="34.27994" lon="-116.78594"><ele>2117.0</ele></trkpt>
    <trkpt lat="34.27987" lon="-116.78591"><ele>2117.0</ele></trkpt>
    <trkpt lat="34.27979" lon="-116.78590"><ele>2125.0</ele></trkpt>
    <trkpt lat="34.27971" lon="-116.78593"><ele>2125.0</ele></trkpt>
    <trkpt lat="34.27959" lon="-116.78602"><ele>2125.0</ele></trkpt>
    <trkpt lat="34.27950" lon="-116.78611"><ele>2125.0</ele></trkpt>
    <trkpt lat="34.27942" lon="-116.78613"><ele>2125.0</ele></trkpt>
    <trkpt lat="34.27933" lon="-116.78612"><ele>2125.0</ele></trkpt>
    <trkpt lat="34.27927" lon="-116.78608"><ele>2125.0</ele></trkpt>
    <trkpt lat="34.27920" lon="-116.78599"><ele>2125.0</ele></trkpt>
    <trkpt lat="34.27913" lon="-116.78588"><ele>2125.0</ele></trkpt>
    <trkpt lat="34.27906" lon="-116.78576"><ele>2125.0</ele></trkpt>
    <trkpt lat="34.27899" lon="-116.78566"><ele>2125.0</ele></trkpt>
    <trkpt lat="34.27884" lon="-116.78548"><ele>2125.0</ele></trkpt>
    <trkpt lat="34.27868" lon="-116.78527"><ele>2125.0</ele></trkpt>
    <trkpt lat="34.27860" lon="-116.78516"><ele>2125.0</ele></trkpt>
    <trkpt lat="34.27849" lon="-116.78507"><ele>2129.0</ele></trkpt>
    <trkpt lat="34.27835" lon="-116.78498"><ele>2129.0</ele></trkpt>
    <trkpt lat="34.27822" lon="-116.78491"><ele>2129.0</ele></trkpt>
    <trkpt lat="34.27804" lon="-116.78486"><ele>2129.0</ele></trkpt>
    <trkpt lat="34.27787" lon="-116.78481"><ele>2129.0</ele></trkpt>
    <trkpt lat="34.27768" lon="-116.78474"><ele>2129.0</ele></trkpt>
    <trkpt lat="34.27755" lon="-116.78468"><ele>2129.0</ele></trkpt>
    <trkpt lat="34.27749" lon="-116.78468"><ele>2129.0</ele></trkpt>
    <trkpt lat="34.27743" lon="-116.78470"><ele>2129.0</ele></trkpt>
    <trkpt lat="34.27738" lon="-116.78474"><ele>2129.0</ele></trkpt>
    <trkpt lat="34.27729" lon="-116.78481"><ele>2129.0</ele></trkpt>
    <trkpt lat="34.27716" lon="-116.78494"><ele>2129.0</ele></trkpt>
    <trkpt lat="34.27707" lon="-116.78502"><ele>2129.0</ele></trkpt>
    <trkpt lat="34.27698" lon="-116.78505"><ele>2129.0</ele></trkpt>
    <trkpt lat="34.27687" lon="-116.78507"><ele>2129.0</ele></trkpt>
    <trkpt lat="34.27679" lon="-116.78510"><ele>2126.0</ele></trkpt>
    <trkpt lat="34.27673" lon="-116.78514"><ele>2126.0</ele></trkpt>
    <trkpt lat="34.27666" lon="-116.78516"><ele>2126.0</ele></trkpt>
    <trkpt lat="34.27658" lon="-116.78517"><ele>2126.0</ele></trkpt>
    <trkpt lat="34.27649" lon="-116.78514"><ele>2126.0</ele></trkpt>
    <trkpt lat="34.27641" lon="-116.78513"><ele>2126.0</ele></trkpt>
    <trkpt lat="34.27630" lon="-116.78516"><ele>2126.0</ele></trkpt>
    <trkpt lat="34.27619" lon="-116.78521"><ele>2126.0</ele></trkpt>
    <trkpt lat="34.27610" lon="-116.78523"><ele>2126.0</ele></trkpt>
    <trkpt lat="34.27598" lon="-116.78528"><ele>2126.0</ele></trkpt>
    <trkpt lat="34.27559" lon="-116.78547"><ele>2126.0</ele></trkpt>
    <trkpt lat="34.27551" lon="-116.78549"><ele>2126.0</ele></trkpt>
    <trkpt lat="34.27545" lon="-116.78547"><ele>2126.0</ele></trkpt>
    <trkpt lat="34.27539" lon="-116.78547"><ele>2126.0</ele></trkpt>
    <trkpt lat="34.27534" lon="-116.78548"><ele>2129.0</ele></trkpt>
    <trkpt lat="34.27530" lon="-116.78552"><ele>2129.0</ele></trkpt>
    <trkpt lat="34.27526" lon="-116.78562"><ele>2129.0</ele></trkpt>
    <trkpt lat="34.27523" lon="-116.78574"><ele>2129.0</ele></trkpt>
    <trkpt lat="34.27517" lon="-116.78586"><ele>2129.0</ele></trkpt>
    <trkpt lat="34.27511" lon="-116.78596"><ele>2129.0</ele></trkpt>
    <trkpt lat="34.27505" lon="-116.78604"><ele>2129.0</ele></trkpt>
    <trkpt lat="34.27502" lon="-116.78612"><ele>2129.0</ele></trkpt>
    <trkpt lat="34.27500" lon="-116.78622"><ele>2129.0</ele></trkpt>
    <trkpt lat="34.27498" lon="-116.78633"><ele>2129.0</ele></trkpt>
    <trkpt lat="34.27495" lon="-116.78639"><ele>2129.0</ele></trkpt>
    <trkpt lat="34.27491" lon="-116.78644"><ele>2129.0</ele></trkpt>
    <trkpt lat="34.27472" lon="-116.78652"><ele>2129.0</ele></trkpt>
    <trkpt lat="34.27440" lon="-116.78667"><ele>2129.0</ele></trkpt>
    <trkpt lat="34.27419" lon="-116.78675"><ele>2129.0</ele></trkpt>
    <trkpt lat="34.27409" lon="-116.78671"><ele>2136.0</ele></trkpt>
    <trkpt lat="34.27401" lon="-116.78664"><ele>2136.0</ele></trkpt>
    <trkpt lat="34.27393" lon="-116.78658"><ele>2136.0</ele></trkpt>
    <trkpt lat="34.27383" lon="-116.78648"><ele>2136.0</ele></trkpt>
    <trkpt lat="34.27371" lon="-116.78635"><ele>2136.0</ele></trkpt>
    <trkpt lat="34.27359" lon="-116.78625"><ele>2136.0</ele></trkpt>
    <trkpt lat="34.27340" lon="-116.78611"><ele>2136.0</ele></trkpt>
    <trkpt lat="34.27327" lon="-116.78599"><ele>2136.0</ele></trkpt>
    <trkpt lat="34.27313" lon="-116.78584"><ele>2136.0</ele></trkpt>
    <trkpt lat="34.27302" lon="-116.78572"><ele>2136.0</ele></trkpt>
    <trkpt lat="34.27297" lon="-116.78564"><ele>2136.0</ele></trkpt>
    <trkpt lat="34.27293" lon="-116.78555"><ele>2136.0</ele></trkpt>
    <trkpt lat="34.27286" lon="-116.78535"><ele>2136.0</ele></trkpt>
    <trkpt lat="34.27279" lon="-116.78518"><ele>2136.0</ele></trkpt>
    <trkpt lat="34.27276" lon="-116.78509"><ele>2152.0</ele></trkpt>
    <trkpt lat="34.27275" lon="-116.78501"><ele>2152.0</ele></trkpt>
    <trkpt lat="34.27276" lon="-116.78493"><ele>2152.0</ele></trkpt>
    <trkpt lat="34.27279" lon="-116.78481"><ele>2152.0</ele></trkpt>
    <trkpt lat="34.27281" lon="-116.78468"><ele>2152.0</ele></trkpt>
    <trkpt lat="34.27282" lon="-116.78457"><ele>2152.0</ele></trkpt>
    <trkpt lat="34.27282" lon="-116.78447"><ele>2152.0</ele></trkpt>
    <trkpt lat="34.27280" lon="-116.78438"><ele>2152.0</ele></trkpt>
    <trkpt lat="34.27278" lon="-116.78426"><ele>2152.0</ele></trkpt>
    <trkpt lat="34.27268" lon="-116.78375"><ele>2152.0</ele></trkpt>
    <trkpt lat="34.27266" lon="-116.78365"><ele>2152.0</ele></trkpt>
    <trkpt lat="34.27263" lon="-116.78357"><ele>2152.0</ele></trkpt>
    <trkpt lat="34.27258" lon="-116.78340"><ele>2152.0</ele></trkpt>
    <trkpt lat="34.27254" lon="-116.78329"><ele>2152.0</ele></trkpt>
    <trkpt lat="34.27254" lon="-116.78320"><ele>2169.0</ele></trkpt>
    <trkpt lat="34.27255" lon="-116.78312"><ele>2169.0</ele></trkpt>
    <trkpt lat="34.27259" lon="-116.78297"><ele>2169.0</ele></trkpt>
    <trkpt lat="34.27261" lon="-116.78287"><ele>2169.0</ele></trkpt>
    <trkpt lat="34.27262" lon="-116.78275"><ele>2169.0</ele></trkpt>
    <trkpt lat="34.27262" lon="-116.78264"><ele>2169.0</ele></trkpt>
    <trkpt lat="34.27261" lon="-116.78254"><ele>2169.0</ele></trkpt>
    <trkpt lat="34.27258" lon="-116.78239"><ele>2169.0</ele></trkpt>
    <trkpt lat="34.27254" lon="-116.78218"><ele>2169.0</ele></trkpt>
    <trkpt lat="34.27249" lon="-116.78192"><ele>2169.0</ele></trkpt>
    <trkpt lat="34.27247" lon="-116.78179"><ele>2169.0</ele></trkpt>
    <trkpt lat="34.27246" lon="-116.78167"><ele>2169.0</ele></trkpt>
    <trkpt lat="34.27247" lon="-116.78159"><ele>2169.0</ele></trkpt>
    <trkpt lat="34.27248" lon="-116.78149"><ele>2169.0</ele></trkpt>
    <trkpt lat="34.27250" lon="-116.78141"><ele>2169.0</ele></trkpt>
    <trkpt lat="34.27256" lon="-116.78130"><ele>2170.0</ele></trkpt>
    <trkpt lat="34.27263" lon="-116.78113"><ele>2170.0</ele></trkpt>
    <trkpt lat="34.27275" lon="-116.78095"><ele>2170.0</ele></trkpt>
    <trkpt lat="34.27278" lon="-116.78089"><ele>2170.0</ele></trkpt>
    <trkpt lat="34.27283" lon="-116.78080"><ele>2170.0</ele></trkpt>
    <trkpt lat="34.27285" lon="-116.78071"><ele>2170.0</ele></trkpt>
    <trkpt lat="34.27285" lon="-116.78061"><ele>2170.0</ele></trkpt>
    <trkpt lat="34.27284" lon="-116.78053"><ele>2170.0</ele></trkpt>
    <trkpt lat="34.27280" lon="-116.78043"><ele>2170.0</ele></trkpt>
    <trkpt lat="34.27274" lon="-116.78033"><ele>2170.0</ele></trkpt>
    <trkpt lat="34.27267" lon="-116.78019"><ele>2170.0</ele></trkpt>
    <trkpt lat="34.27257" lon="-116.78003"><ele>2170.0</ele></trkpt>
    <trkpt lat="34.27242" lon="-116.77984"><ele>2170.0</ele></trkpt>
    <trkpt lat="34.27224" lon="-116.77964"><ele>2170.0</ele></trkpt>
    <trkpt lat="34.27216" lon="-116.77956"><ele>2165.0</ele></trkpt>
    <trkpt lat="34.27214" lon="-116.77949"><ele>2165.0</ele></trkpt>
    <trkpt lat="34.27212" lon="-116.77941"><ele>2165.0</ele></trkpt>
    <trkpt lat="34.27213" lon="-116.77929"><ele>2165.0</ele></trkpt>
    <trkpt lat="34.27216" lon="-116.77916"><ele>2165.0</ele></trkpt>
    <trkpt lat="34.27218" lon="-116.77905"><ele>2165.0</ele></trkpt>
    <trkpt lat="34.27221" lon="-116.77899"><ele>2165.0</ele></trkpt>
    <trkpt lat="34.27225" lon="-116.77893"><ele>2165.0</ele></trkpt>
    <trkpt lat="34.27238" lon="-116.77886"><ele>2165.0</ele></trkpt>
    <trkpt lat="34.27254" lon="-116.77877"><ele>2165.0</ele></trkpt>
    <trkpt lat="34.27265" lon="-116.77872"><ele>2165.0</ele></trkpt>
    <trkpt lat="34.27272" lon="-116.77869"><ele>2165.0</ele></trkpt>
    <trkpt lat="34.27277" lon="-116.77866"><ele>2165.0</ele></trkpt>
    <trkpt lat="34.27280" lon="-116.77862"><ele>2165.0</ele></trkpt>
    <trkpt lat="34.27284" lon="-116.77855"><ele>2165.0</ele></trkpt>
    <trkpt lat="34.27289" lon="-116.77843"><ele>2151.0</ele></trkpt>
    <trkpt lat="34.27297" lon="-116.77829"><ele>2151.0</ele></trkpt>
    <trkpt lat="34.27308" lon="-116.77805"><ele>2151.0</ele></trkpt>
    <trkpt lat="34.27315" lon="-116.77788"><ele>2151.0</ele></trkpt>
    <trkpt lat="34.27318" lon="-116.77777"><ele>2151.0</ele></trkpt>
    <trkpt lat="34.27320" lon="-116.77763"><ele>2151.0</ele></trkpt>
    <trkpt lat="34.27321" lon="-116.77748"><ele>2151.0</ele></trkpt>
    <trkpt lat="34.27321" lon="-116.77730"><ele>2151.0</ele></trkpt>
    <trkpt lat="34.27321" lon="-116.77715"><ele>2151.0</ele></trkpt>
    <trkpt lat="34.27317" lon="-116.77686"><ele>2151.0</ele></trkpt>
    <trkpt lat="34.27315" lon="-116.77670"><ele>2151.0</ele></trkpt>
    <trkpt lat="34.27315" lon="-116.77658"><ele>2151.0</ele></trkpt>
    <trkpt lat="34.27316" lon="-116.77650"><ele>2151.0</ele></trkpt>
    <trkpt lat="34.27318" lon="-116.77642"><ele>2151.0</ele></trkpt>
    <trkpt lat="34.27324" lon="-116.77631"><ele>2143.0</ele></trkpt>
    <trkpt lat="34.27329" lon="-116.77618"><ele>2143.0</ele></trkpt>
    <trkpt lat="34.27331" lon="-116.77607"><ele>2143.0</ele></trkpt>
    <trkpt lat="34.27331" lon="-116.77600"><ele>2143.0</ele></trkpt>
    <trkpt lat="34.27329" lon="-116.77591"><ele>2143.0</ele></trkpt>
    <trkpt lat="34.27322" lon="-116.77576"><ele>2143.0</ele></trkpt>
    <trkpt lat="34.27313" lon="-116.77557"><ele>2143.0</ele></trkpt>
    <trkpt lat="34.27303" lon="-116.77538"><ele>2143.0</ele></trkpt>
    <trkpt lat="34.27294" lon="-116.77525"><ele>2143.0</ele></trkpt>
    <trkpt lat="34.27288" lon="-116.77516"><ele>2143.0</ele></trkpt>
    <trkpt lat="34.27284" lon="-116.77506"><ele>2143.0</ele></trkpt>
    <trkpt lat="34.27283" lon="-116.77499"><ele>2143.0</ele></trkpt>
    <trkpt lat="34.27284" lon="-116.77491"><ele>2143.0</ele></trkpt>
    <trkpt lat="34.27286" lon="-116.77484"><ele>2143.0</ele></trkpt>
    <trkpt lat="34.27291" lon="-116.77478"><ele>2143.0</ele></trkpt>
    <trkpt lat="34.27298" lon="-116.77471"><ele>2131.0</ele></trkpt>
    <trkpt lat="34.27309" lon="-116.77464"><ele>2131.0</ele></trkpt>
    <trkpt lat="34.27326" lon="-116.77454"><ele>2131.0</ele></trkpt>
    <trkpt lat="34.27341" lon="-116.77445"><ele>2131.0</ele></trkpt>
    <trkpt lat="34.27359" lon="-116.77438"><ele>2131.0</ele></trkpt>
    <trkpt lat="34.27375" lon="-116.77430"><ele>2131.0</ele></trkpt>
    <trkpt lat="34.27388" lon="-116.77426"><ele>2131.0</ele></trkpt>
    <trkpt lat="34.27399" lon="-116.77421"><ele>2131.0</ele></trkpt>
    <trkpt lat="34.27405" lon="-116.77416"><ele>2131.0</ele></trkpt>
    <trkpt lat="34.27410" lon="-116.77411"><ele>2131.0</ele></trkpt>
    <trkpt lat="34.27416" lon="-116.77402"><ele>2131.0</ele></trkpt>
    <trkpt lat="34.27419" lon="-116.77394"><ele>2131.0</ele></trkpt>
    <trkpt lat="34.27419" lon="-116.77385"><ele>2131.0</ele></trkpt>
    <trkpt lat="34.27417" lon="-116.77376"><ele>2131.0</ele></trkpt>
    <trkpt lat="34.27414" lon="-116.77368"><ele>2123.0</ele></trkpt>
    <trkpt lat="34.27409" lon="-116.77360"><ele>2123.0</ele></trkpt>
    <trkpt lat="34.27402" lon="-116.77352"><ele>2123.0</ele></trkpt>
    <trkpt lat="34.27394" lon="-116.77346"><ele>2123.0</ele></trkpt>
    <trkpt lat="34.27386" lon="-116.77344"><ele>2123.0</ele></trkpt>
    <trkpt lat="34.27376" lon="-116.77343"><ele>2123.0</ele></trkpt>
    <trkpt lat="34.27367" lon="-116.77343"><ele>2123.0</ele></trkpt>
    <trkpt lat="34.27357" lon="-116.77341"><ele>2123.0</ele></trkpt>
    <trkpt lat="34.27348" lon="-116.77337"><ele>2123.0</ele></trkpt>
    <trkpt lat="34.27340" lon="-116.77332"><ele>2123.0</ele></trkpt>
    <trkpt lat="34.27336" lon="-116.77327"><ele>2123.0</ele></trkpt>
    <trkpt lat="34.27334" lon="-116.77319"><ele>2123.0</ele></trkpt>
    <trkpt lat="34.27333" lon="-116.77311"><ele>2123.0</ele></trkpt>
    <trkpt lat="34.27332" lon="-116.77296"><ele>2123.0</ele></trkpt>
    <trkpt lat="34.27331" lon="-116.77284"><ele>2113.0</ele></trkpt>
    <trkpt lat="34.27328" lon="-116.77275"><ele>2113.0</ele></trkpt>
    <trkpt lat="34.27325" lon="-116.77267"><ele>2113.0</ele></trkpt>
    <trkpt lat="34.27321" lon="-116.77260"><ele>2113.0</ele></trkpt>
    <trkpt lat="34.27313" lon="-116.77253"><ele>2113.0</ele></trkpt>
    <trkpt lat="34.27307" lon="-116.77246"><ele>2113.0</ele></trkpt>
    <trkpt lat="34.27303" lon="-116.77239"><ele>2113.0</ele></trkpt>
    <trkpt lat="34.27299" lon="-116.77228"><ele>2113.0</ele></trkpt>
    <trkpt lat="34.27297" lon="-116.77222"><ele>2113.0</ele></trkpt>
    <trkpt lat="34.27295" lon="-116.77214"><ele>2113.0</ele></trkpt>
    <trkpt lat="34.27290" lon="-116.77204"><ele>2113.0</ele></trkpt>
    <trkpt lat="34.27284" lon="-116.77194"><ele>2113.0</ele></trkpt>
    <trkpt lat="34.27281" lon="-116.77186"><ele>2113.0</ele></trkpt>
    <trkpt lat="34.27279" lon="-116.77176"><ele>2113.0</ele></trkpt>
    <trkpt lat="34.27276" lon="-116.77160"><ele>2113.0</ele></trkpt>
    <trkpt lat="34.27274" lon="-116.77141"><ele>2107.0</ele></trkpt>
    <trkpt lat="34.27273" lon="-116.77123"><ele>2107.0</ele></trkpt>
    <trkpt lat="34.27271" lon="-116.77110"><ele>2107.0</ele></trkpt>
    <trkpt lat="34.27270" lon="-116.77099"><ele>2107.0</ele></trkpt>
    <trkpt lat="34.27270" lon="-116.77089"><ele>2107.0</ele></trkpt>
    <trkpt lat="34.27272" lon="-116.77076"><ele>2107.0</ele></trkpt>
    <trkpt lat="34.27275" lon="-116.77059"><ele>2107.0</ele></trkpt>
    <trkpt lat="34.27276" lon="-116.77051"><ele>2107.0</ele></trkpt>
    <trkpt lat="34.27275" lon="-116.77041"><ele>2107.0</ele></trkpt>
    <trkpt lat="34.27272" lon="-116.77032"><ele>2107.0</ele></trkpt>
    <trkpt lat="34.27265" lon="-116.77018"><ele>2107.0</ele></trkpt>
    <trkpt lat="34.27258" lon="-116.77006"><ele>2107.0</ele></trkpt>
    <trkpt lat="34.27251" lon="-116.76998"><ele>2107.0</ele></trkpt>
    <trkpt lat="34.27245" lon="-116.76993"><ele>2107.0</ele></trkpt>
    <trkpt lat="34.27236" lon="-116.76991"><ele>2092.0</ele></trkpt>
    <trkpt lat="34.27223" lon="-116.76993"><ele>2092.0</ele></trkpt>
    <trkpt lat="34.27212" lon="-116.76992"><ele>2092.0</ele></trkpt>
    <trkpt lat="34.27203" lon="-116.76990"><ele>2092.0</ele></trkpt>
    <trkpt lat="34.27195" lon="-116.76986"><ele>2092.0</ele></trkpt>
    <trkpt lat="34.27188" lon="-116.76980"><ele>2092.0</ele></trkpt>
    <trkpt lat="34.27182" lon="-116.76973"><ele>2092.0</ele></trkpt>
    <trkpt lat="34.27177" lon="-116.76960"><ele>2092.0</ele></trkpt>
    <trkpt lat="34.27173" lon="-116.76949"><ele>2092.0</ele></trkpt>
    <trkpt lat="34.27170" lon="-116.76937"><ele>2092.0</ele></trkpt>
    <trkpt lat="34.27170" lon="-116.76932"><ele>2092.0</ele></trkpt>
    <trkpt lat="34.27172" lon="-116.76920"><ele>2092.0</ele></trkpt>
    <trkpt lat="34.27175" lon="-116.76906"><ele>2092.0</ele></trkpt>
    <trkpt lat="34.27177" lon="-116.76897"><ele>2092.0</ele></trkpt>
    <trkpt lat="34.27178" lon="-116.76883"><ele>2092.0</ele></trkpt>
    <trkpt lat="34.27176" lon="-116.76874"><ele>2084.0</ele></trkpt>
    <trkpt lat="34.27172" lon="-116.76868"><ele>2084.0</ele></trkpt>
    <trkpt lat="34.27167" lon="-116.76864"><ele>2084.0</ele></trkpt>
    <trkpt lat="34.27159" lon="-116.76862"><ele>2084.0</ele></trkpt>
    <trkpt lat="34.27154" lon="-116.76863"><ele>2084.0</ele></trkpt>
    <trkpt lat="34.27145" lon="-116.76866"><ele>2084.0</ele></trkpt>
    <trkpt lat="34.27138" lon="-116.76872"><ele>2084.0</ele></trkpt>
    <trkpt lat="34.27130" lon="-116.76878"><ele>2084.0</ele></trkpt>
    <trkpt lat="34.27122" lon="-116.76885"><ele>2084.0</ele></trkpt>
    <trkpt lat="34.27112" lon="-116.76886"><ele>2084.0</ele></trkpt>
    <trkpt lat="34.27103" lon="-116.76885"><ele>2084.0</ele></trkpt>
    <trkpt lat="34.27095" lon="-116.76883"><ele>2084.0</ele></trkpt>
    <trkpt lat="34.27089" lon="-116.76878"><ele>2084.0</ele></trkpt>
    <trkpt lat="34.27082" lon="-116.76869"><ele>2084.0</ele></trkpt>
    <trkpt lat="34.27072" lon="-116.76856"><ele>2073.0</ele></trkpt>
    <trkpt lat="34.27064" lon="-116.76846"><ele>2073.0</ele></trkpt>
    <trkpt lat="34.27056" lon="-116.76830"><ele>2073.0</ele></trkpt>
    <trkpt lat="34.27051" lon="-116.76823"><ele>2073.0</ele></trkpt>
    <trkpt lat="34.27042" lon="-116.76818"><ele>2073.0</ele></trkpt>
    <trkpt lat="34.27032" lon="-116.76815"><ele>2073.0</ele></trkpt>
    <trkpt lat="34.27020" lon="-116.76812"><ele>2073.0</ele></trkpt>
    <trkpt lat="34.27007" lon="-116.76811"><ele>2073.0</ele></trkpt>
    <trkpt lat="34.26992" lon="-116.76811"><ele>2073.0</ele></trkpt>
    <trkpt lat="34.26982" lon="-116.76812"><ele>2073.0</ele></trkpt>
    <trkpt lat="34.26974" lon="-116.76815"><ele>2073.0</ele></trkpt>
    <trkpt lat="34.26964" lon="-116.76821"><ele>2073.0</ele></trkpt>
    <trkpt lat="34.26957" lon="-116.76824"><ele>2073.0</ele></trkpt>
    <trkpt lat="34.26951" lon="-116.76824"><ele>2073.0</ele></trkpt>
    <trkpt lat="34.26945" lon="-116.76819"><ele>2073.0</ele></trkpt>
    <trkpt lat="34.26942" lon="-116.76812"><ele>2069.0</ele></trkpt>
    <trkpt lat="34.26940" lon="-116.76803"><ele>2069.0</ele></trkpt>
    <trkpt lat="34.26937" lon="-116.76793"><ele>2069.0</ele></trkpt>
    <trkpt lat="34.26937" lon="-116.76788"><ele>2069.0</ele></trkpt>
    <trkpt lat="34.26932" lon="-116.76764"><ele>2069.0</ele></trkpt>
    <trkpt lat="34.26926" lon="-116.76733"><ele>2069.0</ele></trkpt>
    <trkpt lat="34.26923" lon="-116.76714"><ele>2069.0</ele></trkpt>
    <trkpt lat="34.26923" lon="-116.76713"><ele>2069.0</ele></trkpt>
    <trkpt lat="34.26916" lon="-116.76686"><ele>2069.0</ele></trkpt>
    <trkpt lat="34.26913" lon="-116.76677"><ele>2069.0</ele></trkpt>
    <trkpt lat="34.26910" lon="-116.76659"><ele>2069.0</ele></trkpt>
    <trkpt lat="34.26909" lon="-116.76651"><ele>2069.0</ele></trkpt>
    <trkpt lat="34.26910" lon="-116.76642"><ele>2069.0</ele></trkpt>
    <trkpt lat="34.26912" lon="-116.76634"><ele>2069.0</ele></trkpt>
    <trkpt lat="34.26917" lon="-116.76623"><ele>2064.0</ele></trkpt>
    <trkpt lat="34.26923" lon="-116.76611"><ele>2064.0</ele></trkpt>
    <trkpt lat="34.26924" lon="-116.76609"><ele>2064.0</ele></trkpt>
    <trkpt lat="34.26929" lon="-116.76595"><ele>2064.0</ele></trkpt>
    <trkpt lat="34.26929" lon="-116.76593"><ele>2064.0</ele></trkpt>
    <trkpt lat="34.26931" lon="-116.76581"><ele>2064.0</ele></trkpt>
    <trkpt lat="34.26934" lon="-116.76548"><ele>2064.0</ele></trkpt>
    <trkpt lat="34.26935" lon="-116.76526"><ele>2064.0</ele></trkpt>
    <trkpt lat="34.26934" lon="-116.76516"><ele>2064.0</ele></trkpt>
    <trkpt lat="34.26930" lon="-116.76501"><ele>2064.0</ele></trkpt>
    <trkpt lat="34.26923" lon="-116.76483"><ele>2064.0</ele></trkpt>
    <trkpt lat="34.26909" lon="-116.76454"><ele>2064.0</ele></trkpt>
    <trkpt lat="34.26897" lon="-116.76427"><ele>2064.0</ele></trkpt>
    <trkpt lat="34.26884" lon="-116.76399"><ele>2064.0</ele></trkpt>
    <trkpt lat="34.26873" lon="-116.76369"><ele>2064.0</ele></trkpt>
    <trkpt lat="34.26868" lon="-116.76355"><ele>2056.0</ele></trkpt>
    <trkpt lat="34.26865" lon="-116.76344"><ele>2056.0</ele></trkpt>
    <trkpt lat="34.26863" lon="-116.76330"><ele>2056.0</ele></trkpt>
    <trkpt lat="34.26861" lon="-116.76313"><ele>2056.0</ele></trkpt>
    <trkpt lat="34.26859" lon="-116.76299"><ele>2056.0</ele></trkpt>
    <trkpt lat="34.26855" lon="-116.76279"><ele>2056.0</ele></trkpt>
    <trkpt lat="34.26852" lon="-116.76275"><ele>2056.0</ele></trkpt>
    <trkpt lat="34.26849" lon="-116.76265"><ele>2056.0</ele></trkpt>
    <trkpt lat="34.26845" lon="-116.76257"><ele>2056.0</ele></trkpt>
    <trkpt lat="34.26838" lon="-116.76247"><ele>2056.0</ele></trkpt>
    <trkpt lat="34.26830" lon="-116.76238"><ele>2056.0</ele></trkpt>
    <trkpt lat="34.26825" lon="-116.76229"><ele>2056.0</ele></trkpt>
    <trkpt lat="34.26821" lon="-116.76218"><ele>2056.0</ele></trkpt>
    <trkpt lat="34.26817" lon="-116.76202"><ele>2056.0</ele></trkpt>
    <trkpt lat="34.26812" lon="-116.76188"><ele>2049.0</ele></trkpt>
    <trkpt lat="34.26807" lon="-116.76175"><ele>2049.0</ele></trkpt>
    <trkpt lat="34.26800" lon="-116.76164"><ele>2049.0</ele></trkpt>
    <trkpt lat="34.26794" lon="-116.76156"><ele>2049.0</ele></trkpt>
    <trkpt lat="34.26785" lon="-116.76148"><ele>2049.0</ele></trkpt>
    <trkpt lat="34.26775" lon="-116.76140"><ele>2049.0</ele></trkpt>
    <trkpt lat="34.26754" lon="-116.76129"><ele>2049.0</ele></trkpt>
    <trkpt lat="34.26733" lon="-116.76118"><ele>2049.0</ele></trkpt>
    <trkpt lat="34.26720" lon="-116.76111"><ele>2049.0</ele></trkpt>
    <trkpt lat="34.26711" lon="-116.76105"><ele>2049.0</ele></trkpt>
    <trkpt lat="34.26702" lon="-116.76096"><ele>2049.0</ele></trkpt>
    <trkpt lat="34.26692" lon="-116.76084"><ele>2049.0</ele></trkpt>
    <trkpt lat="34.26682" lon="-116.76072"><ele>2049.0</ele></trkpt>
    <trkpt lat="34.26675" lon="-116.76058"><ele>2049.0</ele></trkpt>
    <trkpt lat="34.26668" lon="-116.76041"><ele>2042.0</ele></trkpt>
    <trkpt lat="34.26666" lon="-116.76038"><ele>2042.0</ele></trkpt>
    <trkpt lat="34.26662" lon="-116.76028"><ele>2042.0</ele></trkpt>
    <trkpt lat="34.26654" lon="-116.76016"><ele>2042.0</ele></trkpt>
    <trkpt lat="34.26654" lon="-116.76015"><ele>2042.0</ele></trkpt>
    <trkpt lat="34.26646" lon="-116.76004"><ele>2042.0</ele></trkpt>
    <trkpt lat="34.26628" lon="-116.75981"><ele>2042.0</ele></trkpt>
    <trkpt lat="34.26614" lon="-116.75962"><ele>2042.0</ele></trkpt>
    <trkpt lat="34.26596" lon="-116.75941"><ele>2042.0</ele></trkpt>
    <trkpt lat="34.26593" lon="-116.75938"><ele>2042.0</ele></trkpt>
    <trkpt lat="34.26583" lon="-116.75927"><ele>2042.0</ele></trkpt>
    <trkpt lat="34.26583" lon="-116.75927"><ele>2042.0</ele></trkpt>
    <trkpt lat="34.26576" lon="-116.75917"><ele>2042.0</ele></trkpt>
    <trkpt lat="34.26573" lon="-116.75911"><ele>2042.0</ele></trkpt>
    <trkpt lat="34.26571" lon="-116.75907"><ele>2042.0</ele></trkpt>
    <trkpt lat="34.26567" lon="-116.75897"><ele>2040.0</ele></trkpt>
    <trkpt lat="34.26564" lon="-116.75885"><ele>2040.0</ele></trkpt>
    <trkpt lat="34.26562" lon="-116.75872"><ele>2040.0</ele></trkpt>
    <trkpt lat="34.26561" lon="-116.75856"><ele>2040.0</ele></trkpt>
    <trkpt lat="34.26563" lon="-116.75826"><ele>2040.0</ele></trkpt>
    <trkpt lat="34.26564" lon="-116.75799"><ele>2040.0</ele></trkpt>
    <trkpt lat="34.26563" lon="-116.75778"><ele>2040.0</ele></trkpt>
    <trkpt lat="34.26562" lon="-116.75761"><ele>2040.0</ele></trkpt>
    <trkpt lat="34.26558" lon="-116.75746"><ele>2040.0</ele></trkpt>
    <trkpt lat="34.26554" lon="-116.75734"><ele>2040.0</ele></trkpt>
    <trkpt lat="34.26546" lon="-116.75719"><ele>2040.0</ele></trkpt>
    <trkpt lat="34.26535" lon="-116.75702"><ele>2040.0</ele></trkpt>
    <trkpt lat="34.26522" lon="-116.75684"><ele>2040.0</ele></trkpt>
    <trkpt lat="34.26504" lon="-116.75662"><ele>2040.0</ele></trkpt>
    <trkpt lat="34.26488" lon="-116.75644"><ele>2021.0</ele></trkpt>
    <trkpt lat="34.26473" lon="-116.75629"><ele>2021.0</ele></trkpt>
    <trkpt lat="34.26463" lon="-116.75618"><ele>2021.0</ele></trkpt>
    <trkpt lat="34.26447" lon="-116.75606"><ele>2021.0</ele></trkpt>
    <trkpt lat="34.26431" lon="-116.75595"><ele>2021.0</ele></trkpt>
    <trkpt lat="34.26431" lon="-116.75595"><ele>2021.0</ele></trkpt>
    <trkpt lat="34.26416" lon="-116.75583"><ele>2021.0</ele></trkpt>
    <trkpt lat="34.26387" lon="-116.75560"><ele>2021.0</ele></trkpt>
    <trkpt lat="34.26359" lon="-116.75539"><ele>2021.0</ele></trkpt>
    <trkpt lat="34.26348" lon="-116.75530"><ele>2021.0</ele></trkpt>
    <trkpt lat="34.26337" lon="-116.75520"><ele>2021.0</ele></trkpt>
    <trkpt lat="34.26331" lon="-116.75512"><ele>2021.0</ele></trkpt>
    <trkpt lat="34.26326" lon="-116.75503"><ele>2021.0</ele></trkpt>
    <trkpt lat="34.26318" lon="-116.75486"><ele>2021.0</ele></trkpt>
    <trkpt lat="34.26314" lon="-116.75477"><ele>2021.0</ele></trkpt>
    <trkpt lat="34.26311" lon="-116.75471"><ele>2005.0</ele></trkpt>
    <trkpt lat="34.26305" lon="-116.75464"><ele>2005.0</ele></trkpt>
    <trkpt lat="34.26299" lon="-116.75458"><ele>2005.0</ele></trkpt>
    <trkpt lat="34.26290" lon="-116.75450"><ele>2005.0</ele></trkpt>
    <trkpt lat="34.26275" lon="-116.75439"><ele>2005.0</ele></trkpt>
    <trkpt lat="34.26257" lon="-116.75424"><ele>2005.0</ele></trkpt>
    <trkpt lat="34.26242" lon="-116.75411"><ele>2005.0</ele></trkpt>
    <trkpt lat="34.26234" lon="-116.75404"><ele>2005.0</ele></trkpt>
    <trkpt lat="34.26229" lon="-116.75396"><ele>2005.0</ele></trkpt>
    <trkpt lat="34.26224" lon="-116.75390"><ele>2005.0</ele></trkpt>
    <trkpt lat="34.26217" lon="-116.75383"><ele>2005.0</ele></trkpt>
    <trkpt lat="34.26206" lon="-116.75374"><ele>2005.0</ele></trkpt>
    <trkpt lat="34.26196" lon="-116.75365"><ele>2005.0</ele></trkpt>
    <trkpt lat="34.26187" lon="-116.75359"><ele>2005.0</ele></trkpt>
    <trkpt lat="34.26178" lon="-116.75354"><ele>1998.0</ele></trkpt>
    <trkpt lat="34.26172" lon="-116.75348"><ele>1998.0</ele></trkpt>
    <trkpt lat="34.26167" lon="-116.75342"><ele>1998.0</ele></trkpt>
    <trkpt lat="34.26164" lon="-116.75335"><ele>1998.0</ele></trkpt>
    <trkpt lat="34.26160" lon="-116.75323"><ele>1998.0</ele></trkpt>
    <trkpt lat="34.26156" lon="-116.75312"><ele>1998.0</ele></trkpt>
    <trkpt lat="34.26138" lon="-116.75286"><ele>1998.0</ele></trkpt>
    <trkpt lat="34.26125" lon="-116.75267"><ele>1998.0</ele></trkpt>
    <trkpt lat="34.26118" lon="-116.75259"><ele>1998.0</ele></trkpt>
    <trkpt lat="34.26111" lon="-116.75253"><ele>1998.0</ele></trkpt>
    <trkpt lat="34.26103" lon="-116.75249"><ele>1998.0</ele></trkpt>
    <trkpt lat="34.26087" lon="-116.75243"><ele>1998.0</ele></trkpt>
    <trkpt lat="34.26077" lon="-116.75241"><ele>1998.0</ele></trkpt>
    <trkpt lat="34.26067" lon="-116.75233"><ele>1998.0</ele></trkpt>
    <trkpt lat="34.26057" lon="-116.75223"><ele>1998.0</ele></trkpt>
    <trkpt lat="34.26049" lon="-116.75210"><ele>1999.0</ele></trkpt>
    <trkpt lat="34.26042" lon="-116.75194"><ele>1999.0</ele></trkpt>
    <trkpt lat="34.26039" lon="-116.75178"><ele>1999.0</ele></trkpt>
    <trkpt lat="34.26038" lon="-116.75160"><ele>1999.0</ele></trkpt>
    <trkpt lat="34.26039" lon="-116.75149"><ele>1999.0</ele></trkpt>
    <trkpt lat="34.26041" lon="-116.75142"><ele>1999.0</ele></trkpt>
    <trkpt lat="34.26042" lon="-116.75135"><ele>1999.0</ele></trkpt>
    <trkpt lat="34.26045" lon="-116.75119"><ele>1999.0</ele></trkpt>
    <trkpt lat="34.26045" lon="-116.75108"><ele>1999.0</ele></trkpt>
    <trkpt lat="34.26043" lon="-116.75097"><ele>1999.0</ele></trkpt>
    <trkpt lat="34.26035" lon="-116.75079"><ele>1999.0</ele></trkpt>
    <trkpt lat="34.26027" lon="-116.75061"><ele>1999.0</ele></trkpt>
    <trkpt lat="34.26022" lon="-116.75046"><ele>1999.0</ele></trkpt>
    <trkpt lat="34.26017" lon="-116.75029"><ele>1999.0</ele></trkpt>
    <trkpt lat="34.26014" lon="-116.75009"><ele>1989.0</ele></trkpt>
    <trkpt lat="34.26010" lon="-116.74997"><ele>1989.0</ele></trkpt>
    <trkpt lat="34.26008" lon="-116.74991"><ele>1989.0</ele></trkpt>
    <trkpt lat="34.26004" lon="-116.74987"><ele>1989.0</ele></trkpt>
    <trkpt lat="34.25998" lon="-116.74984"><ele>1989.0</ele></trkpt>
    <trkpt lat="34.25989" lon="-116.74983"><ele>1989.0</ele></trkpt>
    <trkpt lat="34.25979" lon="-116.74986"><ele>1989.0</ele></trkpt>
    <trkpt lat="34.25968" lon="-116.74991"><ele>1989.0</ele></trkpt>
    <trkpt lat="34.25957" lon="-116.74995"><ele>1989.0</ele></trkpt>
    <trkpt lat="34.25940" lon="-116.74996"><ele>1989.0</ele></trkpt>
    <trkpt lat="34.25920" lon="-116.74998"><ele>1989.0</ele></trkpt>
    <trkpt lat="34.25912" lon="-116.75001"><ele>1989.0</ele></trkpt>
    <trkpt lat="34.25905" lon="-116.75004"><ele>1989.0</ele></trkpt>
    <trkpt lat="34.25900" lon="-116.75008"><ele>1989.0</ele></trkpt>
    <trkpt lat="34.25895" lon="-116.75013"><ele>1987.0</ele></trkpt>
    <trkpt lat="34.25890" lon="-116.75021"><ele>1987.0</ele></trkpt>
    <trkpt lat="34.25886" lon="-116.75031"><ele>1987.0</ele></trkpt>
    <trkpt lat="34.25881" lon="-116.75035"><ele>1987.0</ele></trkpt>
    <trkpt lat="34.25872" lon="-116.75039"><ele>1987.0</ele></trkpt>
    <trkpt lat="34.25864" lon="-116.75040"><ele>1987.0</ele></trkpt>
    <trkpt lat="34.25856" lon="-116.75038"><ele>1987.0</ele></trkpt>
    <trkpt lat="34.25850" lon="-116.75034"><ele>1987.0</ele></trkpt>
    <trkpt lat="34.25843" lon="-116.75028"><ele>1987.0</ele></trkpt>
    <trkpt lat="34.25835" lon="-116.75020"><ele>1987.0</ele></trkpt>
    <trkpt lat="34.25827" lon="-116.75010"><ele>1987.0</ele></trkpt>
    <trkpt lat="34.25820" lon="-116.74998"><ele>1987.0</ele></trkpt>
    <trkpt lat="34.25816" lon="-116.74989"><ele>1987.0</ele></trkpt>
    <trkpt lat="34.25802" lon="-116.74969"><ele>1987.0</ele></trkpt>
    <trkpt lat="34.25783" lon="-116.74940"><ele>1987.0</ele></trkpt>
    <trkpt lat="34.25767" lon="-116.74914"><ele>1991.0</ele></trkpt>
    <trkpt lat="34.25756" lon="-116.74898"><ele>1991.0</ele></trkpt>
    <trkpt lat="34.25746" lon="-116.74885"><ele>1991.0</ele></trkpt>
    <trkpt lat="34.25738" lon="-116.74876"><ele>1991.0</ele></trkpt>
    <trkpt lat="34.25729" lon="-116.74869"><ele>1991.0</ele></trkpt>
    <trkpt lat="34.25716" lon="-116.74863"><ele>1991.0</ele></trkpt>
    <trkpt lat="34.25689" lon="-116.74853"><ele>1991.0</ele></trkpt>
    <trkpt lat="34.25663" lon="-116.74843"><ele>1991.0</ele></trkpt>
    <trkpt lat="34.25639" lon="-116.74836"><ele>1991.0</ele></trkpt>
    <trkpt lat="34.25613" lon="-116.74830"><ele>1991.0</ele></trkpt>
    <trkpt lat="34.25596" lon="-116.74826"><ele>1991.0</ele></trkpt>
    <trkpt lat="34.25580" lon="-116.74825"><ele>1991.0</ele></trkpt>
    <trkpt lat="34.25556" lon="-116.74825"><ele>1991.0</ele></trkpt>
    <trkpt lat="34.25536" lon="-116.74826"><ele>1991.0</ele></trkpt>
    <trkpt lat="34.25515" lon="-116.74829"><ele>1990.0</ele></trkpt>
    <trkpt lat="34.25499" lon="-116.74831"><ele>1990.0</ele></trkpt>
    <trkpt lat="34.25488" lon="-116.74831"><ele>1990.0</ele></trkpt>
    <trkpt lat="34.25480" lon="-116.74828"><ele>1990.0</ele></trkpt>
    <trkpt lat="34.25473" lon="-116.74823"><ele>1990.0</ele></trkpt>
    <trkpt lat="34.25467" lon="-116.74817"><ele>1990.0</ele></trkpt>
    <trkpt lat="34.25462" lon="-116.74809"><ele>1990.0</ele></trkpt>
    <trkpt lat="34.25458" lon="-116.74794"><ele>1990.0</ele></trkpt>
    <trkpt lat="34.25457" lon="-116.74778"><ele>1990.0</ele></trkpt>
    <trkpt lat="34.25458" lon="-116.74754"><ele>1990.0</ele></trkpt>
    <trkpt lat="34.25463" lon="-116.74726"><ele>1990.0</ele></trkpt>
    <trkpt lat="34.25469" lon="-116.74700"><ele>1990.0</ele></trkpt>
    <trkpt lat="34.25476" lon="-116.74679"><ele>1990.0</ele></trkpt>
    <trkpt lat="34.25482" lon="-116.74670"><ele>1990.0</ele></trkpt>
    <trkpt lat="34.25489" lon="-116.74663"><ele>1990.0</ele></trkpt>
    <trkpt lat="34.25497" lon="-116.74660"><ele>1978.0</ele></trkpt>
    <trkpt lat="34.25505" lon="-116.74657"><ele>1978.0</ele></trkpt>
    <trkpt lat="34.25510" lon="-116.74653"><ele>1978.0</ele></trkpt>
    <trkpt lat="34.25514" lon="-116.74650"><ele>1978.0</ele></trkpt>
    <trkpt lat="34.25515" lon="-116.74643"><ele>1978.0</ele></trkpt>
    <trkpt lat="34.25515" lon="-116.74636"><ele>1978.0</ele></trkpt>
    <trkpt lat="34.25514" lon="-116.74632"><ele>1978.0</ele></trkpt>
    <trkpt lat="34.25510" lon="-116.74625"><ele>1978.0</ele></trkpt>
    <trkpt lat="34.25510" lon="-116.74618"><ele>1978.0</ele></trkpt>
    <trkpt lat="34.25512" lon="-116.74606"><ele>1978.0</ele></trkpt>
    <trkpt lat="34.25512" lon="-116.74599"><ele>1978.0</ele></trkpt>
    <trkpt lat="34.25513" lon="-116.74591"><ele>1978.0</ele></trkpt>
    <trkpt lat="34.25513" lon="-116.74584"><ele>1978.0</ele></trkpt>
    <trkpt lat="34.25513" lon="-116.74571"><ele>1978.0</ele></trkpt>
    <trkpt lat="34.25515" lon="-116.74554"><ele>1965.0</ele></trkpt>
    <trkpt lat="34.25519" lon="-116.74534"><ele>1965.0</ele></trkpt>
    <trkpt lat="34.25522" lon="-116.74518"><ele>1965.0</ele></trkpt>
    <trkpt lat="34.25522" lon="-116.74508"><ele>1965.0</ele></trkpt>
    <trkpt lat="34.25523" lon="-116.74498"><ele>1965.0</ele></trkpt>
    <trkpt lat="34.25525" lon="-116.74486"><ele>1965.0</ele></trkpt>
    <trkpt lat="34.25528" lon="-116.74475"><ele>1965.0</ele></trkpt>
    <trkpt lat="34.25531" lon="-116.74466"><ele>1965.0</ele></trkpt>
    <trkpt lat="34.25535" lon="-116.74462"><ele>1965.0</ele></trkpt>
    <trkpt lat="34.25540" lon="-116.74456"><ele>1965.0</ele></trkpt>
    <trkpt lat="34.25546" lon="-116.74451"><ele>1965.0</ele></trkpt>
    <trkpt lat="34.25550" lon="-116.74446"><ele>1965.0</ele></trkpt>
    <trkpt lat="34.25553" lon="-116.74441"><ele>1965.0</ele></trkpt>
    <trkpt lat="34.25552" lon="-116.74436"><ele>1965.0</ele></trkpt>
    <trkpt lat="34.25551" lon="-116.74432"><ele>1965.0</ele></trkpt>
    <trkpt lat="34.25548" lon="-116.74430"><ele>1968.0</ele></trkpt>
    <trkpt lat="34.25542" lon="-116.74427"><ele>1968.0</ele></trkpt>
    <trkpt lat="34.25537" lon="-116.74424"><ele>1968.0</ele></trkpt>
    <trkpt lat="34.25534" lon="-116.74420"><ele>1968.0</ele></trkpt>
    <trkpt lat="34.25532" lon="-116.74415"><ele>1968.0</ele></trkpt>
    <trkpt lat="34.25532" lon="-116.74408"><ele>1968.0</ele></trkpt>
    <trkpt lat="34.25532" lon="-116.74403"><ele>1968.0</ele></trkpt>
    <trkpt lat="34.25531" lon="-116.74400"><ele>1968.0</ele></trkpt>
    <trkpt lat="34.25529" lon="-116.74395"><ele>1968.0</ele></trkpt>
    <trkpt lat="34.25527" lon="-116.74390"><ele>1968.0</ele></trkpt>
    <trkpt lat="34.25526" lon="-116.74382"><ele>1968.0</ele></trkpt>
    <trkpt lat="34.25526" lon="-116.74377"><ele>1968.0</ele></trkpt>
    <trkpt lat="34.25528" lon="-116.74373"><ele>1968.0</ele></trkpt>
    <trkpt lat="34.25532" lon="-116.74371"><ele>1968.0</ele></trkpt>
    <trkpt lat="34.25535" lon="-116.74372"><ele>1972.0</ele></trkpt>
    <trkpt lat="34.25539" lon="-116.74375"><ele>1972.0</ele></trkpt>
    <trkpt lat="34.25545" lon="-116.74381"><ele>1972.0</ele></trkpt>
    <trkpt lat="34.25551" lon="-116.74386"><ele>1972.0</ele></trkpt>
    <trkpt lat="34.25556" lon="-116.74387"><ele>1972.0</ele></trkpt>
    <trkpt lat="34.25564" lon="-116.74388"><ele>1972.0</ele></trkpt>
    <trkpt lat="34.25572" lon="-116.74386"><ele>1972.0</ele></trkpt>
    <trkpt lat="34.25582" lon="-116.74384"><ele>1972.0</ele></trkpt>
    <trkpt lat="34.25592" lon="-116.74381"><ele>1972.0</ele></trkpt>
    <trkpt lat="34.25601" lon="-116.74377"><ele>1972.0</ele></trkpt>
    <trkpt lat="34.25608" lon="-116.74375"><ele>1972.0</ele></trkpt>
    <trkpt lat="34.25616" lon="-116.74375"><ele>1972.0</ele></trkpt>
    <trkpt lat="34.25623" lon="-116.74376"><ele>1972.0</ele></trkpt>
    <trkpt lat="34.25629" lon="-116.74377"><ele>1972.0</ele></trkpt>
    <trkpt lat="34.25643" lon="-116.74378"><ele>1972.0</ele></trkpt>
    <trkpt lat="34.25657" lon="-116.74378"><ele>1986.0</ele></trkpt>
    <trkpt lat="34.25670" lon="-116.74377"><ele>1986.0</ele></trkpt>
    <trkpt lat="34.25679" lon="-116.74375"><ele>1986.0</ele></trkpt>
    <trkpt lat="34.25686" lon="-116.74370"><ele>1986.0</ele></trkpt>
    <trkpt lat="34.25691" lon="-116.74366"><ele>1986.0</ele></trkpt>
    <trkpt lat="34.25693" lon="-116.74359"><ele>1986.0</ele></trkpt>
    <trkpt lat="34.25694" lon="-116.74352"><ele>1986.0</ele></trkpt>
    <trkpt lat="34.25693" lon="-116.74346"><ele>1986.0</ele></trkpt>
    <trkpt lat="34.25690" lon="-116.74340"><ele>1986.0</ele></trkpt>
    <trkpt lat="34.25685" lon="-116.74335"><ele>1986.0</ele></trkpt>
    <trkpt lat="34.25678" lon="-116.74332"><ele>1986.0</ele></trkpt>
    <trkpt lat="34.25670" lon="-116.74330"><ele>1986.0</ele></trkpt>
    <trkpt lat="34.25661" lon="-116.74326"><ele>1986.0</ele></trkpt>
    <trkpt lat="34.25655" lon="-116.74321"><ele>1986.0</ele></trkpt>
    <trkpt lat="34.25647" lon="-116.74314"><ele>2002.0</ele></trkpt>
    <trkpt lat="34.25637" lon="-116.74303"><ele>2002.0</ele></trkpt>
    <trkpt lat="34.25619" lon="-116.74279"><ele>2002.0</ele></trkpt>
    <trkpt lat="34.25606" lon="-116.74262"><ele>2002.0</ele></trkpt>
    <trkpt lat="34.25598" lon="-116.74251"><ele>2002.0</ele></trkpt>
    <trkpt lat="34.25589" lon="-116.74236"><ele>2002.0</ele></trkpt>
    <trkpt lat="34.25583" lon="-116.74223"><ele>2002.0</ele></trkpt>
    <trkpt lat="34.25577" lon="-116.74209"><ele>2002.0</ele></trkpt>
    <trkpt lat="34.25571" lon="-116.74196"><ele>2002.0</ele></trkpt>
    <trkpt lat="34.25567" lon="-116.74184"><ele>2002.0</ele></trkpt>
    <trkpt lat="34.25564" lon="-116.74172"><ele>2002.0</ele></trkpt>
    <trkpt lat="34.25564" lon="-116.74171"><ele>2002.0</ele></trkpt>
    <trkpt lat="34.25563" lon="-116.74163"><ele>2002.0</ele></trkpt>
    <trkpt lat="34.25560" lon="-116.74149"><ele>2002.0</ele></trkpt>
    <trkpt lat="34.25558" lon="-116.74142"><ele>2022.0</ele></trkpt>
    <trkpt lat="34.25553" lon="-116.74130"><ele>2022.0</ele></trkpt>
    <trkpt lat="34.25544" lon="-116.74112"><ele>2022.0</ele></trkpt>
    <trkpt lat="34.25524" lon="-116.74076"><ele>2022.0</ele></trkpt>
    <trkpt lat="34.25507" lon="-116.74044"><ele>2022.0</ele></trkpt>
    <trkpt lat="34.25492" lon="-116.74016"><ele>2022.0</ele></trkpt>
    <trkpt lat="34.25480" lon="-116.73993"><ele>2022.0</ele></trkpt>
    <trkpt lat="34.25476" lon="-116.73982"><ele>2022.0</ele></trkpt>
    <trkpt lat="34.25472" lon="-116.73972"><ele>2022.0</ele></trkpt>
    <trkpt lat="34.25470" lon="-116.73960"><ele>2022.0</ele></trkpt>
    <trkpt lat="34.25468" lon="-116.73939"><ele>2022.0</ele></trkpt>
    <trkpt lat="34.25466" lon="-116.73919"><ele>2022.0</ele></trkpt>
    <trkpt lat="34.25466" lon="-116.73908"><ele>2022.0</ele></trkpt>
    <trkpt lat="34.25466" lon="-116.73891"><ele>2022.0</ele></trkpt>
    <trkpt lat="34.25466" lon="-116.73875"><ele>2022.0</ele></trkpt>
    <trkpt lat="34.25464" lon="-116.73865"><ele>2027.0</ele></trkpt>
    <trkpt lat="34.25463" lon="-116.73858"><ele>2027.0</ele></trkpt>
    <trkpt lat="34.25463" lon="-116.73851"><ele>2027.0</ele></trkpt>
    <trkpt lat="34.25464" lon="-116.73843"><ele>2027.0</ele></trkpt>
    <trkpt lat="34.25467" lon="-116.73837"><ele>2027.0</ele></trkpt>
    <trkpt lat="34.25471" lon="-116.73835"><ele>2027.0</ele></trkpt>
    <trkpt lat="34.25478" lon="-116.73834"><ele>2027.0</ele></trkpt>
    <trkpt lat="34.25486" lon="-116.73836"><ele>2027.0</ele></trkpt>
    <trkpt lat="34.25494" lon="-116.73837"><ele>2027.0</ele></trkpt>
    <trkpt lat="34.25499" lon="-116.73836"><ele>2027.0</ele></trkpt>
    <trkpt lat="34.25504" lon="-116.73832"><ele>2027.0</ele></trkpt>
    <trkpt lat="34.25507" lon="-116.73827"><ele>2027.0</ele></trkpt>
    <trkpt lat="34.25510" lon="-116.73820"><ele>2027.0</ele></trkpt>
    <trkpt lat="34.25511" lon="-116.73810"><ele>2027.0</ele></trkpt>
    <trkpt lat="34.25510" lon="-116.73799"><ele>2031.0</ele></trkpt>
    <trkpt lat="34.25506" lon="-116.73784"><ele>2031.0</ele></trkpt>
    <trkpt lat="34.25504" lon="-116.73776"><ele>2031.0</ele></trkpt>
    <trkpt lat="34.25503" lon="-116.73768"><ele>2031.0</ele></trkpt>
    <trkpt lat="34.25503" lon="-116.73761"><ele>2031.0</ele></trkpt>
    <trkpt lat="34.25505" lon="-116.73753"><ele>2031.0</ele></trkpt>
    <trkpt lat="34.25511" lon="-116.73733"><ele>2031.0</ele></trkpt>
    <trkpt lat="34.25516" lon="-116.73716"><ele>2031.0</ele></trkpt>
    <trkpt lat="34.25518" lon="-116.73707"><ele>2031.0</ele></trkpt>
    <trkpt lat="34.25517" lon="-116.73700"><ele>2031.0</ele></trkpt>
    <trkpt lat="34.25516" lon="-116.73687"><ele>2031.0</ele></trkpt>
    <trkpt lat="34.25514" lon="-116.73678"><ele>2031.0</ele></trkpt>
    <trkpt lat="34.25513" lon="-116.73669"><ele>2031.0</ele></trkpt>
    <trkpt lat="34.25512" lon="-116.73662"><ele>2031.0</ele></trkpt>
    <trkpt lat="34.25513" lon="-116.73658"><ele>2031.0</ele></trkpt>
    <trkpt lat="34.25515" lon="-116.73651"><ele>2045.0</ele></trkpt>
    <trkpt lat="34.25521" lon="-116.73637"><ele>2045.0</ele></trkpt>
    <trkpt lat="34.25526" lon="-116.73623"><ele>2045.0</ele></trkpt>
    <trkpt lat="34.25530" lon="-116.73613"><ele>2045.0</ele></trkpt>
    <trkpt lat="34.25532" lon="-116.73604"><ele>2045.0</ele></trkpt>
    <trkpt lat="34.25535" lon="-116.73591"><ele>2045.0</ele></trkpt>
    <trkpt lat="34.25537" lon="-116.73576"><ele>2045.0</ele></trkpt>
    <trkpt lat="34.25539" lon="-116.73569"><ele>2045.0</ele></trkpt>
    <trkpt lat="34.25541" lon="-116.73563"><ele>2045.0</ele></trkpt>
    <trkpt lat="34.25548" lon="-116.73554"><ele>2045.0</ele></trkpt>
    <trkpt lat="34.25555" lon="-116.73544"><ele>2045.0</ele></trkpt>
    <trkpt lat="34.25562" lon="-116.73535"><ele>2045.0</ele></trkpt>
    <trkpt lat="34.25570" lon="-116.73529"><ele>2045.0</ele></trkpt>
    <trkpt lat="34.25574" lon="-116.73525"><ele>2045.0</ele></trkpt>
    <trkpt lat="34.25580" lon="-116.73519"><ele>2043.0</ele></trkpt>
    <trkpt lat="34.25583" lon="-116.73514"><ele>2043.0</ele></trkpt>
    <trkpt lat="34.25588" lon="-116.73505"><ele>2043.0</ele></trkpt>
    <trkpt lat="34.25593" lon="-116.73494"><ele>2043.0</ele></trkpt>
    <trkpt lat="34.25597" lon="-116.73486"><ele>2043.0</ele></trkpt>
    <trkpt lat="34.25603" lon="-116.73476"><ele>2043.0</ele></trkpt>
    <trkpt lat="34.25609" lon="-116.73466"><ele>2043.0</ele></trkpt>
    <trkpt lat="34.25615" lon="-116.73455"><ele>2043.0</ele></trkpt>
    <trkpt lat="34.25620" lon="-116.73439"><ele>2043.0</ele></trkpt>
    <trkpt lat="34.25621" lon="-116.73429"><ele>2043.0</ele></trkpt>
    <trkpt lat="34.25622" lon="-116.73419"><ele>2043.0</ele></trkpt>
    <trkpt lat="34.25622" lon="-116.73416"><ele>2043.0</ele></trkpt>
    <trkpt lat="34.25622" lon="-116.73411"><ele>2043.0</ele></trkpt>
    <trkpt lat="34.25622" lon="-116.73401"><ele>2043.0</ele></trkpt>
    <trkpt lat="34.25624" lon="-116.73393"><ele>2043.0</ele></trkpt>
    <trkpt lat="34.25625" lon="-116.73393"><ele>2047.0</ele></trkpt>
    <trkpt lat="34.25627" lon="-116.73387"><ele>2047.0</ele></trkpt>
    <trkpt lat="34.25632" lon="-116.73380"><ele>2047.0</ele></trkpt>
    <trkpt lat="34.25634" lon="-116.73373"><ele>2047.0</ele></trkpt>
    <trkpt lat="34.25635" lon="-116.73369"><ele>2047.0</ele></trkpt>
    <trkpt lat="34.25636" lon="-116.73360"><ele>2047.0</ele></trkpt>
    <trkpt lat="34.25636" lon="-116.73342"><ele>2047.0</ele></trkpt>
    <trkpt lat="34.25635" lon="-116.73328"><ele>2047.0</ele></trkpt>
    <trkpt lat="34.25633" lon="-116.73320"><ele>2047.0</ele></trkpt>
    <trkpt lat="34.25629" lon="-116.73312"><ele>2047.0</ele></trkpt>
    <trkpt lat="34.25620" lon="-116.73293"><ele>2047.0</ele></trkpt>
    <trkpt lat="34.25608" lon="-116.73270"><ele>2047.0</ele></trkpt>
    <trkpt lat="34.25603" lon="-116.73260"><ele>2047.0</ele></trkpt>
    <trkpt lat="34.25602" lon="-116.73254"><ele>2047.0</ele></trkpt>
    <trkpt lat="34.25602" lon="-116.73245"><ele>2056.0</ele></trkpt>
    <trkpt lat="34.25602" lon="-116.73244"><ele>2056.0</ele></trkpt>
    <trkpt lat="34.25605" lon="-116.73233"><ele>2056.0</ele></trkpt>
    <trkpt lat="34.25608" lon="-116.73221"><ele>2056.0</ele></trkpt>
    <trkpt lat="34.25610" lon="-116.73208"><ele>2056.0</ele></trkpt>
    <trkpt lat="34.25610" lon="-116.73202"><ele>2056.0</ele></trkpt>
    <trkpt lat="34.25609" lon="-116.73197"><ele>2056.0</ele></trkpt>
    <trkpt lat="34.25609" lon="-116.73195"><ele>2056.0</ele></trkpt>
    <trkpt lat="34.25606" lon="-116.73183"><ele>2056.0</ele></trkpt>
    <trkpt lat="34.25605" lon="-116.73174"><ele>2056.0</ele></trkpt>
    <trkpt lat="34.25602" lon="-116.73163"><ele>2056.0</ele></trkpt>
    <trkpt lat="34.25597" lon="-116.73152"><ele>2056.0</ele></trkpt>
    <trkpt lat="34.25592" lon="-116.73142"><ele>2056.0</ele></trkpt>
    <trkpt lat="34.25586" lon="-116.73134"><ele>2056.0</ele></trkpt>
    <trkpt lat="34.25578" lon="-116.73126"><ele>2060.0</ele></trkpt>
    <trkpt lat="34.25569" lon="-116.73120"><ele>2060.0</ele></trkpt>
    <trkpt lat="34.25562" lon="-116.73114"><ele>2060.0</ele></trkpt>
    <trkpt lat="34.25552" lon="-116.73108"><ele>2060.0</ele></trkpt>
    <trkpt lat="34.25543" lon="-116.73103"><ele>2060.0</ele></trkpt>
    <trkpt lat="34.25533" lon="-116.73096"><ele>2060.0</ele></trkpt>
    <trkpt lat="34.25522" lon="-116.73088"><ele>2060.0</ele></trkpt>
    <trkpt lat="34.25512" lon="-116.73080"><ele>2060.0</ele></trkpt>
    <trkpt lat="34.25504" lon="-116.73072"><ele>2060.0</ele></trkpt>
    <trkpt lat="34.25497" lon="-116.73063"><ele>2060.0</ele></trkpt>
    <trkpt lat="34.25486" lon="-116.73049"><ele>2060.0</ele></trkpt>
    <trkpt lat="34.25479" lon="-116.73039"><ele>2060.0</ele></trkpt>
    <trkpt lat="34.25473" lon="-116.73030"><ele>2060.0</ele></trkpt>
    <trkpt lat="34.25468" lon="-116.73019"><ele>2060.0</ele></trkpt>
    <trkpt lat="34.25464" lon="-116.73012"><ele>2060.0</ele></trkpt>
    <trkpt lat="34.25461" lon="-116.73007"><ele>2062.0</ele></trkpt>
    <trkpt lat="34.25456" lon="-116.73003"><ele>2062.0</ele></trkpt>
    <trkpt lat="34.25451" lon="-116.73000"><ele>2062.0</ele></trkpt>
    <trkpt lat="34.25440" lon="-116.72993"><ele>2062.0</ele></trkpt>
    <trkpt lat="34.25430" lon="-116.72984"><ele>2062.0</ele></trkpt>
    <trkpt lat="34.25419" lon="-116.72972"><ele>2062.0</ele></trkpt>
    <trkpt lat="34.25411" lon="-116.72963"><ele>2062.0</ele></trkpt>
    <trkpt lat="34.25385" lon="-116.72933"><ele>2062.0</ele></trkpt>
    <trkpt lat="34.25373" lon="-116.72918"><ele>2062.0</ele></trkpt>
    <trkpt lat="34.25366" lon="-116.72910"><ele>2062.0</ele></trkpt>
    <trkpt lat="34.25356" lon="-116.72903"><ele>2062.0</ele></trkpt>
    <trkpt lat="34.25350" lon="-116.72896"><ele>2062.0</ele></trkpt>
    <trkpt lat="34.25345" lon="-116.72888"><ele>2062.0</ele></trkpt>
    <trkpt lat="34.25341" lon="-116.72881"><ele>2062.0</ele></trkpt>
    <trkpt lat="34.25336" lon="-116.72870"><ele>2065.0</ele></trkpt>
    <trkpt lat="34.25332" lon="-116.72860"><ele>2065.0</ele></trkpt>
    <trkpt lat="34.25326" lon="-116.72852"><ele>2065.0</ele></trkpt>
    <trkpt lat="34.25320" lon="-116.72845"><ele>2065.0</ele></trkpt>
    <trkpt lat="34.25314" lon="-116.72838"><ele>2065.0</ele></trkpt>
    <trkpt lat="34.25309" lon="-116.72835"><ele>2065.0</ele></trkpt>
    <trkpt lat="34.25303" lon="-116.72832"><ele>2065.0</ele></trkpt>
    <trkpt lat="34.25292" lon="-116.72831"><ele>2065.0</ele></trkpt>
    <trkpt lat="34.25283" lon="-116.72829"><ele>2065.0</ele></trkpt>
    <trkpt lat="34.25274" lon="-116.72825"><ele>2065.0</ele></trkpt>
    <trkpt lat="34.25267" lon="-116.72821"><ele>2065.0</ele></trkpt>
    <trkpt lat="34.25254" lon="-116.72819"><ele>2065.0</ele></trkpt>
    <trkpt lat="34.25243" lon="-116.72814"><ele>2065.0</ele></trkpt>
    <trkpt lat="34.25237" lon="-116.72810"><ele>2065.0</ele></trkpt>
    <trkpt lat="34.25233" lon="-116.72804"><ele>2065.0</ele></trkpt>
    <trkpt lat="34.25229" lon="-116.72795"><ele>2075.0</ele></trkpt>
    <trkpt lat="34.25225" lon="-116.72781"><ele>2075.0</ele></trkpt>
    <trkpt lat="34.25220" lon="-116.72768"><ele>2075.0</ele></trkpt>
    <trkpt lat="34.25215" lon="-116.72756"><ele>2075.0</ele></trkpt>
    <trkpt lat="34.25207" lon="-116.72739"><ele>2075.0</ele></trkpt>
    <trkpt lat="34.25195" lon="-116.72716"><ele>2075.0</ele></trkpt>
    <trkpt lat="34.25180" lon="-116.72688"><ele>2075.0</ele></trkpt>
    <trkpt lat="34.25165" lon="-116.72663"><ele>2075.0</ele></trkpt>
    <trkpt lat="34.25158" lon="-116.72647"><ele>2075.0</ele></trkpt>
    <trkpt lat="34.25147" lon="-116.72622"><ele>2075.0</ele></trkpt>
    <trkpt lat="34.25140" lon="-116.72604"><ele>2075.0</ele></trkpt>
    <trkpt lat="34.25137" lon="-116.72595"><ele>2075.0</ele></trkpt>
    <trkpt lat="34.25133" lon="-116.72574"><ele>2075.0</ele></trkpt>
    <trkpt lat="34.25131" lon="-116.72557"><ele>2075.0</ele></trkpt>
    <trkpt lat="34.25128" lon="-116.72546"><ele>2092.0</ele></trkpt>
    <trkpt lat="34.25123" lon="-116.72528"><ele>2092.0</ele></trkpt>
    <trkpt lat="34.25120" lon="-116.72513"><ele>2092.0</ele></trkpt>
    <trkpt lat="34.25119" lon="-116.72492"><ele>2092.0</ele></trkpt>
    <trkpt lat="34.25119" lon="-116.72472"><ele>2092.0</ele></trkpt>
    <trkpt lat="34.25121" lon="-116.72456"><ele>2092.0</ele></trkpt>
    <trkpt lat="34.25123" lon="-116.72443"><ele>2092.0</ele></trkpt>
    <trkpt lat="34.25127" lon="-116.72432"><ele>2092.0</ele></trkpt>
    <trkpt lat="34.25132" lon="-116.72421"><ele>2092.0</ele></trkpt>
    <trkpt lat="34.25139" lon="-116.72412"><ele>2092.0</ele></trkpt>
    <trkpt lat="34.25145" lon="-116.72405"><ele>2092.0</ele></trkpt>
    <trkpt lat="34.25157" lon="-116.72394"><ele>2092.0</ele></trkpt>
    <trkpt lat="34.25179" lon="-116.72379"><ele>2092.0</ele></trkpt>
    <trkpt lat="34.25201" lon="-116.72363"><ele>2092.0</ele></trkpt>
    <trkpt lat="34.25229" lon="-116.72343"><ele>2092.0</ele></trkpt>
    <trkpt lat="34.25266" lon="-116.72318"><ele>2098.0</ele></trkpt>
    <trkpt lat="34.25281" lon="-116.72309"><ele>2098.0</ele></trkpt>
    <trkpt lat="34.25289" lon="-116.72303"><ele>2098.0</ele></trkpt>
    <trkpt lat="34.25300" lon="-116.72294"><ele>2098.0</ele></trkpt>
    <trkpt lat="34.25309" lon="-116.72286"><ele>2098.0</ele></trkpt>
    <trkpt lat="34.25321" lon="-116.72276"><ele>2098.0</ele></trkpt>
    <trkpt lat="34.25335" lon="-116.72265"><ele>2098.0</ele></trkpt>
    <trkpt lat="34.25354" lon="-116.72252"><ele>2098.0</ele></trkpt>
    <trkpt lat="34.25359" lon="-116.72247"><ele>2098.0</ele></trkpt>
    <trkpt lat="34.25364" lon="-116.72237"><ele>2098.0</ele></trkpt>
    <trkpt lat="34.25367" lon="-116.72229"><ele>2098.0</ele></trkpt>
    <trkpt lat="34.25372" lon="-116.72213"><ele>2098.0</ele></trkpt>
    <trkpt lat="34.25375" lon="-116.72206"><ele>2098.0</ele></trkpt>
    <trkpt lat="34.25379" lon="-116.72199"><ele>2098.0</ele></trkpt>
    <trkpt lat="34.25383" lon="-116.72197"><ele>2098.0</ele></trkpt>
    <trkpt lat="34.25389" lon="-116.72197"><ele>2098.0</ele></trkpt>
    <trkpt lat="34.25396" lon="-116.72199"><ele>2098.0</ele></trkpt>
    <trkpt lat="34.25406" lon="-116.72207"><ele>2098.0</ele></trkpt>
    <trkpt lat="34.25417" lon="-116.72219"><ele>2098.0</ele></trkpt>
    <trkpt lat="34.25426" lon="-116.72229"><ele>2098.0</ele></trkpt>
    <trkpt lat="34.25433" lon="-116.72239"><ele>2098.0</ele></trkpt>
    <trkpt lat="34.25437" lon="-116.72250"><ele>2098.0</ele></trkpt>
    <trkpt lat="34.25442" lon="-116.72260"><ele>2098.0</ele></trkpt>
    <trkpt lat="34.25448" lon="-116.72269"><ele>2098.0</ele></trkpt>
    <trkpt lat="34.25455" lon="-116.72276"><ele>2098.0</ele></trkpt>
    <trkpt lat="34.25462" lon="-116.72279"><ele>2098.0</ele></trkpt>
    <trkpt lat="34.25472" lon="-116.72281"><ele>2098.0</ele></trkpt>
    <trkpt lat="34.25487" lon="-116.72282"><ele>2098.0</ele></trkpt>
    <trkpt lat="34.25496" lon="-116.72282"><ele>2098.0</ele></trkpt>
    <trkpt lat="34.25506" lon="-116.72280"><ele>2085.0</ele></trkpt>
    <trkpt lat="34.25512" lon="-116.72277"><ele>2085.0</ele></trkpt>
    <trkpt lat="34.25520" lon="-116.72272"><ele>2085.0</ele></trkpt>
    <trkpt lat="34.25524" lon="-116.72267"><ele>2085.0</ele></trkpt>
    <trkpt lat="34.25531" lon="-116.72257"><ele>2085.0</ele></trkpt>
    <trkpt lat="34.25539" lon="-116.72246"><ele>2085.0</ele></trkpt>
    <trkpt lat="34.25546" lon="-116.72237"><ele>2085.0</ele></trkpt>
    <trkpt lat="34.25555" lon="-116.72229"><ele>2085.0</ele></trkpt>
    <trkpt lat="34.25564" lon="-116.72222"><ele>2085.0</ele></trkpt>
    <trkpt lat="34.25570" lon="-116.72216"><ele>2085.0</ele></trkpt>
    <trkpt lat="34.25575" lon="-116.72208"><ele>2085.0</ele></trkpt>
    <trkpt lat="34.25577" lon="-116.72200"><ele>2085.0</ele></trkpt>
    <trkpt lat="34.25578" lon="-116.72192"><ele>2085.0</ele></trkpt>
    <trkpt lat="34.25578" lon="-116.72178"><ele>2085.0</ele></trkpt>
    <trkpt lat="34.25576" lon="-116.72161"><ele>2089.0</ele></trkpt>
    <trkpt lat="34.25575" lon="-116.72141"><ele>2089.0</ele></trkpt>
    <trkpt lat="34.25575" lon="-116.72110"><ele>2089.0</ele></trkpt>
    <trkpt lat="34.25575" lon="-116.72100"><ele>2089.0</ele></trkpt>
    <trkpt lat="34.25574" lon="-116.72091"><ele>2089.0</ele></trkpt>
    <trkpt lat="34.25571" lon="-116.72083"><ele>2089.0</ele></trkpt>
    <trkpt lat="34.25566" lon="-116.72073"><ele>2089.0</ele></trkpt>
    <trkpt lat="34.25561" lon="-116.72062"><ele>2089.0</ele></trkpt>
    <trkpt lat="34.25558" lon="-116.72055"><ele>2089.0</ele></trkpt>
    <trkpt lat="34.25552" lon="-116.72047"><ele>2089.0</ele></trkpt>
    <trkpt lat="34.25547" lon="-116.72042"><ele>2089.0</ele></trkpt>
    <trkpt lat="34.25544" lon="-116.72037"><ele>2089.0</ele></trkpt>
    <trkpt lat="34.25541" lon="-116.72027"><ele>2089.0</ele></trkpt>
    <trkpt lat="34.25536" lon="-116.72005"><ele>2089.0</ele></trkpt>
    <trkpt lat="34.25532" lon="-116.71989"><ele>2091.0</ele></trkpt>
    <trkpt lat="34.25531" lon="-116.71979"><ele>2091.0</ele></trkpt>
    <trkpt lat="34.25528" lon="-116.71972"><ele>2091.0</ele></trkpt>
    <trkpt lat="34.25523" lon="-116.71962"><ele>2091.0</ele></trkpt>
    <trkpt lat="34.25515" lon="-116.71948"><ele>2091.0</ele></trkpt>
    <trkpt lat="34.25511" lon="-116.71941"><ele>2091.0</ele></trkpt>
    <trkpt lat="34.25508" lon="-116.71933"><ele>2091.0</ele></trkpt>
    <trkpt lat="34.25505" lon="-116.71919"><ele>2091.0</ele></trkpt>
    <trkpt lat="34.25501" lon="-116.71903"><ele>2091.0</ele></trkpt>
    <trkpt lat="34.25497" lon="-116.71890"><ele>2091.0</ele></trkpt>
    <trkpt lat="34.25496" lon="-116.71872"><ele>2091.0</ele></trkpt>
    <trkpt lat="34.25492" lon="-116.71853"><ele>2091.0</ele></trkpt>
    <trkpt lat="34.25491" lon="-116.71831"><ele>2091.0</ele></trkpt>
    <trkpt lat="34.25490" lon="-116.71822"><ele>2091.0</ele></trkpt>
    <trkpt lat="34.25487" lon="-116.71812"><ele>2091.0</ele></trkpt>
    <trkpt lat="34.25482" lon="-116.71800"><ele>2087.0</ele></trkpt>
    <trkpt lat="34.25481" lon="-116.71793"><ele>2087.0</ele></trkpt>
    <trkpt lat="34.25481" lon="-116.71783"><ele>2087.0</ele></trkpt>
    <trkpt lat="34.25481" lon="-116.71780"><ele>2087.0</ele></trkpt>
    <trkpt lat="34.25481" lon="-116.71780"><ele>2087.0</ele></trkpt>
    <trkpt lat="34.25482" lon="-116.71772"><ele>2087.0</ele></trkpt>
    <trkpt lat="34.25485" lon="-116.71762"><ele>2087.0</ele></trkpt>
    <trkpt lat="34.25488" lon="-116.71755"><ele>2087.0</ele></trkpt>
    <trkpt lat="34.25494" lon="-116.71751"><ele>2087.0</ele></trkpt>
    <trkpt lat="34.25502" lon="-116.71748"><ele>2087.0</ele></trkpt>
    <trkpt lat="34.25508" lon="-116.71746"><ele>2087.0</ele></trkpt>
    <trkpt lat="34.25514" lon="-116.71740"><ele>2087.0</ele></trkpt>
    <trkpt lat="34.25520" lon="-116.71733"><ele>2087.0</ele></trkpt>
    <trkpt lat="34.25528" lon="-116.71727"><ele>2087.0</ele></trkpt>
    <trkpt lat="34.25534" lon="-116.71723"><ele>2070.0</ele></trkpt>
    <trkpt lat="34.25542" lon="-116.71721"><ele>2070.0</ele></trkpt>
    <trkpt lat="34.25554" lon="-116.71718"><ele>2070.0</ele></trkpt>
    <trkpt lat="34.25571" lon="-116.71712"><ele>2070.0</ele></trkpt>
    <trkpt lat="34.25584" lon="-116.71708"><ele>2070.0</ele></trkpt>
    <trkpt lat="34.25595" lon="-116.71701"><ele>2070.0</ele></trkpt>
    <trkpt lat="34.25603" lon="-116.71694"><ele>2070.0</ele></trkpt>
    <trkpt lat="34.25615" lon="-116.71683"><ele>2070.0</ele></trkpt>
    <trkpt lat="34.25613" lon="-116.71658"><ele>2070.0</ele></trkpt>
    <trkpt lat="34.25609" lon="-116.71633"><ele>2070.0</ele></trkpt>
    <trkpt lat="34.25605" lon="-116.71607"><ele>2070.0</ele></trkpt>
    <trkpt lat="34.25600" lon="-116.71587"><ele>2070.0</ele></trkpt>
    <trkpt lat="34.25593" lon="-116.71560"><ele>2070.0</ele></trkpt>
    <trkpt lat="34.25583" lon="-116.71524"><ele>2070.0</ele></trkpt>
    <trkpt lat="34.25575" lon="-116.71502"><ele>2070.0</ele></trkpt>
    <trkpt lat="34.25573" lon="-116.71495"><ele>2058.0</ele></trkpt>
    <trkpt lat="34.25567" lon="-116.71474"><ele>2058.0</ele></trkpt>
    <trkpt lat="34.25560" lon="-116.71446"><ele>2058.0</ele></trkpt>
    <trkpt lat="34.25555" lon="-116.71417"><ele>2058.0</ele></trkpt>
    <trkpt lat="34.25554" lon="-116.71398"><ele>2058.0</ele></trkpt>
    <trkpt lat="34.25553" lon="-116.71392"><ele>2058.0</ele></trkpt>
    <trkpt lat="34.25553" lon="-116.71368"><ele>2058.0</ele></trkpt>
    <trkpt lat="34.25555" lon="-116.71340"><ele>2058.0</ele></trkpt>
    <trkpt lat="34.25559" lon="-116.71310"><ele>2058.0</ele></trkpt>
    <trkpt lat="34.25562" lon="-116.71284"><ele>2058.0</ele></trkpt>
    <trkpt lat="34.25562" lon="-116.71263"><ele>2058.0</ele></trkpt>
    <trkpt lat="34.25558" lon="-116.71245"><ele>2058.0</ele></trkpt>
    <trkpt lat="34.25554" lon="-116.71235"><ele>2058.0</ele></trkpt>
    <trkpt lat="34.25552" lon="-116.71228"><ele>2058.0</ele></trkpt>
    <trkpt lat="34.25552" lon="-116.71228"><ele>2058.0</ele></trkpt>
    <trkpt lat="34.25538" lon="-116.71186"><ele>2058.0</ele></trkpt>
    <trkpt lat="34.25526" lon="-116.71146"><ele>2058.0</ele></trkpt>
    <trkpt lat="34.25517" lon="-116.71119"><ele>2058.0</ele></trkpt>
    <trkpt lat="34.25513" lon="-116.71108"><ele>2058.0</ele></trkpt>
    <trkpt lat="34.25505" lon="-116.71092"><ele>2058.0</ele></trkpt>
    <trkpt lat="34.25482" lon="-116.71071"><ele>2058.0</ele></trkpt>
    <trkpt lat="34.25460" lon="-116.71049"><ele>2058.0</ele></trkpt>
    <trkpt lat="34.25443" lon="-116.71030"><ele>2058.0</ele></trkpt>
    <trkpt lat="34.25421" lon="-116.71006"><ele>2058.0</ele></trkpt>
    <trkpt lat="34.25399" lon="-116.70975"><ele>2058.0</ele></trkpt>
    <trkpt lat="34.25378" lon="-116.70943"><ele>2058.0</ele></trkpt>
    <trkpt lat="34.25368" lon="-116.70924"><ele>2058.0</ele></trkpt>
    <trkpt lat="34.25351" lon="-116.70892"><ele>2058.0</ele></trkpt>
    <trkpt lat="34.25330" lon="-116.70852"><ele>2058.0</ele></trkpt>
    <trkpt lat="34.25319" lon="-116.70835"><ele>2059.0</ele></trkpt>
    <trkpt lat="34.25308" lon="-116.70819"><ele>2059.0</ele></trkpt>
    <trkpt lat="34.25291" lon="-116.70799"><ele>2059.0</ele></trkpt>
    <trkpt lat="34.25275" lon="-116.70781"><ele>2059.0</ele></trkpt>
    <trkpt lat="34.25260" lon="-116.70763"><ele>2059.0</ele></trkpt>
    <trkpt lat="34.25252" lon="-116.70750"><ele>2059.0</ele></trkpt>
    <trkpt lat="34.25245" lon="-116.70735"><ele>2059.0</ele></trkpt>
    <trkpt lat="34.25238" lon="-116.70720"><ele>2059.0</ele></trkpt>
    <trkpt lat="34.25228" lon="-116.70694"><ele>2059.0</ele></trkpt>
    <trkpt lat="34.25217" lon="-116.70666"><ele>2059.0</ele></trkpt>
    <trkpt lat="34.25210" lon="-116.70653"><ele>2059.0</ele></trkpt>
    <trkpt lat="34.25203" lon="-116.70644"><ele>2059.0</ele></trkpt>
    <trkpt lat="34.25196" lon="-116.70633"><ele>2059.0</ele></trkpt>
    <trkpt lat="34.25184" lon="-116.70617"><ele>2059.0</ele></trkpt>
    <trkpt lat="34.25167" lon="-116.70598"><ele>2064.0</ele></trkpt>
    <trkpt lat="34.25148" lon="-116.70578"><ele>2064.0</ele></trkpt>
    <trkpt lat="34.25147" lon="-116.70576"><ele>2064.0</ele></trkpt>
    <trkpt lat="34.25136" lon="-116.70566"><ele>2064.0</ele></trkpt>
    <trkpt lat="34.25124" lon="-116.70557"><ele>2064.0</ele></trkpt>
    <trkpt lat="34.25116" lon="-116.70552"><ele>2064.0</ele></trkpt>
    <trkpt lat="34.25105" lon="-116.70546"><ele>2064.0</ele></trkpt>
    <trkpt lat="34.25092" lon="-116.70542"><ele>2064.0</ele></trkpt>
    <trkpt lat="34.25069" lon="-116.70541"><ele>2064.0</ele></trkpt>
    <trkpt lat="34.25040" lon="-116.70540"><ele>2064.0</ele></trkpt>
    <trkpt lat="34.25021" lon="-116.70537"><ele>2064.0</ele></trkpt>
    <trkpt lat="34.25007" lon="-116.70533"><ele>2064.0</ele></trkpt>
    <trkpt lat="34.24989" lon="-116.70528"><ele>2064.0</ele></trkpt>
    <trkpt lat="34.24979" lon="-116.70524"><ele>2064.0</ele></trkpt>
    <trkpt lat="34.24966" lon="-116.70517"><ele>2069.0</ele></trkpt>
    <trkpt lat="34.24955" lon="-116.70510"><ele>2069.0</ele></trkpt>
    <trkpt lat="34.24942" lon="-116.70503"><ele>2069.0</ele></trkpt>
    <trkpt lat="34.24920" lon="-116.70492"><ele>2069.0</ele></trkpt>
    <trkpt lat="34.24865" lon="-116.70462"><ele>2069.0</ele></trkpt>
    <trkpt lat="34.24855" lon="-116.70457"><ele>2069.0</ele></trkpt>
    <trkpt lat="34.24840" lon="-116.70451"><ele>2069.0</ele></trkpt>
    <trkpt lat="34.24820" lon="-116.70447"><ele>2069.0</ele></trkpt>
    <trkpt lat="34.24804" lon="-116.70444"><ele>2069.0</ele></trkpt>
    <trkpt lat="34.24791" lon="-116.70443"><ele>2069.0</ele></trkpt>
    <trkpt lat="34.24780" lon="-116.70438"><ele>2069.0</ele></trkpt>
    <trkpt lat="34.24766" lon="-116.70432"><ele>2069.0</ele></trkpt>
    <trkpt lat="34.24751" lon="-116.70424"><ele>2069.0</ele></trkpt>
    <trkpt lat="34.24737" lon="-116.70412"><ele>2069.0</ele></trkpt>
    <trkpt lat="34.24722" lon="-116.70395"><ele>2069.0</ele></trkpt>
    <trkpt lat="34.24700" lon="-116.70370"><ele>2082.0</ele></trkpt>
    <trkpt lat="34.24672" lon="-116.70340"><ele>2082.0</ele></trkpt>
    <trkpt lat="34.24650" lon="-116.70316"><ele>2082.0</ele></trkpt>
    <trkpt lat="34.24630" lon="-116.70296"><ele>2082.0</ele></trkpt>
    <trkpt lat="34.24618" lon="-116.70279"><ele>2082.0</ele></trkpt>
    <trkpt lat="34.24599" lon="-116.70256"><ele>2082.0</ele></trkpt>
    <trkpt lat="34.24582" lon="-116.70235"><ele>2082.0</ele></trkpt>
    <trkpt lat="34.24554" lon="-116.70204"><ele>2082.0</ele></trkpt>
    <trkpt lat="34.24536" lon="-116.70185"><ele>2082.0</ele></trkpt>
    <trkpt lat="34.24529" lon="-116.70178"><ele>2082.0</ele></trkpt>
    <trkpt lat="34.24526" lon="-116.70173"><ele>2082.0</ele></trkpt>
    <trkpt lat="34.24518" lon="-116.70161"><ele>2082.0</ele></trkpt>
    <trkpt lat="34.24508" lon="-116.70145"><ele>2082.0</ele></trkpt>
    <trkpt lat="34.24497" lon="-116.70129"><ele>2082.0</ele></trkpt>
    <trkpt lat="34.24482" lon="-116.70109"><ele>2097.0</ele></trkpt>
    <trkpt lat="34.24471" lon="-116.70091"><ele>2097.0</ele></trkpt>
    <trkpt lat="34.24463" lon="-116.70079"><ele>2097.0</ele></trkpt>
    <trkpt lat="34.24452" lon="-116.70062"><ele>2097.0</ele></trkpt>
    <trkpt lat="34.24441" lon="-116.70046"><ele>2097.0</ele></trkpt>
    <trkpt lat="34.24429" lon="-116.70024"><ele>2097.0</ele></trkpt>
    <trkpt lat="34.24418" lon="-116.70004"><ele>2097.0</ele></trkpt>
    <trkpt lat="34.24409" lon="-116.69986"><ele>2097.0</ele></trkpt>
    <trkpt lat="34.24401" lon="-116.69968"><ele>2097.0</ele></trkpt>
    <trkpt lat="34.24394" lon="-116.69960"><ele>2097.0</ele></trkpt>
    <trkpt lat="34.24389" lon="-116.69952"><ele>2097.0</ele></trkpt>
    <trkpt lat="34.24376" lon="-116.69942"><ele>2097.0</ele></trkpt>
    <trkpt lat="34.24363" lon="-116.69932"><ele>2097.0</ele></trkpt>
    <trkpt lat="34.24355" lon="-116.69927"><ele>2097.0</ele></trkpt>
    <trkpt lat="34.24341" lon="-116.69924"><ele>2097.0</ele></trkpt>
    <trkpt lat="34.24329" lon="-116.69922"><ele>2110.0</ele></trkpt>
    <trkpt lat="34.24322" lon="-116.69919"><ele>2110.0</ele></trkpt>
    <trkpt lat="34.24312" lon="-116.69911"><ele>2110.0</ele></trkpt>
    <trkpt lat="34.24297" lon="-116.69896"><ele>2110.0</ele></trkpt>
    <trkpt lat="34.24282" lon="-116.69878"><ele>2110.0</ele></trkpt>
    <trkpt lat="34.24273" lon="-116.69867"><ele>2110.0</ele></trkpt>
    <trkpt lat="34.24263" lon="-116.69852"><ele>2110.0</ele></trkpt>
    <trkpt lat="34.24255" lon="-116.69837"><ele>2110.0</ele></trkpt>
    <trkpt lat="34.24245" lon="-116.69822"><ele>2110.0</ele></trkpt>
    <trkpt lat="34.24239" lon="-116.69808"><ele>2110.0</ele></trkpt>
    <trkpt lat="34.24233" lon="-116.69794"><ele>2110.0</ele></trkpt>
    <trkpt lat="34.24225" lon="-116.69776"><ele>2110.0</ele></trkpt>
    <trkpt lat="34.24217" lon="-116.69761"><ele>2110.0</ele></trkpt>
    <trkpt lat="34.24211" lon="-116.69749"><ele>2110.0</ele></trkpt>
    <trkpt lat="34.24206" lon="-116.69739"><ele>2112.0</ele></trkpt>
    <trkpt lat="34.24199" lon="-116.69732"><ele>2112.0</ele></trkpt>
    <trkpt lat="34.24189" lon="-116.69720"><ele>2112.0</ele></trkpt>
    <trkpt lat="34.24180" lon="-116.69710"><ele>2112.0</ele></trkpt>
    <trkpt lat="34.24175" lon="-116.69705"><ele>2112.0</ele></trkpt>
    <trkpt lat="34.24172" lon="-116.69696"><ele>2112.0</ele></trkpt>
    <trkpt lat="34.24168" lon="-116.69682"><ele>2112.0</ele></trkpt>
    <trkpt lat="34.24163" lon="-116.69659"><ele>2112.0</ele></trkpt>
    <trkpt lat="34.24163" lon="-116.69646"><ele>2112.0</ele></trkpt>
    <trkpt lat="34.24163" lon="-116.69643"><ele>2112.0</ele></trkpt>
    <trkpt lat="34.24164" lon="-116.69629"><ele>2112.0</ele></trkpt>
    <trkpt lat="34.24168" lon="-116.69605"><ele>2112.0</ele></trkpt>
    <trkpt lat="34.24171" lon="-116.69586"><ele>2112.0</ele></trkpt>
    <trkpt lat="34.24171" lon="-116.69584"><ele>2112.0</ele></trkpt>
    <trkpt lat="34.24171" lon="-116.69582"><ele>2112.0</ele></trkpt>
    <trkpt lat="34.24169" lon="-116.69569"><ele>2116.0</ele></trkpt>
    <trkpt lat="34.24163" lon="-116.69532"><ele>2116.0</ele></trkpt>
    <trkpt lat="34.24158" lon="-116.69501"><ele>2116.0</ele></trkpt>
    <trkpt lat="34.24154" lon="-116.69459"><ele>2116.0</ele></trkpt>
    <trkpt lat="34.24150" lon="-116.69422"><ele>2116.0</ele></trkpt>
    <trkpt lat="34.24144" lon="-116.69411"><ele>2116.0</ele></trkpt>
    <trkpt lat="34.24138" lon="-116.69398"><ele>2116.0</ele></trkpt>
    <trkpt lat="34.24132" lon="-116.69384"><ele>2116.0</ele></trkpt>
    <trkpt lat="34.24128" lon="-116.69369"><ele>2116.0</ele></trkpt>
    <trkpt lat="34.24124" lon="-116.69357"><ele>2116.0</ele></trkpt>
    <trkpt lat="34.24120" lon="-116.69347"><ele>2116.0</ele></trkpt>
    <trkpt lat="34.24114" lon="-116.69338"><ele>2116.0</ele></trkpt>
    <trkpt lat="34.24109" lon="-116.69330"><ele>2116.0</ele></trkpt>
    <trkpt lat="34.24107" lon="-116.69322"><ele>2116.0</ele></trkpt>
    <trkpt lat="34.24105" lon="-116.69312"><ele>2112.0</ele></trkpt>
    <trkpt lat="34.24103" lon="-116.69299"><ele>2112.0</ele></trkpt>
    <trkpt lat="34.24100" lon="-116.69286"><ele>2112.0</ele></trkpt>
    <trkpt lat="34.24095" lon="-116.69277"><ele>2112.0</ele></trkpt>
    <trkpt lat="34.24089" lon="-116.69271"><ele>2112.0</ele></trkpt>
    <trkpt lat="34.24081" lon="-116.69265"><ele>2112.0</ele></trkpt>
    <trkpt lat="34.24073" lon="-116.69262"><ele>2112.0</ele></trkpt>
    <trkpt lat="34.24062" lon="-116.69259"><ele>2112.0</ele></trkpt>
    <trkpt lat="34.24053" lon="-116.69253"><ele>2112.0</ele></trkpt>
    <trkpt lat="34.24048" lon="-116.69247"><ele>2112.0</ele></trkpt>
    <trkpt lat="34.24043" lon="-116.69239"><ele>2112.0</ele></trkpt>
    <trkpt lat="34.24039" lon="-116.69230"><ele>2112.0</ele></trkpt>
    <trkpt lat="34.24034" lon="-116.69223"><ele>2112.0</ele></trkpt>
    <trkpt lat="34.24028" lon="-116.69216"><ele>2112.0</ele></trkpt>
    <trkpt lat="34.24023" lon="-116.69210"><ele>2112.0</ele></trkpt>
    <trkpt lat="34.24019" lon="-116.69201"><ele>2104.0</ele></trkpt>
    <trkpt lat="34.24016" lon="-116.69191"><ele>2104.0</ele></trkpt>
    <trkpt lat="34.24015" lon="-116.69181"><ele>2104.0</ele></trkpt>
    <trkpt lat="34.24015" lon="-116.69166"><ele>2104.0</ele></trkpt>
    <trkpt lat="34.24014" lon="-116.69155"><ele>2104.0</ele></trkpt>
    <trkpt lat="34.24012" lon="-116.69147"><ele>2104.0</ele></trkpt>
    <trkpt lat="34.24005" lon="-116.69144"><ele>2104.0</ele></trkpt>
    <trkpt lat="34.24001" lon="-116.69141"><ele>2104.0</ele></trkpt>
    <trkpt lat="34.23995" lon="-116.69137"><ele>2104.0</ele></trkpt>
    <trkpt lat="34.23986" lon="-116.69133"><ele>2104.0</ele></trkpt>
    <trkpt lat="34.23978" lon="-116.69130"><ele>2104.0</ele></trkpt>
    <trkpt lat="34.23974" lon="-116.69127"><ele>2104.0</ele></trkpt>
    <trkpt lat="34.23969" lon="-116.69123"><ele>2104.0</ele></trkpt>
    <trkpt lat="34.23966" lon="-116.69116"><ele>2104.0</ele></trkpt>
    <trkpt lat="34.23964" lon="-116.69105"><ele>2094.0</ele></trkpt>
    <trkpt lat="34.23964" lon="-116.69099"><ele>2094.0</ele></trkpt>
    <trkpt lat="34.23962" lon="-116.69093"><ele>2094.0</ele></trkpt>
    <trkpt lat="34.23959" lon="-116.69090"><ele>2094.0</ele></trkpt>
    <trkpt lat="34.23952" lon="-116.69084"><ele>2094.0</ele></trkpt>
    <trkpt lat="34.23945" lon="-116.69080"><ele>2094.0</ele></trkpt>
    <trkpt lat="34.23939" lon="-116.69077"><ele>2094.0</ele></trkpt>
    <trkpt lat="34.23933" lon="-116.69073"><ele>2094.0</ele></trkpt>
    <trkpt lat="34.23925" lon="-116.69065"><ele>2094.0</ele></trkpt>
    <trkpt lat="34.23918" lon="-116.69054"><ele>2094.0</ele></trkpt>
    <trkpt lat="34.23899" lon="-116.69020"><ele>2094.0</ele></trkpt>
    <trkpt lat="34.23890" lon="-116.69003"><ele>2094.0</ele></trkpt>
    <trkpt lat="34.23884" lon="-116.68991"><ele>2094.0</ele></trkpt>
    <trkpt lat="34.23876" lon="-116.68981"><ele>2094.0</ele></trkpt>
    <trkpt lat="34.23866" lon="-116.68970"><ele>2074.0</ele></trkpt>
    <trkpt lat="34.23854" lon="-116.68958"><ele>2074.0</ele></trkpt>
    <trkpt lat="34.23847" lon="-116.68950"><ele>2074.0</ele></trkpt>
    <trkpt lat="34.23842" lon="-116.68946"><ele>2074.0</ele></trkpt>
    <trkpt lat="34.23833" lon="-116.68942"><ele>2074.0</ele></trkpt>
    <trkpt lat="34.23826" lon="-116.68937"><ele>2074.0</ele></trkpt>
    <trkpt lat="34.23819" lon="-116.68931"><ele>2074.0</ele></trkpt>
    <trkpt lat="34.23809" lon="-116.68924"><ele>2074.0</ele></trkpt>
    <trkpt lat="34.23792" lon="-116.68911"><ele>2074.0</ele></trkpt>
    <trkpt lat="34.23772" lon="-116.68897"><ele>2074.0</ele></trkpt>
    <trkpt lat="34.23755" lon="-116.68885"><ele>2074.0</ele></trkpt>
    <trkpt lat="34.23744" lon="-116.68877"><ele>2074.0</ele></trkpt>
    <trkpt lat="34.23731" lon="-116.68866"><ele>2074.0</ele></trkpt>
    <trkpt lat="34.23719" lon="-116.68857"><ele>2074.0</ele></trkpt>
    <trkpt lat="34.23711" lon="-116.68850"><ele>2074.0</ele></trkpt>
    <trkpt lat="34.23703" lon="-116.68842"><ele>2057.0</ele></trkpt>
    <trkpt lat="34.23697" lon="-116.68837"><ele>2057.0</ele></trkpt>
    <trkpt lat="34.23689" lon="-116.68832"><ele>2057.0</ele></trkpt>
    <trkpt lat="34.23681" lon="-116.68824"><ele>2057.0</ele></trkpt>
    <trkpt lat="34.23674" lon="-116.68817"><ele>2057.0</ele></trkpt>
    <trkpt lat="34.23668" lon="-116.68808"><ele>2057.0</ele></trkpt>
    <trkpt lat="34.23662" lon="-116.68796"><ele>2057.0</ele></trkpt>
    <trkpt lat="34.23658" lon="-116.68789"><ele>2057.0</ele></trkpt>
    <trkpt lat="34.23654" lon="-116.68786"><ele>2057.0</ele></trkpt>
    <trkpt lat="34.23649" lon="-116.68785"><ele>2057.0</ele></trkpt>
    <trkpt lat="34.23644" lon="-116.68787"><ele>2057.0</ele></trkpt>
    <trkpt lat="34.23640" lon="-116.68793"><ele>2057.0</ele></trkpt>
    <trkpt lat="34.23634" lon="-116.68802"><ele>2057.0</ele></trkpt>
    <trkpt lat="34.23628" lon="-116.68808"><ele>2057.0</ele></trkpt>
    <trkpt lat="34.23621" lon="-116.68810"><ele>2049.0</ele></trkpt>
    <trkpt lat="34.23616" lon="-116.68810"><ele>2049.0</ele></trkpt>
    <trkpt lat="34.23608" lon="-116.68809"><ele>2049.0</ele></trkpt>
    <trkpt lat="34.23600" lon="-116.68803"><ele>2049.0</ele></trkpt>
    <trkpt lat="34.23592" lon="-116.68799"><ele>2049.0</ele></trkpt>
    <trkpt lat="34.23582" lon="-116.68792"><ele>2049.0</ele></trkpt>
    <trkpt lat="34.23575" lon="-116.68785"><ele>2049.0</ele></trkpt>
    <trkpt lat="34.23567" lon="-116.68777"><ele>2049.0</ele></trkpt>
    <trkpt lat="34.23556" lon="-116.68769"><ele>2049.0</ele></trkpt>
    <trkpt lat="34.23551" lon="-116.68766"><ele>2049.0</ele></trkpt>
    <trkpt lat="34.23540" lon="-116.68764"><ele>2049.0</ele></trkpt>
    <trkpt lat="34.23528" lon="-116.68764"><ele>2049.0</ele></trkpt>
    <trkpt lat="34.23518" lon="-116.68763"><ele>2049.0</ele></trkpt>
    <trkpt lat="34.23510" lon="-116.68761"><ele>2049.0</ele></trkpt>
    <trkpt lat="34.23503" lon="-116.68757"><ele>2049.0</ele></trkpt>
    <trkpt lat="34.23496" lon="-116.68752"><ele>2044.0</ele></trkpt>
    <trkpt lat="34.23490" lon="-116.68745"><ele>2044.0</ele></trkpt>
    <trkpt lat="34.23482" lon="-116.68736"><ele>2044.0</ele></trkpt>
    <trkpt lat="34.23475" lon="-116.68724"><ele>2044.0</ele></trkpt>
    <trkpt lat="34.23465" lon="-116.68713"><ele>2044.0</ele></trkpt>
    <trkpt lat="34.23460" lon="-116.68703"><ele>2044.0</ele></trkpt>
    <trkpt lat="34.23456" lon="-116.68690"><ele>2044.0</ele></trkpt>
    <trkpt lat="34.23454" lon="-116.68677"><ele>2044.0</ele></trkpt>
    <trkpt lat="34.23452" lon="-116.68668"><ele>2044.0</ele></trkpt>
    <trkpt lat="34.23451" lon="-116.68658"><ele>2044.0</ele></trkpt>
    <trkpt lat="34.23449" lon="-116.68651"><ele>2044.0</ele></trkpt>
    <trkpt lat="34.23445" lon="-116.68643"><ele>2044.0</ele></trkpt>
    <trkpt lat="34.23432" lon="-116.68629"><ele>2044.0</ele></trkpt>
    <trkpt lat="34.23423" lon="-116.68619"><ele>2044.0</ele></trkpt>
    <trkpt lat="34.23415" lon="-116.68613"><ele>2032.0</ele></trkpt>
    <trkpt lat="34.23403" lon="-116.68607"><ele>2032.0</ele></trkpt>
    <trkpt lat="34.23394" lon="-116.68601"><ele>2032.0</ele></trkpt>
    <trkpt lat="34.23386" lon="-116.68595"><ele>2032.0</ele></trkpt>
    <trkpt lat="34.23381" lon="-116.68589"><ele>2032.0</ele></trkpt>
    <trkpt lat="34.23376" lon="-116.68583"><ele>2032.0</ele></trkpt>
    <trkpt lat="34.23368" lon="-116.68570"><ele>2032.0</ele></trkpt>
    <trkpt lat="34.23359" lon="-116.68556"><ele>2032.0</ele></trkpt>
    <trkpt lat="34.23354" lon="-116.68545"><ele>2032.0</ele></trkpt>
    <trkpt lat="34.23351" lon="-116.68536"><ele>2032.0</ele></trkpt>
    <trkpt lat="34.23351" lon="-116.68526"><ele>2032.0</ele></trkpt>
    <trkpt lat="34.23352" lon="-116.68518"><ele>2032.0</ele></trkpt>
    <trkpt lat="34.23357" lon="-116.68508"><ele>2032.0</ele></trkpt>
    <trkpt lat="34.23363" lon="-116.68498"><ele>2032.0</ele></trkpt>
    <trkpt lat="34.23371" lon="-116.68488"><ele>2032.0</ele></trkpt>
    <trkpt lat="34.23374" lon="-116.68482"><ele>2032.0</ele></trkpt>
    <trkpt lat="34.23375" lon="-116.68474"><ele>2032.0</ele></trkpt>
    <trkpt lat="34.23374" lon="-116.68467"><ele>2032.0</ele></trkpt>
    <trkpt lat="34.23372" lon="-116.68456"><ele>2032.0</ele></trkpt>
    <trkpt lat="34.23369" lon="-116.68448"><ele>2032.0</ele></trkpt>
    <trkpt lat="34.23368" lon="-116.68444"><ele>2032.0</ele></trkpt>
    <trkpt lat="34.23363" lon="-116.68432"><ele>2032.0</ele></trkpt>
    <trkpt lat="34.23361" lon="-116.68419"><ele>2032.0</ele></trkpt>
    <trkpt lat="34.23360" lon="-116.68410"><ele>2032.0</ele></trkpt>
    <trkpt lat="34.23361" lon="-116.68400"><ele>2032.0</ele></trkpt>
    <trkpt lat="34.23365" lon="-116.68394"><ele>2032.0</ele></trkpt>
    <trkpt lat="34.23370" lon="-116.68388"><ele>2032.0</ele></trkpt>
    <trkpt lat="34.23375" lon="-116.68384"><ele>2032.0</ele></trkpt>
    <trkpt lat="34.23377" lon="-116.68380"><ele>2032.0</ele></trkpt>
    <trkpt lat="34.23378" lon="-116.68374"><ele>2026.0</ele></trkpt>
    <trkpt lat="34.23376" lon="-116.68368"><ele>2026.0</ele></trkpt>
    <trkpt lat="34.23371" lon="-116.68360"><ele>2026.0</ele></trkpt>
    <trkpt lat="34.23363" lon="-116.68351"><ele>2026.0</ele></trkpt>
    <trkpt lat="34.23340" lon="-116.68318"><ele>2026.0</ele></trkpt>
    <trkpt lat="34.23335" lon="-116.68309"><ele>2026.0</ele></trkpt>
    <trkpt lat="34.23327" lon="-116.68304"><ele>2026.0</ele></trkpt>
    <trkpt lat="34.23317" lon="-116.68303"><ele>2026.0</ele></trkpt>
    <trkpt lat="34.23309" lon="-116.68304"><ele>2026.0</ele></trkpt>
    <trkpt lat="34.23302" lon="-116.68309"><ele>2026.0</ele></trkpt>
    <trkpt lat="34.23294" lon="-116.68318"><ele>2026.0</ele></trkpt>
    <trkpt lat="34.23284" lon="-116.68327"><ele>2026.0</ele></trkpt>
    <trkpt lat="34.23274" lon="-116.68333"><ele>2026.0</ele></trkpt>
    <trkpt lat="34.23266" lon="-116.68333"><ele>2026.0</ele></trkpt>
    <trkpt lat="34.23255" lon="-116.68330"><ele>1998.0</ele></trkpt>
    <trkpt lat="34.23245" lon="-116.68328"><ele>1998.0</ele></trkpt>
    <trkpt lat="34.23235" lon="-116.68330"><ele>1998.0</ele></trkpt>
    <trkpt lat="34.23224" lon="-116.68329"><ele>1998.0</ele></trkpt>
    <trkpt lat="34.23217" lon="-116.68326"><ele>1998.0</ele></trkpt>
    <trkpt lat="34.23213" lon="-116.68322"><ele>1998.0</ele></trkpt>
    <trkpt lat="34.23210" lon="-116.68315"><ele>1998.0</ele></trkpt>
    <trkpt lat="34.23209" lon="-116.68305"><ele>1998.0</ele></trkpt>
    <trkpt lat="34.23208" lon="-116.68296"><ele>1998.0</ele></trkpt>
    <trkpt lat="34.23210" lon="-116.68281"><ele>1998.0</ele></trkpt>
    <trkpt lat="34.23210" lon="-116.68274"><ele>1998.0</ele></trkpt>
    <trkpt lat="34.23209" lon="-116.68269"><ele>1998.0</ele></trkpt>
    <trkpt lat="34.23206" lon="-116.68262"><ele>1998.0</ele></trkpt>
    <trkpt lat="34.23207" lon="-116.68256"><ele>1998.0</ele></trkpt>
    <trkpt lat="34.23210" lon="-116.68242"><ele>1998.0</ele></trkpt>
    <trkpt lat="34.23213" lon="-116.68231"><ele>1992.0</ele></trkpt>
    <trkpt lat="34.23213" lon="-116.68226"><ele>1992.0</ele></trkpt>
    <trkpt lat="34.23211" lon="-116.68220"><ele>1992.0</ele></trkpt>
    <trkpt lat="34.23208" lon="-116.68213"><ele>1992.0</ele></trkpt>
    <trkpt lat="34.23208" lon="-116.68205"><ele>1992.0</ele></trkpt>
    <trkpt lat="34.23209" lon="-116.68196"><ele>1992.0</ele></trkpt>
    <trkpt lat="34.23212" lon="-116.68189"><ele>1992.0</ele></trkpt>
    <trkpt lat="34.23216" lon="-116.68183"><ele>1992.0</ele></trkpt>
    <trkpt lat="34.23221" lon="-116.68179"><ele>1992.0</ele></trkpt>
    <trkpt lat="34.23230" lon="-116.68175"><ele>1992.0</ele></trkpt>
    <trkpt lat="34.23243" lon="-116.68167"><ele>1992.0</ele></trkpt>
    <trkpt lat="34.23252" lon="-116.68161"><ele>1992.0</ele></trkpt>
    <trkpt lat="34.23256" lon="-116.68156"><ele>1992.0</ele></trkpt>
    <trkpt lat="34.23258" lon="-116.68149"><ele>1992.0</ele></trkpt>
    <trkpt lat="34.23257" lon="-116.68143"><ele>1997.0</ele></trkpt>
    <trkpt lat="34.23254" lon="-116.68139"><ele>1997.0</ele></trkpt>
    <trkpt lat="34.23249" lon="-116.68137"><ele>1997.0</ele></trkpt>
    <trkpt lat="34.23244" lon="-116.68137"><ele>1997.0</ele></trkpt>
    <trkpt lat="34.23239" lon="-116.68131"><ele>1997.0</ele></trkpt>
    <trkpt lat="34.23235" lon="-116.68124"><ele>1997.0</ele></trkpt>
    <trkpt lat="34.23231" lon="-116.68115"><ele>1997.0</ele></trkpt>
    <trkpt lat="34.23228" lon="-116.68101"><ele>1997.0</ele></trkpt>
    <trkpt lat="34.23224" lon="-116.68085"><ele>1997.0</ele></trkpt>
    <trkpt lat="34.23221" lon="-116.68076"><ele>1997.0</ele></trkpt>
    <trkpt lat="34.23217" lon="-116.68067"><ele>1997.0</ele></trkpt>
    <trkpt lat="34.23209" lon="-116.68052"><ele>1997.0</ele></trkpt>
    <trkpt lat="34.23199" lon="-116.68035"><ele>1997.0</ele></trkpt>
    <trkpt lat="34.23192" lon="-116.68023"><ele>1997.0</ele></trkpt>
    <trkpt lat="34.23188" lon="-116.68007"><ele>1997.0</ele></trkpt>
    <trkpt lat="34.23186" lon="-116.67994"><ele>1981.0</ele></trkpt>
    <trkpt lat="34.23183" lon="-116.67986"><ele>1981.0</ele></trkpt>
    <trkpt lat="34.23178" lon="-116.67980"><ele>1981.0</ele></trkpt>
    <trkpt lat="34.23171" lon="-116.67977"><ele>1981.0</ele></trkpt>
    <trkpt lat="34.23163" lon="-116.67976"><ele>1981.0</ele></trkpt>
    <trkpt lat="34.23154" lon="-116.67978"><ele>1981.0</ele></trkpt>
    <trkpt lat="34.23147" lon="-116.67979"><ele>1981.0</ele></trkpt>
    <trkpt lat="34.23139" lon="-116.67976"><ele>1981.0</ele></trkpt>
    <trkpt lat="34.23130" lon="-116.67970"><ele>1981.0</ele></trkpt>
    <trkpt lat="34.23124" lon="-116.67965"><ele>1981.0</ele></trkpt>
    <trkpt lat="34.23117" lon="-116.67962"><ele>1981.0</ele></trkpt>
    <trkpt lat="34.23107" lon="-116.67959"><ele>1981.0</ele></trkpt>
    <trkpt lat="34.23102" lon="-116.67955"><ele>1981.0</ele></trkpt>
    <trkpt lat="34.23100" lon="-116.67948"><ele>1981.0</ele></trkpt>
    <trkpt lat="34.23098" lon="-116.67941"><ele>1968.0</ele></trkpt>
    <trkpt lat="34.23097" lon="-116.67931"><ele>1968.0</ele></trkpt>
    <trkpt lat="34.23095" lon="-116.67923"><ele>1968.0</ele></trkpt>
    <trkpt lat="34.23092" lon="-116.67917"><ele>1968.0</ele></trkpt>
    <trkpt lat="34.23086" lon="-116.67910"><ele>1968.0</ele></trkpt>
    <trkpt lat="34.23075" lon="-116.67902"><ele>1968.0</ele></trkpt>
    <trkpt lat="34.23068" lon="-116.67898"><ele>1968.0</ele></trkpt>
    <trkpt lat="34.23060" lon="-116.67897"><ele>1968.0</ele></trkpt>
    <trkpt lat="34.23056" lon="-116.67894"><ele>1968.0</ele></trkpt>
    <trkpt lat="34.23052" lon="-116.67888"><ele>1968.0</ele></trkpt>
    <trkpt lat="34.23050" lon="-116.67884"><ele>1968.0</ele></trkpt>
    <trkpt lat="34.23047" lon="-116.67875"><ele>1968.0</ele></trkpt>
    <trkpt lat="34.23042" lon="-116.67863"><ele>1968.0</ele></trkpt>
    <trkpt lat="34.23035" lon="-116.67851"><ele>1968.0</ele></trkpt>
    <trkpt lat="34.23031" lon="-116.67841"><ele>1968.0</ele></trkpt>
    <trkpt lat="34.23030" lon="-116.67831"><ele>1962.0</ele></trkpt>
    <trkpt lat="34.23025" lon="-116.67820"><ele>1962.0</ele></trkpt>
    <trkpt lat="34.23021" lon="-116.67809"><ele>1962.0</ele></trkpt>
    <trkpt lat="34.23017" lon="-116.67796"><ele>1962.0</ele></trkpt>
    <trkpt lat="34.23012" lon="-116.67781"><ele>1962.0</ele></trkpt>
    <trkpt lat="34.23008" lon="-116.67773"><ele>1962.0</ele></trkpt>
    <trkpt lat="34.23003" lon="-116.67765"><ele>1962.0</ele></trkpt>
    <trkpt lat="34.22996" lon="-116.67755"><ele>1962.0</ele></trkpt>
    <trkpt lat="34.22986" lon="-116.67744"><ele>1962.0</ele></trkpt>
    <trkpt lat="34.22979" lon="-116.67738"><ele>1962.0</ele></trkpt>
    <trkpt lat="34.22966" lon="-116.67730"><ele>1962.0</ele></trkpt>
    <trkpt lat="34.22957" lon="-116.67724"><ele>1962.0</ele></trkpt>
    <trkpt lat="34.22942" lon="-116.67711"><ele>1962.0</ele></trkpt>
    <trkpt lat="34.22920" lon="-116.67696"><ele>1962.0</ele></trkpt>
    <trkpt lat="34.22913" lon="-116.67688"><ele>1934.0</ele></trkpt>
    <trkpt lat="34.22913" lon="-116.67669"><ele>1934.0</ele></trkpt>
    <trkpt lat="34.22912" lon="-116.67659"><ele>1934.0</ele></trkpt>
    <trkpt lat="34.22910" lon="-116.67651"><ele>1934.0</ele></trkpt>
    <trkpt lat="34.22901" lon="-116.67646"><ele>1934.0</ele></trkpt>
    <trkpt lat="34.22888" lon="-116.67637"><ele>1934.0</ele></trkpt>
    <trkpt lat="34.22878" lon="-116.67631"><ele>1934.0</ele></trkpt>
    <trkpt lat="34.22867" lon="-116.67621"><ele>1934.0</ele></trkpt>
    <trkpt lat="34.22859" lon="-116.67614"><ele>1934.0</ele></trkpt>
    <trkpt lat="34.22851" lon="-116.67609"><ele>1934.0</ele></trkpt>
    <trkpt lat="34.22837" lon="-116.67603"><ele>1934.0</ele></trkpt>
    <trkpt lat="34.22829" lon="-116.67597"><ele>1934.0</ele></trkpt>
    <trkpt lat="34.22823" lon="-116.67589"><ele>1934.0</ele></trkpt>
    <trkpt lat="34.22820" lon="-116.67580"><ele>1934.0</ele></trkpt>
    <trkpt lat="34.22818" lon="-116.67567"><ele>1934.0</ele></trkpt>
    <trkpt lat="34.22816" lon="-116.67551"><ele>1915.0</ele></trkpt>
    <trkpt lat="34.22816" lon="-116.67531"><ele>1915.0</ele></trkpt>
    <trkpt lat="34.22815" lon="-116.67516"><ele>1915.0</ele></trkpt>
    <trkpt lat="34.22813" lon="-116.67492"><ele>1915.0</ele></trkpt>
    <trkpt lat="34.22811" lon="-116.67471"><ele>1915.0</ele></trkpt>
    <trkpt lat="34.22809" lon="-116.67453"><ele>1915.0</ele></trkpt>
    <trkpt lat="34.22807" lon="-116.67442"><ele>1915.0</ele></trkpt>
  </trkseg></trk>
</gpx>
