<?xml version="1.0" encoding="UTF-8"?>
<gpx version="1.1" creator="dirt-bikes build-area-routes (MVUM geometry + SRTM elevation)" xmlns="http://www.topografix.com/GPX/1/1">
  <trk><name>Ballinger Canyon Road</name><trkseg>
    <trkpt lat="34.88678" lon="-119.50046"><ele>813.0</ele></trkpt>
    <trkpt lat="34.88679" lon="-119.50032"><ele>813.0</ele></trkpt>
    <trkpt lat="34.88680" lon="-119.50016"><ele>813.0</ele></trkpt>
    <trkpt lat="34.88682" lon="-119.49996"><ele>814.0</ele></trkpt>
    <trkpt lat="34.88683" lon="-119.49973"><ele>815.0</ele></trkpt>
    <trkpt lat="34.88683" lon="-119.49884"><ele>815.0</ele></trkpt>
    <trkpt lat="34.88683" lon="-119.49777"><ele>819.0</ele></trkpt>
    <trkpt lat="34.88685" lon="-119.49672"><ele>821.0</ele></trkpt>
    <trkpt lat="34.88684" lon="-119.49441"><ele>826.0</ele></trkpt>
    <trkpt lat="34.88684" lon="-119.49341"><ele>826.0</ele></trkpt>
    <trkpt lat="34.88683" lon="-119.49271"><ele>829.0</ele></trkpt>
    <trkpt lat="34.88681" lon="-119.49238"><ele>830.0</ele></trkpt>
    <trkpt lat="34.88679" lon="-119.49205"><ele>830.0</ele></trkpt>
    <trkpt lat="34.88672" lon="-119.49167"><ele>832.0</ele></trkpt>
    <trkpt lat="34.88667" lon="-119.49128"><ele>833.0</ele></trkpt>
    <trkpt lat="34.88664" lon="-119.49097"><ele>834.0</ele></trkpt>
    <trkpt lat="34.88664" lon="-119.49074"><ele>834.0</ele></trkpt>
    <trkpt lat="34.88667" lon="-119.49050"><ele>834.0</ele></trkpt>
    <trkpt lat="34.88668" lon="-119.49003"><ele>835.0</ele></trkpt>
    <trkpt lat="34.88666" lon="-119.48953"><ele>835.0</ele></trkpt>
    <trkpt lat="34.88660" lon="-119.48915"><ele>838.0</ele></trkpt>
    <trkpt lat="34.88654" lon="-119.48881"><ele>838.0</ele></trkpt>
    <trkpt lat="34.88646" lon="-119.48847"><ele>838.0</ele></trkpt>
    <trkpt lat="34.88639" lon="-119.48826"><ele>838.0</ele></trkpt>
    <trkpt lat="34.88635" lon="-119.48814"><ele>839.0</ele></trkpt>
    <trkpt lat="34.88626" lon="-119.48783"><ele>840.0</ele></trkpt>
    <trkpt lat="34.88618" lon="-119.48760"><ele>841.0</ele></trkpt>
    <trkpt lat="34.88601" lon="-119.48717"><ele>841.0</ele></trkpt>
    <trkpt lat="34.88580" lon="-119.48659"><ele>842.0</ele></trkpt>
    <trkpt lat="34.88544" lon="-119.48573"><ele>845.0</ele></trkpt>
    <trkpt lat="34.88522" lon="-119.48520"><ele>845.0</ele></trkpt>
    <trkpt lat="34.88513" lon="-119.48493"><ele>847.0</ele></trkpt>
    <trkpt lat="34.88502" lon="-119.48471"><ele>848.0</ele></trkpt>
    <trkpt lat="34.88494" lon="-119.48455"><ele>849.0</ele></trkpt>
    <trkpt lat="34.88483" lon="-119.48442"><ele>849.0</ele></trkpt>
    <trkpt lat="34.88464" lon="-119.48424"><ele>849.0</ele></trkpt>
    <trkpt lat="34.88445" lon="-119.48405"><ele>850.0</ele></trkpt>
    <trkpt lat="34.88435" lon="-119.48391"><ele>850.0</ele></trkpt>
    <trkpt lat="34.88431" lon="-119.48387"><ele>850.0</ele></trkpt>
    <trkpt lat="34.88421" lon="-119.48367"><ele>851.0</ele></trkpt>
    <trkpt lat="34.88412" lon="-119.48348"><ele>852.0</ele></trkpt>
    <trkpt lat="34.88406" lon="-119.48328"><ele>852.0</ele></trkpt>
    <trkpt lat="34.88399" lon="-119.48302"><ele>853.0</ele></trkpt>
    <trkpt lat="34.88393" lon="-119.48274"><ele>854.0</ele></trkpt>
    <trkpt lat="34.88386" lon="-119.48240"><ele>854.0</ele></trkpt>
    <trkpt lat="34.88378" lon="-119.48199"><ele>856.0</ele></trkpt>
    <trkpt lat="34.88370" lon="-119.48138"><ele>857.0</ele></trkpt>
    <trkpt lat="34.88366" lon="-119.48078"><ele>858.0</ele></trkpt>
    <trkpt lat="34.88363" lon="-119.47990"><ele>858.0</ele></trkpt>
    <trkpt lat="34.88352" lon="-119.47602"><ele>869.0</ele></trkpt>
    <trkpt lat="34.88350" lon="-119.47558"><ele>870.0</ele></trkpt>
    <trkpt lat="34.88351" lon="-119.47530"><ele>870.0</ele></trkpt>
    <trkpt lat="34.88356" lon="-119.47480"><ele>873.0</ele></trkpt>
    <trkpt lat="34.88360" lon="-119.47437"><ele>874.0</ele></trkpt>
    <trkpt lat="34.88362" lon="-119.47393"><ele>876.0</ele></trkpt>
    <trkpt lat="34.88366" lon="-119.47361"><ele>876.0</ele></trkpt>
    <trkpt lat="34.88367" lon="-119.47325"><ele>877.0</ele></trkpt>
    <trkpt lat="34.88366" lon="-119.47289"><ele>878.0</ele></trkpt>
    <trkpt lat="34.88365" lon="-119.47245"><ele>878.0</ele></trkpt>
    <trkpt lat="34.88365" lon="-119.47193"><ele>881.0</ele></trkpt>
    <trkpt lat="34.88367" lon="-119.47044"><ele>884.0</ele></trkpt>
    <trkpt lat="34.88365" lon="-119.46991"><ele>885.0</ele></trkpt>
    <trkpt lat="34.88365" lon="-119.46932"><ele>885.0</ele></trkpt>
    <trkpt lat="34.88365" lon="-119.46921"><ele>887.0</ele></trkpt>
    <trkpt lat="34.88363" lon="-119.46891"><ele>887.0</ele></trkpt>
    <trkpt lat="34.88356" lon="-119.46855"><ele>888.0</ele></trkpt>
    <trkpt lat="34.88354" lon="-119.46832"><ele>888.0</ele></trkpt>
    <trkpt lat="34.88352" lon="-119.46802"><ele>889.0</ele></trkpt>
    <trkpt lat="34.88352" lon="-119.46752"><ele>891.0</ele></trkpt>
    <trkpt lat="34.88350" lon="-119.46692"><ele>891.0</ele></trkpt>
    <trkpt lat="34.88347" lon="-119.46670"><ele>892.0</ele></trkpt>
    <trkpt lat="34.88344" lon="-119.46651"><ele>892.0</ele></trkpt>
    <trkpt lat="34.88340" lon="-119.46638"><ele>892.0</ele></trkpt>
    <trkpt lat="34.88335" lon="-119.46624"><ele>892.0</ele></trkpt>
    <trkpt lat="34.88329" lon="-119.46603"><ele>892.0</ele></trkpt>
    <trkpt lat="34.88312" lon="-119.46529"><ele>894.0</ele></trkpt>
    <trkpt lat="34.88301" lon="-119.46479"><ele>894.0</ele></trkpt>
    <trkpt lat="34.88294" lon="-119.46453"><ele>897.0</ele></trkpt>
    <trkpt lat="34.88290" lon="-119.46432"><ele>897.0</ele></trkpt>
    <trkpt lat="34.88285" lon="-119.46404"><ele>899.0</ele></trkpt>
    <trkpt lat="34.88281" lon="-119.46385"><ele>899.0</ele></trkpt>
    <trkpt lat="34.88273" lon="-119.46367"><ele>900.0</ele></trkpt>
    <trkpt lat="34.88265" lon="-119.46349"><ele>901.0</ele></trkpt>
    <trkpt lat="34.88241" lon="-119.46307"><ele>901.0</ele></trkpt>
    <trkpt lat="34.88231" lon="-119.46282"><ele>901.0</ele></trkpt>
    <trkpt lat="34.88220" lon="-119.46258"><ele>901.0</ele></trkpt>
    <trkpt lat="34.88214" lon="-119.46239"><ele>901.0</ele></trkpt>
    <trkpt lat="34.88210" lon="-119.46223"><ele>901.0</ele></trkpt>
    <trkpt lat="34.88209" lon="-119.46207"><ele>902.0</ele></trkpt>
    <trkpt lat="34.88210" lon="-119.46181"><ele>903.0</ele></trkpt>
    <trkpt lat="34.88214" lon="-119.46150"><ele>903.0</ele></trkpt>
    <trkpt lat="34.88214" lon="-119.46133"><ele>904.0</ele></trkpt>
    <trkpt lat="34.88212" lon="-119.46115"><ele>905.0</ele></trkpt>
    <trkpt lat="34.88185" lon="-119.45963"><ele>910.0</ele></trkpt>
    <trkpt lat="34.88167" lon="-119.45865"><ele>910.0</ele></trkpt>
    <trkpt lat="34.88162" lon="-119.45832"><ele>917.0</ele></trkpt>
    <trkpt lat="34.88149" lon="-119.45756"><ele>918.0</ele></trkpt>
    <trkpt lat="34.88125" lon="-119.45619"><ele>918.0</ele></trkpt>
    <trkpt lat="34.88104" lon="-119.45477"><ele>923.0</ele></trkpt>
    <trkpt lat="34.88093" lon="-119.45410"><ele>925.0</ele></trkpt>
    <trkpt lat="34.88085" lon="-119.45355"><ele>927.0</ele></trkpt>
    <trkpt lat="34.88084" lon="-119.45341"><ele>927.0</ele></trkpt>
    <trkpt lat="34.88083" lon="-119.45330"><ele>928.0</ele></trkpt>
    <trkpt lat="34.88083" lon="-119.45309"><ele>930.0</ele></trkpt>
    <trkpt lat="34.88083" lon="-119.45279"><ele>931.0</ele></trkpt>
    <trkpt lat="34.88085" lon="-119.45253"><ele>931.0</ele></trkpt>
    <trkpt lat="34.88093" lon="-119.45235"><ele>933.0</ele></trkpt>
    <trkpt lat="34.88104" lon="-119.45215"><ele>934.0</ele></trkpt>
    <trkpt lat="34.88182" lon="-119.45050"><ele>934.0</ele></trkpt>
    <trkpt lat="34.88232" lon="-119.44942"><ele>941.0</ele></trkpt>
    <trkpt lat="34.88278" lon="-119.44844"><ele>941.0</ele></trkpt>
    <trkpt lat="34.88321" lon="-119.44731"><ele>945.0</ele></trkpt>
    <trkpt lat="34.88341" lon="-119.44675"><ele>945.0</ele></trkpt>
    <trkpt lat="34.88355" lon="-119.44629"><ele>948.0</ele></trkpt>
    <trkpt lat="34.88361" lon="-119.44613"><ele>949.0</ele></trkpt>
    <trkpt lat="34.88363" lon="-119.44594"><ele>949.0</ele></trkpt>
    <trkpt lat="34.88364" lon="-119.44584"><ele>950.0</ele></trkpt>
    <trkpt lat="34.88365" lon="-119.44572"><ele>951.0</ele></trkpt>
    <trkpt lat="34.88367" lon="-119.44560"><ele>951.0</ele></trkpt>
    <trkpt lat="34.88370" lon="-119.44546"><ele>951.0</ele></trkpt>
    <trkpt lat="34.88373" lon="-119.44535"><ele>952.0</ele></trkpt>
    <trkpt lat="34.88375" lon="-119.44530"><ele>952.0</ele></trkpt>
    <trkpt lat="34.88381" lon="-119.44517"><ele>952.0</ele></trkpt>
    <trkpt lat="34.88396" lon="-119.44486"><ele>953.0</ele></trkpt>
    <trkpt lat="34.88432" lon="-119.44414"><ele>953.0</ele></trkpt>
  </trkseg></trk>
</gpx>
