<?xml version="1.0" encoding="UTF-8"?>
<gpx version="1.1" creator="dirt-bikes build-area-routes (MVUM geometry + SRTM elevation)" xmlns="http://www.topografix.com/GPX/1/1">
  <trk><name>Bear Valley Road</name><trkseg>
    <trkpt lat="32.81700" lon="-116.53284"><ele>1183.0</ele></trkpt>
    <trkpt lat="32.81617" lon="-116.53283"><ele>1183.0</ele></trkpt>
    <trkpt lat="32.81599" lon="-116.53257"><ele>1185.0</ele></trkpt>
    <trkpt lat="32.81575" lon="-116.53257"><ele>1185.0</ele></trkpt>
    <trkpt lat="32.81560" lon="-116.53270"><ele>1185.0</ele></trkpt>
    <trkpt lat="32.81548" lon="-116.53281"><ele>1188.0</ele></trkpt>
    <trkpt lat="32.81522" lon="-116.53276"><ele>1188.0</ele></trkpt>
    <trkpt lat="32.81478" lon="-116.53204"><ele>1188.0</ele></trkpt>
    <trkpt lat="32.81458" lon="-116.53152"><ele>1188.0</ele></trkpt>
    <trkpt lat="32.81417" lon="-116.53143"><ele>1198.0</ele></trkpt>
    <trkpt lat="32.81369" lon="-116.53120"><ele>1198.0</ele></trkpt>
    <trkpt lat="32.81337" lon="-116.53094"><ele>1198.0</ele></trkpt>
    <trkpt lat="32.81261" lon="-116.53071"><ele>1205.0</ele></trkpt>
    <trkpt lat="32.81248" lon="-116.53066"><ele>1205.0</ele></trkpt>
    <trkpt lat="32.81224" lon="-116.53048"><ele>1205.0</ele></trkpt>
    <trkpt lat="32.81207" lon="-116.53047"><ele>1208.0</ele></trkpt>
    <trkpt lat="32.81171" lon="-116.53056"><ele>1208.0</ele></trkpt>
    <trkpt lat="32.81148" lon="-116.53052"><ele>1208.0</ele></trkpt>
    <trkpt lat="32.81106" lon="-116.52991"><ele>1220.0</ele></trkpt>
    <trkpt lat="32.81096" lon="-116.52965"><ele>1220.0</ele></trkpt>
    <trkpt lat="32.81081" lon="-116.52951"><ele>1220.0</ele></trkpt>
    <trkpt lat="32.81040" lon="-116.52939"><ele>1227.0</ele></trkpt>
    <trkpt lat="32.81002" lon="-116.52898"><ele>1227.0</ele></trkpt>
    <trkpt lat="32.80976" lon="-116.52852"><ele>1227.0</ele></trkpt>
    <trkpt lat="32.80962" lon="-116.52799"><ele>1227.0</ele></trkpt>
    <trkpt lat="32.80907" lon="-116.52741"><ele>1248.0</ele></trkpt>
    <trkpt lat="32.80879" lon="-116.52714"><ele>1248.0</ele></trkpt>
    <trkpt lat="32.80877" lon="-116.52692"><ele>1248.0</ele></trkpt>
    <trkpt lat="32.80905" lon="-116.52647"><ele>1266.0</ele></trkpt>
    <trkpt lat="32.80879" lon="-116.52568"><ele>1266.0</ele></trkpt>
    <trkpt lat="32.80869" lon="-116.52534"><ele>1266.0</ele></trkpt>
    <trkpt lat="32.80822" lon="-116.52468"><ele>1283.0</ele></trkpt>
    <trkpt lat="32.80790" lon="-116.52435"><ele>1283.0</ele></trkpt>
    <trkpt lat="32.80728" lon="-116.52424"><ele>1283.0</ele></trkpt>
    <trkpt lat="32.80696" lon="-116.52451"><ele>1289.0</ele></trkpt>
    <trkpt lat="32.80665" lon="-116.52469"><ele>1289.0</ele></trkpt>
    <trkpt lat="32.80617" lon="-116.52484"><ele>1289.0</ele></trkpt>
    <trkpt lat="32.80554" lon="-116.52482"><ele>1279.0</ele></trkpt>
    <trkpt lat="32.80513" lon="-116.52481"><ele>1279.0</ele></trkpt>
    <trkpt lat="32.80488" lon="-116.52471"><ele>1279.0</ele></trkpt>
    <trkpt lat="32.80454" lon="-116.52441"><ele>1284.0</ele></trkpt>
    <trkpt lat="32.80430" lon="-116.52433"><ele>1284.0</ele></trkpt>
    <trkpt lat="32.80395" lon="-116.52434"><ele>1284.0</ele></trkpt>
    <trkpt lat="32.80341" lon="-116.52440"><ele>1284.0</ele></trkpt>
    <trkpt lat="32.80310" lon="-116.52424"><ele>1289.0</ele></trkpt>
    <trkpt lat="32.80282" lon="-116.52423"><ele>1289.0</ele></trkpt>
    <trkpt lat="32.80269" lon="-116.52433"><ele>1289.0</ele></trkpt>
    <trkpt lat="32.80271" lon="-116.52483"><ele>1288.0</ele></trkpt>
    <trkpt lat="32.80236" lon="-116.52514"><ele>1288.0</ele></trkpt>
    <trkpt lat="32.80169" lon="-116.52533"><ele>1288.0</ele></trkpt>
    <trkpt lat="32.80114" lon="-116.52503"><ele>1310.0</ele></trkpt>
    <trkpt lat="32.80085" lon="-116.52490"><ele>1310.0</ele></trkpt>
    <trkpt lat="32.80070" lon="-116.52466"><ele>1310.0</ele></trkpt>
    <trkpt lat="32.80055" lon="-116.52464"><ele>1326.0</ele></trkpt>
    <trkpt lat="32.80031" lon="-116.52439"><ele>1326.0</ele></trkpt>
    <trkpt lat="32.79996" lon="-116.52460"><ele>1326.0</ele></trkpt>
    <trkpt lat="32.79946" lon="-116.52467"><ele>1339.0</ele></trkpt>
    <trkpt lat="32.79923" lon="-116.52465"><ele>1339.0</ele></trkpt>
    <trkpt lat="32.79859" lon="-116.52449"><ele>1339.0</ele></trkpt>
    <trkpt lat="32.79803" lon="-116.52396"><ele>1339.0</ele></trkpt>
    <trkpt lat="32.79751" lon="-116.52390"><ele>1329.0</ele></trkpt>
    <trkpt lat="32.79707" lon="-116.52395"><ele>1329.0</ele></trkpt>
    <trkpt lat="32.79678" lon="-116.52388"><ele>1329.0</ele></trkpt>
    <trkpt lat="32.79647" lon="-116.52393"><ele>1319.0</ele></trkpt>
    <trkpt lat="32.79604" lon="-116.52408"><ele>1319.0</ele></trkpt>
    <trkpt lat="32.79552" lon="-116.52417"><ele>1319.0</ele></trkpt>
    <trkpt lat="32.79535" lon="-116.52398"><ele>1316.0</ele></trkpt>
    <trkpt lat="32.79532" lon="-116.52370"><ele>1316.0</ele></trkpt>
    <trkpt lat="32.79557" lon="-116.52352"><ele>1316.0</ele></trkpt>
    <trkpt lat="32.79586" lon="-116.52345"><ele>1321.0</ele></trkpt>
    <trkpt lat="32.79602" lon="-116.52326"><ele>1321.0</ele></trkpt>
    <trkpt lat="32.79615" lon="-116.52283"><ele>1321.0</ele></trkpt>
    <trkpt lat="32.79630" lon="-116.52258"><ele>1336.0</ele></trkpt>
    <trkpt lat="32.79652" lon="-116.52235"><ele>1336.0</ele></trkpt>
    <trkpt lat="32.79689" lon="-116.52224"><ele>1336.0</ele></trkpt>
    <trkpt lat="32.79726" lon="-116.52192"><ele>1336.0</ele></trkpt>
    <trkpt lat="32.79785" lon="-116.52160"><ele>1347.0</ele></trkpt>
    <trkpt lat="32.79814" lon="-116.52137"><ele>1347.0</ele></trkpt>
    <trkpt lat="32.79850" lon="-116.52121"><ele>1347.0</ele></trkpt>
    <trkpt lat="32.79869" lon="-116.52090"><ele>1345.0</ele></trkpt>
    <trkpt lat="32.79900" lon="-116.52082"><ele>1345.0</ele></trkpt>
    <trkpt lat="32.79947" lon="-116.52085"><ele>1345.0</ele></trkpt>
    <trkpt lat="32.79959" lon="-116.52064"><ele>1358.0</ele></trkpt>
    <trkpt lat="32.80054" lon="-116.52011"><ele>1358.0</ele></trkpt>
    <trkpt lat="32.80073" lon="-116.51985"><ele>1358.0</ele></trkpt>
    <trkpt lat="32.80132" lon="-116.51953"><ele>1371.0</ele></trkpt>
    <trkpt lat="32.80187" lon="-116.51938"><ele>1371.0</ele></trkpt>
    <trkpt lat="32.80226" lon="-116.51936"><ele>1371.0</ele></trkpt>
    <trkpt lat="32.80293" lon="-116.51884"><ele>1372.0</ele></trkpt>
    <trkpt lat="32.80293" lon="-116.51871"><ele>1372.0</ele></trkpt>
    <trkpt lat="32.80264" lon="-116.51838"><ele>1372.0</ele></trkpt>
    <trkpt lat="32.80226" lon="-116.51822"><ele>1372.0</ele></trkpt>
    <trkpt lat="32.80209" lon="-116.51796"><ele>1388.0</ele></trkpt>
    <trkpt lat="32.80195" lon="-116.51737"><ele>1388.0</ele></trkpt>
    <trkpt lat="32.80181" lon="-116.51723"><ele>1388.0</ele></trkpt>
    <trkpt lat="32.80148" lon="-116.51709"><ele>1392.0</ele></trkpt>
    <trkpt lat="32.80135" lon="-116.51684"><ele>1392.0</ele></trkpt>
    <trkpt lat="32.80143" lon="-116.51649"><ele>1392.0</ele></trkpt>
    <trkpt lat="32.80145" lon="-116.51638"><ele>1393.0</ele></trkpt>
    <trkpt lat="32.80150" lon="-116.51632"><ele>1393.0</ele></trkpt>
    <trkpt lat="32.80168" lon="-116.51608"><ele>1393.0</ele></trkpt>
    <trkpt lat="32.80200" lon="-116.51594"><ele>1396.0</ele></trkpt>
    <trkpt lat="32.80239" lon="-116.51593"><ele>1396.0</ele></trkpt>
    <trkpt lat="32.80261" lon="-116.51576"><ele>1396.0</ele></trkpt>
    <trkpt lat="32.80286" lon="-116.51536"><ele>1401.0</ele></trkpt>
    <trkpt lat="32.80293" lon="-116.51499"><ele>1401.0</ele></trkpt>
    <trkpt lat="32.80274" lon="-116.51448"><ele>1401.0</ele></trkpt>
    <trkpt lat="32.80249" lon="-116.51368"><ele>1404.0</ele></trkpt>
    <trkpt lat="32.80247" lon="-116.51362"><ele>1404.0</ele></trkpt>
    <trkpt lat="32.80243" lon="-116.51316"><ele>1404.0</ele></trkpt>
    <trkpt lat="32.80225" lon="-116.51279"><ele>1404.0</ele></trkpt>
    <trkpt lat="32.80146" lon="-116.51253"><ele>1406.0</ele></trkpt>
    <trkpt lat="32.80124" lon="-116.51261"><ele>1406.0</ele></trkpt>
    <trkpt lat="32.80103" lon="-116.51255"><ele>1406.0</ele></trkpt>
    <trkpt lat="32.80073" lon="-116.51221"><ele>1408.0</ele></trkpt>
    <trkpt lat="32.79987" lon="-116.51157"><ele>1408.0</ele></trkpt>
    <trkpt lat="32.79919" lon="-116.51145"><ele>1408.0</ele></trkpt>
    <trkpt lat="32.79881" lon="-116.51165"><ele>1396.0</ele></trkpt>
    <trkpt lat="32.79852" lon="-116.51168"><ele>1396.0</ele></trkpt>
    <trkpt lat="32.79786" lon="-116.51137"><ele>1396.0</ele></trkpt>
    <trkpt lat="32.79778" lon="-116.51133"><ele>1391.0</ele></trkpt>
    <trkpt lat="32.79769" lon="-116.51114"><ele>1391.0</ele></trkpt>
    <trkpt lat="32.79769" lon="-116.51057"><ele>1391.0</ele></trkpt>
    <trkpt lat="32.79760" lon="-116.51004"><ele>1389.0</ele></trkpt>
    <trkpt lat="32.79758" lon="-116.50975"><ele>1389.0</ele></trkpt>
    <trkpt lat="32.79753" lon="-116.50960"><ele>1389.0</ele></trkpt>
    <trkpt lat="32.79750" lon="-116.50949"><ele>1389.0</ele></trkpt>
    <trkpt lat="32.79745" lon="-116.50944"><ele>1391.0</ele></trkpt>
    <trkpt lat="32.79735" lon="-116.50934"><ele>1391.0</ele></trkpt>
    <trkpt lat="32.79677" lon="-116.50935"><ele>1391.0</ele></trkpt>
    <trkpt lat="32.79659" lon="-116.50929"><ele>1389.0</ele></trkpt>
    <trkpt lat="32.79612" lon="-116.50973"><ele>1389.0</ele></trkpt>
    <trkpt lat="32.79574" lon="-116.50970"><ele>1389.0</ele></trkpt>
    <trkpt lat="32.79568" lon="-116.50970"><ele>1390.0</ele></trkpt>
    <trkpt lat="32.79492" lon="-116.50961"><ele>1390.0</ele></trkpt>
    <trkpt lat="32.79400" lon="-116.50925"><ele>1390.0</ele></trkpt>
    <trkpt lat="32.79350" lon="-116.50921"><ele>1396.0</ele></trkpt>
    <trkpt lat="32.79323" lon="-116.50909"><ele>1396.0</ele></trkpt>
    <trkpt lat="32.79302" lon="-116.50900"><ele>1396.0</ele></trkpt>
    <trkpt lat="32.79271" lon="-116.50899"><ele>1395.0</ele></trkpt>
    <trkpt lat="32.79232" lon="-116.50873"><ele>1395.0</ele></trkpt>
    <trkpt lat="32.79226" lon="-116.50869"><ele>1395.0</ele></trkpt>
    <trkpt lat="32.79195" lon="-116.50855"><ele>1395.0</ele></trkpt>
    <trkpt lat="32.79083" lon="-116.50813"><ele>1384.0</ele></trkpt>
    <trkpt lat="32.79048" lon="-116.50795"><ele>1384.0</ele></trkpt>
    <trkpt lat="32.79013" lon="-116.50810"><ele>1384.0</ele></trkpt>
    <trkpt lat="32.78971" lon="-116.50814"><ele>1378.0</ele></trkpt>
    <trkpt lat="32.78934" lon="-116.50798"><ele>1378.0</ele></trkpt>
    <trkpt lat="32.78919" lon="-116.50792"><ele>1378.0</ele></trkpt>
    <trkpt lat="32.78881" lon="-116.50787"><ele>1378.0</ele></trkpt>
    <trkpt lat="32.78837" lon="-116.50763"><ele>1378.0</ele></trkpt>
    <trkpt lat="32.78783" lon="-116.50771"><ele>1378.0</ele></trkpt>
    <trkpt lat="32.78736" lon="-116.50735"><ele>1371.0</ele></trkpt>
    <trkpt lat="32.78712" lon="-116.50742"><ele>1371.0</ele></trkpt>
    <trkpt lat="32.78690" lon="-116.50761"><ele>1371.0</ele></trkpt>
    <trkpt lat="32.78676" lon="-116.50773"><ele>1368.0</ele></trkpt>
    <trkpt lat="32.78656" lon="-116.50780"><ele>1368.0</ele></trkpt>
    <trkpt lat="32.78623" lon="-116.50769"><ele>1368.0</ele></trkpt>
    <trkpt lat="32.78596" lon="-116.50741"><ele>1368.0</ele></trkpt>
    <trkpt lat="32.78588" lon="-116.50739"><ele>1371.0</ele></trkpt>
    <trkpt lat="32.78540" lon="-116.50732"><ele>1371.0</ele></trkpt>
    <trkpt lat="32.78486" lon="-116.50706"><ele>1371.0</ele></trkpt>
    <trkpt lat="32.78464" lon="-116.50678"><ele>1368.0</ele></trkpt>
    <trkpt lat="32.78457" lon="-116.50586"><ele>1368.0</ele></trkpt>
    <trkpt lat="32.78426" lon="-116.50573"><ele>1368.0</ele></trkpt>
    <trkpt lat="32.78392" lon="-116.50538"><ele>1356.0</ele></trkpt>
    <trkpt lat="32.78358" lon="-116.50535"><ele>1356.0</ele></trkpt>
    <trkpt lat="32.78315" lon="-116.50490"><ele>1356.0</ele></trkpt>
    <trkpt lat="32.78253" lon="-116.50455"><ele>1334.0</ele></trkpt>
    <trkpt lat="32.78223" lon="-116.50467"><ele>1334.0</ele></trkpt>
    <trkpt lat="32.78190" lon="-116.50462"><ele>1334.0</ele></trkpt>
    <trkpt lat="32.78148" lon="-116.50428"><ele>1308.0</ele></trkpt>
    <trkpt lat="32.78085" lon="-116.50432"><ele>1308.0</ele></trkpt>
    <trkpt lat="32.78049" lon="-116.50466"><ele>1308.0</ele></trkpt>
    <trkpt lat="32.78045" lon="-116.50496"><ele>1308.0</ele></trkpt>
    <trkpt lat="32.78055" lon="-116.50539"><ele>1295.0</ele></trkpt>
    <trkpt lat="32.78021" lon="-116.50562"><ele>1295.0</ele></trkpt>
    <trkpt lat="32.77984" lon="-116.50577"><ele>1295.0</ele></trkpt>
    <trkpt lat="32.77934" lon="-116.50562"><ele>1284.0</ele></trkpt>
    <trkpt lat="32.77890" lon="-116.50572"><ele>1284.0</ele></trkpt>
    <trkpt lat="32.77842" lon="-116.50556"><ele>1284.0</ele></trkpt>
    <trkpt lat="32.77755" lon="-116.50561"><ele>1275.0</ele></trkpt>
    <trkpt lat="32.77719" lon="-116.50582"><ele>1275.0</ele></trkpt>
    <trkpt lat="32.77699" lon="-116.50602"><ele>1275.0</ele></trkpt>
    <trkpt lat="32.77660" lon="-116.50611"><ele>1274.0</ele></trkpt>
    <trkpt lat="32.77647" lon="-116.50624"><ele>1274.0</ele></trkpt>
    <trkpt lat="32.77630" lon="-116.50639"><ele>1274.0</ele></trkpt>
    <trkpt lat="32.77619" lon="-116.50662"><ele>1272.0</ele></trkpt>
    <trkpt lat="32.77611" lon="-116.50680"><ele>1272.0</ele></trkpt>
    <trkpt lat="32.77601" lon="-116.50701"><ele>1272.0</ele></trkpt>
    <trkpt lat="32.77588" lon="-116.50731"><ele>1268.0</ele></trkpt>
    <trkpt lat="32.77473" lon="-116.50825"><ele>1268.0</ele></trkpt>
    <trkpt lat="32.77463" lon="-116.50889"><ele>1268.0</ele></trkpt>
    <trkpt lat="32.77402" lon="-116.50998"><ele>1268.0</ele></trkpt>
    <trkpt lat="32.77341" lon="-116.51106"><ele>1267.0</ele></trkpt>
    <trkpt lat="32.77321" lon="-116.51144"><ele>1267.0</ele></trkpt>
    <trkpt lat="32.77312" lon="-116.51194"><ele>1267.0</ele></trkpt>
    <trkpt lat="32.77189" lon="-116.51290"><ele>1271.0</ele></trkpt>
    <trkpt lat="32.77017" lon="-116.51133"><ele>1271.0</ele></trkpt>
    <trkpt lat="32.76968" lon="-116.51111"><ele>1271.0</ele></trkpt>
    <trkpt lat="32.76755" lon="-116.51029"><ele>1280.0</ele></trkpt>
    <trkpt lat="32.76657" lon="-116.50980"><ele>1280.0</ele></trkpt>
    <trkpt lat="32.76637" lon="-116.50887"><ele>1280.0</ele></trkpt>
    <trkpt lat="32.76607" lon="-116.50845"><ele>1268.0</ele></trkpt>
    <trkpt lat="32.76552" lon="-116.50824"><ele>1268.0</ele></trkpt>
    <trkpt lat="32.76536" lon="-116.50793"><ele>1268.0</ele></trkpt>
    <trkpt lat="32.76525" lon="-116.50754"><ele>1264.0</ele></trkpt>
    <trkpt lat="32.76520" lon="-116.50735"><ele>1264.0</ele></trkpt>
    <trkpt lat="32.76499" lon="-116.50705"><ele>1264.0</ele></trkpt>
    <trkpt lat="32.76483" lon="-116.50681"><ele>1264.0</ele></trkpt>
    <trkpt lat="32.76401" lon="-116.50692"><ele>1256.0</ele></trkpt>
    <trkpt lat="32.76315" lon="-116.50695"><ele>1256.0</ele></trkpt>
    <trkpt lat="32.76272" lon="-116.50688"><ele>1256.0</ele></trkpt>
    <trkpt lat="32.76206" lon="-116.50740"><ele>1249.0</ele></trkpt>
    <trkpt lat="32.76183" lon="-116.50746"><ele>1249.0</ele></trkpt>
    <trkpt lat="32.76160" lon="-116.50741"><ele>1249.0</ele></trkpt>
    <trkpt lat="32.76138" lon="-116.50731"><ele>1241.0</ele></trkpt>
    <trkpt lat="32.76079" lon="-116.50737"><ele>1241.0</ele></trkpt>
    <trkpt lat="32.76038" lon="-116.50730"><ele>1241.0</ele></trkpt>
    <trkpt lat="32.76030" lon="-116.50723"><ele>1242.0</ele></trkpt>
    <trkpt lat="32.75958" lon="-116.50738"><ele>1242.0</ele></trkpt>
    <trkpt lat="32.75953" lon="-116.50740"><ele>1242.0</ele></trkpt>
    <trkpt lat="32.75953" lon="-116.50740"><ele>1242.0</ele></trkpt>
    <trkpt lat="32.75945" lon="-116.50744"><ele>1242.0</ele></trkpt>
    <trkpt lat="32.75895" lon="-116.50769"><ele>1242.0</ele></trkpt>
    <trkpt lat="32.75878" lon="-116.50770"><ele>1242.0</ele></trkpt>
    <trkpt lat="32.75831" lon="-116.50757"><ele>1228.0</ele></trkpt>
    <trkpt lat="32.75806" lon="-116.50760"><ele>1228.0</ele></trkpt>
    <trkpt lat="32.75773" lon="-116.50784"><ele>1228.0</ele></trkpt>
    <trkpt lat="32.75759" lon="-116.50782"><ele>1219.0</ele></trkpt>
    <trkpt lat="32.75749" lon="-116.50776"><ele>1219.0</ele></trkpt>
    <trkpt lat="32.75732" lon="-116.50786"><ele>1219.0</ele></trkpt>
    <trkpt lat="32.75719" lon="-116.50813"><ele>1204.0</ele></trkpt>
    <trkpt lat="32.75659" lon="-116.50850"><ele>1204.0</ele></trkpt>
    <trkpt lat="32.75625" lon="-116.50891"><ele>1204.0</ele></trkpt>
    <trkpt lat="32.75614" lon="-116.50933"><ele>1180.0</ele></trkpt>
    <trkpt lat="32.75585" lon="-116.50968"><ele>1180.0</ele></trkpt>
    <trkpt lat="32.75568" lon="-116.50960"><ele>1180.0</ele></trkpt>
    <trkpt lat="32.75562" lon="-116.50910"><ele>1180.0</ele></trkpt>
    <trkpt lat="32.75568" lon="-116.50861"><ele>1180.0</ele></trkpt>
    <trkpt lat="32.75578" lon="-116.50846"><ele>1180.0</ele></trkpt>
    <trkpt lat="32.75578" lon="-116.50823"><ele>1180.0</ele></trkpt>
    <trkpt lat="32.75531" lon="-116.50788"><ele>1148.0</ele></trkpt>
    <trkpt lat="32.75455" lon="-116.50750"><ele>1148.0</ele></trkpt>
    <trkpt lat="32.75440" lon="-116.50731"><ele>1148.0</ele></trkpt>
    <trkpt lat="32.75441" lon="-116.50703"><ele>1137.0</ele></trkpt>
    <trkpt lat="32.75472" lon="-116.50670"><ele>1137.0</ele></trkpt>
    <trkpt lat="32.75512" lon="-116.50671"><ele>1137.0</ele></trkpt>
    <trkpt lat="32.75522" lon="-116.50662"><ele>1145.0</ele></trkpt>
    <trkpt lat="32.75529" lon="-116.50639"><ele>1145.0</ele></trkpt>
    <trkpt lat="32.75518" lon="-116.50624"><ele>1145.0</ele></trkpt>
    <trkpt lat="32.75509" lon="-116.50567"><ele>1116.0</ele></trkpt>
    <trkpt lat="32.75493" lon="-116.50528"><ele>1116.0</ele></trkpt>
    <trkpt lat="32.75470" lon="-116.50488"><ele>1116.0</ele></trkpt>
    <trkpt lat="32.75429" lon="-116.50438"><ele>1096.0</ele></trkpt>
    <trkpt lat="32.75356" lon="-116.50407"><ele>1096.0</ele></trkpt>
    <trkpt lat="32.75335" lon="-116.50371"><ele>1096.0</ele></trkpt>
    <trkpt lat="32.75286" lon="-116.50361"><ele>1081.0</ele></trkpt>
    <trkpt lat="32.75255" lon="-116.50369"><ele>1081.0</ele></trkpt>
    <trkpt lat="32.75227" lon="-116.50362"><ele>1081.0</ele></trkpt>
    <trkpt lat="32.75173" lon="-116.50311"><ele>1081.0</ele></trkpt>
    <trkpt lat="32.75149" lon="-116.50303"><ele>1052.0</ele></trkpt>
    <trkpt lat="32.75110" lon="-116.50323"><ele>1052.0</ele></trkpt>
    <trkpt lat="32.75093" lon="-116.50349"><ele>1052.0</ele></trkpt>
    <trkpt lat="32.75073" lon="-116.50402"><ele>1045.0</ele></trkpt>
    <trkpt lat="32.75060" lon="-116.50412"><ele>1045.0</ele></trkpt>
    <trkpt lat="32.75035" lon="-116.50404"><ele>1045.0</ele></trkpt>
    <trkpt lat="32.75003" lon="-116.50375"><ele>1020.0</ele></trkpt>
    <trkpt lat="32.74935" lon="-116.50258"><ele>1020.0</ele></trkpt>
    <trkpt lat="32.74924" lon="-116.50222"><ele>1020.0</ele></trkpt>
    <trkpt lat="32.74909" lon="-116.50101"><ele>1004.0</ele></trkpt>
    <trkpt lat="32.74910" lon="-116.50032"><ele>1004.0</ele></trkpt>
    <trkpt lat="32.74922" lon="-116.49987"><ele>1004.0</ele></trkpt>
    <trkpt lat="32.74935" lon="-116.49956"><ele>996.0</ele></trkpt>
    <trkpt lat="32.74943" lon="-116.49914"><ele>996.0</ele></trkpt>
    <trkpt lat="32.74947" lon="-116.49827"><ele>996.0</ele></trkpt>
    <trkpt lat="32.74947" lon="-116.49818"><ele>996.0</ele></trkpt>
    <trkpt lat="32.74946" lon="-116.49708"><ele>989.0</ele></trkpt>
    <trkpt lat="32.74935" lon="-116.49665"><ele>989.0</ele></trkpt>
    <trkpt lat="32.74887" lon="-116.49592"><ele>989.0</ele></trkpt>
    <trkpt lat="32.74880" lon="-116.49584"><ele>985.0</ele></trkpt>
    <trkpt lat="32.74862" lon="-116.49559"><ele>985.0</ele></trkpt>
    <trkpt lat="32.74859" lon="-116.49536"><ele>985.0</ele></trkpt>
    <trkpt lat="32.74866" lon="-116.49421"><ele>980.0</ele></trkpt>
    <trkpt lat="32.74872" lon="-116.49391"><ele>980.0</ele></trkpt>
  </trkseg></trk>
</gpx>
