<?xml version="1.0" encoding="UTF-8"?>
<gpx version="1.1" creator="dirt-bikes build-area-routes (MVUM geometry + SRTM elevation)" xmlns="http://www.topografix.com/GPX/1/1">
  <trk><name>Bedford Ridge Road</name><trkseg>
    <trkpt lat="33.79476" lon="-117.53744"><ele>644.0</ele></trkpt>
    <trkpt lat="33.79484" lon="-117.53743"><ele>644.0</ele></trkpt>
    <trkpt lat="33.79496" lon="-117.53755"><ele>642.0</ele></trkpt>
    <trkpt lat="33.79496" lon="-117.53768"><ele>642.0</ele></trkpt>
    <trkpt lat="33.79494" lon="-117.53781"><ele>644.0</ele></trkpt>
    <trkpt lat="33.79472" lon="-117.53821"><ele>644.0</ele></trkpt>
    <trkpt lat="33.79420" lon="-117.53819"><ele>644.0</ele></trkpt>
    <trkpt lat="33.79387" lon="-117.53836"><ele>657.0</ele></trkpt>
    <trkpt lat="33.79373" lon="-117.53838"><ele>657.0</ele></trkpt>
    <trkpt lat="33.79363" lon="-117.53830"><ele>664.0</ele></trkpt>
    <trkpt lat="33.79344" lon="-117.53823"><ele>664.0</ele></trkpt>
    <trkpt lat="33.79324" lon="-117.53823"><ele>674.0</ele></trkpt>
    <trkpt lat="33.79308" lon="-117.53811"><ele>674.0</ele></trkpt>
    <trkpt lat="33.79293" lon="-117.53800"><ele>685.0</ele></trkpt>
    <trkpt lat="33.79270" lon="-117.53787"><ele>685.0</ele></trkpt>
    <trkpt lat="33.79259" lon="-117.53769"><ele>685.0</ele></trkpt>
    <trkpt lat="33.79248" lon="-117.53752"><ele>686.0</ele></trkpt>
    <trkpt lat="33.79234" lon="-117.53745"><ele>686.0</ele></trkpt>
    <trkpt lat="33.79223" lon="-117.53757"><ele>681.0</ele></trkpt>
    <trkpt lat="33.79219" lon="-117.53775"><ele>681.0</ele></trkpt>
    <trkpt lat="33.79237" lon="-117.53902"><ele>690.0</ele></trkpt>
    <trkpt lat="33.79232" lon="-117.53912"><ele>690.0</ele></trkpt>
    <trkpt lat="33.79219" lon="-117.53932"><ele>690.0</ele></trkpt>
    <trkpt lat="33.79185" lon="-117.53961"><ele>700.0</ele></trkpt>
    <trkpt lat="33.79136" lon="-117.54002"><ele>700.0</ele></trkpt>
    <trkpt lat="33.79119" lon="-117.54029"><ele>714.0</ele></trkpt>
    <trkpt lat="33.79104" lon="-117.54055"><ele>714.0</ele></trkpt>
    <trkpt lat="33.79098" lon="-117.54082"><ele>723.0</ele></trkpt>
    <trkpt lat="33.79092" lon="-117.54111"><ele>723.0</ele></trkpt>
    <trkpt lat="33.79090" lon="-117.54123"><ele>730.0</ele></trkpt>
    <trkpt lat="33.79079" lon="-117.54132"><ele>730.0</ele></trkpt>
    <trkpt lat="33.79064" lon="-117.54139"><ele>730.0</ele></trkpt>
    <trkpt lat="33.79050" lon="-117.54161"><ele>738.0</ele></trkpt>
    <trkpt lat="33.79035" lon="-117.54174"><ele>738.0</ele></trkpt>
    <trkpt lat="33.79017" lon="-117.54187"><ele>742.0</ele></trkpt>
    <trkpt lat="33.78995" lon="-117.54203"><ele>742.0</ele></trkpt>
    <trkpt lat="33.78980" lon="-117.54219"><ele>744.0</ele></trkpt>
    <trkpt lat="33.78952" lon="-117.54211"><ele>744.0</ele></trkpt>
    <trkpt lat="33.78921" lon="-117.54187"><ele>765.0</ele></trkpt>
    <trkpt lat="33.78912" lon="-117.54166"><ele>765.0</ele></trkpt>
    <trkpt lat="33.78901" lon="-117.54127"><ele>765.0</ele></trkpt>
    <trkpt lat="33.78895" lon="-117.54087"><ele>771.0</ele></trkpt>
    <trkpt lat="33.78889" lon="-117.54069"><ele>771.0</ele></trkpt>
    <trkpt lat="33.78861" lon="-117.54057"><ele>775.0</ele></trkpt>
    <trkpt lat="33.78848" lon="-117.54039"><ele>775.0</ele></trkpt>
    <trkpt lat="33.78833" lon="-117.54014"><ele>783.0</ele></trkpt>
    <trkpt lat="33.78819" lon="-117.54005"><ele>783.0</ele></trkpt>
    <trkpt lat="33.78801" lon="-117.54011"><ele>783.0</ele></trkpt>
    <trkpt lat="33.78788" lon="-117.54043"><ele>783.0</ele></trkpt>
    <trkpt lat="33.78774" lon="-117.54055"><ele>783.0</ele></trkpt>
    <trkpt lat="33.78758" lon="-117.54055"><ele>784.0</ele></trkpt>
    <trkpt lat="33.78745" lon="-117.54041"><ele>784.0</ele></trkpt>
    <trkpt lat="33.78721" lon="-117.54011"><ele>791.0</ele></trkpt>
    <trkpt lat="33.78703" lon="-117.54006"><ele>791.0</ele></trkpt>
    <trkpt lat="33.78683" lon="-117.54010"><ele>802.0</ele></trkpt>
    <trkpt lat="33.78637" lon="-117.54066"><ele>802.0</ele></trkpt>
    <trkpt lat="33.78634" lon="-117.54088"><ele>802.0</ele></trkpt>
    <trkpt lat="33.78625" lon="-117.54107"><ele>800.0</ele></trkpt>
    <trkpt lat="33.78609" lon="-117.54126"><ele>800.0</ele></trkpt>
    <trkpt lat="33.78582" lon="-117.54149"><ele>803.0</ele></trkpt>
    <trkpt lat="33.78559" lon="-117.54147"><ele>803.0</ele></trkpt>
    <trkpt lat="33.78535" lon="-117.54137"><ele>811.0</ele></trkpt>
    <trkpt lat="33.78517" lon="-117.54119"><ele>811.0</ele></trkpt>
    <trkpt lat="33.78506" lon="-117.54116"><ele>811.0</ele></trkpt>
    <trkpt lat="33.78490" lon="-117.54124"><ele>814.0</ele></trkpt>
    <trkpt lat="33.78472" lon="-117.54158"><ele>814.0</ele></trkpt>
    <trkpt lat="33.78458" lon="-117.54180"><ele>822.0</ele></trkpt>
    <trkpt lat="33.78437" lon="-117.54197"><ele>822.0</ele></trkpt>
    <trkpt lat="33.78400" lon="-117.54270"><ele>835.0</ele></trkpt>
    <trkpt lat="33.78383" lon="-117.54310"><ele>835.0</ele></trkpt>
    <trkpt lat="33.78369" lon="-117.54323"><ele>845.0</ele></trkpt>
    <trkpt lat="33.78347" lon="-117.54317"><ele>845.0</ele></trkpt>
    <trkpt lat="33.78309" lon="-117.54294"><ele>845.0</ele></trkpt>
    <trkpt lat="33.78292" lon="-117.54288"><ele>847.0</ele></trkpt>
    <trkpt lat="33.78265" lon="-117.54291"><ele>847.0</ele></trkpt>
    <trkpt lat="33.78249" lon="-117.54285"><ele>849.0</ele></trkpt>
    <trkpt lat="33.78240" lon="-117.54265"><ele>849.0</ele></trkpt>
    <trkpt lat="33.78241" lon="-117.54231"><ele>837.0</ele></trkpt>
    <trkpt lat="33.78238" lon="-117.54208"><ele>837.0</ele></trkpt>
    <trkpt lat="33.78194" lon="-117.54167"><ele>837.0</ele></trkpt>
    <trkpt lat="33.78186" lon="-117.54146"><ele>827.0</ele></trkpt>
    <trkpt lat="33.78195" lon="-117.54116"><ele>827.0</ele></trkpt>
    <trkpt lat="33.78208" lon="-117.54076"><ele>827.0</ele></trkpt>
    <trkpt lat="33.78207" lon="-117.54062"><ele>827.0</ele></trkpt>
    <trkpt lat="33.78192" lon="-117.54040"><ele>829.0</ele></trkpt>
    <trkpt lat="33.78181" lon="-117.54004"><ele>829.0</ele></trkpt>
    <trkpt lat="33.78160" lon="-117.53981"><ele>828.0</ele></trkpt>
    <trkpt lat="33.78136" lon="-117.53938"><ele>828.0</ele></trkpt>
    <trkpt lat="33.78133" lon="-117.53926"><ele>828.0</ele></trkpt>
    <trkpt lat="33.78119" lon="-117.53898"><ele>826.0</ele></trkpt>
    <trkpt lat="33.78105" lon="-117.53863"><ele>826.0</ele></trkpt>
    <trkpt lat="33.78098" lon="-117.53815"><ele>828.0</ele></trkpt>
    <trkpt lat="33.78096" lon="-117.53784"><ele>828.0</ele></trkpt>
    <trkpt lat="33.78091" lon="-117.53773"><ele>826.0</ele></trkpt>
    <trkpt lat="33.78066" lon="-117.53740"><ele>826.0</ele></trkpt>
    <trkpt lat="33.78046" lon="-117.53722"><ele>826.0</ele></trkpt>
    <trkpt lat="33.78027" lon="-117.53711"><ele>823.0</ele></trkpt>
    <trkpt lat="33.77989" lon="-117.53681"><ele>823.0</ele></trkpt>
    <trkpt lat="33.77957" lon="-117.53660"><ele>824.0</ele></trkpt>
    <trkpt lat="33.77928" lon="-117.53645"><ele>824.0</ele></trkpt>
    <trkpt lat="33.77908" lon="-117.53643"><ele>823.0</ele></trkpt>
    <trkpt lat="33.77877" lon="-117.53641"><ele>823.0</ele></trkpt>
    <trkpt lat="33.77858" lon="-117.53640"><ele>836.0</ele></trkpt>
    <trkpt lat="33.77822" lon="-117.53631"><ele>836.0</ele></trkpt>
    <trkpt lat="33.77803" lon="-117.53623"><ele>836.0</ele></trkpt>
    <trkpt lat="33.77791" lon="-117.53601"><ele>844.0</ele></trkpt>
    <trkpt lat="33.77778" lon="-117.53592"><ele>844.0</ele></trkpt>
    <trkpt lat="33.77755" lon="-117.53581"><ele>853.0</ele></trkpt>
    <trkpt lat="33.77740" lon="-117.53581"><ele>853.0</ele></trkpt>
    <trkpt lat="33.77728" lon="-117.53589"><ele>853.0</ele></trkpt>
    <trkpt lat="33.77722" lon="-117.53608"><ele>853.0</ele></trkpt>
    <trkpt lat="33.77710" lon="-117.53624"><ele>855.0</ele></trkpt>
    <trkpt lat="33.77685" lon="-117.53630"><ele>855.0</ele></trkpt>
    <trkpt lat="33.77666" lon="-117.53641"><ele>855.0</ele></trkpt>
    <trkpt lat="33.77639" lon="-117.53656"><ele>861.0</ele></trkpt>
    <trkpt lat="33.77609" lon="-117.53671"><ele>861.0</ele></trkpt>
    <trkpt lat="33.77582" lon="-117.53682"><ele>868.0</ele></trkpt>
    <trkpt lat="33.77569" lon="-117.53690"><ele>868.0</ele></trkpt>
    <trkpt lat="33.77556" lon="-117.53704"><ele>872.0</ele></trkpt>
    <trkpt lat="33.77547" lon="-117.53724"><ele>872.0</ele></trkpt>
    <trkpt lat="33.77548" lon="-117.53757"><ele>872.0</ele></trkpt>
    <trkpt lat="33.77540" lon="-117.53787"><ele>874.0</ele></trkpt>
    <trkpt lat="33.77528" lon="-117.53809"><ele>874.0</ele></trkpt>
    <trkpt lat="33.77509" lon="-117.53820"><ele>876.0</ele></trkpt>
    <trkpt lat="33.77494" lon="-117.53822"><ele>876.0</ele></trkpt>
    <trkpt lat="33.77446" lon="-117.53826"><ele>874.0</ele></trkpt>
    <trkpt lat="33.77424" lon="-117.53830"><ele>874.0</ele></trkpt>
    <trkpt lat="33.77403" lon="-117.53843"><ele>871.0</ele></trkpt>
    <trkpt lat="33.77403" lon="-117.53843"><ele>871.0</ele></trkpt>
    <trkpt lat="33.77375" lon="-117.53896"><ele>871.0</ele></trkpt>
    <trkpt lat="33.77362" lon="-117.53933"><ele>878.0</ele></trkpt>
    <trkpt lat="33.77356" lon="-117.53956"><ele>878.0</ele></trkpt>
    <trkpt lat="33.77355" lon="-117.53991"><ele>888.0</ele></trkpt>
    <trkpt lat="33.77346" lon="-117.54037"><ele>888.0</ele></trkpt>
    <trkpt lat="33.77344" lon="-117.54059"><ele>905.0</ele></trkpt>
    <trkpt lat="33.77349" lon="-117.54096"><ele>905.0</ele></trkpt>
    <trkpt lat="33.77354" lon="-117.54133"><ele>905.0</ele></trkpt>
    <trkpt lat="33.77343" lon="-117.54160"><ele>917.0</ele></trkpt>
    <trkpt lat="33.77341" lon="-117.54182"><ele>917.0</ele></trkpt>
    <trkpt lat="33.77342" lon="-117.54225"><ele>932.0</ele></trkpt>
    <trkpt lat="33.77332" lon="-117.54247"><ele>932.0</ele></trkpt>
    <trkpt lat="33.77316" lon="-117.54253"><ele>931.0</ele></trkpt>
    <trkpt lat="33.77311" lon="-117.54263"><ele>931.0</ele></trkpt>
    <trkpt lat="33.77298" lon="-117.54279"><ele>934.0</ele></trkpt>
    <trkpt lat="33.77286" lon="-117.54293"><ele>934.0</ele></trkpt>
    <trkpt lat="33.77276" lon="-117.54309"><ele>934.0</ele></trkpt>
    <trkpt lat="33.77273" lon="-117.54326"><ele>939.0</ele></trkpt>
    <trkpt lat="33.77271" lon="-117.54347"><ele>939.0</ele></trkpt>
    <trkpt lat="33.77261" lon="-117.54371"><ele>947.0</ele></trkpt>
    <trkpt lat="33.77247" lon="-117.54395"><ele>947.0</ele></trkpt>
    <trkpt lat="33.77239" lon="-117.54415"><ele>954.0</ele></trkpt>
    <trkpt lat="33.77193" lon="-117.54477"><ele>954.0</ele></trkpt>
    <trkpt lat="33.77185" lon="-117.54496"><ele>954.0</ele></trkpt>
    <trkpt lat="33.77160" lon="-117.54520"><ele>961.0</ele></trkpt>
    <trkpt lat="33.77147" lon="-117.54543"><ele>961.0</ele></trkpt>
    <trkpt lat="33.77086" lon="-117.54622"><ele>970.0</ele></trkpt>
    <trkpt lat="33.77073" lon="-117.54646"><ele>970.0</ele></trkpt>
    <trkpt lat="33.77066" lon="-117.54661"><ele>977.0</ele></trkpt>
    <trkpt lat="33.77064" lon="-117.54689"><ele>977.0</ele></trkpt>
    <trkpt lat="33.77054" lon="-117.54707"><ele>973.0</ele></trkpt>
    <trkpt lat="33.77043" lon="-117.54718"><ele>973.0</ele></trkpt>
    <trkpt lat="33.77019" lon="-117.54728"><ele>973.0</ele></trkpt>
    <trkpt lat="33.76995" lon="-117.54730"><ele>981.0</ele></trkpt>
    <trkpt lat="33.76977" lon="-117.54739"><ele>981.0</ele></trkpt>
    <trkpt lat="33.76948" lon="-117.54760"><ele>992.0</ele></trkpt>
    <trkpt lat="33.76933" lon="-117.54774"><ele>992.0</ele></trkpt>
    <trkpt lat="33.76926" lon="-117.54795"><ele>996.0</ele></trkpt>
    <trkpt lat="33.76914" lon="-117.54815"><ele>996.0</ele></trkpt>
    <trkpt lat="33.76903" lon="-117.54824"><ele>996.0</ele></trkpt>
    <trkpt lat="33.76888" lon="-117.54822"><ele>1000.0</ele></trkpt>
    <trkpt lat="33.76883" lon="-117.54818"><ele>1000.0</ele></trkpt>
    <trkpt lat="33.76871" lon="-117.54809"><ele>1005.0</ele></trkpt>
    <trkpt lat="33.76854" lon="-117.54803"><ele>1005.0</ele></trkpt>
    <trkpt lat="33.76818" lon="-117.54806"><ele>1018.0</ele></trkpt>
    <trkpt lat="33.76787" lon="-117.54813"><ele>1018.0</ele></trkpt>
    <trkpt lat="33.76762" lon="-117.54833"><ele>1031.0</ele></trkpt>
    <trkpt lat="33.76749" lon="-117.54852"><ele>1031.0</ele></trkpt>
    <trkpt lat="33.76734" lon="-117.54881"><ele>1031.0</ele></trkpt>
    <trkpt lat="33.76719" lon="-117.54897"><ele>1032.0</ele></trkpt>
    <trkpt lat="33.76707" lon="-117.54898"><ele>1032.0</ele></trkpt>
    <trkpt lat="33.76694" lon="-117.54892"><ele>1038.0</ele></trkpt>
    <trkpt lat="33.76675" lon="-117.54873"><ele>1038.0</ele></trkpt>
    <trkpt lat="33.76646" lon="-117.54868"><ele>1046.0</ele></trkpt>
    <trkpt lat="33.76641" lon="-117.54871"><ele>1046.0</ele></trkpt>
    <trkpt lat="33.76631" lon="-117.54878"><ele>1046.0</ele></trkpt>
    <trkpt lat="33.76607" lon="-117.54890"><ele>1046.0</ele></trkpt>
    <trkpt lat="33.76564" lon="-117.54896"><ele>1046.0</ele></trkpt>
    <trkpt lat="33.76543" lon="-117.54909"><ele>1057.0</ele></trkpt>
    <trkpt lat="33.76500" lon="-117.54913"><ele>1057.0</ele></trkpt>
    <trkpt lat="33.76462" lon="-117.54931"><ele>1076.0</ele></trkpt>
    <trkpt lat="33.76448" lon="-117.54942"><ele>1076.0</ele></trkpt>
    <trkpt lat="33.76434" lon="-117.54951"><ele>1088.0</ele></trkpt>
    <trkpt lat="33.76382" lon="-117.54953"><ele>1088.0</ele></trkpt>
    <trkpt lat="33.76342" lon="-117.54969"><ele>1088.0</ele></trkpt>
    <trkpt lat="33.76328" lon="-117.54978"><ele>1099.0</ele></trkpt>
    <trkpt lat="33.76316" lon="-117.54993"><ele>1099.0</ele></trkpt>
    <trkpt lat="33.76307" lon="-117.55004"><ele>1109.0</ele></trkpt>
    <trkpt lat="33.76290" lon="-117.55011"><ele>1109.0</ele></trkpt>
    <trkpt lat="33.76274" lon="-117.55032"><ele>1114.0</ele></trkpt>
    <trkpt lat="33.76264" lon="-117.55047"><ele>1114.0</ele></trkpt>
    <trkpt lat="33.76258" lon="-117.55052"><ele>1121.0</ele></trkpt>
    <trkpt lat="33.76234" lon="-117.55060"><ele>1121.0</ele></trkpt>
    <trkpt lat="33.76225" lon="-117.55066"><ele>1121.0</ele></trkpt>
    <trkpt lat="33.76218" lon="-117.55065"><ele>1123.0</ele></trkpt>
  </trkseg></trk>
</gpx>
