<?xml version="1.0" encoding="UTF-8"?>
<gpx version="1.1" creator="dirt-bikes build-area-routes (MVUM geometry + SRTM elevation)" xmlns="http://www.topografix.com/GPX/1/1">
  <trk><name>Bee Canyon OHV Road</name><trkseg>
    <trkpt lat="33.76320" lon="-116.82300"><ele>908.0</ele></trkpt>
    <trkpt lat="33.76298" lon="-116.82302"><ele>908.0</ele></trkpt>
    <trkpt lat="33.76286" lon="-116.82304"><ele>908.0</ele></trkpt>
    <trkpt lat="33.76276" lon="-116.82309"><ele>901.0</ele></trkpt>
    <trkpt lat="33.76268" lon="-116.82318"><ele>901.0</ele></trkpt>
    <trkpt lat="33.76263" lon="-116.82329"><ele>901.0</ele></trkpt>
    <trkpt lat="33.76259" lon="-116.82343"><ele>901.0</ele></trkpt>
    <trkpt lat="33.76254" lon="-116.82373"><ele>901.0</ele></trkpt>
    <trkpt lat="33.76252" lon="-116.82388"><ele>894.0</ele></trkpt>
    <trkpt lat="33.76253" lon="-116.82398"><ele>894.0</ele></trkpt>
    <trkpt lat="33.76257" lon="-116.82408"><ele>894.0</ele></trkpt>
    <trkpt lat="33.76301" lon="-116.82461"><ele>894.0</ele></trkpt>
    <trkpt lat="33.76316" lon="-116.82479"><ele>894.0</ele></trkpt>
    <trkpt lat="33.76324" lon="-116.82490"><ele>886.0</ele></trkpt>
    <trkpt lat="33.76326" lon="-116.82502"><ele>886.0</ele></trkpt>
    <trkpt lat="33.76323" lon="-116.82511"><ele>886.0</ele></trkpt>
    <trkpt lat="33.76317" lon="-116.82519"><ele>886.0</ele></trkpt>
    <trkpt lat="33.76309" lon="-116.82521"><ele>886.0</ele></trkpt>
    <trkpt lat="33.76297" lon="-116.82520"><ele>883.0</ele></trkpt>
    <trkpt lat="33.76277" lon="-116.82517"><ele>883.0</ele></trkpt>
    <trkpt lat="33.76266" lon="-116.82517"><ele>883.0</ele></trkpt>
    <trkpt lat="33.76254" lon="-116.82521"><ele>883.0</ele></trkpt>
    <trkpt lat="33.76242" lon="-116.82524"><ele>883.0</ele></trkpt>
    <trkpt lat="33.76234" lon="-116.82531"><ele>878.0</ele></trkpt>
    <trkpt lat="33.76228" lon="-116.82539"><ele>878.0</ele></trkpt>
    <trkpt lat="33.76226" lon="-116.82548"><ele>878.0</ele></trkpt>
    <trkpt lat="33.76226" lon="-116.82557"><ele>878.0</ele></trkpt>
    <trkpt lat="33.76217" lon="-116.82595"><ele>878.0</ele></trkpt>
    <trkpt lat="33.76214" lon="-116.82606"><ele>872.0</ele></trkpt>
    <trkpt lat="33.76208" lon="-116.82611"><ele>872.0</ele></trkpt>
    <trkpt lat="33.76200" lon="-116.82613"><ele>872.0</ele></trkpt>
    <trkpt lat="33.76192" lon="-116.82612"><ele>872.0</ele></trkpt>
    <trkpt lat="33.76187" lon="-116.82610"><ele>872.0</ele></trkpt>
    <trkpt lat="33.76179" lon="-116.82604"><ele>871.0</ele></trkpt>
    <trkpt lat="33.76172" lon="-116.82602"><ele>871.0</ele></trkpt>
    <trkpt lat="33.76164" lon="-116.82604"><ele>871.0</ele></trkpt>
    <trkpt lat="33.76148" lon="-116.82614"><ele>871.0</ele></trkpt>
    <trkpt lat="33.76125" lon="-116.82629"><ele>871.0</ele></trkpt>
    <trkpt lat="33.76111" lon="-116.82642"><ele>865.0</ele></trkpt>
    <trkpt lat="33.76103" lon="-116.82652"><ele>865.0</ele></trkpt>
    <trkpt lat="33.76096" lon="-116.82667"><ele>865.0</ele></trkpt>
    <trkpt lat="33.76089" lon="-116.82687"><ele>865.0</ele></trkpt>
    <trkpt lat="33.76086" lon="-116.82698"><ele>865.0</ele></trkpt>
    <trkpt lat="33.76080" lon="-116.82704"><ele>861.0</ele></trkpt>
    <trkpt lat="33.76063" lon="-116.82715"><ele>861.0</ele></trkpt>
    <trkpt lat="33.76039" lon="-116.82732"><ele>861.0</ele></trkpt>
    <trkpt lat="33.76017" lon="-116.82752"><ele>861.0</ele></trkpt>
    <trkpt lat="33.76000" lon="-116.82768"><ele>861.0</ele></trkpt>
    <trkpt lat="33.75989" lon="-116.82782"><ele>864.0</ele></trkpt>
    <trkpt lat="33.75979" lon="-116.82796"><ele>864.0</ele></trkpt>
    <trkpt lat="33.75975" lon="-116.82805"><ele>864.0</ele></trkpt>
    <trkpt lat="33.75973" lon="-116.82814"><ele>864.0</ele></trkpt>
    <trkpt lat="33.75975" lon="-116.82853"><ele>864.0</ele></trkpt>
    <trkpt lat="33.75976" lon="-116.82886"><ele>855.0</ele></trkpt>
    <trkpt lat="33.75975" lon="-116.82974"><ele>855.0</ele></trkpt>
    <trkpt lat="33.75975" lon="-116.82985"><ele>855.0</ele></trkpt>
    <trkpt lat="33.75979" lon="-116.83001"><ele>855.0</ele></trkpt>
    <trkpt lat="33.75986" lon="-116.83023"><ele>855.0</ele></trkpt>
    <trkpt lat="33.75989" lon="-116.83036"><ele>839.0</ele></trkpt>
    <trkpt lat="33.75991" lon="-116.83057"><ele>839.0</ele></trkpt>
    <trkpt lat="33.75992" lon="-116.83078"><ele>839.0</ele></trkpt>
    <trkpt lat="33.75989" lon="-116.83088"><ele>839.0</ele></trkpt>
    <trkpt lat="33.75980" lon="-116.83102"><ele>839.0</ele></trkpt>
    <trkpt lat="33.75973" lon="-116.83142"><ele>838.0</ele></trkpt>
    <trkpt lat="33.75969" lon="-116.83162"><ele>838.0</ele></trkpt>
    <trkpt lat="33.75976" lon="-116.83175"><ele>838.0</ele></trkpt>
    <trkpt lat="33.75982" lon="-116.83184"><ele>838.0</ele></trkpt>
    <trkpt lat="33.75990" lon="-116.83191"><ele>838.0</ele></trkpt>
    <trkpt lat="33.76004" lon="-116.83202"><ele>836.0</ele></trkpt>
    <trkpt lat="33.76013" lon="-116.83210"><ele>836.0</ele></trkpt>
    <trkpt lat="33.76019" lon="-116.83221"><ele>836.0</ele></trkpt>
    <trkpt lat="33.76023" lon="-116.83233"><ele>836.0</ele></trkpt>
    <trkpt lat="33.76038" lon="-116.83263"><ele>836.0</ele></trkpt>
    <trkpt lat="33.76045" lon="-116.83271"><ele>833.0</ele></trkpt>
    <trkpt lat="33.76051" lon="-116.83279"><ele>833.0</ele></trkpt>
    <trkpt lat="33.76056" lon="-116.83287"><ele>833.0</ele></trkpt>
    <trkpt lat="33.76059" lon="-116.83297"><ele>833.0</ele></trkpt>
    <trkpt lat="33.76064" lon="-116.83305"><ele>830.0</ele></trkpt>
    <trkpt lat="33.76074" lon="-116.83314"><ele>830.0</ele></trkpt>
    <trkpt lat="33.76082" lon="-116.83320"><ele>830.0</ele></trkpt>
    <trkpt lat="33.76087" lon="-116.83326"><ele>830.0</ele></trkpt>
    <trkpt lat="33.76090" lon="-116.83337"><ele>830.0</ele></trkpt>
    <trkpt lat="33.76091" lon="-116.83345"><ele>829.0</ele></trkpt>
    <trkpt lat="33.76096" lon="-116.83353"><ele>829.0</ele></trkpt>
    <trkpt lat="33.76113" lon="-116.83362"><ele>829.0</ele></trkpt>
    <trkpt lat="33.76128" lon="-116.83370"><ele>829.0</ele></trkpt>
    <trkpt lat="33.76142" lon="-116.83377"><ele>829.0</ele></trkpt>
    <trkpt lat="33.76151" lon="-116.83382"><ele>821.0</ele></trkpt>
    <trkpt lat="33.76157" lon="-116.83389"><ele>821.0</ele></trkpt>
    <trkpt lat="33.76165" lon="-116.83406"><ele>821.0</ele></trkpt>
    <trkpt lat="33.76172" lon="-116.83419"><ele>821.0</ele></trkpt>
    <trkpt lat="33.76180" lon="-116.83433"><ele>821.0</ele></trkpt>
    <trkpt lat="33.76183" lon="-116.83443"><ele>816.0</ele></trkpt>
    <trkpt lat="33.76181" lon="-116.83450"><ele>816.0</ele></trkpt>
    <trkpt lat="33.76176" lon="-116.83462"><ele>816.0</ele></trkpt>
    <trkpt lat="33.76177" lon="-116.83473"><ele>816.0</ele></trkpt>
    <trkpt lat="33.76180" lon="-116.83487"><ele>816.0</ele></trkpt>
    <trkpt lat="33.76187" lon="-116.83499"><ele>807.0</ele></trkpt>
    <trkpt lat="33.76199" lon="-116.83509"><ele>807.0</ele></trkpt>
    <trkpt lat="33.76212" lon="-116.83513"><ele>807.0</ele></trkpt>
    <trkpt lat="33.76226" lon="-116.83516"><ele>807.0</ele></trkpt>
    <trkpt lat="33.76239" lon="-116.83521"><ele>807.0</ele></trkpt>
    <trkpt lat="33.76250" lon="-116.83525"><ele>800.0</ele></trkpt>
    <trkpt lat="33.76259" lon="-116.83534"><ele>800.0</ele></trkpt>
    <trkpt lat="33.76264" lon="-116.83542"><ele>800.0</ele></trkpt>
    <trkpt lat="33.76266" lon="-116.83554"><ele>800.0</ele></trkpt>
    <trkpt lat="33.76264" lon="-116.83562"><ele>800.0</ele></trkpt>
    <trkpt lat="33.76236" lon="-116.83611"><ele>803.0</ele></trkpt>
    <trkpt lat="33.76232" lon="-116.83610"><ele>803.0</ele></trkpt>
    <trkpt lat="33.76222" lon="-116.83601"><ele>803.0</ele></trkpt>
    <trkpt lat="33.76215" lon="-116.83590"><ele>803.0</ele></trkpt>
    <trkpt lat="33.76203" lon="-116.83583"><ele>803.0</ele></trkpt>
    <trkpt lat="33.76188" lon="-116.83578"><ele>809.0</ele></trkpt>
    <trkpt lat="33.76167" lon="-116.83566"><ele>809.0</ele></trkpt>
    <trkpt lat="33.76161" lon="-116.83561"><ele>809.0</ele></trkpt>
    <trkpt lat="33.76151" lon="-116.83550"><ele>809.0</ele></trkpt>
    <trkpt lat="33.76145" lon="-116.83543"><ele>809.0</ele></trkpt>
    <trkpt lat="33.76139" lon="-116.83540"><ele>811.0</ele></trkpt>
    <trkpt lat="33.76133" lon="-116.83543"><ele>811.0</ele></trkpt>
    <trkpt lat="33.76128" lon="-116.83551"><ele>811.0</ele></trkpt>
    <trkpt lat="33.76122" lon="-116.83556"><ele>811.0</ele></trkpt>
    <trkpt lat="33.76113" lon="-116.83558"><ele>811.0</ele></trkpt>
    <trkpt lat="33.76107" lon="-116.83557"><ele>814.0</ele></trkpt>
    <trkpt lat="33.76100" lon="-116.83555"><ele>814.0</ele></trkpt>
    <trkpt lat="33.76091" lon="-116.83548"><ele>814.0</ele></trkpt>
    <trkpt lat="33.76084" lon="-116.83540"><ele>814.0</ele></trkpt>
    <trkpt lat="33.76076" lon="-116.83536"><ele>814.0</ele></trkpt>
    <trkpt lat="33.76067" lon="-116.83534"><ele>818.0</ele></trkpt>
    <trkpt lat="33.76057" lon="-116.83533"><ele>818.0</ele></trkpt>
    <trkpt lat="33.76052" lon="-116.83530"><ele>818.0</ele></trkpt>
    <trkpt lat="33.76046" lon="-116.83526"><ele>818.0</ele></trkpt>
    <trkpt lat="33.76040" lon="-116.83522"><ele>818.0</ele></trkpt>
    <trkpt lat="33.76032" lon="-116.83525"><ele>816.0</ele></trkpt>
    <trkpt lat="33.76010" lon="-116.83536"><ele>816.0</ele></trkpt>
    <trkpt lat="33.76000" lon="-116.83541"><ele>816.0</ele></trkpt>
    <trkpt lat="33.75992" lon="-116.83540"><ele>816.0</ele></trkpt>
    <trkpt lat="33.75985" lon="-116.83537"><ele>816.0</ele></trkpt>
    <trkpt lat="33.75978" lon="-116.83532"><ele>818.0</ele></trkpt>
    <trkpt lat="33.75971" lon="-116.83529"><ele>818.0</ele></trkpt>
    <trkpt lat="33.75960" lon="-116.83529"><ele>818.0</ele></trkpt>
    <trkpt lat="33.75953" lon="-116.83533"><ele>818.0</ele></trkpt>
    <trkpt lat="33.75936" lon="-116.83540"><ele>818.0</ele></trkpt>
    <trkpt lat="33.75928" lon="-116.83542"><ele>818.0</ele></trkpt>
    <trkpt lat="33.75920" lon="-116.83545"><ele>818.0</ele></trkpt>
    <trkpt lat="33.75917" lon="-116.83550"><ele>818.0</ele></trkpt>
    <trkpt lat="33.75915" lon="-116.83559"><ele>818.0</ele></trkpt>
    <trkpt lat="33.75912" lon="-116.83582"><ele>818.0</ele></trkpt>
    <trkpt lat="33.75912" lon="-116.83595"><ele>810.0</ele></trkpt>
    <trkpt lat="33.75910" lon="-116.83607"><ele>810.0</ele></trkpt>
    <trkpt lat="33.75903" lon="-116.83618"><ele>810.0</ele></trkpt>
    <trkpt lat="33.75895" lon="-116.83624"><ele>810.0</ele></trkpt>
    <trkpt lat="33.75884" lon="-116.83625"><ele>810.0</ele></trkpt>
    <trkpt lat="33.75868" lon="-116.83624"><ele>812.0</ele></trkpt>
    <trkpt lat="33.75851" lon="-116.83626"><ele>812.0</ele></trkpt>
    <trkpt lat="33.75844" lon="-116.83621"><ele>812.0</ele></trkpt>
    <trkpt lat="33.75835" lon="-116.83618"><ele>812.0</ele></trkpt>
    <trkpt lat="33.75829" lon="-116.83620"><ele>812.0</ele></trkpt>
    <trkpt lat="33.75823" lon="-116.83627"><ele>812.0</ele></trkpt>
    <trkpt lat="33.75816" lon="-116.83633"><ele>812.0</ele></trkpt>
    <trkpt lat="33.75810" lon="-116.83635"><ele>812.0</ele></trkpt>
    <trkpt lat="33.75801" lon="-116.83639"><ele>812.0</ele></trkpt>
    <trkpt lat="33.75791" lon="-116.83639"><ele>812.0</ele></trkpt>
    <trkpt lat="33.75779" lon="-116.83632"><ele>810.0</ele></trkpt>
    <trkpt lat="33.75768" lon="-116.83626"><ele>810.0</ele></trkpt>
    <trkpt lat="33.75753" lon="-116.83623"><ele>810.0</ele></trkpt>
    <trkpt lat="33.75735" lon="-116.83620"><ele>810.0</ele></trkpt>
    <trkpt lat="33.75712" lon="-116.83619"><ele>810.0</ele></trkpt>
    <trkpt lat="33.75707" lon="-116.83609"><ele>808.0</ele></trkpt>
    <trkpt lat="33.75700" lon="-116.83591"><ele>808.0</ele></trkpt>
    <trkpt lat="33.75700" lon="-116.83579"><ele>808.0</ele></trkpt>
    <trkpt lat="33.75706" lon="-116.83557"><ele>808.0</ele></trkpt>
    <trkpt lat="33.75713" lon="-116.83522"><ele>808.0</ele></trkpt>
    <trkpt lat="33.75716" lon="-116.83495"><ele>789.0</ele></trkpt>
    <trkpt lat="33.75717" lon="-116.83464"><ele>789.0</ele></trkpt>
    <trkpt lat="33.75716" lon="-116.83447"><ele>789.0</ele></trkpt>
    <trkpt lat="33.75706" lon="-116.83410"><ele>789.0</ele></trkpt>
    <trkpt lat="33.75696" lon="-116.83380"><ele>789.0</ele></trkpt>
    <trkpt lat="33.75693" lon="-116.83367"><ele>778.0</ele></trkpt>
    <trkpt lat="33.75691" lon="-116.83355"><ele>778.0</ele></trkpt>
    <trkpt lat="33.75683" lon="-116.83345"><ele>778.0</ele></trkpt>
    <trkpt lat="33.75676" lon="-116.83343"><ele>778.0</ele></trkpt>
    <trkpt lat="33.75666" lon="-116.83343"><ele>778.0</ele></trkpt>
    <trkpt lat="33.75658" lon="-116.83341"><ele>771.0</ele></trkpt>
    <trkpt lat="33.75647" lon="-116.83332"><ele>771.0</ele></trkpt>
    <trkpt lat="33.75634" lon="-116.83323"><ele>771.0</ele></trkpt>
    <trkpt lat="33.75621" lon="-116.83316"><ele>771.0</ele></trkpt>
    <trkpt lat="33.75610" lon="-116.83314"><ele>771.0</ele></trkpt>
    <trkpt lat="33.75601" lon="-116.83316"><ele>755.0</ele></trkpt>
    <trkpt lat="33.75593" lon="-116.83320"><ele>755.0</ele></trkpt>
    <trkpt lat="33.75531" lon="-116.83320"><ele>755.0</ele></trkpt>
    <trkpt lat="33.75522" lon="-116.83317"><ele>755.0</ele></trkpt>
    <trkpt lat="33.75514" lon="-116.83312"><ele>755.0</ele></trkpt>
    <trkpt lat="33.75504" lon="-116.83302"><ele>748.0</ele></trkpt>
    <trkpt lat="33.75493" lon="-116.83295"><ele>748.0</ele></trkpt>
    <trkpt lat="33.75484" lon="-116.83293"><ele>748.0</ele></trkpt>
    <trkpt lat="33.75474" lon="-116.83295"><ele>748.0</ele></trkpt>
    <trkpt lat="33.75464" lon="-116.83298"><ele>748.0</ele></trkpt>
    <trkpt lat="33.75454" lon="-116.83299"><ele>741.0</ele></trkpt>
    <trkpt lat="33.75446" lon="-116.83293"><ele>741.0</ele></trkpt>
    <trkpt lat="33.75433" lon="-116.83281"><ele>741.0</ele></trkpt>
    <trkpt lat="33.75426" lon="-116.83268"><ele>741.0</ele></trkpt>
    <trkpt lat="33.75420" lon="-116.83261"><ele>741.0</ele></trkpt>
    <trkpt lat="33.75412" lon="-116.83260"><ele>738.0</ele></trkpt>
    <trkpt lat="33.75402" lon="-116.83259"><ele>738.0</ele></trkpt>
    <trkpt lat="33.75387" lon="-116.83255"><ele>738.0</ele></trkpt>
    <trkpt lat="33.75376" lon="-116.83250"><ele>738.0</ele></trkpt>
    <trkpt lat="33.75367" lon="-116.83243"><ele>738.0</ele></trkpt>
    <trkpt lat="33.75362" lon="-116.83234"><ele>736.0</ele></trkpt>
    <trkpt lat="33.75363" lon="-116.83226"><ele>736.0</ele></trkpt>
    <trkpt lat="33.75369" lon="-116.83217"><ele>736.0</ele></trkpt>
    <trkpt lat="33.75378" lon="-116.83208"><ele>736.0</ele></trkpt>
    <trkpt lat="33.75387" lon="-116.83202"><ele>736.0</ele></trkpt>
    <trkpt lat="33.75397" lon="-116.83200"><ele>745.0</ele></trkpt>
    <trkpt lat="33.75408" lon="-116.83199"><ele>745.0</ele></trkpt>
    <trkpt lat="33.75416" lon="-116.83195"><ele>745.0</ele></trkpt>
    <trkpt lat="33.75420" lon="-116.83188"><ele>745.0</ele></trkpt>
    <trkpt lat="33.75418" lon="-116.83182"><ele>745.0</ele></trkpt>
    <trkpt lat="33.75413" lon="-116.83179"><ele>742.0</ele></trkpt>
    <trkpt lat="33.75407" lon="-116.83178"><ele>742.0</ele></trkpt>
    <trkpt lat="33.75399" lon="-116.83185"><ele>742.0</ele></trkpt>
    <trkpt lat="33.75391" lon="-116.83188"><ele>742.0</ele></trkpt>
    <trkpt lat="33.75385" lon="-116.83187"><ele>742.0</ele></trkpt>
    <trkpt lat="33.75376" lon="-116.83186"><ele>738.0</ele></trkpt>
    <trkpt lat="33.75369" lon="-116.83187"><ele>738.0</ele></trkpt>
    <trkpt lat="33.75363" lon="-116.83190"><ele>738.0</ele></trkpt>
    <trkpt lat="33.75355" lon="-116.83190"><ele>738.0</ele></trkpt>
    <trkpt lat="33.75348" lon="-116.83190"><ele>731.0</ele></trkpt>
    <trkpt lat="33.75337" lon="-116.83190"><ele>731.0</ele></trkpt>
    <trkpt lat="33.75330" lon="-116.83195"><ele>731.0</ele></trkpt>
    <trkpt lat="33.75321" lon="-116.83199"><ele>731.0</ele></trkpt>
    <trkpt lat="33.75311" lon="-116.83201"><ele>731.0</ele></trkpt>
    <trkpt lat="33.75301" lon="-116.83203"><ele>721.0</ele></trkpt>
    <trkpt lat="33.75295" lon="-116.83209"><ele>721.0</ele></trkpt>
    <trkpt lat="33.75287" lon="-116.83219"><ele>721.0</ele></trkpt>
    <trkpt lat="33.75285" lon="-116.83230"><ele>721.0</ele></trkpt>
    <trkpt lat="33.75287" lon="-116.83245"><ele>721.0</ele></trkpt>
    <trkpt lat="33.75291" lon="-116.83256"><ele>712.0</ele></trkpt>
    <trkpt lat="33.75300" lon="-116.83268"><ele>712.0</ele></trkpt>
    <trkpt lat="33.75305" lon="-116.83277"><ele>712.0</ele></trkpt>
    <trkpt lat="33.75311" lon="-116.83281"><ele>712.0</ele></trkpt>
    <trkpt lat="33.75322" lon="-116.83283"><ele>712.0</ele></trkpt>
    <trkpt lat="33.75330" lon="-116.83285"><ele>705.0</ele></trkpt>
    <trkpt lat="33.75335" lon="-116.83294"><ele>705.0</ele></trkpt>
    <trkpt lat="33.75349" lon="-116.83331"><ele>705.0</ele></trkpt>
    <trkpt lat="33.75353" lon="-116.83335"><ele>705.0</ele></trkpt>
    <trkpt lat="33.75360" lon="-116.83337"><ele>705.0</ele></trkpt>
    <trkpt lat="33.75368" lon="-116.83341"><ele>707.0</ele></trkpt>
    <trkpt lat="33.75370" lon="-116.83346"><ele>707.0</ele></trkpt>
    <trkpt lat="33.75370" lon="-116.83355"><ele>707.0</ele></trkpt>
    <trkpt lat="33.75368" lon="-116.83363"><ele>707.0</ele></trkpt>
    <trkpt lat="33.75369" lon="-116.83370"><ele>707.0</ele></trkpt>
    <trkpt lat="33.75374" lon="-116.83379"><ele>703.0</ele></trkpt>
    <trkpt lat="33.75380" lon="-116.83389"><ele>703.0</ele></trkpt>
    <trkpt lat="33.75383" lon="-116.83398"><ele>703.0</ele></trkpt>
    <trkpt lat="33.75391" lon="-116.83410"><ele>703.0</ele></trkpt>
    <trkpt lat="33.75397" lon="-116.83419"><ele>703.0</ele></trkpt>
    <trkpt lat="33.75404" lon="-116.83425"><ele>707.0</ele></trkpt>
    <trkpt lat="33.75405" lon="-116.83432"><ele>707.0</ele></trkpt>
    <trkpt lat="33.75404" lon="-116.83441"><ele>707.0</ele></trkpt>
    <trkpt lat="33.75398" lon="-116.83444"><ele>707.0</ele></trkpt>
    <trkpt lat="33.75391" lon="-116.83441"><ele>707.0</ele></trkpt>
    <trkpt lat="33.75379" lon="-116.83433"><ele>697.0</ele></trkpt>
    <trkpt lat="33.75368" lon="-116.83421"><ele>697.0</ele></trkpt>
    <trkpt lat="33.75359" lon="-116.83412"><ele>697.0</ele></trkpt>
    <trkpt lat="33.75352" lon="-116.83403"><ele>697.0</ele></trkpt>
    <trkpt lat="33.75346" lon="-116.83399"><ele>697.0</ele></trkpt>
    <trkpt lat="33.75337" lon="-116.83396"><ele>695.0</ele></trkpt>
    <trkpt lat="33.75331" lon="-116.83391"><ele>695.0</ele></trkpt>
    <trkpt lat="33.75319" lon="-116.83378"><ele>695.0</ele></trkpt>
    <trkpt lat="33.75311" lon="-116.83373"><ele>695.0</ele></trkpt>
    <trkpt lat="33.75300" lon="-116.83373"><ele>695.0</ele></trkpt>
    <trkpt lat="33.75290" lon="-116.83375"><ele>692.0</ele></trkpt>
    <trkpt lat="33.75283" lon="-116.83382"><ele>692.0</ele></trkpt>
    <trkpt lat="33.75277" lon="-116.83388"><ele>692.0</ele></trkpt>
    <trkpt lat="33.75270" lon="-116.83389"><ele>692.0</ele></trkpt>
    <trkpt lat="33.75263" lon="-116.83386"><ele>692.0</ele></trkpt>
    <trkpt lat="33.75251" lon="-116.83384"><ele>688.0</ele></trkpt>
    <trkpt lat="33.75242" lon="-116.83385"><ele>688.0</ele></trkpt>
    <trkpt lat="33.75232" lon="-116.83388"><ele>688.0</ele></trkpt>
    <trkpt lat="33.75222" lon="-116.83391"><ele>688.0</ele></trkpt>
    <trkpt lat="33.75209" lon="-116.83392"><ele>688.0</ele></trkpt>
    <trkpt lat="33.75199" lon="-116.83387"><ele>679.0</ele></trkpt>
    <trkpt lat="33.75183" lon="-116.83378"><ele>679.0</ele></trkpt>
    <trkpt lat="33.75175" lon="-116.83368"><ele>679.0</ele></trkpt>
    <trkpt lat="33.75166" lon="-116.83359"><ele>679.0</ele></trkpt>
    <trkpt lat="33.75156" lon="-116.83351"><ele>679.0</ele></trkpt>
    <trkpt lat="33.75139" lon="-116.83344"><ele>668.0</ele></trkpt>
    <trkpt lat="33.75127" lon="-116.83339"><ele>668.0</ele></trkpt>
    <trkpt lat="33.75113" lon="-116.83334"><ele>668.0</ele></trkpt>
    <trkpt lat="33.75093" lon="-116.83331"><ele>668.0</ele></trkpt>
    <trkpt lat="33.75070" lon="-116.83331"><ele>668.0</ele></trkpt>
    <trkpt lat="33.75044" lon="-116.83330"><ele>654.0</ele></trkpt>
    <trkpt lat="33.75005" lon="-116.83332"><ele>654.0</ele></trkpt>
    <trkpt lat="33.74977" lon="-116.83333"><ele>654.0</ele></trkpt>
    <trkpt lat="33.74952" lon="-116.83336"><ele>654.0</ele></trkpt>
    <trkpt lat="33.74935" lon="-116.83337"><ele>654.0</ele></trkpt>
    <trkpt lat="33.74926" lon="-116.83340"><ele>645.0</ele></trkpt>
    <trkpt lat="33.74915" lon="-116.83348"><ele>645.0</ele></trkpt>
    <trkpt lat="33.74902" lon="-116.83357"><ele>645.0</ele></trkpt>
    <trkpt lat="33.74888" lon="-116.83365"><ele>645.0</ele></trkpt>
    <trkpt lat="33.74878" lon="-116.83369"><ele>645.0</ele></trkpt>
    <trkpt lat="33.74864" lon="-116.83369"><ele>641.0</ele></trkpt>
    <trkpt lat="33.74852" lon="-116.83365"><ele>641.0</ele></trkpt>
    <trkpt lat="33.74841" lon="-116.83357"><ele>641.0</ele></trkpt>
    <trkpt lat="33.74832" lon="-116.83357"><ele>641.0</ele></trkpt>
    <trkpt lat="33.74819" lon="-116.83359"><ele>641.0</ele></trkpt>
    <trkpt lat="33.74802" lon="-116.83359"><ele>638.0</ele></trkpt>
    <trkpt lat="33.74794" lon="-116.83363"><ele>638.0</ele></trkpt>
    <trkpt lat="33.74787" lon="-116.83375"><ele>638.0</ele></trkpt>
    <trkpt lat="33.74777" lon="-116.83383"><ele>638.0</ele></trkpt>
    <trkpt lat="33.74766" lon="-116.83387"><ele>638.0</ele></trkpt>
    <trkpt lat="33.74747" lon="-116.83395"><ele>633.0</ele></trkpt>
    <trkpt lat="33.74737" lon="-116.83398"><ele>633.0</ele></trkpt>
    <trkpt lat="33.74720" lon="-116.83401"><ele>633.0</ele></trkpt>
    <trkpt lat="33.74709" lon="-116.83407"><ele>633.0</ele></trkpt>
    <trkpt lat="33.74683" lon="-116.83428"><ele>633.0</ele></trkpt>
    <trkpt lat="33.74664" lon="-116.83444"><ele>633.0</ele></trkpt>
    <trkpt lat="33.74652" lon="-116.83459"><ele>633.0</ele></trkpt>
    <trkpt lat="33.74639" lon="-116.83477"><ele>633.0</ele></trkpt>
    <trkpt lat="33.74632" lon="-116.83484"><ele>633.0</ele></trkpt>
    <trkpt lat="33.74618" lon="-116.83499"><ele>633.0</ele></trkpt>
    <trkpt lat="33.74612" lon="-116.83506"><ele>629.0</ele></trkpt>
    <trkpt lat="33.74610" lon="-116.83516"><ele>629.0</ele></trkpt>
    <trkpt lat="33.74605" lon="-116.83528"><ele>629.0</ele></trkpt>
    <trkpt lat="33.74597" lon="-116.83541"><ele>629.0</ele></trkpt>
    <trkpt lat="33.74593" lon="-116.83546"><ele>629.0</ele></trkpt>
    <trkpt lat="33.74589" lon="-116.83551"><ele>624.0</ele></trkpt>
    <trkpt lat="33.74586" lon="-116.83555"><ele>624.0</ele></trkpt>
    <trkpt lat="33.74580" lon="-116.83560"><ele>624.0</ele></trkpt>
    <trkpt lat="33.74576" lon="-116.83566"><ele>624.0</ele></trkpt>
    <trkpt lat="33.74574" lon="-116.83572"><ele>624.0</ele></trkpt>
    <trkpt lat="33.74572" lon="-116.83580"><ele>624.0</ele></trkpt>
    <trkpt lat="33.74565" lon="-116.83591"><ele>624.0</ele></trkpt>
    <trkpt lat="33.74556" lon="-116.83596"><ele>624.0</ele></trkpt>
    <trkpt lat="33.74542" lon="-116.83601"><ele>624.0</ele></trkpt>
    <trkpt lat="33.74532" lon="-116.83605"><ele>624.0</ele></trkpt>
    <trkpt lat="33.74521" lon="-116.83607"><ele>625.0</ele></trkpt>
    <trkpt lat="33.74512" lon="-116.83615"><ele>625.0</ele></trkpt>
    <trkpt lat="33.74502" lon="-116.83626"><ele>625.0</ele></trkpt>
    <trkpt lat="33.74495" lon="-116.83639"><ele>625.0</ele></trkpt>
    <trkpt lat="33.74488" lon="-116.83647"><ele>625.0</ele></trkpt>
    <trkpt lat="33.74479" lon="-116.83649"><ele>619.0</ele></trkpt>
    <trkpt lat="33.74460" lon="-116.83650"><ele>619.0</ele></trkpt>
    <trkpt lat="33.74442" lon="-116.83656"><ele>619.0</ele></trkpt>
    <trkpt lat="33.74424" lon="-116.83665"><ele>619.0</ele></trkpt>
    <trkpt lat="33.74407" lon="-116.83678"><ele>619.0</ele></trkpt>
    <trkpt lat="33.74385" lon="-116.83689"><ele>614.0</ele></trkpt>
    <trkpt lat="33.74378" lon="-116.83693"><ele>614.0</ele></trkpt>
    <trkpt lat="33.74367" lon="-116.83694"><ele>614.0</ele></trkpt>
    <trkpt lat="33.74352" lon="-116.83700"><ele>614.0</ele></trkpt>
    <trkpt lat="33.74339" lon="-116.83709"><ele>614.0</ele></trkpt>
    <trkpt lat="33.74331" lon="-116.83716"><ele>610.0</ele></trkpt>
    <trkpt lat="33.74325" lon="-116.83722"><ele>610.0</ele></trkpt>
    <trkpt lat="33.74317" lon="-116.83731"><ele>610.0</ele></trkpt>
    <trkpt lat="33.74312" lon="-116.83743"><ele>610.0</ele></trkpt>
    <trkpt lat="33.74305" lon="-116.83755"><ele>610.0</ele></trkpt>
    <trkpt lat="33.74296" lon="-116.83763"><ele>610.0</ele></trkpt>
    <trkpt lat="33.74285" lon="-116.83770"><ele>610.0</ele></trkpt>
    <trkpt lat="33.74271" lon="-116.83777"><ele>610.0</ele></trkpt>
    <trkpt lat="33.74257" lon="-116.83778"><ele>610.0</ele></trkpt>
    <trkpt lat="33.74243" lon="-116.83778"><ele>610.0</ele></trkpt>
    <trkpt lat="33.74229" lon="-116.83779"><ele>604.0</ele></trkpt>
    <trkpt lat="33.74219" lon="-116.83780"><ele>604.0</ele></trkpt>
    <trkpt lat="33.74212" lon="-116.83785"><ele>604.0</ele></trkpt>
    <trkpt lat="33.74202" lon="-116.83800"><ele>604.0</ele></trkpt>
    <trkpt lat="33.74192" lon="-116.83814"><ele>604.0</ele></trkpt>
    <trkpt lat="33.74174" lon="-116.83839"><ele>590.0</ele></trkpt>
    <trkpt lat="33.74165" lon="-116.83837"><ele>590.0</ele></trkpt>
    <trkpt lat="33.74148" lon="-116.83826"><ele>590.0</ele></trkpt>
    <trkpt lat="33.74134" lon="-116.83811"><ele>590.0</ele></trkpt>
    <trkpt lat="33.74125" lon="-116.83793"><ele>590.0</ele></trkpt>
    <trkpt lat="33.74123" lon="-116.83771"><ele>592.0</ele></trkpt>
    <trkpt lat="33.74119" lon="-116.83759"><ele>592.0</ele></trkpt>
    <trkpt lat="33.74113" lon="-116.83729"><ele>592.0</ele></trkpt>
    <trkpt lat="33.74104" lon="-116.83704"><ele>592.0</ele></trkpt>
    <trkpt lat="33.74096" lon="-116.83671"><ele>594.0</ele></trkpt>
    <trkpt lat="33.74093" lon="-116.83655"><ele>594.0</ele></trkpt>
    <trkpt lat="33.74091" lon="-116.83647"><ele>594.0</ele></trkpt>
    <trkpt lat="33.74089" lon="-116.83641"><ele>594.0</ele></trkpt>
    <trkpt lat="33.74088" lon="-116.83635"><ele>594.0</ele></trkpt>
    <trkpt lat="33.74085" lon="-116.83623"><ele>593.0</ele></trkpt>
    <trkpt lat="33.74082" lon="-116.83611"><ele>593.0</ele></trkpt>
    <trkpt lat="33.74081" lon="-116.83603"><ele>593.0</ele></trkpt>
    <trkpt lat="33.74079" lon="-116.83593"><ele>593.0</ele></trkpt>
    <trkpt lat="33.74078" lon="-116.83586"><ele>593.0</ele></trkpt>
    <trkpt lat="33.74077" lon="-116.83579"><ele>596.0</ele></trkpt>
    <trkpt lat="33.74076" lon="-116.83571"><ele>596.0</ele></trkpt>
    <trkpt lat="33.74075" lon="-116.83562"><ele>596.0</ele></trkpt>
    <trkpt lat="33.74074" lon="-116.83555"><ele>596.0</ele></trkpt>
    <trkpt lat="33.74073" lon="-116.83547"><ele>596.0</ele></trkpt>
    <trkpt lat="33.74066" lon="-116.83522"><ele>602.0</ele></trkpt>
    <trkpt lat="33.74063" lon="-116.83506"><ele>602.0</ele></trkpt>
    <trkpt lat="33.74063" lon="-116.83476"><ele>602.0</ele></trkpt>
    <trkpt lat="33.74061" lon="-116.83466"><ele>602.0</ele></trkpt>
    <trkpt lat="33.74053" lon="-116.83445"><ele>602.0</ele></trkpt>
    <trkpt lat="33.74048" lon="-116.83433"><ele>603.0</ele></trkpt>
    <trkpt lat="33.74046" lon="-116.83414"><ele>603.0</ele></trkpt>
    <trkpt lat="33.74040" lon="-116.83397"><ele>603.0</ele></trkpt>
    <trkpt lat="33.74035" lon="-116.83381"><ele>603.0</ele></trkpt>
    <trkpt lat="33.74035" lon="-116.83364"><ele>603.0</ele></trkpt>
    <trkpt lat="33.74035" lon="-116.83334"><ele>610.0</ele></trkpt>
    <trkpt lat="33.74037" lon="-116.83295"><ele>610.0</ele></trkpt>
    <trkpt lat="33.74039" lon="-116.83273"><ele>610.0</ele></trkpt>
    <trkpt lat="33.74038" lon="-116.83259"><ele>610.0</ele></trkpt>
    <trkpt lat="33.74029" lon="-116.83230"><ele>610.0</ele></trkpt>
    <trkpt lat="33.74020" lon="-116.83200"><ele>613.0</ele></trkpt>
    <trkpt lat="33.74003" lon="-116.83115"><ele>613.0</ele></trkpt>
    <trkpt lat="33.73990" lon="-116.83062"><ele>613.0</ele></trkpt>
    <trkpt lat="33.73987" lon="-116.83044"><ele>613.0</ele></trkpt>
    <trkpt lat="33.73987" lon="-116.83022"><ele>613.0</ele></trkpt>
    <trkpt lat="33.73992" lon="-116.82998"><ele>621.0</ele></trkpt>
    <trkpt lat="33.73997" lon="-116.82975"><ele>621.0</ele></trkpt>
    <trkpt lat="33.74000" lon="-116.82959"><ele>621.0</ele></trkpt>
    <trkpt lat="33.73999" lon="-116.82948"><ele>621.0</ele></trkpt>
    <trkpt lat="33.73995" lon="-116.82937"><ele>621.0</ele></trkpt>
    <trkpt lat="33.73984" lon="-116.82920"><ele>623.0</ele></trkpt>
    <trkpt lat="33.73979" lon="-116.82903"><ele>623.0</ele></trkpt>
    <trkpt lat="33.73973" lon="-116.82884"><ele>623.0</ele></trkpt>
    <trkpt lat="33.73966" lon="-116.82870"><ele>623.0</ele></trkpt>
    <trkpt lat="33.73953" lon="-116.82849"><ele>623.0</ele></trkpt>
    <trkpt lat="33.73952" lon="-116.82826"><ele>618.0</ele></trkpt>
    <trkpt lat="33.73925" lon="-116.82783"><ele>618.0</ele></trkpt>
    <trkpt lat="33.73921" lon="-116.82773"><ele>618.0</ele></trkpt>
    <trkpt lat="33.73920" lon="-116.82758"><ele>618.0</ele></trkpt>
    <trkpt lat="33.73902" lon="-116.82722"><ele>618.0</ele></trkpt>
    <trkpt lat="33.73892" lon="-116.82711"><ele>619.0</ele></trkpt>
    <trkpt lat="33.73869" lon="-116.82693"><ele>619.0</ele></trkpt>
    <trkpt lat="33.73866" lon="-116.82681"><ele>619.0</ele></trkpt>
    <trkpt lat="33.73859" lon="-116.82671"><ele>619.0</ele></trkpt>
    <trkpt lat="33.73850" lon="-116.82666"><ele>619.0</ele></trkpt>
    <trkpt lat="33.73842" lon="-116.82668"><ele>613.0</ele></trkpt>
    <trkpt lat="33.73823" lon="-116.82663"><ele>613.0</ele></trkpt>
    <trkpt lat="33.73800" lon="-116.82658"><ele>613.0</ele></trkpt>
    <trkpt lat="33.73795" lon="-116.82653"><ele>613.0</ele></trkpt>
    <trkpt lat="33.73783" lon="-116.82628"><ele>613.0</ele></trkpt>
    <trkpt lat="33.73769" lon="-116.82597"><ele>614.0</ele></trkpt>
    <trkpt lat="33.73758" lon="-116.82591"><ele>614.0</ele></trkpt>
    <trkpt lat="33.73743" lon="-116.82575"><ele>614.0</ele></trkpt>
    <trkpt lat="33.73737" lon="-116.82562"><ele>614.0</ele></trkpt>
    <trkpt lat="33.73729" lon="-116.82509"><ele>614.0</ele></trkpt>
    <trkpt lat="33.73719" lon="-116.82489"><ele>617.0</ele></trkpt>
    <trkpt lat="33.73709" lon="-116.82474"><ele>617.0</ele></trkpt>
    <trkpt lat="33.73701" lon="-116.82474"><ele>617.0</ele></trkpt>
  </trkseg></trk>
</gpx>
