<?xml version="1.0" encoding="UTF-8"?>
<gpx version="1.1" creator="dirt-bikes build-area-routes (MVUM geometry + SRTM elevation)" xmlns="http://www.topografix.com/GPX/1/1">
  <trk><name>Black Mountain Road</name><trkseg>
    <trkpt lat="33.79673" lon="-116.75783"><ele>1636.0</ele></trkpt>
    <trkpt lat="33.79680" lon="-116.75758"><ele>1636.0</ele></trkpt>
    <trkpt lat="33.79681" lon="-116.75738"><ele>1636.0</ele></trkpt>
    <trkpt lat="33.79696" lon="-116.75698"><ele>1636.0</ele></trkpt>
    <trkpt lat="33.79717" lon="-116.75653"><ele>1636.0</ele></trkpt>
    <trkpt lat="33.79728" lon="-116.75633"><ele>1636.0</ele></trkpt>
    <trkpt lat="33.79735" lon="-116.75627"><ele>1655.0</ele></trkpt>
    <trkpt lat="33.79744" lon="-116.75626"><ele>1655.0</ele></trkpt>
    <trkpt lat="33.79750" lon="-116.75631"><ele>1655.0</ele></trkpt>
    <trkpt lat="33.79754" lon="-116.75639"><ele>1655.0</ele></trkpt>
    <trkpt lat="33.79755" lon="-116.75648"><ele>1655.0</ele></trkpt>
    <trkpt lat="33.79753" lon="-116.75705"><ele>1655.0</ele></trkpt>
    <trkpt lat="33.79753" lon="-116.75737"><ele>1655.0</ele></trkpt>
    <trkpt lat="33.79754" lon="-116.75762"><ele>1655.0</ele></trkpt>
    <trkpt lat="33.79756" lon="-116.75776"><ele>1655.0</ele></trkpt>
    <trkpt lat="33.79763" lon="-116.75793"><ele>1655.0</ele></trkpt>
    <trkpt lat="33.79775" lon="-116.75811"><ele>1655.0</ele></trkpt>
    <trkpt lat="33.79785" lon="-116.75818"><ele>1666.0</ele></trkpt>
    <trkpt lat="33.79792" lon="-116.75826"><ele>1666.0</ele></trkpt>
    <trkpt lat="33.79796" lon="-116.75836"><ele>1666.0</ele></trkpt>
    <trkpt lat="33.79802" lon="-116.75844"><ele>1666.0</ele></trkpt>
    <trkpt lat="33.79813" lon="-116.75858"><ele>1666.0</ele></trkpt>
    <trkpt lat="33.79821" lon="-116.75863"><ele>1666.0</ele></trkpt>
    <trkpt lat="33.79832" lon="-116.75864"><ele>1666.0</ele></trkpt>
    <trkpt lat="33.79846" lon="-116.75866"><ele>1666.0</ele></trkpt>
    <trkpt lat="33.79861" lon="-116.75870"><ele>1666.0</ele></trkpt>
    <trkpt lat="33.79875" lon="-116.75874"><ele>1666.0</ele></trkpt>
    <trkpt lat="33.79887" lon="-116.75871"><ele>1694.0</ele></trkpt>
    <trkpt lat="33.79904" lon="-116.75865"><ele>1694.0</ele></trkpt>
    <trkpt lat="33.79915" lon="-116.75854"><ele>1694.0</ele></trkpt>
    <trkpt lat="33.79933" lon="-116.75838"><ele>1694.0</ele></trkpt>
    <trkpt lat="33.79953" lon="-116.75819"><ele>1694.0</ele></trkpt>
    <trkpt lat="33.79962" lon="-116.75814"><ele>1694.0</ele></trkpt>
    <trkpt lat="33.79971" lon="-116.75810"><ele>1694.0</ele></trkpt>
    <trkpt lat="33.79980" lon="-116.75802"><ele>1694.0</ele></trkpt>
    <trkpt lat="33.79988" lon="-116.75790"><ele>1694.0</ele></trkpt>
    <trkpt lat="33.79993" lon="-116.75778"><ele>1694.0</ele></trkpt>
    <trkpt lat="33.79994" lon="-116.75765"><ele>1694.0</ele></trkpt>
    <trkpt lat="33.79991" lon="-116.75752"><ele>1708.0</ele></trkpt>
    <trkpt lat="33.79985" lon="-116.75736"><ele>1708.0</ele></trkpt>
    <trkpt lat="33.79980" lon="-116.75719"><ele>1708.0</ele></trkpt>
    <trkpt lat="33.79977" lon="-116.75706"><ele>1708.0</ele></trkpt>
    <trkpt lat="33.79977" lon="-116.75696"><ele>1708.0</ele></trkpt>
    <trkpt lat="33.79981" lon="-116.75686"><ele>1708.0</ele></trkpt>
    <trkpt lat="33.79987" lon="-116.75677"><ele>1708.0</ele></trkpt>
    <trkpt lat="33.79997" lon="-116.75668"><ele>1708.0</ele></trkpt>
    <trkpt lat="33.80009" lon="-116.75661"><ele>1708.0</ele></trkpt>
    <trkpt lat="33.80020" lon="-116.75658"><ele>1708.0</ele></trkpt>
    <trkpt lat="33.80031" lon="-116.75657"><ele>1721.0</ele></trkpt>
    <trkpt lat="33.80039" lon="-116.75654"><ele>1721.0</ele></trkpt>
    <trkpt lat="33.80046" lon="-116.75646"><ele>1721.0</ele></trkpt>
    <trkpt lat="33.80051" lon="-116.75634"><ele>1721.0</ele></trkpt>
    <trkpt lat="33.80059" lon="-116.75609"><ele>1721.0</ele></trkpt>
    <trkpt lat="33.80068" lon="-116.75588"><ele>1721.0</ele></trkpt>
    <trkpt lat="33.80079" lon="-116.75562"><ele>1721.0</ele></trkpt>
    <trkpt lat="33.80084" lon="-116.75549"><ele>1721.0</ele></trkpt>
    <trkpt lat="33.80091" lon="-116.75535"><ele>1721.0</ele></trkpt>
    <trkpt lat="33.80101" lon="-116.75524"><ele>1721.0</ele></trkpt>
    <trkpt lat="33.80113" lon="-116.75509"><ele>1721.0</ele></trkpt>
    <trkpt lat="33.80126" lon="-116.75496"><ele>1732.0</ele></trkpt>
    <trkpt lat="33.80135" lon="-116.75488"><ele>1732.0</ele></trkpt>
    <trkpt lat="33.80146" lon="-116.75483"><ele>1732.0</ele></trkpt>
    <trkpt lat="33.80157" lon="-116.75484"><ele>1732.0</ele></trkpt>
    <trkpt lat="33.80164" lon="-116.75488"><ele>1732.0</ele></trkpt>
    <trkpt lat="33.80167" lon="-116.75499"><ele>1732.0</ele></trkpt>
    <trkpt lat="33.80165" lon="-116.75518"><ele>1732.0</ele></trkpt>
    <trkpt lat="33.80164" lon="-116.75542"><ele>1732.0</ele></trkpt>
    <trkpt lat="33.80163" lon="-116.75559"><ele>1732.0</ele></trkpt>
    <trkpt lat="33.80164" lon="-116.75572"><ele>1732.0</ele></trkpt>
    <trkpt lat="33.80169" lon="-116.75582"><ele>1740.0</ele></trkpt>
    <trkpt lat="33.80179" lon="-116.75590"><ele>1740.0</ele></trkpt>
    <trkpt lat="33.80193" lon="-116.75601"><ele>1740.0</ele></trkpt>
    <trkpt lat="33.80207" lon="-116.75604"><ele>1740.0</ele></trkpt>
    <trkpt lat="33.80220" lon="-116.75602"><ele>1740.0</ele></trkpt>
    <trkpt lat="33.80238" lon="-116.75593"><ele>1740.0</ele></trkpt>
    <trkpt lat="33.80261" lon="-116.75580"><ele>1740.0</ele></trkpt>
    <trkpt lat="33.80277" lon="-116.75568"><ele>1740.0</ele></trkpt>
    <trkpt lat="33.80292" lon="-116.75549"><ele>1740.0</ele></trkpt>
    <trkpt lat="33.80305" lon="-116.75537"><ele>1740.0</ele></trkpt>
    <trkpt lat="33.80320" lon="-116.75525"><ele>1740.0</ele></trkpt>
    <trkpt lat="33.80331" lon="-116.75513"><ele>1752.0</ele></trkpt>
    <trkpt lat="33.80341" lon="-116.75495"><ele>1752.0</ele></trkpt>
    <trkpt lat="33.80350" lon="-116.75476"><ele>1752.0</ele></trkpt>
    <trkpt lat="33.80357" lon="-116.75456"><ele>1752.0</ele></trkpt>
    <trkpt lat="33.80366" lon="-116.75433"><ele>1752.0</ele></trkpt>
    <trkpt lat="33.80375" lon="-116.75415"><ele>1752.0</ele></trkpt>
    <trkpt lat="33.80383" lon="-116.75403"><ele>1752.0</ele></trkpt>
    <trkpt lat="33.80394" lon="-116.75393"><ele>1752.0</ele></trkpt>
    <trkpt lat="33.80408" lon="-116.75387"><ele>1752.0</ele></trkpt>
    <trkpt lat="33.80422" lon="-116.75388"><ele>1752.0</ele></trkpt>
    <trkpt lat="33.80436" lon="-116.75388"><ele>1760.0</ele></trkpt>
    <trkpt lat="33.80446" lon="-116.75381"><ele>1760.0</ele></trkpt>
    <trkpt lat="33.80453" lon="-116.75369"><ele>1760.0</ele></trkpt>
    <trkpt lat="33.80456" lon="-116.75354"><ele>1760.0</ele></trkpt>
    <trkpt lat="33.80461" lon="-116.75345"><ele>1760.0</ele></trkpt>
    <trkpt lat="33.80467" lon="-116.75341"><ele>1760.0</ele></trkpt>
    <trkpt lat="33.80478" lon="-116.75336"><ele>1760.0</ele></trkpt>
    <trkpt lat="33.80486" lon="-116.75329"><ele>1760.0</ele></trkpt>
    <trkpt lat="33.80492" lon="-116.75318"><ele>1760.0</ele></trkpt>
    <trkpt lat="33.80496" lon="-116.75303"><ele>1760.0</ele></trkpt>
    <trkpt lat="33.80496" lon="-116.75288"><ele>1760.0</ele></trkpt>
    <trkpt lat="33.80499" lon="-116.75277"><ele>1771.0</ele></trkpt>
    <trkpt lat="33.80505" lon="-116.75266"><ele>1771.0</ele></trkpt>
    <trkpt lat="33.80517" lon="-116.75257"><ele>1771.0</ele></trkpt>
    <trkpt lat="33.80526" lon="-116.75246"><ele>1771.0</ele></trkpt>
    <trkpt lat="33.80533" lon="-116.75233"><ele>1771.0</ele></trkpt>
    <trkpt lat="33.80538" lon="-116.75220"><ele>1771.0</ele></trkpt>
    <trkpt lat="33.80540" lon="-116.75204"><ele>1771.0</ele></trkpt>
    <trkpt lat="33.80540" lon="-116.75189"><ele>1771.0</ele></trkpt>
    <trkpt lat="33.80546" lon="-116.75182"><ele>1771.0</ele></trkpt>
    <trkpt lat="33.80553" lon="-116.75180"><ele>1771.0</ele></trkpt>
    <trkpt lat="33.80560" lon="-116.75184"><ele>1782.0</ele></trkpt>
    <trkpt lat="33.80566" lon="-116.75191"><ele>1782.0</ele></trkpt>
    <trkpt lat="33.80575" lon="-116.75196"><ele>1782.0</ele></trkpt>
    <trkpt lat="33.80583" lon="-116.75196"><ele>1782.0</ele></trkpt>
    <trkpt lat="33.80591" lon="-116.75192"><ele>1782.0</ele></trkpt>
    <trkpt lat="33.80598" lon="-116.75183"><ele>1782.0</ele></trkpt>
    <trkpt lat="33.80607" lon="-116.75176"><ele>1782.0</ele></trkpt>
    <trkpt lat="33.80614" lon="-116.75175"><ele>1782.0</ele></trkpt>
    <trkpt lat="33.80623" lon="-116.75181"><ele>1782.0</ele></trkpt>
    <trkpt lat="33.80630" lon="-116.75182"><ele>1782.0</ele></trkpt>
    <trkpt lat="33.80638" lon="-116.75177"><ele>1782.0</ele></trkpt>
    <trkpt lat="33.80646" lon="-116.75169"><ele>1798.0</ele></trkpt>
    <trkpt lat="33.80653" lon="-116.75164"><ele>1798.0</ele></trkpt>
    <trkpt lat="33.80664" lon="-116.75161"><ele>1798.0</ele></trkpt>
    <trkpt lat="33.80680" lon="-116.75163"><ele>1798.0</ele></trkpt>
    <trkpt lat="33.80710" lon="-116.75167"><ele>1798.0</ele></trkpt>
    <trkpt lat="33.80737" lon="-116.75172"><ele>1798.0</ele></trkpt>
    <trkpt lat="33.80759" lon="-116.75176"><ele>1798.0</ele></trkpt>
    <trkpt lat="33.80771" lon="-116.75180"><ele>1798.0</ele></trkpt>
    <trkpt lat="33.80777" lon="-116.75186"><ele>1798.0</ele></trkpt>
    <trkpt lat="33.80787" lon="-116.75192"><ele>1798.0</ele></trkpt>
    <trkpt lat="33.80795" lon="-116.75184"><ele>1813.0</ele></trkpt>
    <trkpt lat="33.80798" lon="-116.75175"><ele>1813.0</ele></trkpt>
    <trkpt lat="33.80797" lon="-116.75162"><ele>1813.0</ele></trkpt>
    <trkpt lat="33.80791" lon="-116.75145"><ele>1813.0</ele></trkpt>
    <trkpt lat="33.80785" lon="-116.75133"><ele>1813.0</ele></trkpt>
    <trkpt lat="33.80778" lon="-116.75127"><ele>1813.0</ele></trkpt>
    <trkpt lat="33.80768" lon="-116.75127"><ele>1813.0</ele></trkpt>
    <trkpt lat="33.80756" lon="-116.75127"><ele>1813.0</ele></trkpt>
    <trkpt lat="33.80747" lon="-116.75124"><ele>1813.0</ele></trkpt>
    <trkpt lat="33.80738" lon="-116.75114"><ele>1813.0</ele></trkpt>
    <trkpt lat="33.80734" lon="-116.75102"><ele>1813.0</ele></trkpt>
    <trkpt lat="33.80732" lon="-116.75089"><ele>1809.0</ele></trkpt>
    <trkpt lat="33.80732" lon="-116.75080"><ele>1809.0</ele></trkpt>
    <trkpt lat="33.80734" lon="-116.75069"><ele>1809.0</ele></trkpt>
    <trkpt lat="33.80737" lon="-116.75058"><ele>1809.0</ele></trkpt>
    <trkpt lat="33.80742" lon="-116.75050"><ele>1809.0</ele></trkpt>
    <trkpt lat="33.80749" lon="-116.75046"><ele>1809.0</ele></trkpt>
    <trkpt lat="33.80757" lon="-116.75045"><ele>1809.0</ele></trkpt>
    <trkpt lat="33.80768" lon="-116.75046"><ele>1809.0</ele></trkpt>
    <trkpt lat="33.80781" lon="-116.75047"><ele>1809.0</ele></trkpt>
    <trkpt lat="33.80796" lon="-116.75046"><ele>1809.0</ele></trkpt>
    <trkpt lat="33.80811" lon="-116.75043"><ele>1834.0</ele></trkpt>
    <trkpt lat="33.80826" lon="-116.75036"><ele>1834.0</ele></trkpt>
    <trkpt lat="33.80841" lon="-116.75026"><ele>1834.0</ele></trkpt>
    <trkpt lat="33.80863" lon="-116.75010"><ele>1834.0</ele></trkpt>
    <trkpt lat="33.80907" lon="-116.74976"><ele>1834.0</ele></trkpt>
    <trkpt lat="33.80926" lon="-116.74959"><ele>1834.0</ele></trkpt>
    <trkpt lat="33.80943" lon="-116.74942"><ele>1834.0</ele></trkpt>
    <trkpt lat="33.80953" lon="-116.74933"><ele>1834.0</ele></trkpt>
    <trkpt lat="33.80966" lon="-116.74927"><ele>1834.0</ele></trkpt>
    <trkpt lat="33.80978" lon="-116.74923"><ele>1834.0</ele></trkpt>
    <trkpt lat="33.80991" lon="-116.74915"><ele>1834.0</ele></trkpt>
    <trkpt lat="33.81000" lon="-116.74915"><ele>1852.0</ele></trkpt>
    <trkpt lat="33.81016" lon="-116.74909"><ele>1852.0</ele></trkpt>
    <trkpt lat="33.81028" lon="-116.74906"><ele>1852.0</ele></trkpt>
    <trkpt lat="33.81045" lon="-116.74901"><ele>1852.0</ele></trkpt>
    <trkpt lat="33.81062" lon="-116.74897"><ele>1852.0</ele></trkpt>
    <trkpt lat="33.81073" lon="-116.74892"><ele>1852.0</ele></trkpt>
    <trkpt lat="33.81084" lon="-116.74889"><ele>1852.0</ele></trkpt>
    <trkpt lat="33.81098" lon="-116.74887"><ele>1852.0</ele></trkpt>
    <trkpt lat="33.81111" lon="-116.74884"><ele>1852.0</ele></trkpt>
    <trkpt lat="33.81123" lon="-116.74878"><ele>1852.0</ele></trkpt>
    <trkpt lat="33.81134" lon="-116.74869"><ele>1862.0</ele></trkpt>
    <trkpt lat="33.81146" lon="-116.74862"><ele>1862.0</ele></trkpt>
    <trkpt lat="33.81152" lon="-116.74851"><ele>1862.0</ele></trkpt>
    <trkpt lat="33.81160" lon="-116.74841"><ele>1862.0</ele></trkpt>
    <trkpt lat="33.81169" lon="-116.74831"><ele>1862.0</ele></trkpt>
    <trkpt lat="33.81183" lon="-116.74817"><ele>1862.0</ele></trkpt>
    <trkpt lat="33.81195" lon="-116.74807"><ele>1862.0</ele></trkpt>
    <trkpt lat="33.81204" lon="-116.74800"><ele>1862.0</ele></trkpt>
    <trkpt lat="33.81213" lon="-116.74796"><ele>1862.0</ele></trkpt>
    <trkpt lat="33.81229" lon="-116.74791"><ele>1862.0</ele></trkpt>
    <trkpt lat="33.81252" lon="-116.74784"><ele>1862.0</ele></trkpt>
    <trkpt lat="33.81269" lon="-116.74777"><ele>1881.0</ele></trkpt>
    <trkpt lat="33.81284" lon="-116.74775"><ele>1881.0</ele></trkpt>
    <trkpt lat="33.81302" lon="-116.74769"><ele>1881.0</ele></trkpt>
    <trkpt lat="33.81313" lon="-116.74762"><ele>1881.0</ele></trkpt>
    <trkpt lat="33.81323" lon="-116.74753"><ele>1881.0</ele></trkpt>
    <trkpt lat="33.81334" lon="-116.74742"><ele>1881.0</ele></trkpt>
    <trkpt lat="33.81344" lon="-116.74736"><ele>1881.0</ele></trkpt>
    <trkpt lat="33.81351" lon="-116.74732"><ele>1881.0</ele></trkpt>
    <trkpt lat="33.81357" lon="-116.74733"><ele>1881.0</ele></trkpt>
    <trkpt lat="33.81360" lon="-116.74738"><ele>1881.0</ele></trkpt>
    <trkpt lat="33.81359" lon="-116.74746"><ele>1889.0</ele></trkpt>
    <trkpt lat="33.81354" lon="-116.74753"><ele>1889.0</ele></trkpt>
    <trkpt lat="33.81347" lon="-116.74757"><ele>1889.0</ele></trkpt>
    <trkpt lat="33.81339" lon="-116.74761"><ele>1889.0</ele></trkpt>
    <trkpt lat="33.81332" lon="-116.74765"><ele>1889.0</ele></trkpt>
    <trkpt lat="33.81324" lon="-116.74772"><ele>1889.0</ele></trkpt>
    <trkpt lat="33.81318" lon="-116.74780"><ele>1889.0</ele></trkpt>
    <trkpt lat="33.81310" lon="-116.74786"><ele>1889.0</ele></trkpt>
    <trkpt lat="33.81294" lon="-116.74794"><ele>1889.0</ele></trkpt>
    <trkpt lat="33.81282" lon="-116.74802"><ele>1889.0</ele></trkpt>
    <trkpt lat="33.81269" lon="-116.74810"><ele>1889.0</ele></trkpt>
    <trkpt lat="33.81254" lon="-116.74821"><ele>1886.0</ele></trkpt>
    <trkpt lat="33.81241" lon="-116.74831"><ele>1886.0</ele></trkpt>
    <trkpt lat="33.81230" lon="-116.74841"><ele>1886.0</ele></trkpt>
    <trkpt lat="33.81223" lon="-116.74852"><ele>1886.0</ele></trkpt>
    <trkpt lat="33.81219" lon="-116.74862"><ele>1886.0</ele></trkpt>
    <trkpt lat="33.81219" lon="-116.74874"><ele>1886.0</ele></trkpt>
    <trkpt lat="33.81219" lon="-116.74886"><ele>1886.0</ele></trkpt>
    <trkpt lat="33.81222" lon="-116.74896"><ele>1886.0</ele></trkpt>
    <trkpt lat="33.81223" lon="-116.74910"><ele>1886.0</ele></trkpt>
    <trkpt lat="33.81221" lon="-116.74924"><ele>1886.0</ele></trkpt>
    <trkpt lat="33.81218" lon="-116.74936"><ele>1906.0</ele></trkpt>
    <trkpt lat="33.81209" lon="-116.74948"><ele>1906.0</ele></trkpt>
    <trkpt lat="33.81201" lon="-116.74960"><ele>1906.0</ele></trkpt>
    <trkpt lat="33.81195" lon="-116.74973"><ele>1906.0</ele></trkpt>
    <trkpt lat="33.81187" lon="-116.74986"><ele>1906.0</ele></trkpt>
    <trkpt lat="33.81181" lon="-116.74994"><ele>1906.0</ele></trkpt>
    <trkpt lat="33.81173" lon="-116.75001"><ele>1906.0</ele></trkpt>
    <trkpt lat="33.81160" lon="-116.75012"><ele>1906.0</ele></trkpt>
    <trkpt lat="33.81145" lon="-116.75027"><ele>1906.0</ele></trkpt>
    <trkpt lat="33.81134" lon="-116.75037"><ele>1906.0</ele></trkpt>
    <trkpt lat="33.81120" lon="-116.75050"><ele>1906.0</ele></trkpt>
    <trkpt lat="33.81112" lon="-116.75056"><ele>1904.0</ele></trkpt>
    <trkpt lat="33.81104" lon="-116.75060"><ele>1904.0</ele></trkpt>
    <trkpt lat="33.81094" lon="-116.75063"><ele>1904.0</ele></trkpt>
    <trkpt lat="33.81086" lon="-116.75069"><ele>1904.0</ele></trkpt>
    <trkpt lat="33.81084" lon="-116.75077"><ele>1904.0</ele></trkpt>
    <trkpt lat="33.81083" lon="-116.75087"><ele>1904.0</ele></trkpt>
    <trkpt lat="33.81083" lon="-116.75097"><ele>1904.0</ele></trkpt>
    <trkpt lat="33.81084" lon="-116.75113"><ele>1904.0</ele></trkpt>
    <trkpt lat="33.81085" lon="-116.75125"><ele>1904.0</ele></trkpt>
    <trkpt lat="33.81083" lon="-116.75134"><ele>1904.0</ele></trkpt>
    <trkpt lat="33.81078" lon="-116.75143"><ele>1920.0</ele></trkpt>
    <trkpt lat="33.81069" lon="-116.75160"><ele>1920.0</ele></trkpt>
    <trkpt lat="33.81059" lon="-116.75178"><ele>1920.0</ele></trkpt>
    <trkpt lat="33.81058" lon="-116.75186"><ele>1920.0</ele></trkpt>
    <trkpt lat="33.81061" lon="-116.75190"><ele>1920.0</ele></trkpt>
    <trkpt lat="33.81068" lon="-116.75193"><ele>1920.0</ele></trkpt>
    <trkpt lat="33.81074" lon="-116.75187"><ele>1920.0</ele></trkpt>
    <trkpt lat="33.81077" lon="-116.75179"><ele>1920.0</ele></trkpt>
    <trkpt lat="33.81079" lon="-116.75167"><ele>1920.0</ele></trkpt>
    <trkpt lat="33.81086" lon="-116.75153"><ele>1920.0</ele></trkpt>
    <trkpt lat="33.81098" lon="-116.75141"><ele>1920.0</ele></trkpt>
    <trkpt lat="33.81110" lon="-116.75125"><ele>1928.0</ele></trkpt>
    <trkpt lat="33.81123" lon="-116.75111"><ele>1928.0</ele></trkpt>
    <trkpt lat="33.81134" lon="-116.75097"><ele>1928.0</ele></trkpt>
    <trkpt lat="33.81142" lon="-116.75093"><ele>1928.0</ele></trkpt>
    <trkpt lat="33.81150" lon="-116.75087"><ele>1928.0</ele></trkpt>
    <trkpt lat="33.81159" lon="-116.75080"><ele>1928.0</ele></trkpt>
    <trkpt lat="33.81168" lon="-116.75075"><ele>1928.0</ele></trkpt>
    <trkpt lat="33.81181" lon="-116.75071"><ele>1928.0</ele></trkpt>
    <trkpt lat="33.81190" lon="-116.75065"><ele>1928.0</ele></trkpt>
    <trkpt lat="33.81201" lon="-116.75059"><ele>1928.0</ele></trkpt>
    <trkpt lat="33.81214" lon="-116.75050"><ele>1949.0</ele></trkpt>
    <trkpt lat="33.81226" lon="-116.75042"><ele>1949.0</ele></trkpt>
    <trkpt lat="33.81237" lon="-116.75036"><ele>1949.0</ele></trkpt>
    <trkpt lat="33.81248" lon="-116.75033"><ele>1949.0</ele></trkpt>
    <trkpt lat="33.81261" lon="-116.75033"><ele>1949.0</ele></trkpt>
    <trkpt lat="33.81272" lon="-116.75038"><ele>1949.0</ele></trkpt>
    <trkpt lat="33.81281" lon="-116.75040"><ele>1949.0</ele></trkpt>
    <trkpt lat="33.81294" lon="-116.75040"><ele>1949.0</ele></trkpt>
    <trkpt lat="33.81311" lon="-116.75040"><ele>1949.0</ele></trkpt>
    <trkpt lat="33.81325" lon="-116.75041"><ele>1949.0</ele></trkpt>
    <trkpt lat="33.81339" lon="-116.75043"><ele>1949.0</ele></trkpt>
    <trkpt lat="33.81347" lon="-116.75045"><ele>1969.0</ele></trkpt>
    <trkpt lat="33.81353" lon="-116.75043"><ele>1969.0</ele></trkpt>
    <trkpt lat="33.81358" lon="-116.75034"><ele>1969.0</ele></trkpt>
    <trkpt lat="33.81363" lon="-116.75023"><ele>1969.0</ele></trkpt>
    <trkpt lat="33.81370" lon="-116.75013"><ele>1969.0</ele></trkpt>
    <trkpt lat="33.81378" lon="-116.75007"><ele>1969.0</ele></trkpt>
    <trkpt lat="33.81387" lon="-116.74999"><ele>1969.0</ele></trkpt>
    <trkpt lat="33.81393" lon="-116.74992"><ele>1969.0</ele></trkpt>
    <trkpt lat="33.81397" lon="-116.74978"><ele>1969.0</ele></trkpt>
    <trkpt lat="33.81402" lon="-116.74967"><ele>1969.0</ele></trkpt>
    <trkpt lat="33.81410" lon="-116.74957"><ele>1978.0</ele></trkpt>
    <trkpt lat="33.81419" lon="-116.74951"><ele>1978.0</ele></trkpt>
    <trkpt lat="33.81431" lon="-116.74949"><ele>1978.0</ele></trkpt>
    <trkpt lat="33.81442" lon="-116.74948"><ele>1978.0</ele></trkpt>
    <trkpt lat="33.81456" lon="-116.74947"><ele>1978.0</ele></trkpt>
    <trkpt lat="33.81476" lon="-116.74947"><ele>1978.0</ele></trkpt>
    <trkpt lat="33.81497" lon="-116.74946"><ele>1978.0</ele></trkpt>
    <trkpt lat="33.81519" lon="-116.74946"><ele>1978.0</ele></trkpt>
    <trkpt lat="33.81533" lon="-116.74949"><ele>1978.0</ele></trkpt>
    <trkpt lat="33.81543" lon="-116.74949"><ele>1978.0</ele></trkpt>
    <trkpt lat="33.81558" lon="-116.74947"><ele>1978.0</ele></trkpt>
    <trkpt lat="33.81573" lon="-116.74945"><ele>1999.0</ele></trkpt>
    <trkpt lat="33.81584" lon="-116.74946"><ele>1999.0</ele></trkpt>
    <trkpt lat="33.81597" lon="-116.74949"><ele>1999.0</ele></trkpt>
    <trkpt lat="33.81610" lon="-116.74952"><ele>1999.0</ele></trkpt>
    <trkpt lat="33.81622" lon="-116.74955"><ele>1999.0</ele></trkpt>
    <trkpt lat="33.81634" lon="-116.74954"><ele>1999.0</ele></trkpt>
    <trkpt lat="33.81654" lon="-116.74952"><ele>1999.0</ele></trkpt>
    <trkpt lat="33.81674" lon="-116.74950"><ele>1999.0</ele></trkpt>
    <trkpt lat="33.81691" lon="-116.74949"><ele>1999.0</ele></trkpt>
    <trkpt lat="33.81708" lon="-116.74944"><ele>1999.0</ele></trkpt>
    <trkpt lat="33.81723" lon="-116.74941"><ele>2020.0</ele></trkpt>
    <trkpt lat="33.81736" lon="-116.74942"><ele>2020.0</ele></trkpt>
    <trkpt lat="33.81752" lon="-116.74943"><ele>2020.0</ele></trkpt>
    <trkpt lat="33.81763" lon="-116.74945"><ele>2020.0</ele></trkpt>
    <trkpt lat="33.81776" lon="-116.74947"><ele>2020.0</ele></trkpt>
    <trkpt lat="33.81785" lon="-116.74945"><ele>2020.0</ele></trkpt>
    <trkpt lat="33.81792" lon="-116.74941"><ele>2020.0</ele></trkpt>
    <trkpt lat="33.81797" lon="-116.74934"><ele>2020.0</ele></trkpt>
    <trkpt lat="33.81803" lon="-116.74928"><ele>2020.0</ele></trkpt>
    <trkpt lat="33.81812" lon="-116.74924"><ele>2020.0</ele></trkpt>
    <trkpt lat="33.81834" lon="-116.74916"><ele>2020.0</ele></trkpt>
    <trkpt lat="33.81851" lon="-116.74911"><ele>2026.0</ele></trkpt>
    <trkpt lat="33.81871" lon="-116.74905"><ele>2026.0</ele></trkpt>
    <trkpt lat="33.81887" lon="-116.74902"><ele>2026.0</ele></trkpt>
    <trkpt lat="33.81897" lon="-116.74903"><ele>2026.0</ele></trkpt>
    <trkpt lat="33.81906" lon="-116.74908"><ele>2026.0</ele></trkpt>
    <trkpt lat="33.81913" lon="-116.74915"><ele>2026.0</ele></trkpt>
    <trkpt lat="33.81916" lon="-116.74925"><ele>2026.0</ele></trkpt>
    <trkpt lat="33.81914" lon="-116.74932"><ele>2026.0</ele></trkpt>
    <trkpt lat="33.81909" lon="-116.74941"><ele>2026.0</ele></trkpt>
    <trkpt lat="33.81903" lon="-116.74946"><ele>2026.0</ele></trkpt>
    <trkpt lat="33.81893" lon="-116.74948"><ele>2036.0</ele></trkpt>
    <trkpt lat="33.81882" lon="-116.74951"><ele>2036.0</ele></trkpt>
    <trkpt lat="33.81867" lon="-116.74955"><ele>2036.0</ele></trkpt>
    <trkpt lat="33.81856" lon="-116.74959"><ele>2036.0</ele></trkpt>
    <trkpt lat="33.81837" lon="-116.74970"><ele>2036.0</ele></trkpt>
    <trkpt lat="33.81823" lon="-116.74978"><ele>2036.0</ele></trkpt>
    <trkpt lat="33.81811" lon="-116.74982"><ele>2036.0</ele></trkpt>
    <trkpt lat="33.81798" lon="-116.74983"><ele>2036.0</ele></trkpt>
    <trkpt lat="33.81782" lon="-116.74983"><ele>2036.0</ele></trkpt>
    <trkpt lat="33.81760" lon="-116.74981"><ele>2036.0</ele></trkpt>
    <trkpt lat="33.81742" lon="-116.74981"><ele>2036.0</ele></trkpt>
    <trkpt lat="33.81731" lon="-116.74982"><ele>2028.0</ele></trkpt>
    <trkpt lat="33.81723" lon="-116.74984"><ele>2028.0</ele></trkpt>
    <trkpt lat="33.81709" lon="-116.74991"><ele>2028.0</ele></trkpt>
    <trkpt lat="33.81694" lon="-116.74998"><ele>2028.0</ele></trkpt>
    <trkpt lat="33.81687" lon="-116.75002"><ele>2028.0</ele></trkpt>
    <trkpt lat="33.81680" lon="-116.75003"><ele>2028.0</ele></trkpt>
    <trkpt lat="33.81668" lon="-116.75004"><ele>2028.0</ele></trkpt>
    <trkpt lat="33.81651" lon="-116.75007"><ele>2028.0</ele></trkpt>
    <trkpt lat="33.81633" lon="-116.75012"><ele>2028.0</ele></trkpt>
    <trkpt lat="33.81619" lon="-116.75017"><ele>2028.0</ele></trkpt>
    <trkpt lat="33.81604" lon="-116.75023"><ele>2029.0</ele></trkpt>
    <trkpt lat="33.81597" lon="-116.75026"><ele>2029.0</ele></trkpt>
    <trkpt lat="33.81589" lon="-116.75031"><ele>2029.0</ele></trkpt>
    <trkpt lat="33.81583" lon="-116.75037"><ele>2029.0</ele></trkpt>
    <trkpt lat="33.81577" lon="-116.75043"><ele>2029.0</ele></trkpt>
    <trkpt lat="33.81567" lon="-116.75050"><ele>2029.0</ele></trkpt>
    <trkpt lat="33.81558" lon="-116.75054"><ele>2029.0</ele></trkpt>
    <trkpt lat="33.81550" lon="-116.75056"><ele>2029.0</ele></trkpt>
    <trkpt lat="33.81541" lon="-116.75053"><ele>2029.0</ele></trkpt>
    <trkpt lat="33.81529" lon="-116.75049"><ele>2029.0</ele></trkpt>
    <trkpt lat="33.81517" lon="-116.75047"><ele>2029.0</ele></trkpt>
    <trkpt lat="33.81508" lon="-116.75047"><ele>2016.0</ele></trkpt>
    <trkpt lat="33.81498" lon="-116.75047"><ele>2016.0</ele></trkpt>
    <trkpt lat="33.81491" lon="-116.75051"><ele>2016.0</ele></trkpt>
    <trkpt lat="33.81484" lon="-116.75057"><ele>2016.0</ele></trkpt>
    <trkpt lat="33.81482" lon="-116.75065"><ele>2016.0</ele></trkpt>
    <trkpt lat="33.81481" lon="-116.75076"><ele>2016.0</ele></trkpt>
    <trkpt lat="33.81484" lon="-116.75088"><ele>2016.0</ele></trkpt>
    <trkpt lat="33.81487" lon="-116.75100"><ele>2016.0</ele></trkpt>
    <trkpt lat="33.81489" lon="-116.75110"><ele>2016.0</ele></trkpt>
    <trkpt lat="33.81488" lon="-116.75119"><ele>2016.0</ele></trkpt>
    <trkpt lat="33.81484" lon="-116.75127"><ele>2033.0</ele></trkpt>
    <trkpt lat="33.81476" lon="-116.75141"><ele>2033.0</ele></trkpt>
    <trkpt lat="33.81464" lon="-116.75160"><ele>2033.0</ele></trkpt>
    <trkpt lat="33.81459" lon="-116.75170"><ele>2033.0</ele></trkpt>
    <trkpt lat="33.81452" lon="-116.75182"><ele>2033.0</ele></trkpt>
    <trkpt lat="33.81448" lon="-116.75188"><ele>2033.0</ele></trkpt>
    <trkpt lat="33.81446" lon="-116.75198"><ele>2033.0</ele></trkpt>
    <trkpt lat="33.81448" lon="-116.75207"><ele>2033.0</ele></trkpt>
    <trkpt lat="33.81451" lon="-116.75213"><ele>2033.0</ele></trkpt>
    <trkpt lat="33.81456" lon="-116.75220"><ele>2033.0</ele></trkpt>
    <trkpt lat="33.81463" lon="-116.75226"><ele>2033.0</ele></trkpt>
    <trkpt lat="33.81469" lon="-116.75236"><ele>2049.0</ele></trkpt>
    <trkpt lat="33.81471" lon="-116.75248"><ele>2049.0</ele></trkpt>
    <trkpt lat="33.81472" lon="-116.75263"><ele>2049.0</ele></trkpt>
    <trkpt lat="33.81473" lon="-116.75283"><ele>2049.0</ele></trkpt>
    <trkpt lat="33.81472" lon="-116.75294"><ele>2049.0</ele></trkpt>
    <trkpt lat="33.81470" lon="-116.75302"><ele>2049.0</ele></trkpt>
    <trkpt lat="33.81464" lon="-116.75309"><ele>2049.0</ele></trkpt>
    <trkpt lat="33.81460" lon="-116.75316"><ele>2049.0</ele></trkpt>
    <trkpt lat="33.81457" lon="-116.75324"><ele>2049.0</ele></trkpt>
    <trkpt lat="33.81459" lon="-116.75331"><ele>2049.0</ele></trkpt>
    <trkpt lat="33.81464" lon="-116.75334"><ele>2060.0</ele></trkpt>
    <trkpt lat="33.81471" lon="-116.75332"><ele>2060.0</ele></trkpt>
    <trkpt lat="33.81482" lon="-116.75322"><ele>2060.0</ele></trkpt>
    <trkpt lat="33.81490" lon="-116.75316"><ele>2060.0</ele></trkpt>
    <trkpt lat="33.81499" lon="-116.75313"><ele>2060.0</ele></trkpt>
    <trkpt lat="33.81505" lon="-116.75310"><ele>2060.0</ele></trkpt>
    <trkpt lat="33.81507" lon="-116.75304"><ele>2060.0</ele></trkpt>
    <trkpt lat="33.81508" lon="-116.75296"><ele>2060.0</ele></trkpt>
    <trkpt lat="33.81508" lon="-116.75284"><ele>2060.0</ele></trkpt>
    <trkpt lat="33.81510" lon="-116.75270"><ele>2060.0</ele></trkpt>
    <trkpt lat="33.81513" lon="-116.75255"><ele>2060.0</ele></trkpt>
    <trkpt lat="33.81519" lon="-116.75243"><ele>2060.0</ele></trkpt>
    <trkpt lat="33.81525" lon="-116.75229"><ele>2060.0</ele></trkpt>
    <trkpt lat="33.81533" lon="-116.75218"><ele>2060.0</ele></trkpt>
    <trkpt lat="33.81540" lon="-116.75206"><ele>2060.0</ele></trkpt>
    <trkpt lat="33.81545" lon="-116.75193"><ele>2060.0</ele></trkpt>
    <trkpt lat="33.81552" lon="-116.75177"><ele>2060.0</ele></trkpt>
    <trkpt lat="33.81559" lon="-116.75162"><ele>2060.0</ele></trkpt>
    <trkpt lat="33.81567" lon="-116.75153"><ele>2060.0</ele></trkpt>
    <trkpt lat="33.81578" lon="-116.75143"><ele>2060.0</ele></trkpt>
    <trkpt lat="33.81591" lon="-116.75134"><ele>2060.0</ele></trkpt>
    <trkpt lat="33.81604" lon="-116.75128"><ele>2074.0</ele></trkpt>
    <trkpt lat="33.81618" lon="-116.75122"><ele>2074.0</ele></trkpt>
    <trkpt lat="33.81633" lon="-116.75118"><ele>2074.0</ele></trkpt>
    <trkpt lat="33.81654" lon="-116.75115"><ele>2074.0</ele></trkpt>
    <trkpt lat="33.81672" lon="-116.75112"><ele>2074.0</ele></trkpt>
    <trkpt lat="33.81689" lon="-116.75108"><ele>2074.0</ele></trkpt>
    <trkpt lat="33.81701" lon="-116.75105"><ele>2074.0</ele></trkpt>
    <trkpt lat="33.81712" lon="-116.75103"><ele>2074.0</ele></trkpt>
    <trkpt lat="33.81725" lon="-116.75103"><ele>2074.0</ele></trkpt>
    <trkpt lat="33.81738" lon="-116.75103"><ele>2074.0</ele></trkpt>
    <trkpt lat="33.81753" lon="-116.75100"><ele>2074.0</ele></trkpt>
    <trkpt lat="33.81772" lon="-116.75096"><ele>2081.0</ele></trkpt>
    <trkpt lat="33.81785" lon="-116.75096"><ele>2081.0</ele></trkpt>
    <trkpt lat="33.81799" lon="-116.75096"><ele>2081.0</ele></trkpt>
    <trkpt lat="33.81810" lon="-116.75094"><ele>2081.0</ele></trkpt>
    <trkpt lat="33.81821" lon="-116.75092"><ele>2081.0</ele></trkpt>
    <trkpt lat="33.81832" lon="-116.75091"><ele>2081.0</ele></trkpt>
    <trkpt lat="33.81843" lon="-116.75094"><ele>2081.0</ele></trkpt>
    <trkpt lat="33.81857" lon="-116.75100"><ele>2081.0</ele></trkpt>
    <trkpt lat="33.81870" lon="-116.75111"><ele>2081.0</ele></trkpt>
    <trkpt lat="33.81880" lon="-116.75118"><ele>2081.0</ele></trkpt>
    <trkpt lat="33.81888" lon="-116.75124"><ele>2104.0</ele></trkpt>
    <trkpt lat="33.81895" lon="-116.75131"><ele>2104.0</ele></trkpt>
    <trkpt lat="33.81898" lon="-116.75139"><ele>2104.0</ele></trkpt>
    <trkpt lat="33.81899" lon="-116.75150"><ele>2104.0</ele></trkpt>
    <trkpt lat="33.81898" lon="-116.75166"><ele>2104.0</ele></trkpt>
    <trkpt lat="33.81900" lon="-116.75177"><ele>2104.0</ele></trkpt>
    <trkpt lat="33.81905" lon="-116.75189"><ele>2104.0</ele></trkpt>
    <trkpt lat="33.81912" lon="-116.75195"><ele>2104.0</ele></trkpt>
    <trkpt lat="33.81921" lon="-116.75194"><ele>2104.0</ele></trkpt>
    <trkpt lat="33.81932" lon="-116.75194"><ele>2104.0</ele></trkpt>
    <trkpt lat="33.81943" lon="-116.75196"><ele>2104.0</ele></trkpt>
    <trkpt lat="33.81956" lon="-116.75196"><ele>2115.0</ele></trkpt>
    <trkpt lat="33.81968" lon="-116.75192"><ele>2115.0</ele></trkpt>
    <trkpt lat="33.81979" lon="-116.75190"><ele>2115.0</ele></trkpt>
    <trkpt lat="33.81989" lon="-116.75186"><ele>2115.0</ele></trkpt>
    <trkpt lat="33.81996" lon="-116.75185"><ele>2115.0</ele></trkpt>
    <trkpt lat="33.82001" lon="-116.75189"><ele>2115.0</ele></trkpt>
    <trkpt lat="33.82000" lon="-116.75198"><ele>2115.0</ele></trkpt>
    <trkpt lat="33.81996" lon="-116.75205"><ele>2115.0</ele></trkpt>
    <trkpt lat="33.81983" lon="-116.75209"><ele>2115.0</ele></trkpt>
    <trkpt lat="33.81971" lon="-116.75213"><ele>2115.0</ele></trkpt>
    <trkpt lat="33.81957" lon="-116.75221"><ele>2127.0</ele></trkpt>
    <trkpt lat="33.81944" lon="-116.75231"><ele>2127.0</ele></trkpt>
    <trkpt lat="33.81938" lon="-116.75241"><ele>2127.0</ele></trkpt>
    <trkpt lat="33.81929" lon="-116.75254"><ele>2127.0</ele></trkpt>
    <trkpt lat="33.81919" lon="-116.75267"><ele>2127.0</ele></trkpt>
    <trkpt lat="33.81908" lon="-116.75278"><ele>2127.0</ele></trkpt>
    <trkpt lat="33.81892" lon="-116.75292"><ele>2127.0</ele></trkpt>
    <trkpt lat="33.81884" lon="-116.75301"><ele>2127.0</ele></trkpt>
    <trkpt lat="33.81874" lon="-116.75306"><ele>2127.0</ele></trkpt>
    <trkpt lat="33.81863" lon="-116.75311"><ele>2127.0</ele></trkpt>
    <trkpt lat="33.81849" lon="-116.75317"><ele>2127.0</ele></trkpt>
    <trkpt lat="33.81840" lon="-116.75323"><ele>2129.0</ele></trkpt>
    <trkpt lat="33.81836" lon="-116.75331"><ele>2129.0</ele></trkpt>
    <trkpt lat="33.81835" lon="-116.75341"><ele>2129.0</ele></trkpt>
    <trkpt lat="33.81838" lon="-116.75349"><ele>2129.0</ele></trkpt>
    <trkpt lat="33.81845" lon="-116.75354"><ele>2129.0</ele></trkpt>
    <trkpt lat="33.81854" lon="-116.75350"><ele>2129.0</ele></trkpt>
    <trkpt lat="33.81863" lon="-116.75343"><ele>2129.0</ele></trkpt>
    <trkpt lat="33.81874" lon="-116.75332"><ele>2129.0</ele></trkpt>
    <trkpt lat="33.81885" lon="-116.75322"><ele>2129.0</ele></trkpt>
    <trkpt lat="33.81894" lon="-116.75317"><ele>2129.0</ele></trkpt>
    <trkpt lat="33.81907" lon="-116.75312"><ele>2136.0</ele></trkpt>
    <trkpt lat="33.81925" lon="-116.75304"><ele>2136.0</ele></trkpt>
    <trkpt lat="33.81941" lon="-116.75300"><ele>2136.0</ele></trkpt>
    <trkpt lat="33.81951" lon="-116.75296"><ele>2136.0</ele></trkpt>
    <trkpt lat="33.81959" lon="-116.75289"><ele>2136.0</ele></trkpt>
    <trkpt lat="33.81967" lon="-116.75279"><ele>2136.0</ele></trkpt>
    <trkpt lat="33.81977" lon="-116.75270"><ele>2136.0</ele></trkpt>
    <trkpt lat="33.81985" lon="-116.75264"><ele>2136.0</ele></trkpt>
    <trkpt lat="33.81993" lon="-116.75263"><ele>2136.0</ele></trkpt>
    <trkpt lat="33.82002" lon="-116.75263"><ele>2136.0</ele></trkpt>
    <trkpt lat="33.82015" lon="-116.75263"><ele>2136.0</ele></trkpt>
    <trkpt lat="33.82029" lon="-116.75260"><ele>2152.0</ele></trkpt>
    <trkpt lat="33.82041" lon="-116.75257"><ele>2152.0</ele></trkpt>
    <trkpt lat="33.82051" lon="-116.75256"><ele>2152.0</ele></trkpt>
    <trkpt lat="33.82059" lon="-116.75252"><ele>2152.0</ele></trkpt>
    <trkpt lat="33.82065" lon="-116.75246"><ele>2152.0</ele></trkpt>
    <trkpt lat="33.82073" lon="-116.75232"><ele>2152.0</ele></trkpt>
    <trkpt lat="33.82081" lon="-116.75223"><ele>2152.0</ele></trkpt>
    <trkpt lat="33.82094" lon="-116.75214"><ele>2152.0</ele></trkpt>
    <trkpt lat="33.82106" lon="-116.75208"><ele>2152.0</ele></trkpt>
    <trkpt lat="33.82123" lon="-116.75199"><ele>2152.0</ele></trkpt>
    <trkpt lat="33.82141" lon="-116.75188"><ele>2163.0</ele></trkpt>
    <trkpt lat="33.82164" lon="-116.75177"><ele>2163.0</ele></trkpt>
    <trkpt lat="33.82178" lon="-116.75168"><ele>2163.0</ele></trkpt>
    <trkpt lat="33.82189" lon="-116.75158"><ele>2163.0</ele></trkpt>
    <trkpt lat="33.82200" lon="-116.75147"><ele>2163.0</ele></trkpt>
    <trkpt lat="33.82207" lon="-116.75140"><ele>2163.0</ele></trkpt>
    <trkpt lat="33.82211" lon="-116.75132"><ele>2163.0</ele></trkpt>
    <trkpt lat="33.82213" lon="-116.75121"><ele>2163.0</ele></trkpt>
    <trkpt lat="33.82216" lon="-116.75106"><ele>2163.0</ele></trkpt>
    <trkpt lat="33.82221" lon="-116.75094"><ele>2163.0</ele></trkpt>
    <trkpt lat="33.82232" lon="-116.75078"><ele>2163.0</ele></trkpt>
    <trkpt lat="33.82240" lon="-116.75064"><ele>2160.0</ele></trkpt>
    <trkpt lat="33.82246" lon="-116.75052"><ele>2160.0</ele></trkpt>
    <trkpt lat="33.82254" lon="-116.75043"><ele>2160.0</ele></trkpt>
    <trkpt lat="33.82265" lon="-116.75038"><ele>2160.0</ele></trkpt>
    <trkpt lat="33.82275" lon="-116.75036"><ele>2160.0</ele></trkpt>
    <trkpt lat="33.82286" lon="-116.75037"><ele>2160.0</ele></trkpt>
    <trkpt lat="33.82300" lon="-116.75042"><ele>2160.0</ele></trkpt>
    <trkpt lat="33.82312" lon="-116.75048"><ele>2160.0</ele></trkpt>
    <trkpt lat="33.82324" lon="-116.75057"><ele>2160.0</ele></trkpt>
    <trkpt lat="33.82335" lon="-116.75066"><ele>2160.0</ele></trkpt>
    <trkpt lat="33.82342" lon="-116.75076"><ele>2198.0</ele></trkpt>
    <trkpt lat="33.82347" lon="-116.75087"><ele>2198.0</ele></trkpt>
    <trkpt lat="33.82353" lon="-116.75106"><ele>2198.0</ele></trkpt>
    <trkpt lat="33.82361" lon="-116.75125"><ele>2198.0</ele></trkpt>
    <trkpt lat="33.82369" lon="-116.75142"><ele>2198.0</ele></trkpt>
    <trkpt lat="33.82379" lon="-116.75164"><ele>2198.0</ele></trkpt>
    <trkpt lat="33.82387" lon="-116.75181"><ele>2198.0</ele></trkpt>
    <trkpt lat="33.82394" lon="-116.75194"><ele>2198.0</ele></trkpt>
    <trkpt lat="33.82399" lon="-116.75205"><ele>2198.0</ele></trkpt>
    <trkpt lat="33.82406" lon="-116.75217"><ele>2198.0</ele></trkpt>
    <trkpt lat="33.82413" lon="-116.75222"><ele>2198.0</ele></trkpt>
    <trkpt lat="33.82418" lon="-116.75221"><ele>2209.0</ele></trkpt>
    <trkpt lat="33.82424" lon="-116.75215"><ele>2209.0</ele></trkpt>
    <trkpt lat="33.82431" lon="-116.75203"><ele>2209.0</ele></trkpt>
    <trkpt lat="33.82439" lon="-116.75192"><ele>2209.0</ele></trkpt>
    <trkpt lat="33.82449" lon="-116.75185"><ele>2209.0</ele></trkpt>
    <trkpt lat="33.82461" lon="-116.75176"><ele>2209.0</ele></trkpt>
    <trkpt lat="33.82481" lon="-116.75165"><ele>2209.0</ele></trkpt>
    <trkpt lat="33.82489" lon="-116.75159"><ele>2209.0</ele></trkpt>
    <trkpt lat="33.82491" lon="-116.75151"><ele>2209.0</ele></trkpt>
    <trkpt lat="33.82490" lon="-116.75135"><ele>2209.0</ele></trkpt>
    <trkpt lat="33.82490" lon="-116.75122"><ele>2209.0</ele></trkpt>
    <trkpt lat="33.82495" lon="-116.75110"><ele>2209.0</ele></trkpt>
    <trkpt lat="33.82501" lon="-116.75097"><ele>2209.0</ele></trkpt>
    <trkpt lat="33.82503" lon="-116.75083"><ele>2209.0</ele></trkpt>
    <trkpt lat="33.82503" lon="-116.75068"><ele>2209.0</ele></trkpt>
    <trkpt lat="33.82505" lon="-116.75057"><ele>2209.0</ele></trkpt>
    <trkpt lat="33.82510" lon="-116.75045"><ele>2209.0</ele></trkpt>
    <trkpt lat="33.82519" lon="-116.75024"><ele>2209.0</ele></trkpt>
    <trkpt lat="33.82527" lon="-116.75013"><ele>2209.0</ele></trkpt>
    <trkpt lat="33.82537" lon="-116.75005"><ele>2209.0</ele></trkpt>
    <trkpt lat="33.82543" lon="-116.75000"><ele>2209.0</ele></trkpt>
    <trkpt lat="33.82548" lon="-116.74990"><ele>2224.0</ele></trkpt>
    <trkpt lat="33.82552" lon="-116.74987"><ele>2224.0</ele></trkpt>
    <trkpt lat="33.82557" lon="-116.74989"><ele>2224.0</ele></trkpt>
    <trkpt lat="33.82560" lon="-116.74994"><ele>2224.0</ele></trkpt>
    <trkpt lat="33.82562" lon="-116.75004"><ele>2224.0</ele></trkpt>
    <trkpt lat="33.82564" lon="-116.75016"><ele>2224.0</ele></trkpt>
    <trkpt lat="33.82567" lon="-116.75026"><ele>2224.0</ele></trkpt>
    <trkpt lat="33.82572" lon="-116.75033"><ele>2224.0</ele></trkpt>
    <trkpt lat="33.82579" lon="-116.75036"><ele>2224.0</ele></trkpt>
    <trkpt lat="33.82591" lon="-116.75038"><ele>2224.0</ele></trkpt>
    <trkpt lat="33.82633" lon="-116.75042"><ele>2239.0</ele></trkpt>
    <trkpt lat="33.82650" lon="-116.75044"><ele>2239.0</ele></trkpt>
    <trkpt lat="33.82676" lon="-116.75047"><ele>2239.0</ele></trkpt>
    <trkpt lat="33.82723" lon="-116.75053"><ele>2239.0</ele></trkpt>
    <trkpt lat="33.82749" lon="-116.75057"><ele>2239.0</ele></trkpt>
    <trkpt lat="33.82789" lon="-116.75050"><ele>2239.0</ele></trkpt>
    <trkpt lat="33.82826" lon="-116.75040"><ele>2239.0</ele></trkpt>
    <trkpt lat="33.82852" lon="-116.75031"><ele>2239.0</ele></trkpt>
    <trkpt lat="33.82863" lon="-116.75024"><ele>2239.0</ele></trkpt>
    <trkpt lat="33.82871" lon="-116.75015"><ele>2239.0</ele></trkpt>
    <trkpt lat="33.82878" lon="-116.74999"><ele>2239.0</ele></trkpt>
    <trkpt lat="33.82888" lon="-116.74978"><ele>2238.0</ele></trkpt>
    <trkpt lat="33.82895" lon="-116.74967"><ele>2238.0</ele></trkpt>
    <trkpt lat="33.82904" lon="-116.74960"><ele>2238.0</ele></trkpt>
    <trkpt lat="33.82909" lon="-116.74955"><ele>2238.0</ele></trkpt>
    <trkpt lat="33.82912" lon="-116.74944"><ele>2238.0</ele></trkpt>
    <trkpt lat="33.82918" lon="-116.74923"><ele>2238.0</ele></trkpt>
    <trkpt lat="33.82919" lon="-116.74902"><ele>2238.0</ele></trkpt>
    <trkpt lat="33.82917" lon="-116.74890"><ele>2238.0</ele></trkpt>
    <trkpt lat="33.82914" lon="-116.74880"><ele>2238.0</ele></trkpt>
    <trkpt lat="33.82905" lon="-116.74864"><ele>2238.0</ele></trkpt>
    <trkpt lat="33.82896" lon="-116.74842"><ele>2256.0</ele></trkpt>
    <trkpt lat="33.82892" lon="-116.74830"><ele>2256.0</ele></trkpt>
    <trkpt lat="33.82888" lon="-116.74816"><ele>2256.0</ele></trkpt>
    <trkpt lat="33.82882" lon="-116.74805"><ele>2256.0</ele></trkpt>
    <trkpt lat="33.82878" lon="-116.74788"><ele>2256.0</ele></trkpt>
    <trkpt lat="33.82877" lon="-116.74775"><ele>2256.0</ele></trkpt>
    <trkpt lat="33.82879" lon="-116.74761"><ele>2256.0</ele></trkpt>
    <trkpt lat="33.82883" lon="-116.74738"><ele>2256.0</ele></trkpt>
    <trkpt lat="33.82883" lon="-116.74726"><ele>2256.0</ele></trkpt>
    <trkpt lat="33.82882" lon="-116.74711"><ele>2256.0</ele></trkpt>
    <trkpt lat="33.82877" lon="-116.74698"><ele>2256.0</ele></trkpt>
    <trkpt lat="33.82870" lon="-116.74689"><ele>2266.0</ele></trkpt>
    <trkpt lat="33.82854" lon="-116.74676"><ele>2266.0</ele></trkpt>
    <trkpt lat="33.82835" lon="-116.74664"><ele>2266.0</ele></trkpt>
    <trkpt lat="33.82818" lon="-116.74649"><ele>2266.0</ele></trkpt>
    <trkpt lat="33.82807" lon="-116.74640"><ele>2266.0</ele></trkpt>
    <trkpt lat="33.82803" lon="-116.74628"><ele>2266.0</ele></trkpt>
    <trkpt lat="33.82801" lon="-116.74614"><ele>2266.0</ele></trkpt>
    <trkpt lat="33.82796" lon="-116.74599"><ele>2266.0</ele></trkpt>
    <trkpt lat="33.82790" lon="-116.74584"><ele>2266.0</ele></trkpt>
    <trkpt lat="33.82787" lon="-116.74568"><ele>2266.0</ele></trkpt>
    <trkpt lat="33.82787" lon="-116.74552"><ele>2271.0</ele></trkpt>
    <trkpt lat="33.82787" lon="-116.74538"><ele>2271.0</ele></trkpt>
    <trkpt lat="33.82787" lon="-116.74519"><ele>2271.0</ele></trkpt>
    <trkpt lat="33.82789" lon="-116.74507"><ele>2271.0</ele></trkpt>
    <trkpt lat="33.82797" lon="-116.74496"><ele>2271.0</ele></trkpt>
    <trkpt lat="33.82803" lon="-116.74493"><ele>2271.0</ele></trkpt>
    <trkpt lat="33.82807" lon="-116.74491"><ele>2271.0</ele></trkpt>
    <trkpt lat="33.82816" lon="-116.74489"><ele>2271.0</ele></trkpt>
    <trkpt lat="33.82825" lon="-116.74494"><ele>2271.0</ele></trkpt>
    <trkpt lat="33.82834" lon="-116.74504"><ele>2271.0</ele></trkpt>
    <trkpt lat="33.82846" lon="-116.74517"><ele>2271.0</ele></trkpt>
    <trkpt lat="33.82860" lon="-116.74535"><ele>2271.0</ele></trkpt>
    <trkpt lat="33.82872" lon="-116.74553"><ele>2271.0</ele></trkpt>
    <trkpt lat="33.82881" lon="-116.74565"><ele>2271.0</ele></trkpt>
    <trkpt lat="33.82889" lon="-116.74572"><ele>2271.0</ele></trkpt>
    <trkpt lat="33.82898" lon="-116.74577"><ele>2271.0</ele></trkpt>
    <trkpt lat="33.82911" lon="-116.74582"><ele>2271.0</ele></trkpt>
    <trkpt lat="33.82924" lon="-116.74583"><ele>2271.0</ele></trkpt>
    <trkpt lat="33.82937" lon="-116.74581"><ele>2271.0</ele></trkpt>
    <trkpt lat="33.82946" lon="-116.74573"><ele>2271.0</ele></trkpt>
    <trkpt lat="33.82952" lon="-116.74562"><ele>2271.0</ele></trkpt>
    <trkpt lat="33.82958" lon="-116.74550"><ele>2291.0</ele></trkpt>
    <trkpt lat="33.82962" lon="-116.74537"><ele>2291.0</ele></trkpt>
    <trkpt lat="33.82967" lon="-116.74522"><ele>2291.0</ele></trkpt>
    <trkpt lat="33.82974" lon="-116.74508"><ele>2291.0</ele></trkpt>
    <trkpt lat="33.82984" lon="-116.74483"><ele>2291.0</ele></trkpt>
    <trkpt lat="33.82991" lon="-116.74465"><ele>2291.0</ele></trkpt>
    <trkpt lat="33.82997" lon="-116.74454"><ele>2291.0</ele></trkpt>
    <trkpt lat="33.83008" lon="-116.74439"><ele>2291.0</ele></trkpt>
    <trkpt lat="33.83015" lon="-116.74426"><ele>2291.0</ele></trkpt>
    <trkpt lat="33.83020" lon="-116.74414"><ele>2291.0</ele></trkpt>
    <trkpt lat="33.83024" lon="-116.74398"><ele>2291.0</ele></trkpt>
    <trkpt lat="33.83029" lon="-116.74384"><ele>2297.0</ele></trkpt>
    <trkpt lat="33.83036" lon="-116.74365"><ele>2297.0</ele></trkpt>
    <trkpt lat="33.83041" lon="-116.74343"><ele>2297.0</ele></trkpt>
    <trkpt lat="33.83046" lon="-116.74323"><ele>2297.0</ele></trkpt>
    <trkpt lat="33.83051" lon="-116.74307"><ele>2297.0</ele></trkpt>
    <trkpt lat="33.83059" lon="-116.74294"><ele>2297.0</ele></trkpt>
    <trkpt lat="33.83070" lon="-116.74278"><ele>2297.0</ele></trkpt>
    <trkpt lat="33.83071" lon="-116.74277"><ele>2297.0</ele></trkpt>
    <trkpt lat="33.83083" lon="-116.74264"><ele>2297.0</ele></trkpt>
    <trkpt lat="33.83097" lon="-116.74254"><ele>2297.0</ele></trkpt>
    <trkpt lat="33.83106" lon="-116.74243"><ele>2276.0</ele></trkpt>
    <trkpt lat="33.83112" lon="-116.74228"><ele>2276.0</ele></trkpt>
    <trkpt lat="33.83118" lon="-116.74216"><ele>2276.0</ele></trkpt>
    <trkpt lat="33.83132" lon="-116.74205"><ele>2276.0</ele></trkpt>
    <trkpt lat="33.83149" lon="-116.74192"><ele>2276.0</ele></trkpt>
    <trkpt lat="33.83157" lon="-116.74185"><ele>2276.0</ele></trkpt>
    <trkpt lat="33.83161" lon="-116.74183"><ele>2276.0</ele></trkpt>
    <trkpt lat="33.83168" lon="-116.74181"><ele>2276.0</ele></trkpt>
    <trkpt lat="33.83184" lon="-116.74177"><ele>2276.0</ele></trkpt>
    <trkpt lat="33.83194" lon="-116.74181"><ele>2276.0</ele></trkpt>
    <trkpt lat="33.83201" lon="-116.74190"><ele>2276.0</ele></trkpt>
    <trkpt lat="33.83206" lon="-116.74204"><ele>2276.0</ele></trkpt>
    <trkpt lat="33.83216" lon="-116.74222"><ele>2276.0</ele></trkpt>
    <trkpt lat="33.83222" lon="-116.74231"><ele>2276.0</ele></trkpt>
    <trkpt lat="33.83235" lon="-116.74240"><ele>2276.0</ele></trkpt>
    <trkpt lat="33.83247" lon="-116.74243"><ele>2276.0</ele></trkpt>
    <trkpt lat="33.83258" lon="-116.74240"><ele>2276.0</ele></trkpt>
    <trkpt lat="33.83266" lon="-116.74230"><ele>2276.0</ele></trkpt>
    <trkpt lat="33.83271" lon="-116.74213"><ele>2276.0</ele></trkpt>
    <trkpt lat="33.83279" lon="-116.74193"><ele>2276.0</ele></trkpt>
    <trkpt lat="33.83288" lon="-116.74178"><ele>2276.0</ele></trkpt>
    <trkpt lat="33.83299" lon="-116.74162"><ele>2263.0</ele></trkpt>
    <trkpt lat="33.83311" lon="-116.74149"><ele>2263.0</ele></trkpt>
    <trkpt lat="33.83327" lon="-116.74134"><ele>2263.0</ele></trkpt>
    <trkpt lat="33.83342" lon="-116.74126"><ele>2263.0</ele></trkpt>
    <trkpt lat="33.83362" lon="-116.74121"><ele>2263.0</ele></trkpt>
    <trkpt lat="33.83385" lon="-116.74122"><ele>2263.0</ele></trkpt>
    <trkpt lat="33.83408" lon="-116.74124"><ele>2263.0</ele></trkpt>
    <trkpt lat="33.83422" lon="-116.74128"><ele>2263.0</ele></trkpt>
    <trkpt lat="33.83432" lon="-116.74135"><ele>2263.0</ele></trkpt>
    <trkpt lat="33.83442" lon="-116.74143"><ele>2263.0</ele></trkpt>
    <trkpt lat="33.83451" lon="-116.74149"><ele>2263.0</ele></trkpt>
    <trkpt lat="33.83465" lon="-116.74151"><ele>2274.0</ele></trkpt>
    <trkpt lat="33.83494" lon="-116.74152"><ele>2274.0</ele></trkpt>
    <trkpt lat="33.83505" lon="-116.74158"><ele>2274.0</ele></trkpt>
    <trkpt lat="33.83518" lon="-116.74160"><ele>2274.0</ele></trkpt>
    <trkpt lat="33.83531" lon="-116.74157"><ele>2274.0</ele></trkpt>
    <trkpt lat="33.83541" lon="-116.74154"><ele>2274.0</ele></trkpt>
    <trkpt lat="33.83551" lon="-116.74155"><ele>2274.0</ele></trkpt>
    <trkpt lat="33.83562" lon="-116.74162"><ele>2274.0</ele></trkpt>
    <trkpt lat="33.83573" lon="-116.74172"><ele>2274.0</ele></trkpt>
    <trkpt lat="33.83580" lon="-116.74184"><ele>2274.0</ele></trkpt>
    <trkpt lat="33.83588" lon="-116.74202"><ele>2287.0</ele></trkpt>
    <trkpt lat="33.83597" lon="-116.74214"><ele>2287.0</ele></trkpt>
    <trkpt lat="33.83616" lon="-116.74237"><ele>2287.0</ele></trkpt>
    <trkpt lat="33.83628" lon="-116.74247"><ele>2287.0</ele></trkpt>
    <trkpt lat="33.83650" lon="-116.74256"><ele>2287.0</ele></trkpt>
    <trkpt lat="33.83668" lon="-116.74267"><ele>2287.0</ele></trkpt>
    <trkpt lat="33.83687" lon="-116.74283"><ele>2287.0</ele></trkpt>
    <trkpt lat="33.83697" lon="-116.74294"><ele>2287.0</ele></trkpt>
    <trkpt lat="33.83706" lon="-116.74307"><ele>2287.0</ele></trkpt>
    <trkpt lat="33.83713" lon="-116.74323"><ele>2287.0</ele></trkpt>
    <trkpt lat="33.83719" lon="-116.74333"><ele>2287.0</ele></trkpt>
    <trkpt lat="33.83729" lon="-116.74344"><ele>2297.0</ele></trkpt>
    <trkpt lat="33.83738" lon="-116.74357"><ele>2297.0</ele></trkpt>
    <trkpt lat="33.83742" lon="-116.74367"><ele>2297.0</ele></trkpt>
    <trkpt lat="33.83743" lon="-116.74379"><ele>2297.0</ele></trkpt>
    <trkpt lat="33.83742" lon="-116.74393"><ele>2297.0</ele></trkpt>
    <trkpt lat="33.83738" lon="-116.74409"><ele>2297.0</ele></trkpt>
    <trkpt lat="33.83737" lon="-116.74419"><ele>2297.0</ele></trkpt>
    <trkpt lat="33.83741" lon="-116.74433"><ele>2297.0</ele></trkpt>
    <trkpt lat="33.83747" lon="-116.74443"><ele>2297.0</ele></trkpt>
    <trkpt lat="33.83758" lon="-116.74437"><ele>2297.0</ele></trkpt>
    <trkpt lat="33.83772" lon="-116.74435"><ele>2300.0</ele></trkpt>
    <trkpt lat="33.83786" lon="-116.74438"><ele>2300.0</ele></trkpt>
    <trkpt lat="33.83798" lon="-116.74436"><ele>2300.0</ele></trkpt>
    <trkpt lat="33.83807" lon="-116.74432"><ele>2300.0</ele></trkpt>
    <trkpt lat="33.83816" lon="-116.74421"><ele>2300.0</ele></trkpt>
    <trkpt lat="33.83829" lon="-116.74400"><ele>2300.0</ele></trkpt>
    <trkpt lat="33.83836" lon="-116.74387"><ele>2300.0</ele></trkpt>
    <trkpt lat="33.83842" lon="-116.74375"><ele>2300.0</ele></trkpt>
    <trkpt lat="33.83851" lon="-116.74367"><ele>2300.0</ele></trkpt>
    <trkpt lat="33.83861" lon="-116.74356"><ele>2300.0</ele></trkpt>
    <trkpt lat="33.83874" lon="-116.74343"><ele>2300.0</ele></trkpt>
    <trkpt lat="33.83885" lon="-116.74332"><ele>2319.0</ele></trkpt>
    <trkpt lat="33.83892" lon="-116.74320"><ele>2319.0</ele></trkpt>
    <trkpt lat="33.83897" lon="-116.74305"><ele>2319.0</ele></trkpt>
    <trkpt lat="33.83902" lon="-116.74296"><ele>2319.0</ele></trkpt>
    <trkpt lat="33.83910" lon="-116.74288"><ele>2319.0</ele></trkpt>
    <trkpt lat="33.83925" lon="-116.74284"><ele>2319.0</ele></trkpt>
    <trkpt lat="33.83934" lon="-116.74278"><ele>2319.0</ele></trkpt>
    <trkpt lat="33.83943" lon="-116.74267"><ele>2319.0</ele></trkpt>
    <trkpt lat="33.83950" lon="-116.74254"><ele>2319.0</ele></trkpt>
    <trkpt lat="33.83959" lon="-116.74250"><ele>2319.0</ele></trkpt>
    <trkpt lat="33.83971" lon="-116.74243"><ele>2334.0</ele></trkpt>
    <trkpt lat="33.83987" lon="-116.74232"><ele>2334.0</ele></trkpt>
    <trkpt lat="33.84005" lon="-116.74222"><ele>2334.0</ele></trkpt>
    <trkpt lat="33.84015" lon="-116.74215"><ele>2334.0</ele></trkpt>
    <trkpt lat="33.84029" lon="-116.74202"><ele>2334.0</ele></trkpt>
    <trkpt lat="33.84045" lon="-116.74184"><ele>2334.0</ele></trkpt>
    <trkpt lat="33.84057" lon="-116.74168"><ele>2334.0</ele></trkpt>
    <trkpt lat="33.84068" lon="-116.74149"><ele>2334.0</ele></trkpt>
    <trkpt lat="33.84081" lon="-116.74127"><ele>2334.0</ele></trkpt>
    <trkpt lat="33.84099" lon="-116.74106"><ele>2334.0</ele></trkpt>
    <trkpt lat="33.84113" lon="-116.74096"><ele>2334.0</ele></trkpt>
    <trkpt lat="33.84123" lon="-116.74092"><ele>2333.0</ele></trkpt>
    <trkpt lat="33.84133" lon="-116.74092"><ele>2333.0</ele></trkpt>
    <trkpt lat="33.84143" lon="-116.74096"><ele>2333.0</ele></trkpt>
    <trkpt lat="33.84150" lon="-116.74105"><ele>2333.0</ele></trkpt>
    <trkpt lat="33.84159" lon="-116.74114"><ele>2333.0</ele></trkpt>
    <trkpt lat="33.84167" lon="-116.74117"><ele>2333.0</ele></trkpt>
    <trkpt lat="33.84183" lon="-116.74112"><ele>2333.0</ele></trkpt>
    <trkpt lat="33.84211" lon="-116.74104"><ele>2333.0</ele></trkpt>
    <trkpt lat="33.84230" lon="-116.74098"><ele>2333.0</ele></trkpt>
    <trkpt lat="33.84242" lon="-116.74089"><ele>2333.0</ele></trkpt>
    <trkpt lat="33.84249" lon="-116.74079"><ele>2329.0</ele></trkpt>
    <trkpt lat="33.84258" lon="-116.74064"><ele>2329.0</ele></trkpt>
    <trkpt lat="33.84266" lon="-116.74045"><ele>2329.0</ele></trkpt>
    <trkpt lat="33.84272" lon="-116.74033"><ele>2329.0</ele></trkpt>
    <trkpt lat="33.84296" lon="-116.74010"><ele>2329.0</ele></trkpt>
    <trkpt lat="33.84310" lon="-116.73995"><ele>2329.0</ele></trkpt>
    <trkpt lat="33.84320" lon="-116.73979"><ele>2329.0</ele></trkpt>
    <trkpt lat="33.84329" lon="-116.73958"><ele>2329.0</ele></trkpt>
    <trkpt lat="33.84335" lon="-116.73940"><ele>2329.0</ele></trkpt>
    <trkpt lat="33.84339" lon="-116.73917"><ele>2329.0</ele></trkpt>
    <trkpt lat="33.84340" lon="-116.73901"><ele>2329.0</ele></trkpt>
    <trkpt lat="33.84339" lon="-116.73882"><ele>2333.0</ele></trkpt>
    <trkpt lat="33.84333" lon="-116.73870"><ele>2333.0</ele></trkpt>
    <trkpt lat="33.84324" lon="-116.73864"><ele>2333.0</ele></trkpt>
    <trkpt lat="33.84312" lon="-116.73864"><ele>2333.0</ele></trkpt>
    <trkpt lat="33.84297" lon="-116.73865"><ele>2333.0</ele></trkpt>
    <trkpt lat="33.84288" lon="-116.73863"><ele>2333.0</ele></trkpt>
    <trkpt lat="33.84276" lon="-116.73858"><ele>2333.0</ele></trkpt>
    <trkpt lat="33.84261" lon="-116.73853"><ele>2333.0</ele></trkpt>
    <trkpt lat="33.84242" lon="-116.73853"><ele>2333.0</ele></trkpt>
    <trkpt lat="33.84215" lon="-116.73850"><ele>2333.0</ele></trkpt>
    <trkpt lat="33.84186" lon="-116.73851"><ele>2354.0</ele></trkpt>
    <trkpt lat="33.84156" lon="-116.73847"><ele>2354.0</ele></trkpt>
    <trkpt lat="33.84128" lon="-116.73845"><ele>2354.0</ele></trkpt>
    <trkpt lat="33.84110" lon="-116.73846"><ele>2354.0</ele></trkpt>
    <trkpt lat="33.84089" lon="-116.73849"><ele>2354.0</ele></trkpt>
    <trkpt lat="33.84083" lon="-116.73849"><ele>2354.0</ele></trkpt>
    <trkpt lat="33.84083" lon="-116.73849"><ele>2354.0</ele></trkpt>
    <trkpt lat="33.84083" lon="-116.73849"><ele>2354.0</ele></trkpt>
    <trkpt lat="33.84080" lon="-116.73846"><ele>2354.0</ele></trkpt>
    <trkpt lat="33.84078" lon="-116.73843"><ele>2354.0</ele></trkpt>
    <trkpt lat="33.84078" lon="-116.73843"><ele>2354.0</ele></trkpt>
    <trkpt lat="33.84067" lon="-116.73822"><ele>2355.0</ele></trkpt>
    <trkpt lat="33.84049" lon="-116.73790"><ele>2355.0</ele></trkpt>
    <trkpt lat="33.84042" lon="-116.73776"><ele>2355.0</ele></trkpt>
    <trkpt lat="33.84035" lon="-116.73757"><ele>2355.0</ele></trkpt>
    <trkpt lat="33.84032" lon="-116.73736"><ele>2355.0</ele></trkpt>
    <trkpt lat="33.84032" lon="-116.73720"><ele>2355.0</ele></trkpt>
    <trkpt lat="33.84032" lon="-116.73703"><ele>2355.0</ele></trkpt>
    <trkpt lat="33.84036" lon="-116.73677"><ele>2355.0</ele></trkpt>
    <trkpt lat="33.84039" lon="-116.73655"><ele>2355.0</ele></trkpt>
    <trkpt lat="33.84039" lon="-116.73635"><ele>2355.0</ele></trkpt>
    <trkpt lat="33.84035" lon="-116.73616"><ele>2344.0</ele></trkpt>
    <trkpt lat="33.84028" lon="-116.73594"><ele>2344.0</ele></trkpt>
    <trkpt lat="33.84022" lon="-116.73575"><ele>2344.0</ele></trkpt>
    <trkpt lat="33.84020" lon="-116.73562"><ele>2344.0</ele></trkpt>
    <trkpt lat="33.84021" lon="-116.73549"><ele>2344.0</ele></trkpt>
    <trkpt lat="33.84023" lon="-116.73535"><ele>2344.0</ele></trkpt>
    <trkpt lat="33.84023" lon="-116.73534"><ele>2344.0</ele></trkpt>
    <trkpt lat="33.84023" lon="-116.73521"><ele>2344.0</ele></trkpt>
    <trkpt lat="33.84020" lon="-116.73505"><ele>2344.0</ele></trkpt>
    <trkpt lat="33.84009" lon="-116.73478"><ele>2344.0</ele></trkpt>
    <trkpt lat="33.84007" lon="-116.73466"><ele>2344.0</ele></trkpt>
    <trkpt lat="33.84005" lon="-116.73454"><ele>2345.0</ele></trkpt>
    <trkpt lat="33.84000" lon="-116.73448"><ele>2345.0</ele></trkpt>
    <trkpt lat="33.83991" lon="-116.73435"><ele>2345.0</ele></trkpt>
    <trkpt lat="33.83985" lon="-116.73431"><ele>2345.0</ele></trkpt>
    <trkpt lat="33.83980" lon="-116.73422"><ele>2345.0</ele></trkpt>
    <trkpt lat="33.83978" lon="-116.73413"><ele>2345.0</ele></trkpt>
    <trkpt lat="33.83978" lon="-116.73402"><ele>2345.0</ele></trkpt>
    <trkpt lat="33.83980" lon="-116.73384"><ele>2345.0</ele></trkpt>
    <trkpt lat="33.83985" lon="-116.73378"><ele>2345.0</ele></trkpt>
    <trkpt lat="33.83990" lon="-116.73368"><ele>2345.0</ele></trkpt>
    <trkpt lat="33.83993" lon="-116.73355"><ele>2321.0</ele></trkpt>
    <trkpt lat="33.83997" lon="-116.73342"><ele>2321.0</ele></trkpt>
    <trkpt lat="33.84001" lon="-116.73327"><ele>2321.0</ele></trkpt>
    <trkpt lat="33.84009" lon="-116.73309"><ele>2321.0</ele></trkpt>
    <trkpt lat="33.84014" lon="-116.73293"><ele>2321.0</ele></trkpt>
    <trkpt lat="33.84019" lon="-116.73273"><ele>2321.0</ele></trkpt>
    <trkpt lat="33.84023" lon="-116.73241"><ele>2321.0</ele></trkpt>
    <trkpt lat="33.84026" lon="-116.73215"><ele>2321.0</ele></trkpt>
    <trkpt lat="33.84029" lon="-116.73181"><ele>2321.0</ele></trkpt>
    <trkpt lat="33.84028" lon="-116.73152"><ele>2321.0</ele></trkpt>
    <trkpt lat="33.84026" lon="-116.73126"><ele>2321.0</ele></trkpt>
    <trkpt lat="33.84024" lon="-116.73099"><ele>2314.0</ele></trkpt>
    <trkpt lat="33.84019" lon="-116.73081"><ele>2314.0</ele></trkpt>
    <trkpt lat="33.84013" lon="-116.73063"><ele>2314.0</ele></trkpt>
    <trkpt lat="33.84012" lon="-116.73052"><ele>2314.0</ele></trkpt>
    <trkpt lat="33.84013" lon="-116.73041"><ele>2314.0</ele></trkpt>
    <trkpt lat="33.84018" lon="-116.73037"><ele>2314.0</ele></trkpt>
    <trkpt lat="33.84024" lon="-116.73038"><ele>2314.0</ele></trkpt>
    <trkpt lat="33.84028" lon="-116.73043"><ele>2314.0</ele></trkpt>
    <trkpt lat="33.84037" lon="-116.73064"><ele>2314.0</ele></trkpt>
    <trkpt lat="33.84054" lon="-116.73105"><ele>2314.0</ele></trkpt>
    <trkpt lat="33.84070" lon="-116.73139"><ele>2278.0</ele></trkpt>
    <trkpt lat="33.84085" lon="-116.73170"><ele>2278.0</ele></trkpt>
    <trkpt lat="33.84101" lon="-116.73205"><ele>2278.0</ele></trkpt>
    <trkpt lat="33.84116" lon="-116.73238"><ele>2278.0</ele></trkpt>
    <trkpt lat="33.84123" lon="-116.73251"><ele>2278.0</ele></trkpt>
    <trkpt lat="33.84126" lon="-116.73262"><ele>2278.0</ele></trkpt>
    <trkpt lat="33.84129" lon="-116.73276"><ele>2278.0</ele></trkpt>
    <trkpt lat="33.84135" lon="-116.73291"><ele>2278.0</ele></trkpt>
    <trkpt lat="33.84142" lon="-116.73303"><ele>2278.0</ele></trkpt>
    <trkpt lat="33.84150" lon="-116.73315"><ele>2278.0</ele></trkpt>
    <trkpt lat="33.84154" lon="-116.73328"><ele>2278.0</ele></trkpt>
    <trkpt lat="33.84158" lon="-116.73338"><ele>2264.0</ele></trkpt>
    <trkpt lat="33.84164" lon="-116.73350"><ele>2264.0</ele></trkpt>
    <trkpt lat="33.84171" lon="-116.73362"><ele>2264.0</ele></trkpt>
    <trkpt lat="33.84179" lon="-116.73371"><ele>2264.0</ele></trkpt>
    <trkpt lat="33.84195" lon="-116.73381"><ele>2264.0</ele></trkpt>
    <trkpt lat="33.84208" lon="-116.73385"><ele>2264.0</ele></trkpt>
    <trkpt lat="33.84224" lon="-116.73385"><ele>2264.0</ele></trkpt>
    <trkpt lat="33.84235" lon="-116.73383"><ele>2264.0</ele></trkpt>
    <trkpt lat="33.84240" lon="-116.73376"><ele>2264.0</ele></trkpt>
    <trkpt lat="33.84247" lon="-116.73361"><ele>2264.0</ele></trkpt>
    <trkpt lat="33.84251" lon="-116.73355"><ele>2249.0</ele></trkpt>
    <trkpt lat="33.84256" lon="-116.73344"><ele>2249.0</ele></trkpt>
    <trkpt lat="33.84256" lon="-116.73335"><ele>2249.0</ele></trkpt>
    <trkpt lat="33.84252" lon="-116.73324"><ele>2249.0</ele></trkpt>
    <trkpt lat="33.84245" lon="-116.73311"><ele>2249.0</ele></trkpt>
    <trkpt lat="33.84241" lon="-116.73295"><ele>2249.0</ele></trkpt>
    <trkpt lat="33.84240" lon="-116.73282"><ele>2249.0</ele></trkpt>
    <trkpt lat="33.84242" lon="-116.73270"><ele>2249.0</ele></trkpt>
    <trkpt lat="33.84248" lon="-116.73259"><ele>2249.0</ele></trkpt>
    <trkpt lat="33.84257" lon="-116.73242"><ele>2249.0</ele></trkpt>
    <trkpt lat="33.84263" lon="-116.73230"><ele>2249.0</ele></trkpt>
    <trkpt lat="33.84276" lon="-116.73204"><ele>2224.0</ele></trkpt>
    <trkpt lat="33.84287" lon="-116.73174"><ele>2224.0</ele></trkpt>
    <trkpt lat="33.84295" lon="-116.73152"><ele>2224.0</ele></trkpt>
    <trkpt lat="33.84304" lon="-116.73136"><ele>2224.0</ele></trkpt>
    <trkpt lat="33.84312" lon="-116.73123"><ele>2224.0</ele></trkpt>
    <trkpt lat="33.84322" lon="-116.73115"><ele>2224.0</ele></trkpt>
    <trkpt lat="33.84337" lon="-116.73104"><ele>2224.0</ele></trkpt>
    <trkpt lat="33.84350" lon="-116.73096"><ele>2224.0</ele></trkpt>
    <trkpt lat="33.84363" lon="-116.73090"><ele>2224.0</ele></trkpt>
    <trkpt lat="33.84368" lon="-116.73084"><ele>2224.0</ele></trkpt>
    <trkpt lat="33.84369" lon="-116.73075"><ele>2217.0</ele></trkpt>
    <trkpt lat="33.84366" lon="-116.73068"><ele>2217.0</ele></trkpt>
    <trkpt lat="33.84361" lon="-116.73062"><ele>2217.0</ele></trkpt>
    <trkpt lat="33.84352" lon="-116.73061"><ele>2217.0</ele></trkpt>
    <trkpt lat="33.84336" lon="-116.73062"><ele>2217.0</ele></trkpt>
    <trkpt lat="33.84328" lon="-116.73060"><ele>2217.0</ele></trkpt>
    <trkpt lat="33.84316" lon="-116.73055"><ele>2217.0</ele></trkpt>
    <trkpt lat="33.84302" lon="-116.73048"><ele>2217.0</ele></trkpt>
    <trkpt lat="33.84289" lon="-116.73037"><ele>2217.0</ele></trkpt>
    <trkpt lat="33.84280" lon="-116.73021"><ele>2217.0</ele></trkpt>
    <trkpt lat="33.84271" lon="-116.73003"><ele>2217.0</ele></trkpt>
    <trkpt lat="33.84262" lon="-116.72985"><ele>2217.0</ele></trkpt>
    <trkpt lat="33.84259" lon="-116.72976"><ele>2217.0</ele></trkpt>
    <trkpt lat="33.84258" lon="-116.72966"><ele>2217.0</ele></trkpt>
    <trkpt lat="33.84264" lon="-116.72954"><ele>2217.0</ele></trkpt>
    <trkpt lat="33.84274" lon="-116.72938"><ele>2217.0</ele></trkpt>
    <trkpt lat="33.84288" lon="-116.72915"><ele>2217.0</ele></trkpt>
    <trkpt lat="33.84298" lon="-116.72895"><ele>2217.0</ele></trkpt>
    <trkpt lat="33.84312" lon="-116.72878"><ele>2217.0</ele></trkpt>
    <trkpt lat="33.84328" lon="-116.72865"><ele>2217.0</ele></trkpt>
    <trkpt lat="33.84345" lon="-116.72853"><ele>2217.0</ele></trkpt>
    <trkpt lat="33.84362" lon="-116.72842"><ele>2186.0</ele></trkpt>
    <trkpt lat="33.84374" lon="-116.72833"><ele>2186.0</ele></trkpt>
    <trkpt lat="33.84383" lon="-116.72829"><ele>2186.0</ele></trkpt>
    <trkpt lat="33.84389" lon="-116.72837"><ele>2186.0</ele></trkpt>
    <trkpt lat="33.84391" lon="-116.72844"><ele>2186.0</ele></trkpt>
    <trkpt lat="33.84388" lon="-116.72851"><ele>2186.0</ele></trkpt>
    <trkpt lat="33.84381" lon="-116.72855"><ele>2186.0</ele></trkpt>
    <trkpt lat="33.84378" lon="-116.72865"><ele>2186.0</ele></trkpt>
    <trkpt lat="33.84376" lon="-116.72876"><ele>2186.0</ele></trkpt>
    <trkpt lat="33.84376" lon="-116.72886"><ele>2186.0</ele></trkpt>
    <trkpt lat="33.84378" lon="-116.72895"><ele>2186.0</ele></trkpt>
    <trkpt lat="33.84383" lon="-116.72904"><ele>2176.0</ele></trkpt>
    <trkpt lat="33.84391" lon="-116.72913"><ele>2176.0</ele></trkpt>
    <trkpt lat="33.84400" lon="-116.72914"><ele>2176.0</ele></trkpt>
    <trkpt lat="33.84442" lon="-116.72913"><ele>2176.0</ele></trkpt>
    <trkpt lat="33.84466" lon="-116.72914"><ele>2176.0</ele></trkpt>
    <trkpt lat="33.84483" lon="-116.72917"><ele>2176.0</ele></trkpt>
    <trkpt lat="33.84501" lon="-116.72923"><ele>2176.0</ele></trkpt>
    <trkpt lat="33.84513" lon="-116.72927"><ele>2176.0</ele></trkpt>
    <trkpt lat="33.84532" lon="-116.72930"><ele>2176.0</ele></trkpt>
    <trkpt lat="33.84541" lon="-116.72935"><ele>2176.0</ele></trkpt>
    <trkpt lat="33.84546" lon="-116.72944"><ele>2164.0</ele></trkpt>
    <trkpt lat="33.84549" lon="-116.72956"><ele>2164.0</ele></trkpt>
    <trkpt lat="33.84547" lon="-116.72974"><ele>2164.0</ele></trkpt>
    <trkpt lat="33.84545" lon="-116.72989"><ele>2164.0</ele></trkpt>
    <trkpt lat="33.84542" lon="-116.73008"><ele>2164.0</ele></trkpt>
    <trkpt lat="33.84541" lon="-116.73023"><ele>2164.0</ele></trkpt>
    <trkpt lat="33.84539" lon="-116.73038"><ele>2164.0</ele></trkpt>
    <trkpt lat="33.84536" lon="-116.73058"><ele>2164.0</ele></trkpt>
    <trkpt lat="33.84532" lon="-116.73069"><ele>2164.0</ele></trkpt>
    <trkpt lat="33.84527" lon="-116.73081"><ele>2164.0</ele></trkpt>
    <trkpt lat="33.84521" lon="-116.73094"><ele>2164.0</ele></trkpt>
    <trkpt lat="33.84509" lon="-116.73118"><ele>2171.0</ele></trkpt>
    <trkpt lat="33.84501" lon="-116.73135"><ele>2171.0</ele></trkpt>
    <trkpt lat="33.84495" lon="-116.73153"><ele>2171.0</ele></trkpt>
    <trkpt lat="33.84489" lon="-116.73173"><ele>2171.0</ele></trkpt>
    <trkpt lat="33.84486" lon="-116.73191"><ele>2171.0</ele></trkpt>
    <trkpt lat="33.84483" lon="-116.73208"><ele>2171.0</ele></trkpt>
    <trkpt lat="33.84480" lon="-116.73222"><ele>2171.0</ele></trkpt>
    <trkpt lat="33.84482" lon="-116.73234"><ele>2171.0</ele></trkpt>
    <trkpt lat="33.84489" lon="-116.73244"><ele>2171.0</ele></trkpt>
    <trkpt lat="33.84498" lon="-116.73252"><ele>2171.0</ele></trkpt>
    <trkpt lat="33.84512" lon="-116.73264"><ele>2157.0</ele></trkpt>
    <trkpt lat="33.84522" lon="-116.73270"><ele>2157.0</ele></trkpt>
    <trkpt lat="33.84529" lon="-116.73274"><ele>2157.0</ele></trkpt>
    <trkpt lat="33.84543" lon="-116.73274"><ele>2157.0</ele></trkpt>
    <trkpt lat="33.84558" lon="-116.73276"><ele>2157.0</ele></trkpt>
    <trkpt lat="33.84565" lon="-116.73282"><ele>2157.0</ele></trkpt>
  </trkseg></trk>
</gpx>
