<?xml version="1.0" encoding="UTF-8"?>
<gpx version="1.1" creator="dirt-bikes build-area-routes (MVUM geometry + SRTM elevation)" xmlns="http://www.topografix.com/GPX/1/1">
  <trk><name>Buckhorn Road</name><trkseg>
    <trkpt lat="34.63614" lon="-119.71352"><ele>1432.0</ele></trkpt>
    <trkpt lat="34.63569" lon="-119.71353"><ele>1432.0</ele></trkpt>
    <trkpt lat="34.63552" lon="-119.71357"><ele>1432.0</ele></trkpt>
    <trkpt lat="34.63512" lon="-119.71386"><ele>1432.0</ele></trkpt>
    <trkpt lat="34.63507" lon="-119.71401"><ele>1432.0</ele></trkpt>
    <trkpt lat="34.63497" lon="-119.71429"><ele>1441.0</ele></trkpt>
    <trkpt lat="34.63499" lon="-119.71437"><ele>1441.0</ele></trkpt>
    <trkpt lat="34.63526" lon="-119.71457"><ele>1441.0</ele></trkpt>
    <trkpt lat="34.63572" lon="-119.71490"><ele>1441.0</ele></trkpt>
    <trkpt lat="34.63618" lon="-119.71513"><ele>1441.0</ele></trkpt>
    <trkpt lat="34.63647" lon="-119.71567"><ele>1441.0</ele></trkpt>
    <trkpt lat="34.63652" lon="-119.71580"><ele>1441.0</ele></trkpt>
    <trkpt lat="34.63649" lon="-119.71592"><ele>1441.0</ele></trkpt>
    <trkpt lat="34.63635" lon="-119.71607"><ele>1441.0</ele></trkpt>
    <trkpt lat="34.63619" lon="-119.71626"><ele>1441.0</ele></trkpt>
    <trkpt lat="34.63622" lon="-119.71669"><ele>1435.0</ele></trkpt>
    <trkpt lat="34.63614" lon="-119.71681"><ele>1435.0</ele></trkpt>
    <trkpt lat="34.63574" lon="-119.71690"><ele>1435.0</ele></trkpt>
    <trkpt lat="34.63539" lon="-119.71680"><ele>1435.0</ele></trkpt>
    <trkpt lat="34.63484" lon="-119.71665"><ele>1435.0</ele></trkpt>
    <trkpt lat="34.63428" lon="-119.71671"><ele>1435.0</ele></trkpt>
    <trkpt lat="34.63420" lon="-119.71672"><ele>1435.0</ele></trkpt>
    <trkpt lat="34.63400" lon="-119.71662"><ele>1435.0</ele></trkpt>
    <trkpt lat="34.63381" lon="-119.71667"><ele>1435.0</ele></trkpt>
    <trkpt lat="34.63343" lon="-119.71703"><ele>1413.0</ele></trkpt>
    <trkpt lat="34.63306" lon="-119.71719"><ele>1413.0</ele></trkpt>
    <trkpt lat="34.63286" lon="-119.71741"><ele>1413.0</ele></trkpt>
    <trkpt lat="34.63278" lon="-119.71767"><ele>1413.0</ele></trkpt>
    <trkpt lat="34.63278" lon="-119.71787"><ele>1413.0</ele></trkpt>
    <trkpt lat="34.63295" lon="-119.71886"><ele>1413.0</ele></trkpt>
    <trkpt lat="34.63296" lon="-119.71928"><ele>1413.0</ele></trkpt>
    <trkpt lat="34.63287" lon="-119.72003"><ele>1413.0</ele></trkpt>
    <trkpt lat="34.63279" lon="-119.72063"><ele>1413.0</ele></trkpt>
    <trkpt lat="34.63259" lon="-119.72100"><ele>1375.0</ele></trkpt>
    <trkpt lat="34.63257" lon="-119.72120"><ele>1375.0</ele></trkpt>
    <trkpt lat="34.63256" lon="-119.72134"><ele>1375.0</ele></trkpt>
    <trkpt lat="34.63247" lon="-119.72156"><ele>1375.0</ele></trkpt>
    <trkpt lat="34.63226" lon="-119.72171"><ele>1375.0</ele></trkpt>
    <trkpt lat="34.63205" lon="-119.72163"><ele>1375.0</ele></trkpt>
    <trkpt lat="34.63190" lon="-119.72134"><ele>1375.0</ele></trkpt>
    <trkpt lat="34.63164" lon="-119.72082"><ele>1375.0</ele></trkpt>
    <trkpt lat="34.63140" lon="-119.72059"><ele>1375.0</ele></trkpt>
    <trkpt lat="34.63093" lon="-119.72037"><ele>1375.0</ele></trkpt>
    <trkpt lat="34.63081" lon="-119.72024"><ele>1352.0</ele></trkpt>
    <trkpt lat="34.63069" lon="-119.71986"><ele>1352.0</ele></trkpt>
    <trkpt lat="34.63070" lon="-119.71938"><ele>1352.0</ele></trkpt>
    <trkpt lat="34.63070" lon="-119.71908"><ele>1352.0</ele></trkpt>
    <trkpt lat="34.63066" lon="-119.71905"><ele>1352.0</ele></trkpt>
    <trkpt lat="34.63058" lon="-119.71906"><ele>1352.0</ele></trkpt>
    <trkpt lat="34.63051" lon="-119.71921"><ele>1352.0</ele></trkpt>
    <trkpt lat="34.63041" lon="-119.71945"><ele>1352.0</ele></trkpt>
    <trkpt lat="34.63033" lon="-119.71969"><ele>1352.0</ele></trkpt>
    <trkpt lat="34.63024" lon="-119.71976"><ele>1342.0</ele></trkpt>
    <trkpt lat="34.63007" lon="-119.71984"><ele>1342.0</ele></trkpt>
    <trkpt lat="34.62988" lon="-119.71989"><ele>1342.0</ele></trkpt>
    <trkpt lat="34.62969" lon="-119.71996"><ele>1342.0</ele></trkpt>
    <trkpt lat="34.62954" lon="-119.72001"><ele>1342.0</ele></trkpt>
    <trkpt lat="34.62943" lon="-119.72005"><ele>1342.0</ele></trkpt>
    <trkpt lat="34.62927" lon="-119.72008"><ele>1342.0</ele></trkpt>
    <trkpt lat="34.62916" lon="-119.72008"><ele>1342.0</ele></trkpt>
    <trkpt lat="34.62895" lon="-119.72005"><ele>1342.0</ele></trkpt>
    <trkpt lat="34.62879" lon="-119.72002"><ele>1339.0</ele></trkpt>
    <trkpt lat="34.62876" lon="-119.71990"><ele>1339.0</ele></trkpt>
    <trkpt lat="34.62865" lon="-119.71982"><ele>1339.0</ele></trkpt>
    <trkpt lat="34.62865" lon="-119.71972"><ele>1339.0</ele></trkpt>
    <trkpt lat="34.62855" lon="-119.71963"><ele>1339.0</ele></trkpt>
    <trkpt lat="34.62845" lon="-119.71946"><ele>1339.0</ele></trkpt>
    <trkpt lat="34.62837" lon="-119.71934"><ele>1339.0</ele></trkpt>
    <trkpt lat="34.62825" lon="-119.71922"><ele>1339.0</ele></trkpt>
    <trkpt lat="34.62807" lon="-119.71921"><ele>1339.0</ele></trkpt>
    <trkpt lat="34.62795" lon="-119.71925"><ele>1344.0</ele></trkpt>
    <trkpt lat="34.62782" lon="-119.71929"><ele>1344.0</ele></trkpt>
    <trkpt lat="34.62765" lon="-119.71926"><ele>1344.0</ele></trkpt>
    <trkpt lat="34.62757" lon="-119.71915"><ele>1344.0</ele></trkpt>
    <trkpt lat="34.62744" lon="-119.71906"><ele>1344.0</ele></trkpt>
    <trkpt lat="34.62736" lon="-119.71904"><ele>1344.0</ele></trkpt>
    <trkpt lat="34.62726" lon="-119.71895"><ele>1344.0</ele></trkpt>
    <trkpt lat="34.62711" lon="-119.71892"><ele>1344.0</ele></trkpt>
    <trkpt lat="34.62697" lon="-119.71887"><ele>1344.0</ele></trkpt>
    <trkpt lat="34.62682" lon="-119.71884"><ele>1344.0</ele></trkpt>
    <trkpt lat="34.62672" lon="-119.71877"><ele>1336.0</ele></trkpt>
    <trkpt lat="34.62670" lon="-119.71868"><ele>1336.0</ele></trkpt>
    <trkpt lat="34.62666" lon="-119.71860"><ele>1336.0</ele></trkpt>
    <trkpt lat="34.62660" lon="-119.71858"><ele>1336.0</ele></trkpt>
    <trkpt lat="34.62651" lon="-119.71850"><ele>1336.0</ele></trkpt>
    <trkpt lat="34.62642" lon="-119.71843"><ele>1336.0</ele></trkpt>
    <trkpt lat="34.62630" lon="-119.71833"><ele>1336.0</ele></trkpt>
    <trkpt lat="34.62621" lon="-119.71823"><ele>1336.0</ele></trkpt>
    <trkpt lat="34.62616" lon="-119.71814"><ele>1336.0</ele></trkpt>
    <trkpt lat="34.62610" lon="-119.71807"><ele>1329.0</ele></trkpt>
    <trkpt lat="34.62602" lon="-119.71806"><ele>1329.0</ele></trkpt>
    <trkpt lat="34.62596" lon="-119.71811"><ele>1329.0</ele></trkpt>
    <trkpt lat="34.62583" lon="-119.71818"><ele>1329.0</ele></trkpt>
    <trkpt lat="34.62573" lon="-119.71824"><ele>1329.0</ele></trkpt>
    <trkpt lat="34.62573" lon="-119.71831"><ele>1329.0</ele></trkpt>
    <trkpt lat="34.62571" lon="-119.71851"><ele>1329.0</ele></trkpt>
    <trkpt lat="34.62570" lon="-119.71865"><ele>1329.0</ele></trkpt>
    <trkpt lat="34.62568" lon="-119.71872"><ele>1329.0</ele></trkpt>
    <trkpt lat="34.62559" lon="-119.71872"><ele>1326.0</ele></trkpt>
    <trkpt lat="34.62549" lon="-119.71868"><ele>1326.0</ele></trkpt>
    <trkpt lat="34.62541" lon="-119.71868"><ele>1326.0</ele></trkpt>
    <trkpt lat="34.62532" lon="-119.71861"><ele>1326.0</ele></trkpt>
    <trkpt lat="34.62526" lon="-119.71855"><ele>1326.0</ele></trkpt>
    <trkpt lat="34.62518" lon="-119.71861"><ele>1326.0</ele></trkpt>
    <trkpt lat="34.62515" lon="-119.71878"><ele>1326.0</ele></trkpt>
    <trkpt lat="34.62517" lon="-119.71898"><ele>1326.0</ele></trkpt>
    <trkpt lat="34.62515" lon="-119.71914"><ele>1326.0</ele></trkpt>
    <trkpt lat="34.62505" lon="-119.71921"><ele>1326.0</ele></trkpt>
    <trkpt lat="34.62489" lon="-119.71921"><ele>1315.0</ele></trkpt>
    <trkpt lat="34.62477" lon="-119.71914"><ele>1315.0</ele></trkpt>
    <trkpt lat="34.62467" lon="-119.71906"><ele>1315.0</ele></trkpt>
    <trkpt lat="34.62452" lon="-119.71898"><ele>1315.0</ele></trkpt>
    <trkpt lat="34.62436" lon="-119.71900"><ele>1315.0</ele></trkpt>
    <trkpt lat="34.62426" lon="-119.71904"><ele>1315.0</ele></trkpt>
    <trkpt lat="34.62423" lon="-119.71921"><ele>1315.0</ele></trkpt>
    <trkpt lat="34.62429" lon="-119.71934"><ele>1315.0</ele></trkpt>
    <trkpt lat="34.62436" lon="-119.71947"><ele>1315.0</ele></trkpt>
    <trkpt lat="34.62441" lon="-119.71960"><ele>1313.0</ele></trkpt>
    <trkpt lat="34.62440" lon="-119.71973"><ele>1313.0</ele></trkpt>
    <trkpt lat="34.62436" lon="-119.71984"><ele>1313.0</ele></trkpt>
    <trkpt lat="34.62433" lon="-119.71993"><ele>1313.0</ele></trkpt>
    <trkpt lat="34.62434" lon="-119.72010"><ele>1313.0</ele></trkpt>
    <trkpt lat="34.62437" lon="-119.72017"><ele>1313.0</ele></trkpt>
    <trkpt lat="34.62445" lon="-119.72035"><ele>1313.0</ele></trkpt>
    <trkpt lat="34.62452" lon="-119.72047"><ele>1313.0</ele></trkpt>
    <trkpt lat="34.62454" lon="-119.72064"><ele>1313.0</ele></trkpt>
    <trkpt lat="34.62452" lon="-119.72077"><ele>1312.0</ele></trkpt>
    <trkpt lat="34.62439" lon="-119.72088"><ele>1312.0</ele></trkpt>
    <trkpt lat="34.62420" lon="-119.72096"><ele>1312.0</ele></trkpt>
    <trkpt lat="34.62408" lon="-119.72102"><ele>1312.0</ele></trkpt>
    <trkpt lat="34.62398" lon="-119.72113"><ele>1312.0</ele></trkpt>
    <trkpt lat="34.62387" lon="-119.72119"><ele>1312.0</ele></trkpt>
    <trkpt lat="34.62384" lon="-119.72121"><ele>1312.0</ele></trkpt>
    <trkpt lat="34.62372" lon="-119.72123"><ele>1312.0</ele></trkpt>
    <trkpt lat="34.62364" lon="-119.72131"><ele>1312.0</ele></trkpt>
    <trkpt lat="34.62358" lon="-119.72133"><ele>1312.0</ele></trkpt>
    <trkpt lat="34.62341" lon="-119.72134"><ele>1296.0</ele></trkpt>
    <trkpt lat="34.62327" lon="-119.72133"><ele>1296.0</ele></trkpt>
    <trkpt lat="34.62315" lon="-119.72135"><ele>1296.0</ele></trkpt>
    <trkpt lat="34.62301" lon="-119.72138"><ele>1296.0</ele></trkpt>
    <trkpt lat="34.62291" lon="-119.72132"><ele>1296.0</ele></trkpt>
    <trkpt lat="34.62275" lon="-119.72128"><ele>1296.0</ele></trkpt>
    <trkpt lat="34.62261" lon="-119.72131"><ele>1296.0</ele></trkpt>
    <trkpt lat="34.62246" lon="-119.72135"><ele>1296.0</ele></trkpt>
    <trkpt lat="34.62226" lon="-119.72148"><ele>1296.0</ele></trkpt>
    <trkpt lat="34.62204" lon="-119.72159"><ele>1281.0</ele></trkpt>
    <trkpt lat="34.62181" lon="-119.72172"><ele>1281.0</ele></trkpt>
    <trkpt lat="34.62176" lon="-119.72176"><ele>1281.0</ele></trkpt>
    <trkpt lat="34.62163" lon="-119.72187"><ele>1281.0</ele></trkpt>
    <trkpt lat="34.62143" lon="-119.72195"><ele>1281.0</ele></trkpt>
    <trkpt lat="34.62129" lon="-119.72201"><ele>1281.0</ele></trkpt>
    <trkpt lat="34.62117" lon="-119.72198"><ele>1281.0</ele></trkpt>
    <trkpt lat="34.62105" lon="-119.72189"><ele>1281.0</ele></trkpt>
    <trkpt lat="34.62097" lon="-119.72181"><ele>1281.0</ele></trkpt>
    <trkpt lat="34.62095" lon="-119.72166"><ele>1276.0</ele></trkpt>
    <trkpt lat="34.62093" lon="-119.72155"><ele>1276.0</ele></trkpt>
    <trkpt lat="34.62088" lon="-119.72147"><ele>1276.0</ele></trkpt>
    <trkpt lat="34.62077" lon="-119.72138"><ele>1276.0</ele></trkpt>
    <trkpt lat="34.62068" lon="-119.72135"><ele>1276.0</ele></trkpt>
    <trkpt lat="34.62058" lon="-119.72134"><ele>1276.0</ele></trkpt>
    <trkpt lat="34.62055" lon="-119.72128"><ele>1276.0</ele></trkpt>
    <trkpt lat="34.62050" lon="-119.72120"><ele>1276.0</ele></trkpt>
    <trkpt lat="34.62041" lon="-119.72119"><ele>1276.0</ele></trkpt>
    <trkpt lat="34.62035" lon="-119.72126"><ele>1285.0</ele></trkpt>
    <trkpt lat="34.62028" lon="-119.72133"><ele>1285.0</ele></trkpt>
    <trkpt lat="34.62021" lon="-119.72147"><ele>1285.0</ele></trkpt>
    <trkpt lat="34.62015" lon="-119.72146"><ele>1285.0</ele></trkpt>
    <trkpt lat="34.62010" lon="-119.72151"><ele>1285.0</ele></trkpt>
    <trkpt lat="34.61999" lon="-119.72156"><ele>1285.0</ele></trkpt>
    <trkpt lat="34.61991" lon="-119.72160"><ele>1285.0</ele></trkpt>
    <trkpt lat="34.61978" lon="-119.72163"><ele>1285.0</ele></trkpt>
    <trkpt lat="34.61963" lon="-119.72160"><ele>1285.0</ele></trkpt>
    <trkpt lat="34.61952" lon="-119.72153"><ele>1285.0</ele></trkpt>
    <trkpt lat="34.61935" lon="-119.72148"><ele>1295.0</ele></trkpt>
    <trkpt lat="34.61919" lon="-119.72150"><ele>1295.0</ele></trkpt>
    <trkpt lat="34.61907" lon="-119.72155"><ele>1295.0</ele></trkpt>
    <trkpt lat="34.61900" lon="-119.72156"><ele>1295.0</ele></trkpt>
    <trkpt lat="34.61890" lon="-119.72154"><ele>1295.0</ele></trkpt>
    <trkpt lat="34.61883" lon="-119.72155"><ele>1295.0</ele></trkpt>
    <trkpt lat="34.61876" lon="-119.72176"><ele>1295.0</ele></trkpt>
    <trkpt lat="34.61870" lon="-119.72187"><ele>1295.0</ele></trkpt>
    <trkpt lat="34.61859" lon="-119.72197"><ele>1295.0</ele></trkpt>
    <trkpt lat="34.61848" lon="-119.72203"><ele>1309.0</ele></trkpt>
    <trkpt lat="34.61846" lon="-119.72223"><ele>1309.0</ele></trkpt>
    <trkpt lat="34.61845" lon="-119.72241"><ele>1309.0</ele></trkpt>
    <trkpt lat="34.61840" lon="-119.72253"><ele>1309.0</ele></trkpt>
    <trkpt lat="34.61826" lon="-119.72256"><ele>1309.0</ele></trkpt>
    <trkpt lat="34.61816" lon="-119.72251"><ele>1309.0</ele></trkpt>
    <trkpt lat="34.61802" lon="-119.72240"><ele>1309.0</ele></trkpt>
    <trkpt lat="34.61790" lon="-119.72230"><ele>1309.0</ele></trkpt>
    <trkpt lat="34.61777" lon="-119.72225"><ele>1309.0</ele></trkpt>
    <trkpt lat="34.61761" lon="-119.72219"><ele>1317.0</ele></trkpt>
    <trkpt lat="34.61749" lon="-119.72212"><ele>1317.0</ele></trkpt>
    <trkpt lat="34.61730" lon="-119.72200"><ele>1317.0</ele></trkpt>
    <trkpt lat="34.61719" lon="-119.72190"><ele>1317.0</ele></trkpt>
    <trkpt lat="34.61704" lon="-119.72177"><ele>1317.0</ele></trkpt>
    <trkpt lat="34.61690" lon="-119.72167"><ele>1317.0</ele></trkpt>
    <trkpt lat="34.61675" lon="-119.72149"><ele>1317.0</ele></trkpt>
    <trkpt lat="34.61663" lon="-119.72135"><ele>1317.0</ele></trkpt>
    <trkpt lat="34.61654" lon="-119.72135"><ele>1317.0</ele></trkpt>
    <trkpt lat="34.61647" lon="-119.72128"><ele>1317.0</ele></trkpt>
    <trkpt lat="34.61634" lon="-119.72128"><ele>1327.0</ele></trkpt>
    <trkpt lat="34.61622" lon="-119.72124"><ele>1327.0</ele></trkpt>
    <trkpt lat="34.61608" lon="-119.72119"><ele>1327.0</ele></trkpt>
    <trkpt lat="34.61596" lon="-119.72115"><ele>1327.0</ele></trkpt>
    <trkpt lat="34.61580" lon="-119.72108"><ele>1327.0</ele></trkpt>
    <trkpt lat="34.61566" lon="-119.72105"><ele>1327.0</ele></trkpt>
    <trkpt lat="34.61549" lon="-119.72095"><ele>1327.0</ele></trkpt>
    <trkpt lat="34.61526" lon="-119.72087"><ele>1327.0</ele></trkpt>
    <trkpt lat="34.61511" lon="-119.72087"><ele>1327.0</ele></trkpt>
    <trkpt lat="34.61491" lon="-119.72091"><ele>1320.0</ele></trkpt>
    <trkpt lat="34.61469" lon="-119.72101"><ele>1320.0</ele></trkpt>
    <trkpt lat="34.61449" lon="-119.72102"><ele>1320.0</ele></trkpt>
    <trkpt lat="34.61428" lon="-119.72102"><ele>1320.0</ele></trkpt>
    <trkpt lat="34.61406" lon="-119.72101"><ele>1320.0</ele></trkpt>
    <trkpt lat="34.61399" lon="-119.72111"><ele>1320.0</ele></trkpt>
    <trkpt lat="34.61388" lon="-119.72117"><ele>1320.0</ele></trkpt>
    <trkpt lat="34.61372" lon="-119.72126"><ele>1320.0</ele></trkpt>
    <trkpt lat="34.61357" lon="-119.72141"><ele>1320.0</ele></trkpt>
    <trkpt lat="34.61347" lon="-119.72147"><ele>1328.0</ele></trkpt>
    <trkpt lat="34.61333" lon="-119.72150"><ele>1328.0</ele></trkpt>
    <trkpt lat="34.61323" lon="-119.72151"><ele>1328.0</ele></trkpt>
    <trkpt lat="34.61316" lon="-119.72155"><ele>1328.0</ele></trkpt>
    <trkpt lat="34.61301" lon="-119.72152"><ele>1328.0</ele></trkpt>
    <trkpt lat="34.61294" lon="-119.72152"><ele>1328.0</ele></trkpt>
    <trkpt lat="34.61288" lon="-119.72148"><ele>1328.0</ele></trkpt>
    <trkpt lat="34.61281" lon="-119.72143"><ele>1328.0</ele></trkpt>
    <trkpt lat="34.61274" lon="-119.72140"><ele>1328.0</ele></trkpt>
    <trkpt lat="34.61267" lon="-119.72140"><ele>1328.0</ele></trkpt>
    <trkpt lat="34.61262" lon="-119.72140"><ele>1319.0</ele></trkpt>
    <trkpt lat="34.61258" lon="-119.72149"><ele>1319.0</ele></trkpt>
    <trkpt lat="34.61257" lon="-119.72157"><ele>1319.0</ele></trkpt>
    <trkpt lat="34.61256" lon="-119.72161"><ele>1319.0</ele></trkpt>
    <trkpt lat="34.61256" lon="-119.72161"><ele>1319.0</ele></trkpt>
    <trkpt lat="34.61256" lon="-119.72168"><ele>1319.0</ele></trkpt>
    <trkpt lat="34.61258" lon="-119.72187"><ele>1319.0</ele></trkpt>
    <trkpt lat="34.61261" lon="-119.72220"><ele>1319.0</ele></trkpt>
    <trkpt lat="34.61259" lon="-119.72238"><ele>1319.0</ele></trkpt>
    <trkpt lat="34.61253" lon="-119.72262"><ele>1299.0</ele></trkpt>
    <trkpt lat="34.61226" lon="-119.72299"><ele>1299.0</ele></trkpt>
    <trkpt lat="34.61194" lon="-119.72336"><ele>1299.0</ele></trkpt>
    <trkpt lat="34.61155" lon="-119.72360"><ele>1299.0</ele></trkpt>
    <trkpt lat="34.61118" lon="-119.72366"><ele>1299.0</ele></trkpt>
    <trkpt lat="34.61084" lon="-119.72371"><ele>1299.0</ele></trkpt>
    <trkpt lat="34.61059" lon="-119.72378"><ele>1299.0</ele></trkpt>
    <trkpt lat="34.61049" lon="-119.72382"><ele>1299.0</ele></trkpt>
    <trkpt lat="34.61042" lon="-119.72386"><ele>1299.0</ele></trkpt>
    <trkpt lat="34.61038" lon="-119.72390"><ele>1293.0</ele></trkpt>
    <trkpt lat="34.61040" lon="-119.72397"><ele>1293.0</ele></trkpt>
    <trkpt lat="34.61044" lon="-119.72402"><ele>1293.0</ele></trkpt>
    <trkpt lat="34.61051" lon="-119.72406"><ele>1293.0</ele></trkpt>
    <trkpt lat="34.61064" lon="-119.72408"><ele>1293.0</ele></trkpt>
    <trkpt lat="34.61079" lon="-119.72406"><ele>1293.0</ele></trkpt>
    <trkpt lat="34.61118" lon="-119.72406"><ele>1293.0</ele></trkpt>
    <trkpt lat="34.61129" lon="-119.72405"><ele>1293.0</ele></trkpt>
    <trkpt lat="34.61153" lon="-119.72403"><ele>1293.0</ele></trkpt>
    <trkpt lat="34.61169" lon="-119.72402"><ele>1306.0</ele></trkpt>
    <trkpt lat="34.61194" lon="-119.72405"><ele>1306.0</ele></trkpt>
    <trkpt lat="34.61215" lon="-119.72410"><ele>1306.0</ele></trkpt>
    <trkpt lat="34.61224" lon="-119.72424"><ele>1306.0</ele></trkpt>
    <trkpt lat="34.61243" lon="-119.72441"><ele>1306.0</ele></trkpt>
    <trkpt lat="34.61258" lon="-119.72458"><ele>1306.0</ele></trkpt>
    <trkpt lat="34.61269" lon="-119.72475"><ele>1306.0</ele></trkpt>
    <trkpt lat="34.61272" lon="-119.72486"><ele>1306.0</ele></trkpt>
    <trkpt lat="34.61269" lon="-119.72498"><ele>1306.0</ele></trkpt>
    <trkpt lat="34.61265" lon="-119.72507"><ele>1306.0</ele></trkpt>
    <trkpt lat="34.61249" lon="-119.72519"><ele>1277.0</ele></trkpt>
    <trkpt lat="34.61232" lon="-119.72534"><ele>1277.0</ele></trkpt>
    <trkpt lat="34.61209" lon="-119.72552"><ele>1277.0</ele></trkpt>
    <trkpt lat="34.61192" lon="-119.72571"><ele>1277.0</ele></trkpt>
    <trkpt lat="34.61169" lon="-119.72594"><ele>1277.0</ele></trkpt>
    <trkpt lat="34.61161" lon="-119.72608"><ele>1277.0</ele></trkpt>
    <trkpt lat="34.61148" lon="-119.72627"><ele>1277.0</ele></trkpt>
    <trkpt lat="34.61143" lon="-119.72638"><ele>1277.0</ele></trkpt>
    <trkpt lat="34.61140" lon="-119.72644"><ele>1277.0</ele></trkpt>
    <trkpt lat="34.61137" lon="-119.72659"><ele>1286.0</ele></trkpt>
    <trkpt lat="34.61136" lon="-119.72680"><ele>1286.0</ele></trkpt>
    <trkpt lat="34.61138" lon="-119.72709"><ele>1286.0</ele></trkpt>
    <trkpt lat="34.61142" lon="-119.72739"><ele>1286.0</ele></trkpt>
    <trkpt lat="34.61147" lon="-119.72763"><ele>1286.0</ele></trkpt>
    <trkpt lat="34.61148" lon="-119.72779"><ele>1286.0</ele></trkpt>
    <trkpt lat="34.61141" lon="-119.72789"><ele>1286.0</ele></trkpt>
    <trkpt lat="34.61126" lon="-119.72801"><ele>1286.0</ele></trkpt>
    <trkpt lat="34.61108" lon="-119.72809"><ele>1286.0</ele></trkpt>
    <trkpt lat="34.61087" lon="-119.72815"><ele>1253.0</ele></trkpt>
    <trkpt lat="34.61068" lon="-119.72818"><ele>1253.0</ele></trkpt>
    <trkpt lat="34.61051" lon="-119.72828"><ele>1253.0</ele></trkpt>
    <trkpt lat="34.61035" lon="-119.72841"><ele>1253.0</ele></trkpt>
    <trkpt lat="34.61012" lon="-119.72866"><ele>1253.0</ele></trkpt>
    <trkpt lat="34.60990" lon="-119.72896"><ele>1253.0</ele></trkpt>
    <trkpt lat="34.60971" lon="-119.72925"><ele>1253.0</ele></trkpt>
    <trkpt lat="34.60962" lon="-119.72944"><ele>1253.0</ele></trkpt>
    <trkpt lat="34.60963" lon="-119.72969"><ele>1253.0</ele></trkpt>
    <trkpt lat="34.60967" lon="-119.72984"><ele>1253.0</ele></trkpt>
    <trkpt lat="34.61045" lon="-119.73002"><ele>1252.0</ele></trkpt>
    <trkpt lat="34.61117" lon="-119.73010"><ele>1252.0</ele></trkpt>
    <trkpt lat="34.61123" lon="-119.73010"><ele>1252.0</ele></trkpt>
    <trkpt lat="34.61129" lon="-119.73010"><ele>1252.0</ele></trkpt>
    <trkpt lat="34.61132" lon="-119.73010"><ele>1252.0</ele></trkpt>
    <trkpt lat="34.61139" lon="-119.73010"><ele>1252.0</ele></trkpt>
    <trkpt lat="34.61144" lon="-119.73016"><ele>1252.0</ele></trkpt>
    <trkpt lat="34.61141" lon="-119.73023"><ele>1252.0</ele></trkpt>
    <trkpt lat="34.61135" lon="-119.73039"><ele>1252.0</ele></trkpt>
    <trkpt lat="34.61129" lon="-119.73053"><ele>1240.0</ele></trkpt>
    <trkpt lat="34.61116" lon="-119.73067"><ele>1240.0</ele></trkpt>
    <trkpt lat="34.61099" lon="-119.73083"><ele>1240.0</ele></trkpt>
    <trkpt lat="34.61094" lon="-119.73095"><ele>1240.0</ele></trkpt>
    <trkpt lat="34.61094" lon="-119.73112"><ele>1240.0</ele></trkpt>
    <trkpt lat="34.61095" lon="-119.73124"><ele>1240.0</ele></trkpt>
    <trkpt lat="34.61094" lon="-119.73137"><ele>1240.0</ele></trkpt>
    <trkpt lat="34.61092" lon="-119.73152"><ele>1240.0</ele></trkpt>
    <trkpt lat="34.61088" lon="-119.73159"><ele>1240.0</ele></trkpt>
    <trkpt lat="34.61080" lon="-119.73165"><ele>1231.0</ele></trkpt>
    <trkpt lat="34.61066" lon="-119.73179"><ele>1231.0</ele></trkpt>
    <trkpt lat="34.61055" lon="-119.73189"><ele>1231.0</ele></trkpt>
    <trkpt lat="34.61041" lon="-119.73205"><ele>1231.0</ele></trkpt>
    <trkpt lat="34.61031" lon="-119.73218"><ele>1231.0</ele></trkpt>
    <trkpt lat="34.61020" lon="-119.73239"><ele>1231.0</ele></trkpt>
    <trkpt lat="34.61015" lon="-119.73254"><ele>1231.0</ele></trkpt>
    <trkpt lat="34.61011" lon="-119.73261"><ele>1231.0</ele></trkpt>
    <trkpt lat="34.61003" lon="-119.73270"><ele>1231.0</ele></trkpt>
    <trkpt lat="34.60991" lon="-119.73281"><ele>1231.0</ele></trkpt>
    <trkpt lat="34.60974" lon="-119.73293"><ele>1205.0</ele></trkpt>
    <trkpt lat="34.60957" lon="-119.73308"><ele>1205.0</ele></trkpt>
    <trkpt lat="34.60935" lon="-119.73327"><ele>1205.0</ele></trkpt>
    <trkpt lat="34.60902" lon="-119.73370"><ele>1205.0</ele></trkpt>
    <trkpt lat="34.60882" lon="-119.73393"><ele>1205.0</ele></trkpt>
    <trkpt lat="34.60880" lon="-119.73398"><ele>1205.0</ele></trkpt>
    <trkpt lat="34.60871" lon="-119.73408"><ele>1205.0</ele></trkpt>
    <trkpt lat="34.60854" lon="-119.73420"><ele>1205.0</ele></trkpt>
    <trkpt lat="34.60830" lon="-119.73434"><ele>1205.0</ele></trkpt>
    <trkpt lat="34.60811" lon="-119.73444"><ele>1214.0</ele></trkpt>
    <trkpt lat="34.60779" lon="-119.73451"><ele>1214.0</ele></trkpt>
    <trkpt lat="34.60766" lon="-119.73466"><ele>1214.0</ele></trkpt>
    <trkpt lat="34.60747" lon="-119.73472"><ele>1214.0</ele></trkpt>
    <trkpt lat="34.60721" lon="-119.73464"><ele>1214.0</ele></trkpt>
    <trkpt lat="34.60689" lon="-119.73459"><ele>1214.0</ele></trkpt>
    <trkpt lat="34.60651" lon="-119.73458"><ele>1214.0</ele></trkpt>
    <trkpt lat="34.60634" lon="-119.73464"><ele>1214.0</ele></trkpt>
    <trkpt lat="34.60611" lon="-119.73490"><ele>1214.0</ele></trkpt>
    <trkpt lat="34.60597" lon="-119.73504"><ele>1225.0</ele></trkpt>
    <trkpt lat="34.60583" lon="-119.73503"><ele>1225.0</ele></trkpt>
    <trkpt lat="34.60543" lon="-119.73492"><ele>1225.0</ele></trkpt>
    <trkpt lat="34.60490" lon="-119.73482"><ele>1225.0</ele></trkpt>
    <trkpt lat="34.60477" lon="-119.73483"><ele>1225.0</ele></trkpt>
    <trkpt lat="34.60471" lon="-119.73489"><ele>1225.0</ele></trkpt>
    <trkpt lat="34.60470" lon="-119.73501"><ele>1225.0</ele></trkpt>
    <trkpt lat="34.60468" lon="-119.73522"><ele>1225.0</ele></trkpt>
    <trkpt lat="34.60458" lon="-119.73559"><ele>1225.0</ele></trkpt>
    <trkpt lat="34.60437" lon="-119.73612"><ele>1225.0</ele></trkpt>
    <trkpt lat="34.60428" lon="-119.73634"><ele>1252.0</ele></trkpt>
    <trkpt lat="34.60417" lon="-119.73644"><ele>1252.0</ele></trkpt>
    <trkpt lat="34.60404" lon="-119.73649"><ele>1252.0</ele></trkpt>
    <trkpt lat="34.60388" lon="-119.73650"><ele>1252.0</ele></trkpt>
    <trkpt lat="34.60365" lon="-119.73647"><ele>1252.0</ele></trkpt>
    <trkpt lat="34.60342" lon="-119.73643"><ele>1252.0</ele></trkpt>
    <trkpt lat="34.60328" lon="-119.73644"><ele>1252.0</ele></trkpt>
    <trkpt lat="34.60316" lon="-119.73651"><ele>1252.0</ele></trkpt>
    <trkpt lat="34.60305" lon="-119.73658"><ele>1252.0</ele></trkpt>
    <trkpt lat="34.60297" lon="-119.73662"><ele>1257.0</ele></trkpt>
    <trkpt lat="34.60285" lon="-119.73665"><ele>1257.0</ele></trkpt>
    <trkpt lat="34.60273" lon="-119.73664"><ele>1257.0</ele></trkpt>
    <trkpt lat="34.60255" lon="-119.73663"><ele>1257.0</ele></trkpt>
    <trkpt lat="34.60240" lon="-119.73661"><ele>1257.0</ele></trkpt>
    <trkpt lat="34.60230" lon="-119.73661"><ele>1257.0</ele></trkpt>
    <trkpt lat="34.60220" lon="-119.73665"><ele>1257.0</ele></trkpt>
    <trkpt lat="34.60207" lon="-119.73674"><ele>1257.0</ele></trkpt>
    <trkpt lat="34.60192" lon="-119.73681"><ele>1257.0</ele></trkpt>
    <trkpt lat="34.60168" lon="-119.73677"><ele>1267.0</ele></trkpt>
    <trkpt lat="34.60157" lon="-119.73674"><ele>1267.0</ele></trkpt>
    <trkpt lat="34.60149" lon="-119.73663"><ele>1267.0</ele></trkpt>
    <trkpt lat="34.60145" lon="-119.73648"><ele>1267.0</ele></trkpt>
    <trkpt lat="34.60140" lon="-119.73631"><ele>1267.0</ele></trkpt>
    <trkpt lat="34.60135" lon="-119.73607"><ele>1267.0</ele></trkpt>
    <trkpt lat="34.60124" lon="-119.73590"><ele>1267.0</ele></trkpt>
    <trkpt lat="34.60101" lon="-119.73593"><ele>1267.0</ele></trkpt>
    <trkpt lat="34.60083" lon="-119.73592"><ele>1267.0</ele></trkpt>
    <trkpt lat="34.60066" lon="-119.73593"><ele>1278.0</ele></trkpt>
    <trkpt lat="34.60059" lon="-119.73594"><ele>1278.0</ele></trkpt>
    <trkpt lat="34.60043" lon="-119.73589"><ele>1278.0</ele></trkpt>
    <trkpt lat="34.60024" lon="-119.73578"><ele>1278.0</ele></trkpt>
    <trkpt lat="34.60009" lon="-119.73556"><ele>1278.0</ele></trkpt>
    <trkpt lat="34.59998" lon="-119.73534"><ele>1278.0</ele></trkpt>
    <trkpt lat="34.59980" lon="-119.73506"><ele>1278.0</ele></trkpt>
    <trkpt lat="34.59951" lon="-119.73447"><ele>1278.0</ele></trkpt>
    <trkpt lat="34.59939" lon="-119.73421"><ele>1278.0</ele></trkpt>
    <trkpt lat="34.59922" lon="-119.73401"><ele>1278.0</ele></trkpt>
    <trkpt lat="34.59904" lon="-119.73377"><ele>1282.0</ele></trkpt>
    <trkpt lat="34.59885" lon="-119.73362"><ele>1282.0</ele></trkpt>
    <trkpt lat="34.59871" lon="-119.73330"><ele>1282.0</ele></trkpt>
    <trkpt lat="34.59849" lon="-119.73318"><ele>1282.0</ele></trkpt>
    <trkpt lat="34.59821" lon="-119.73295"><ele>1282.0</ele></trkpt>
    <trkpt lat="34.59792" lon="-119.73267"><ele>1282.0</ele></trkpt>
    <trkpt lat="34.59771" lon="-119.73232"><ele>1282.0</ele></trkpt>
    <trkpt lat="34.59748" lon="-119.73212"><ele>1282.0</ele></trkpt>
    <trkpt lat="34.59725" lon="-119.73197"><ele>1282.0</ele></trkpt>
    <trkpt lat="34.59702" lon="-119.73180"><ele>1263.0</ele></trkpt>
    <trkpt lat="34.59682" lon="-119.73171"><ele>1263.0</ele></trkpt>
    <trkpt lat="34.59666" lon="-119.73158"><ele>1263.0</ele></trkpt>
    <trkpt lat="34.59665" lon="-119.73152"><ele>1263.0</ele></trkpt>
    <trkpt lat="34.59653" lon="-119.73148"><ele>1263.0</ele></trkpt>
    <trkpt lat="34.59643" lon="-119.73150"><ele>1263.0</ele></trkpt>
    <trkpt lat="34.59633" lon="-119.73154"><ele>1263.0</ele></trkpt>
    <trkpt lat="34.59622" lon="-119.73162"><ele>1263.0</ele></trkpt>
    <trkpt lat="34.59616" lon="-119.73176"><ele>1263.0</ele></trkpt>
    <trkpt lat="34.59610" lon="-119.73184"><ele>1264.0</ele></trkpt>
    <trkpt lat="34.59605" lon="-119.73188"><ele>1264.0</ele></trkpt>
    <trkpt lat="34.59594" lon="-119.73191"><ele>1264.0</ele></trkpt>
    <trkpt lat="34.59580" lon="-119.73182"><ele>1264.0</ele></trkpt>
    <trkpt lat="34.59570" lon="-119.73170"><ele>1264.0</ele></trkpt>
    <trkpt lat="34.59553" lon="-119.73154"><ele>1264.0</ele></trkpt>
    <trkpt lat="34.59539" lon="-119.73132"><ele>1264.0</ele></trkpt>
    <trkpt lat="34.59525" lon="-119.73119"><ele>1264.0</ele></trkpt>
    <trkpt lat="34.59510" lon="-119.73103"><ele>1264.0</ele></trkpt>
    <trkpt lat="34.59476" lon="-119.73068"><ele>1264.0</ele></trkpt>
    <trkpt lat="34.59455" lon="-119.73052"><ele>1233.0</ele></trkpt>
    <trkpt lat="34.59440" lon="-119.73041"><ele>1233.0</ele></trkpt>
    <trkpt lat="34.59417" lon="-119.73020"><ele>1233.0</ele></trkpt>
    <trkpt lat="34.59399" lon="-119.73005"><ele>1233.0</ele></trkpt>
    <trkpt lat="34.59379" lon="-119.72981"><ele>1233.0</ele></trkpt>
    <trkpt lat="34.59367" lon="-119.72965"><ele>1233.0</ele></trkpt>
    <trkpt lat="34.59353" lon="-119.72952"><ele>1233.0</ele></trkpt>
    <trkpt lat="34.59339" lon="-119.72938"><ele>1233.0</ele></trkpt>
    <trkpt lat="34.59328" lon="-119.72923"><ele>1233.0</ele></trkpt>
    <trkpt lat="34.59318" lon="-119.72898"><ele>1210.0</ele></trkpt>
    <trkpt lat="34.59311" lon="-119.72884"><ele>1210.0</ele></trkpt>
    <trkpt lat="34.59299" lon="-119.72862"><ele>1210.0</ele></trkpt>
    <trkpt lat="34.59286" lon="-119.72842"><ele>1210.0</ele></trkpt>
    <trkpt lat="34.59270" lon="-119.72823"><ele>1210.0</ele></trkpt>
    <trkpt lat="34.59252" lon="-119.72788"><ele>1210.0</ele></trkpt>
    <trkpt lat="34.59225" lon="-119.72762"><ele>1210.0</ele></trkpt>
    <trkpt lat="34.59203" lon="-119.72768"><ele>1210.0</ele></trkpt>
    <trkpt lat="34.59187" lon="-119.72774"><ele>1210.0</ele></trkpt>
    <trkpt lat="34.59174" lon="-119.72780"><ele>1197.0</ele></trkpt>
    <trkpt lat="34.59157" lon="-119.72792"><ele>1197.0</ele></trkpt>
    <trkpt lat="34.59145" lon="-119.72800"><ele>1197.0</ele></trkpt>
    <trkpt lat="34.59131" lon="-119.72797"><ele>1197.0</ele></trkpt>
    <trkpt lat="34.59117" lon="-119.72785"><ele>1197.0</ele></trkpt>
    <trkpt lat="34.59102" lon="-119.72779"><ele>1197.0</ele></trkpt>
    <trkpt lat="34.59086" lon="-119.72784"><ele>1197.0</ele></trkpt>
    <trkpt lat="34.59070" lon="-119.72777"><ele>1197.0</ele></trkpt>
    <trkpt lat="34.59069" lon="-119.72760"><ele>1197.0</ele></trkpt>
    <trkpt lat="34.59076" lon="-119.72750"><ele>1197.0</ele></trkpt>
    <trkpt lat="34.59090" lon="-119.72742"><ele>1193.0</ele></trkpt>
    <trkpt lat="34.59105" lon="-119.72738"><ele>1193.0</ele></trkpt>
    <trkpt lat="34.59123" lon="-119.72737"><ele>1193.0</ele></trkpt>
    <trkpt lat="34.59138" lon="-119.72744"><ele>1193.0</ele></trkpt>
    <trkpt lat="34.59155" lon="-119.72746"><ele>1193.0</ele></trkpt>
    <trkpt lat="34.59171" lon="-119.72735"><ele>1193.0</ele></trkpt>
    <trkpt lat="34.59182" lon="-119.72718"><ele>1193.0</ele></trkpt>
    <trkpt lat="34.59183" lon="-119.72707"><ele>1193.0</ele></trkpt>
    <trkpt lat="34.59186" lon="-119.72688"><ele>1193.0</ele></trkpt>
    <trkpt lat="34.59181" lon="-119.72660"><ele>1172.0</ele></trkpt>
    <trkpt lat="34.59173" lon="-119.72638"><ele>1172.0</ele></trkpt>
    <trkpt lat="34.59167" lon="-119.72614"><ele>1172.0</ele></trkpt>
    <trkpt lat="34.59160" lon="-119.72592"><ele>1172.0</ele></trkpt>
    <trkpt lat="34.59152" lon="-119.72566"><ele>1172.0</ele></trkpt>
    <trkpt lat="34.59139" lon="-119.72528"><ele>1172.0</ele></trkpt>
    <trkpt lat="34.59133" lon="-119.72509"><ele>1172.0</ele></trkpt>
    <trkpt lat="34.59125" lon="-119.72479"><ele>1172.0</ele></trkpt>
    <trkpt lat="34.59117" lon="-119.72445"><ele>1172.0</ele></trkpt>
    <trkpt lat="34.59112" lon="-119.72411"><ele>1143.0</ele></trkpt>
    <trkpt lat="34.59106" lon="-119.72390"><ele>1143.0</ele></trkpt>
    <trkpt lat="34.59101" lon="-119.72352"><ele>1143.0</ele></trkpt>
    <trkpt lat="34.59101" lon="-119.72310"><ele>1143.0</ele></trkpt>
    <trkpt lat="34.59105" lon="-119.72274"><ele>1143.0</ele></trkpt>
    <trkpt lat="34.59109" lon="-119.72250"><ele>1143.0</ele></trkpt>
    <trkpt lat="34.59114" lon="-119.72228"><ele>1143.0</ele></trkpt>
    <trkpt lat="34.59118" lon="-119.72201"><ele>1143.0</ele></trkpt>
    <trkpt lat="34.59119" lon="-119.72179"><ele>1143.0</ele></trkpt>
    <trkpt lat="34.59118" lon="-119.72157"><ele>1143.0</ele></trkpt>
    <trkpt lat="34.59112" lon="-119.72131"><ele>1143.0</ele></trkpt>
    <trkpt lat="34.59102" lon="-119.72110"><ele>1143.0</ele></trkpt>
    <trkpt lat="34.59093" lon="-119.72092"><ele>1143.0</ele></trkpt>
    <trkpt lat="34.59081" lon="-119.72081"><ele>1143.0</ele></trkpt>
    <trkpt lat="34.59075" lon="-119.72073"><ele>1143.0</ele></trkpt>
    <trkpt lat="34.59069" lon="-119.72062"><ele>1143.0</ele></trkpt>
    <trkpt lat="34.59060" lon="-119.72042"><ele>1143.0</ele></trkpt>
    <trkpt lat="34.59050" lon="-119.72008"><ele>1143.0</ele></trkpt>
    <trkpt lat="34.59038" lon="-119.71978"><ele>1143.0</ele></trkpt>
    <trkpt lat="34.59021" lon="-119.71952"><ele>1114.0</ele></trkpt>
    <trkpt lat="34.59005" lon="-119.71931"><ele>1114.0</ele></trkpt>
    <trkpt lat="34.58984" lon="-119.71913"><ele>1114.0</ele></trkpt>
    <trkpt lat="34.58961" lon="-119.71909"><ele>1114.0</ele></trkpt>
    <trkpt lat="34.58943" lon="-119.71909"><ele>1114.0</ele></trkpt>
    <trkpt lat="34.58932" lon="-119.71918"><ele>1114.0</ele></trkpt>
    <trkpt lat="34.58928" lon="-119.71933"><ele>1114.0</ele></trkpt>
    <trkpt lat="34.58926" lon="-119.71956"><ele>1114.0</ele></trkpt>
    <trkpt lat="34.58927" lon="-119.71981"><ele>1114.0</ele></trkpt>
    <trkpt lat="34.58930" lon="-119.72005"><ele>1113.0</ele></trkpt>
    <trkpt lat="34.58934" lon="-119.72021"><ele>1113.0</ele></trkpt>
    <trkpt lat="34.58940" lon="-119.72043"><ele>1113.0</ele></trkpt>
    <trkpt lat="34.58947" lon="-119.72057"><ele>1113.0</ele></trkpt>
    <trkpt lat="34.58960" lon="-119.72068"><ele>1113.0</ele></trkpt>
    <trkpt lat="34.58978" lon="-119.72084"><ele>1113.0</ele></trkpt>
    <trkpt lat="34.58991" lon="-119.72103"><ele>1113.0</ele></trkpt>
    <trkpt lat="34.58993" lon="-119.72126"><ele>1113.0</ele></trkpt>
    <trkpt lat="34.58997" lon="-119.72148"><ele>1113.0</ele></trkpt>
    <trkpt lat="34.59000" lon="-119.72169"><ele>1117.0</ele></trkpt>
    <trkpt lat="34.59008" lon="-119.72184"><ele>1117.0</ele></trkpt>
    <trkpt lat="34.59015" lon="-119.72193"><ele>1117.0</ele></trkpt>
    <trkpt lat="34.59019" lon="-119.72200"><ele>1117.0</ele></trkpt>
    <trkpt lat="34.59019" lon="-119.72215"><ele>1117.0</ele></trkpt>
    <trkpt lat="34.59012" lon="-119.72226"><ele>1117.0</ele></trkpt>
    <trkpt lat="34.59002" lon="-119.72254"><ele>1117.0</ele></trkpt>
    <trkpt lat="34.58996" lon="-119.72275"><ele>1117.0</ele></trkpt>
    <trkpt lat="34.58992" lon="-119.72301"><ele>1117.0</ele></trkpt>
    <trkpt lat="34.58994" lon="-119.72320"><ele>1117.0</ele></trkpt>
    <trkpt lat="34.58992" lon="-119.72338"><ele>1116.0</ele></trkpt>
    <trkpt lat="34.58988" lon="-119.72359"><ele>1116.0</ele></trkpt>
    <trkpt lat="34.58982" lon="-119.72385"><ele>1116.0</ele></trkpt>
    <trkpt lat="34.58982" lon="-119.72415"><ele>1116.0</ele></trkpt>
    <trkpt lat="34.58982" lon="-119.72444"><ele>1116.0</ele></trkpt>
    <trkpt lat="34.58982" lon="-119.72459"><ele>1116.0</ele></trkpt>
    <trkpt lat="34.58977" lon="-119.72469"><ele>1116.0</ele></trkpt>
    <trkpt lat="34.58972" lon="-119.72474"><ele>1116.0</ele></trkpt>
    <trkpt lat="34.58960" lon="-119.72470"><ele>1116.0</ele></trkpt>
    <trkpt lat="34.58948" lon="-119.72451"><ele>1100.0</ele></trkpt>
    <trkpt lat="34.58943" lon="-119.72432"><ele>1100.0</ele></trkpt>
    <trkpt lat="34.58936" lon="-119.72403"><ele>1100.0</ele></trkpt>
    <trkpt lat="34.58934" lon="-119.72384"><ele>1100.0</ele></trkpt>
    <trkpt lat="34.58931" lon="-119.72357"><ele>1100.0</ele></trkpt>
    <trkpt lat="34.58922" lon="-119.72338"><ele>1100.0</ele></trkpt>
    <trkpt lat="34.58912" lon="-119.72329"><ele>1100.0</ele></trkpt>
    <trkpt lat="34.58896" lon="-119.72310"><ele>1100.0</ele></trkpt>
    <trkpt lat="34.58886" lon="-119.72286"><ele>1100.0</ele></trkpt>
    <trkpt lat="34.58877" lon="-119.72268"><ele>1081.0</ele></trkpt>
    <trkpt lat="34.58856" lon="-119.72259"><ele>1081.0</ele></trkpt>
    <trkpt lat="34.58844" lon="-119.72256"><ele>1081.0</ele></trkpt>
    <trkpt lat="34.58828" lon="-119.72258"><ele>1081.0</ele></trkpt>
    <trkpt lat="34.58814" lon="-119.72261"><ele>1081.0</ele></trkpt>
    <trkpt lat="34.58799" lon="-119.72263"><ele>1081.0</ele></trkpt>
    <trkpt lat="34.58783" lon="-119.72266"><ele>1081.0</ele></trkpt>
    <trkpt lat="34.58767" lon="-119.72267"><ele>1081.0</ele></trkpt>
    <trkpt lat="34.58752" lon="-119.72271"><ele>1081.0</ele></trkpt>
    <trkpt lat="34.58735" lon="-119.72269"><ele>1081.0</ele></trkpt>
    <trkpt lat="34.58717" lon="-119.72261"><ele>1065.0</ele></trkpt>
    <trkpt lat="34.58703" lon="-119.72234"><ele>1065.0</ele></trkpt>
    <trkpt lat="34.58694" lon="-119.72206"><ele>1065.0</ele></trkpt>
    <trkpt lat="34.58689" lon="-119.72182"><ele>1065.0</ele></trkpt>
    <trkpt lat="34.58683" lon="-119.72153"><ele>1065.0</ele></trkpt>
    <trkpt lat="34.58676" lon="-119.72133"><ele>1065.0</ele></trkpt>
    <trkpt lat="34.58668" lon="-119.72113"><ele>1065.0</ele></trkpt>
    <trkpt lat="34.58660" lon="-119.72086"><ele>1065.0</ele></trkpt>
    <trkpt lat="34.58655" lon="-119.72060"><ele>1065.0</ele></trkpt>
    <trkpt lat="34.58643" lon="-119.72027"><ele>1065.0</ele></trkpt>
    <trkpt lat="34.58631" lon="-119.72004"><ele>1065.0</ele></trkpt>
    <trkpt lat="34.58619" lon="-119.71985"><ele>1065.0</ele></trkpt>
    <trkpt lat="34.58604" lon="-119.71961"><ele>1065.0</ele></trkpt>
    <trkpt lat="34.58592" lon="-119.71927"><ele>1065.0</ele></trkpt>
    <trkpt lat="34.58591" lon="-119.71889"><ele>1065.0</ele></trkpt>
    <trkpt lat="34.58599" lon="-119.71865"><ele>1065.0</ele></trkpt>
    <trkpt lat="34.58606" lon="-119.71837"><ele>1065.0</ele></trkpt>
    <trkpt lat="34.58601" lon="-119.71816"><ele>1065.0</ele></trkpt>
    <trkpt lat="34.58594" lon="-119.71796"><ele>1041.0</ele></trkpt>
    <trkpt lat="34.58586" lon="-119.71776"><ele>1041.0</ele></trkpt>
    <trkpt lat="34.58576" lon="-119.71756"><ele>1041.0</ele></trkpt>
    <trkpt lat="34.58566" lon="-119.71736"><ele>1041.0</ele></trkpt>
    <trkpt lat="34.58556" lon="-119.71720"><ele>1041.0</ele></trkpt>
    <trkpt lat="34.58539" lon="-119.71707"><ele>1041.0</ele></trkpt>
    <trkpt lat="34.58518" lon="-119.71707"><ele>1041.0</ele></trkpt>
    <trkpt lat="34.58503" lon="-119.71704"><ele>1041.0</ele></trkpt>
    <trkpt lat="34.58481" lon="-119.71687"><ele>1041.0</ele></trkpt>
    <trkpt lat="34.58464" lon="-119.71670"><ele>1041.0</ele></trkpt>
    <trkpt lat="34.58453" lon="-119.71647"><ele>1032.0</ele></trkpt>
    <trkpt lat="34.58439" lon="-119.71629"><ele>1032.0</ele></trkpt>
    <trkpt lat="34.58426" lon="-119.71606"><ele>1032.0</ele></trkpt>
    <trkpt lat="34.58414" lon="-119.71586"><ele>1032.0</ele></trkpt>
    <trkpt lat="34.58394" lon="-119.71568"><ele>1032.0</ele></trkpt>
    <trkpt lat="34.58375" lon="-119.71552"><ele>1032.0</ele></trkpt>
    <trkpt lat="34.58356" lon="-119.71530"><ele>1032.0</ele></trkpt>
    <trkpt lat="34.58341" lon="-119.71506"><ele>1032.0</ele></trkpt>
    <trkpt lat="34.58329" lon="-119.71485"><ele>1032.0</ele></trkpt>
    <trkpt lat="34.58319" lon="-119.71473"><ele>1006.0</ele></trkpt>
    <trkpt lat="34.58310" lon="-119.71465"><ele>1006.0</ele></trkpt>
    <trkpt lat="34.58295" lon="-119.71463"><ele>1006.0</ele></trkpt>
    <trkpt lat="34.58291" lon="-119.71470"><ele>1006.0</ele></trkpt>
    <trkpt lat="34.58286" lon="-119.71487"><ele>1006.0</ele></trkpt>
    <trkpt lat="34.58278" lon="-119.71516"><ele>1006.0</ele></trkpt>
    <trkpt lat="34.58285" lon="-119.71559"><ele>1006.0</ele></trkpt>
    <trkpt lat="34.58301" lon="-119.71594"><ele>1006.0</ele></trkpt>
    <trkpt lat="34.58332" lon="-119.71618"><ele>1006.0</ele></trkpt>
    <trkpt lat="34.58356" lon="-119.71631"><ele>1021.0</ele></trkpt>
    <trkpt lat="34.58390" lon="-119.71646"><ele>1021.0</ele></trkpt>
    <trkpt lat="34.58419" lon="-119.71667"><ele>1021.0</ele></trkpt>
    <trkpt lat="34.58432" lon="-119.71686"><ele>1021.0</ele></trkpt>
    <trkpt lat="34.58441" lon="-119.71703"><ele>1021.0</ele></trkpt>
    <trkpt lat="34.58441" lon="-119.71715"><ele>1021.0</ele></trkpt>
    <trkpt lat="34.58436" lon="-119.71730"><ele>1021.0</ele></trkpt>
    <trkpt lat="34.58428" lon="-119.71739"><ele>1021.0</ele></trkpt>
    <trkpt lat="34.58421" lon="-119.71751"><ele>1021.0</ele></trkpt>
    <trkpt lat="34.58415" lon="-119.71764"><ele>998.0</ele></trkpt>
    <trkpt lat="34.58420" lon="-119.71793"><ele>998.0</ele></trkpt>
    <trkpt lat="34.58429" lon="-119.71807"><ele>998.0</ele></trkpt>
    <trkpt lat="34.58434" lon="-119.71824"><ele>998.0</ele></trkpt>
    <trkpt lat="34.58431" lon="-119.71841"><ele>998.0</ele></trkpt>
    <trkpt lat="34.58427" lon="-119.71872"><ele>998.0</ele></trkpt>
    <trkpt lat="34.58425" lon="-119.71888"><ele>998.0</ele></trkpt>
    <trkpt lat="34.58425" lon="-119.71916"><ele>998.0</ele></trkpt>
    <trkpt lat="34.58428" lon="-119.71948"><ele>998.0</ele></trkpt>
    <trkpt lat="34.58432" lon="-119.71966"><ele>998.0</ele></trkpt>
    <trkpt lat="34.58442" lon="-119.71987"><ele>983.0</ele></trkpt>
    <trkpt lat="34.58456" lon="-119.71999"><ele>983.0</ele></trkpt>
    <trkpt lat="34.58461" lon="-119.72008"><ele>983.0</ele></trkpt>
    <trkpt lat="34.58479" lon="-119.72021"><ele>983.0</ele></trkpt>
    <trkpt lat="34.58500" lon="-119.72031"><ele>983.0</ele></trkpt>
    <trkpt lat="34.58517" lon="-119.72041"><ele>983.0</ele></trkpt>
    <trkpt lat="34.58524" lon="-119.72044"><ele>983.0</ele></trkpt>
    <trkpt lat="34.58530" lon="-119.72055"><ele>983.0</ele></trkpt>
    <trkpt lat="34.58530" lon="-119.72064"><ele>983.0</ele></trkpt>
    <trkpt lat="34.58529" lon="-119.72071"><ele>994.0</ele></trkpt>
    <trkpt lat="34.58531" lon="-119.72082"><ele>994.0</ele></trkpt>
    <trkpt lat="34.58537" lon="-119.72089"><ele>994.0</ele></trkpt>
    <trkpt lat="34.58546" lon="-119.72097"><ele>994.0</ele></trkpt>
    <trkpt lat="34.58545" lon="-119.72105"><ele>994.0</ele></trkpt>
    <trkpt lat="34.58535" lon="-119.72114"><ele>994.0</ele></trkpt>
    <trkpt lat="34.58529" lon="-119.72122"><ele>994.0</ele></trkpt>
    <trkpt lat="34.58522" lon="-119.72129"><ele>994.0</ele></trkpt>
    <trkpt lat="34.58515" lon="-119.72140"><ele>994.0</ele></trkpt>
    <trkpt lat="34.58511" lon="-119.72159"><ele>967.0</ele></trkpt>
    <trkpt lat="34.58510" lon="-119.72171"><ele>967.0</ele></trkpt>
    <trkpt lat="34.58515" lon="-119.72190"><ele>967.0</ele></trkpt>
    <trkpt lat="34.58518" lon="-119.72205"><ele>967.0</ele></trkpt>
    <trkpt lat="34.58514" lon="-119.72214"><ele>967.0</ele></trkpt>
    <trkpt lat="34.58510" lon="-119.72217"><ele>967.0</ele></trkpt>
    <trkpt lat="34.58504" lon="-119.72229"><ele>967.0</ele></trkpt>
    <trkpt lat="34.58501" lon="-119.72244"><ele>967.0</ele></trkpt>
    <trkpt lat="34.58499" lon="-119.72253"><ele>967.0</ele></trkpt>
    <trkpt lat="34.58498" lon="-119.72262"><ele>967.0</ele></trkpt>
    <trkpt lat="34.58493" lon="-119.72270"><ele>942.0</ele></trkpt>
    <trkpt lat="34.58488" lon="-119.72275"><ele>942.0</ele></trkpt>
    <trkpt lat="34.58480" lon="-119.72277"><ele>942.0</ele></trkpt>
    <trkpt lat="34.58472" lon="-119.72275"><ele>942.0</ele></trkpt>
    <trkpt lat="34.58466" lon="-119.72267"><ele>942.0</ele></trkpt>
    <trkpt lat="34.58464" lon="-119.72249"><ele>942.0</ele></trkpt>
    <trkpt lat="34.58467" lon="-119.72229"><ele>942.0</ele></trkpt>
    <trkpt lat="34.58470" lon="-119.72219"><ele>942.0</ele></trkpt>
    <trkpt lat="34.58472" lon="-119.72202"><ele>942.0</ele></trkpt>
    <trkpt lat="34.58475" lon="-119.72183"><ele>940.0</ele></trkpt>
    <trkpt lat="34.58477" lon="-119.72171"><ele>940.0</ele></trkpt>
    <trkpt lat="34.58473" lon="-119.72148"><ele>940.0</ele></trkpt>
    <trkpt lat="34.58472" lon="-119.72138"><ele>940.0</ele></trkpt>
    <trkpt lat="34.58470" lon="-119.72126"><ele>940.0</ele></trkpt>
    <trkpt lat="34.58461" lon="-119.72122"><ele>940.0</ele></trkpt>
    <trkpt lat="34.58450" lon="-119.72121"><ele>940.0</ele></trkpt>
    <trkpt lat="34.58443" lon="-119.72126"><ele>940.0</ele></trkpt>
    <trkpt lat="34.58437" lon="-119.72143"><ele>940.0</ele></trkpt>
    <trkpt lat="34.58436" lon="-119.72157"><ele>906.0</ele></trkpt>
    <trkpt lat="34.58436" lon="-119.72163"><ele>906.0</ele></trkpt>
    <trkpt lat="34.58430" lon="-119.72174"><ele>906.0</ele></trkpt>
    <trkpt lat="34.58427" lon="-119.72175"><ele>906.0</ele></trkpt>
    <trkpt lat="34.58419" lon="-119.72178"><ele>906.0</ele></trkpt>
    <trkpt lat="34.58412" lon="-119.72182"><ele>906.0</ele></trkpt>
    <trkpt lat="34.58403" lon="-119.72184"><ele>906.0</ele></trkpt>
    <trkpt lat="34.58395" lon="-119.72191"><ele>906.0</ele></trkpt>
    <trkpt lat="34.58391" lon="-119.72205"><ele>906.0</ele></trkpt>
    <trkpt lat="34.58391" lon="-119.72220"><ele>906.0</ele></trkpt>
    <trkpt lat="34.58392" lon="-119.72240"><ele>900.0</ele></trkpt>
    <trkpt lat="34.58389" lon="-119.72254"><ele>900.0</ele></trkpt>
    <trkpt lat="34.58380" lon="-119.72261"><ele>900.0</ele></trkpt>
    <trkpt lat="34.58369" lon="-119.72263"><ele>900.0</ele></trkpt>
    <trkpt lat="34.58361" lon="-119.72261"><ele>900.0</ele></trkpt>
    <trkpt lat="34.58349" lon="-119.72257"><ele>900.0</ele></trkpt>
    <trkpt lat="34.58333" lon="-119.72253"><ele>900.0</ele></trkpt>
    <trkpt lat="34.58321" lon="-119.72250"><ele>900.0</ele></trkpt>
    <trkpt lat="34.58308" lon="-119.72246"><ele>900.0</ele></trkpt>
    <trkpt lat="34.58294" lon="-119.72246"><ele>888.0</ele></trkpt>
    <trkpt lat="34.58286" lon="-119.72260"><ele>888.0</ele></trkpt>
    <trkpt lat="34.58289" lon="-119.72270"><ele>888.0</ele></trkpt>
    <trkpt lat="34.58294" lon="-119.72277"><ele>888.0</ele></trkpt>
    <trkpt lat="34.58300" lon="-119.72286"><ele>888.0</ele></trkpt>
    <trkpt lat="34.58309" lon="-119.72293"><ele>888.0</ele></trkpt>
    <trkpt lat="34.58318" lon="-119.72307"><ele>888.0</ele></trkpt>
    <trkpt lat="34.58318" lon="-119.72313"><ele>888.0</ele></trkpt>
    <trkpt lat="34.58312" lon="-119.72321"><ele>888.0</ele></trkpt>
    <trkpt lat="34.58301" lon="-119.72318"><ele>884.0</ele></trkpt>
    <trkpt lat="34.58288" lon="-119.72318"><ele>884.0</ele></trkpt>
    <trkpt lat="34.58279" lon="-119.72322"><ele>884.0</ele></trkpt>
    <trkpt lat="34.58271" lon="-119.72326"><ele>884.0</ele></trkpt>
    <trkpt lat="34.58259" lon="-119.72329"><ele>884.0</ele></trkpt>
    <trkpt lat="34.58248" lon="-119.72326"><ele>884.0</ele></trkpt>
    <trkpt lat="34.58236" lon="-119.72321"><ele>884.0</ele></trkpt>
    <trkpt lat="34.58225" lon="-119.72319"><ele>884.0</ele></trkpt>
    <trkpt lat="34.58216" lon="-119.72319"><ele>884.0</ele></trkpt>
    <trkpt lat="34.58204" lon="-119.72318"><ele>867.0</ele></trkpt>
    <trkpt lat="34.58193" lon="-119.72319"><ele>867.0</ele></trkpt>
    <trkpt lat="34.58181" lon="-119.72322"><ele>867.0</ele></trkpt>
    <trkpt lat="34.58171" lon="-119.72332"><ele>867.0</ele></trkpt>
    <trkpt lat="34.58164" lon="-119.72344"><ele>867.0</ele></trkpt>
    <trkpt lat="34.58150" lon="-119.72346"><ele>867.0</ele></trkpt>
    <trkpt lat="34.58138" lon="-119.72343"><ele>867.0</ele></trkpt>
    <trkpt lat="34.58124" lon="-119.72337"><ele>867.0</ele></trkpt>
    <trkpt lat="34.58110" lon="-119.72334"><ele>867.0</ele></trkpt>
    <trkpt lat="34.58099" lon="-119.72334"><ele>867.0</ele></trkpt>
    <trkpt lat="34.58089" lon="-119.72342"><ele>867.0</ele></trkpt>
    <trkpt lat="34.58087" lon="-119.72351"><ele>867.0</ele></trkpt>
    <trkpt lat="34.58088" lon="-119.72359"><ele>867.0</ele></trkpt>
    <trkpt lat="34.58091" lon="-119.72367"><ele>867.0</ele></trkpt>
    <trkpt lat="34.58096" lon="-119.72377"><ele>867.0</ele></trkpt>
    <trkpt lat="34.58097" lon="-119.72392"><ele>867.0</ele></trkpt>
    <trkpt lat="34.58091" lon="-119.72409"><ele>867.0</ele></trkpt>
    <trkpt lat="34.58088" lon="-119.72427"><ele>867.0</ele></trkpt>
    <trkpt lat="34.58082" lon="-119.72443"><ele>867.0</ele></trkpt>
    <trkpt lat="34.58076" lon="-119.72464"><ele>875.0</ele></trkpt>
    <trkpt lat="34.58078" lon="-119.72485"><ele>875.0</ele></trkpt>
    <trkpt lat="34.58083" lon="-119.72508"><ele>875.0</ele></trkpt>
    <trkpt lat="34.58082" lon="-119.72520"><ele>875.0</ele></trkpt>
    <trkpt lat="34.58077" lon="-119.72540"><ele>875.0</ele></trkpt>
    <trkpt lat="34.58072" lon="-119.72559"><ele>875.0</ele></trkpt>
    <trkpt lat="34.58069" lon="-119.72570"><ele>875.0</ele></trkpt>
    <trkpt lat="34.58064" lon="-119.72583"><ele>875.0</ele></trkpt>
    <trkpt lat="34.58056" lon="-119.72601"><ele>875.0</ele></trkpt>
    <trkpt lat="34.58044" lon="-119.72618"><ele>887.0</ele></trkpt>
    <trkpt lat="34.58034" lon="-119.72628"><ele>887.0</ele></trkpt>
    <trkpt lat="34.58025" lon="-119.72639"><ele>887.0</ele></trkpt>
    <trkpt lat="34.58011" lon="-119.72652"><ele>887.0</ele></trkpt>
    <trkpt lat="34.57999" lon="-119.72656"><ele>887.0</ele></trkpt>
    <trkpt lat="34.57985" lon="-119.72667"><ele>887.0</ele></trkpt>
    <trkpt lat="34.57977" lon="-119.72678"><ele>887.0</ele></trkpt>
    <trkpt lat="34.57969" lon="-119.72684"><ele>887.0</ele></trkpt>
    <trkpt lat="34.57958" lon="-119.72683"><ele>887.0</ele></trkpt>
    <trkpt lat="34.57946" lon="-119.72675"><ele>887.0</ele></trkpt>
    <trkpt lat="34.57933" lon="-119.72666"><ele>892.0</ele></trkpt>
    <trkpt lat="34.57916" lon="-119.72658"><ele>892.0</ele></trkpt>
    <trkpt lat="34.57897" lon="-119.72651"><ele>892.0</ele></trkpt>
    <trkpt lat="34.57880" lon="-119.72647"><ele>892.0</ele></trkpt>
    <trkpt lat="34.57866" lon="-119.72644"><ele>892.0</ele></trkpt>
    <trkpt lat="34.57844" lon="-119.72638"><ele>892.0</ele></trkpt>
    <trkpt lat="34.57830" lon="-119.72637"><ele>892.0</ele></trkpt>
    <trkpt lat="34.57816" lon="-119.72640"><ele>892.0</ele></trkpt>
    <trkpt lat="34.57804" lon="-119.72647"><ele>892.0</ele></trkpt>
    <trkpt lat="34.57792" lon="-119.72653"><ele>886.0</ele></trkpt>
    <trkpt lat="34.57779" lon="-119.72660"><ele>886.0</ele></trkpt>
    <trkpt lat="34.57760" lon="-119.72664"><ele>886.0</ele></trkpt>
    <trkpt lat="34.57750" lon="-119.72672"><ele>886.0</ele></trkpt>
    <trkpt lat="34.57746" lon="-119.72685"><ele>886.0</ele></trkpt>
    <trkpt lat="34.57742" lon="-119.72697"><ele>886.0</ele></trkpt>
    <trkpt lat="34.57737" lon="-119.72716"><ele>886.0</ele></trkpt>
    <trkpt lat="34.57732" lon="-119.72734"><ele>886.0</ele></trkpt>
    <trkpt lat="34.57727" lon="-119.72752"><ele>886.0</ele></trkpt>
    <trkpt lat="34.57718" lon="-119.72770"><ele>906.0</ele></trkpt>
    <trkpt lat="34.57702" lon="-119.72791"><ele>906.0</ele></trkpt>
    <trkpt lat="34.57691" lon="-119.72804"><ele>906.0</ele></trkpt>
    <trkpt lat="34.57682" lon="-119.72816"><ele>906.0</ele></trkpt>
    <trkpt lat="34.57674" lon="-119.72835"><ele>906.0</ele></trkpt>
    <trkpt lat="34.57675" lon="-119.72864"><ele>906.0</ele></trkpt>
    <trkpt lat="34.57676" lon="-119.72882"><ele>906.0</ele></trkpt>
    <trkpt lat="34.57676" lon="-119.72915"><ele>906.0</ele></trkpt>
    <trkpt lat="34.57679" lon="-119.72939"><ele>906.0</ele></trkpt>
    <trkpt lat="34.57678" lon="-119.72966"><ele>906.0</ele></trkpt>
    <trkpt lat="34.57676" lon="-119.72995"><ele>886.0</ele></trkpt>
    <trkpt lat="34.57676" lon="-119.73020"><ele>886.0</ele></trkpt>
    <trkpt lat="34.57686" lon="-119.73055"><ele>886.0</ele></trkpt>
    <trkpt lat="34.57693" lon="-119.73085"><ele>886.0</ele></trkpt>
    <trkpt lat="34.57697" lon="-119.73108"><ele>886.0</ele></trkpt>
    <trkpt lat="34.57706" lon="-119.73134"><ele>886.0</ele></trkpt>
    <trkpt lat="34.57709" lon="-119.73155"><ele>886.0</ele></trkpt>
    <trkpt lat="34.57708" lon="-119.73184"><ele>886.0</ele></trkpt>
    <trkpt lat="34.57701" lon="-119.73206"><ele>886.0</ele></trkpt>
    <trkpt lat="34.57691" lon="-119.73225"><ele>869.0</ele></trkpt>
    <trkpt lat="34.57680" lon="-119.73244"><ele>869.0</ele></trkpt>
    <trkpt lat="34.57670" lon="-119.73247"><ele>869.0</ele></trkpt>
    <trkpt lat="34.57662" lon="-119.73244"><ele>869.0</ele></trkpt>
    <trkpt lat="34.57654" lon="-119.73235"><ele>869.0</ele></trkpt>
    <trkpt lat="34.57648" lon="-119.73224"><ele>869.0</ele></trkpt>
    <trkpt lat="34.57638" lon="-119.73208"><ele>869.0</ele></trkpt>
    <trkpt lat="34.57629" lon="-119.73190"><ele>869.0</ele></trkpt>
    <trkpt lat="34.57612" lon="-119.73175"><ele>869.0</ele></trkpt>
    <trkpt lat="34.57593" lon="-119.73165"><ele>876.0</ele></trkpt>
    <trkpt lat="34.57567" lon="-119.73143"><ele>876.0</ele></trkpt>
    <trkpt lat="34.57550" lon="-119.73121"><ele>876.0</ele></trkpt>
    <trkpt lat="34.57542" lon="-119.73098"><ele>876.0</ele></trkpt>
    <trkpt lat="34.57534" lon="-119.73070"><ele>876.0</ele></trkpt>
    <trkpt lat="34.57518" lon="-119.73037"><ele>876.0</ele></trkpt>
    <trkpt lat="34.57518" lon="-119.73010"><ele>876.0</ele></trkpt>
    <trkpt lat="34.57513" lon="-119.72991"><ele>876.0</ele></trkpt>
    <trkpt lat="34.57496" lon="-119.72983"><ele>876.0</ele></trkpt>
    <trkpt lat="34.57484" lon="-119.72997"><ele>874.0</ele></trkpt>
    <trkpt lat="34.57467" lon="-119.73007"><ele>874.0</ele></trkpt>
    <trkpt lat="34.57448" lon="-119.73018"><ele>874.0</ele></trkpt>
    <trkpt lat="34.57438" lon="-119.73023"><ele>874.0</ele></trkpt>
    <trkpt lat="34.57423" lon="-119.73034"><ele>874.0</ele></trkpt>
    <trkpt lat="34.57405" lon="-119.73047"><ele>874.0</ele></trkpt>
    <trkpt lat="34.57390" lon="-119.73069"><ele>874.0</ele></trkpt>
    <trkpt lat="34.57375" lon="-119.73098"><ele>874.0</ele></trkpt>
    <trkpt lat="34.57353" lon="-119.73116"><ele>874.0</ele></trkpt>
    <trkpt lat="34.57336" lon="-119.73140"><ele>874.0</ele></trkpt>
    <trkpt lat="34.57314" lon="-119.73159"><ele>849.0</ele></trkpt>
    <trkpt lat="34.57297" lon="-119.73182"><ele>849.0</ele></trkpt>
    <trkpt lat="34.57285" lon="-119.73214"><ele>849.0</ele></trkpt>
    <trkpt lat="34.57276" lon="-119.73233"><ele>849.0</ele></trkpt>
    <trkpt lat="34.57266" lon="-119.73240"><ele>849.0</ele></trkpt>
    <trkpt lat="34.57253" lon="-119.73242"><ele>849.0</ele></trkpt>
    <trkpt lat="34.57241" lon="-119.73244"><ele>849.0</ele></trkpt>
    <trkpt lat="34.57228" lon="-119.73241"><ele>849.0</ele></trkpt>
    <trkpt lat="34.57212" lon="-119.73244"><ele>849.0</ele></trkpt>
    <trkpt lat="34.57195" lon="-119.73250"><ele>861.0</ele></trkpt>
    <trkpt lat="34.57184" lon="-119.73248"><ele>861.0</ele></trkpt>
    <trkpt lat="34.57166" lon="-119.73243"><ele>861.0</ele></trkpt>
    <trkpt lat="34.57145" lon="-119.73239"><ele>861.0</ele></trkpt>
    <trkpt lat="34.57125" lon="-119.73232"><ele>861.0</ele></trkpt>
    <trkpt lat="34.57111" lon="-119.73223"><ele>861.0</ele></trkpt>
    <trkpt lat="34.57104" lon="-119.73202"><ele>861.0</ele></trkpt>
    <trkpt lat="34.57095" lon="-119.73182"><ele>861.0</ele></trkpt>
    <trkpt lat="34.57080" lon="-119.73167"><ele>861.0</ele></trkpt>
    <trkpt lat="34.57064" lon="-119.73166"><ele>860.0</ele></trkpt>
    <trkpt lat="34.57054" lon="-119.73174"><ele>860.0</ele></trkpt>
    <trkpt lat="34.57053" lon="-119.73193"><ele>860.0</ele></trkpt>
    <trkpt lat="34.57061" lon="-119.73220"><ele>860.0</ele></trkpt>
    <trkpt lat="34.57070" lon="-119.73243"><ele>860.0</ele></trkpt>
    <trkpt lat="34.57075" lon="-119.73252"><ele>860.0</ele></trkpt>
    <trkpt lat="34.57080" lon="-119.73266"><ele>860.0</ele></trkpt>
    <trkpt lat="34.57085" lon="-119.73290"><ele>860.0</ele></trkpt>
    <trkpt lat="34.57081" lon="-119.73323"><ele>860.0</ele></trkpt>
    <trkpt lat="34.57075" lon="-119.73374"><ele>860.0</ele></trkpt>
    <trkpt lat="34.57070" lon="-119.73410"><ele>855.0</ele></trkpt>
    <trkpt lat="34.57066" lon="-119.73421"><ele>855.0</ele></trkpt>
    <trkpt lat="34.57053" lon="-119.73435"><ele>855.0</ele></trkpt>
    <trkpt lat="34.57039" lon="-119.73447"><ele>855.0</ele></trkpt>
    <trkpt lat="34.57028" lon="-119.73481"><ele>855.0</ele></trkpt>
    <trkpt lat="34.57020" lon="-119.73514"><ele>855.0</ele></trkpt>
    <trkpt lat="34.57009" lon="-119.73530"><ele>855.0</ele></trkpt>
    <trkpt lat="34.56989" lon="-119.73547"><ele>855.0</ele></trkpt>
    <trkpt lat="34.56961" lon="-119.73571"><ele>855.0</ele></trkpt>
    <trkpt lat="34.56943" lon="-119.73587"><ele>848.0</ele></trkpt>
    <trkpt lat="34.56923" lon="-119.73599"><ele>848.0</ele></trkpt>
    <trkpt lat="34.56903" lon="-119.73606"><ele>848.0</ele></trkpt>
    <trkpt lat="34.56885" lon="-119.73611"><ele>848.0</ele></trkpt>
    <trkpt lat="34.56872" lon="-119.73609"><ele>848.0</ele></trkpt>
  </trkseg></trk>
</gpx>
