<?xml version="1.0" encoding="UTF-8"?>
<gpx version="1.1" creator="dirt-bikes (OpenStreetMap geometry)" xmlns="http://www.topografix.com/GPX/1/1">
  <metadata>
    <name>Burnt Flat Road (FR 3N02)</name>
    <desc>Geometry © OpenStreetMap contributors (ODbL). Elevation: SRTM 30m via opentopodata. Approximate; verify against the official MVUM.</desc>
  </metadata>
  <trk>
    <name>Burnt Flat Road FR 3N02</name>
    <trkseg>
      <trkpt lat="34.304994" lon="-116.847142"><ele>2258.0</ele></trkpt>
      <trkpt lat="34.305281" lon="-116.847568"><ele>2253.0</ele></trkpt>
      <trkpt lat="34.305671" lon="-116.847947"><ele>2254.0</ele></trkpt>
      <trkpt lat="34.306391" lon="-116.848282"><ele>2258.0</ele></trkpt>
      <trkpt lat="34.307122" lon="-116.848767"><ele>2260.0</ele></trkpt>
      <trkpt lat="34.307560" lon="-116.849154"><ele>2258.0</ele></trkpt>
      <trkpt lat="34.307815" lon="-116.849297"><ele>2259.0</ele></trkpt>
      <trkpt lat="34.308094" lon="-116.849799"><ele>2263.0</ele></trkpt>
      <trkpt lat="34.308687" lon="-116.850007"><ele>2265.0</ele></trkpt>
      <trkpt lat="34.309420" lon="-116.849958"><ele>2268.0</ele></trkpt>
      <trkpt lat="34.309880" lon="-116.850345"><ele>2270.0</ele></trkpt>
      <trkpt lat="34.310524" lon="-116.850901"><ele>2272.0</ele></trkpt>
      <trkpt lat="34.310968" lon="-116.850932"><ele>2272.0</ele></trkpt>
      <trkpt lat="34.311400" lon="-116.851037"><ele>2273.0</ele></trkpt>
      <trkpt lat="34.311684" lon="-116.851251"><ele>2277.0</ele></trkpt>
      <trkpt lat="34.312371" lon="-116.851601"><ele>2276.0</ele></trkpt>
      <trkpt lat="34.312935" lon="-116.851962"><ele>2276.0</ele></trkpt>
      <trkpt lat="34.313356" lon="-116.852335"><ele>2277.0</ele></trkpt>
      <trkpt lat="34.313988" lon="-116.852523"><ele>2279.0</ele></trkpt>
      <trkpt lat="34.315024" lon="-116.853142"><ele>2284.0</ele></trkpt>
      <trkpt lat="34.315195" lon="-116.853121"><ele>2286.0</ele></trkpt>
      <trkpt lat="34.315671" lon="-116.853224"><ele>2287.0</ele></trkpt>
      <trkpt lat="34.316278" lon="-116.853341"><ele>2289.0</ele></trkpt>
      <trkpt lat="34.316803" lon="-116.853303"><ele>2286.0</ele></trkpt>
      <trkpt lat="34.317186" lon="-116.853346"><ele>2283.0</ele></trkpt>
      <trkpt lat="34.317610" lon="-116.853496"><ele>2280.0</ele></trkpt>
      <trkpt lat="34.318177" lon="-116.853893"><ele>2280.0</ele></trkpt>
      <trkpt lat="34.318569" lon="-116.854362"><ele>2276.0</ele></trkpt>
      <trkpt lat="34.318651" lon="-116.854600"><ele>2276.0</ele></trkpt>
      <trkpt lat="34.318904" lon="-116.854557"><ele>2275.0</ele></trkpt>
      <trkpt lat="34.319176" lon="-116.854470"><ele>2275.0</ele></trkpt>
      <trkpt lat="34.319399" lon="-116.854551"><ele>2273.0</ele></trkpt>
      <trkpt lat="34.319862" lon="-116.855342"><ele>2268.0</ele></trkpt>
      <trkpt lat="34.320023" lon="-116.855543"><ele>2268.0</ele></trkpt>
      <trkpt lat="34.320169" lon="-116.855885"><ele>2268.0</ele></trkpt>
      <trkpt lat="34.320479" lon="-116.856104"><ele>2271.0</ele></trkpt>
      <trkpt lat="34.320830" lon="-116.856152"><ele>2266.0</ele></trkpt>
      <trkpt lat="34.321251" lon="-116.856047"><ele>2263.0</ele></trkpt>
      <trkpt lat="34.322004" lon="-116.855678"><ele>2244.0</ele></trkpt>
      <trkpt lat="34.322348" lon="-116.855124"><ele>2230.0</ele></trkpt>
      <trkpt lat="34.322368" lon="-116.854704"><ele>2222.0</ele></trkpt>
      <trkpt lat="34.322276" lon="-116.854338"><ele>2223.0</ele></trkpt>
      <trkpt lat="34.322523" lon="-116.854049"><ele>2214.0</ele></trkpt>
      <trkpt lat="34.322762" lon="-116.853699"><ele>2203.0</ele></trkpt>
      <trkpt lat="34.322882" lon="-116.853255"><ele>2195.0</ele></trkpt>
      <trkpt lat="34.323086" lon="-116.852941"><ele>2188.0</ele></trkpt>
      <trkpt lat="34.323279" lon="-116.852449"><ele>2178.0</ele></trkpt>
      <trkpt lat="34.323294" lon="-116.851990"><ele>2172.0</ele></trkpt>
      <trkpt lat="34.323430" lon="-116.851526"><ele>2167.0</ele></trkpt>
      <trkpt lat="34.323633" lon="-116.851277"><ele>2163.0</ele></trkpt>
      <trkpt lat="34.323935" lon="-116.851073"><ele>2156.0</ele></trkpt>
      <trkpt lat="34.324163" lon="-116.851271"><ele>2155.0</ele></trkpt>
      <trkpt lat="34.324328" lon="-116.851975"><ele>2152.0</ele></trkpt>
      <trkpt lat="34.324428" lon="-116.852602"><ele>2152.0</ele></trkpt>
      <trkpt lat="34.324497" lon="-116.852995"><ele>2150.0</ele></trkpt>
      <trkpt lat="34.324619" lon="-116.853157"><ele>2145.0</ele></trkpt>
      <trkpt lat="34.324433" lon="-116.853537"><ele>2146.0</ele></trkpt>
      <trkpt lat="34.324252" lon="-116.853903"><ele>2148.0</ele></trkpt>
      <trkpt lat="34.324359" lon="-116.854092"><ele>2146.0</ele></trkpt>
      <trkpt lat="34.324695" lon="-116.854374"><ele>2139.0</ele></trkpt>
      <trkpt lat="34.325012" lon="-116.854635"><ele>2130.0</ele></trkpt>
      <trkpt lat="34.325230" lon="-116.855028"><ele>2125.0</ele></trkpt>
      <trkpt lat="34.325463" lon="-116.855426"><ele>2120.0</ele></trkpt>
      <trkpt lat="34.325644" lon="-116.855864"><ele>2116.0</ele></trkpt>
      <trkpt lat="34.325869" lon="-116.856011"><ele>2111.0</ele></trkpt>
      <trkpt lat="34.326263" lon="-116.855927"><ele>2104.0</ele></trkpt>
      <trkpt lat="34.326855" lon="-116.855738"><ele>2094.0</ele></trkpt>
      <trkpt lat="34.327214" lon="-116.855735"><ele>2091.0</ele></trkpt>
      <trkpt lat="34.327568" lon="-116.855867"><ele>2089.0</ele></trkpt>
      <trkpt lat="34.327763" lon="-116.856089"><ele>2087.0</ele></trkpt>
      <trkpt lat="34.327912" lon="-116.856491"><ele>2084.0</ele></trkpt>
      <trkpt lat="34.328310" lon="-116.856599"><ele>2081.0</ele></trkpt>
      <trkpt lat="34.328667" lon="-116.856485"><ele>2074.0</ele></trkpt>
      <trkpt lat="34.328942" lon="-116.855876"><ele>2068.0</ele></trkpt>
      <trkpt lat="34.329167" lon="-116.855402"><ele>2066.0</ele></trkpt>
      <trkpt lat="34.329335" lon="-116.854362"><ele>2065.0</ele></trkpt>
      <trkpt lat="34.329402" lon="-116.853522"><ele>2070.0</ele></trkpt>
      <trkpt lat="34.329390" lon="-116.853157"><ele>2072.0</ele></trkpt>
      <trkpt lat="34.329328" lon="-116.852452"><ele>2078.0</ele></trkpt>
      <trkpt lat="34.329366" lon="-116.852349"><ele>2078.0</ele></trkpt>
    </trkseg>
  </trk>
</gpx>
