<?xml version="1.0" encoding="UTF-8"?>
<gpx version="1.1" creator="dirt-bikes build-blm-routes (BLM GTLF geometry + SRTM elevation)" xmlns="http://www.topografix.com/GPX/1/1">
  <trk><name>Butterbredt Canyon Road</name>
    <trkseg>
      <trkpt lat="35.45948" lon="-118.21017"><ele>1359.0</ele></trkpt>
      <trkpt lat="35.45943" lon="-118.21012"><ele>1359.0</ele></trkpt>
      <trkpt lat="35.45915" lon="-118.20994"><ele>1359.0</ele></trkpt>
      <trkpt lat="35.45891" lon="-118.20977"><ele>1361.0</ele></trkpt>
      <trkpt lat="35.45862" lon="-118.20961"><ele>1361.0</ele></trkpt>
      <trkpt lat="35.45844" lon="-118.20943"><ele>1363.0</ele></trkpt>
      <trkpt lat="35.45829" lon="-118.20923"><ele>1363.0</ele></trkpt>
      <trkpt lat="35.45823" lon="-118.20916"><ele>1363.0</ele></trkpt>
      <trkpt lat="35.45812" lon="-118.20917"><ele>1364.0</ele></trkpt>
      <trkpt lat="35.45796" lon="-118.20922"><ele>1364.0</ele></trkpt>
      <trkpt lat="35.45780" lon="-118.20924"><ele>1366.0</ele></trkpt>
      <trkpt lat="35.45770" lon="-118.20920"><ele>1367.0</ele></trkpt>
      <trkpt lat="35.45756" lon="-118.20904"><ele>1367.0</ele></trkpt>
      <trkpt lat="35.45742" lon="-118.20886"><ele>1371.0</ele></trkpt>
      <trkpt lat="35.45724" lon="-118.20865"><ele>1372.0</ele></trkpt>
      <trkpt lat="35.45707" lon="-118.20855"><ele>1372.0</ele></trkpt>
      <trkpt lat="35.45692" lon="-118.20845"><ele>1373.0</ele></trkpt>
      <trkpt lat="35.45682" lon="-118.20845"><ele>1373.0</ele></trkpt>
      <trkpt lat="35.45670" lon="-118.20858"><ele>1373.0</ele></trkpt>
      <trkpt lat="35.45652" lon="-118.20862"><ele>1375.0</ele></trkpt>
      <trkpt lat="35.45637" lon="-118.20859"><ele>1375.0</ele></trkpt>
      <trkpt lat="35.45620" lon="-118.20848"><ele>1376.0</ele></trkpt>
      <trkpt lat="35.45600" lon="-118.20839"><ele>1377.0</ele></trkpt>
      <trkpt lat="35.45581" lon="-118.20828"><ele>1377.0</ele></trkpt>
      <trkpt lat="35.45561" lon="-118.20817"><ele>1381.0</ele></trkpt>
      <trkpt lat="35.45542" lon="-118.20799"><ele>1381.0</ele></trkpt>
      <trkpt lat="35.45520" lon="-118.20778"><ele>1385.0</ele></trkpt>
      <trkpt lat="35.45494" lon="-118.20757"><ele>1386.0</ele></trkpt>
      <trkpt lat="35.45480" lon="-118.20749"><ele>1386.0</ele></trkpt>
      <trkpt lat="35.45459" lon="-118.20739"><ele>1390.0</ele></trkpt>
      <trkpt lat="35.45448" lon="-118.20729"><ele>1391.0</ele></trkpt>
      <trkpt lat="35.45434" lon="-118.20714"><ele>1391.0</ele></trkpt>
      <trkpt lat="35.45424" lon="-118.20700"><ele>1391.0</ele></trkpt>
      <trkpt lat="35.45408" lon="-118.20676"><ele>1391.0</ele></trkpt>
      <trkpt lat="35.45399" lon="-118.20659"><ele>1393.0</ele></trkpt>
      <trkpt lat="35.45391" lon="-118.20645"><ele>1395.0</ele></trkpt>
      <trkpt lat="35.45381" lon="-118.20635"><ele>1395.0</ele></trkpt>
      <trkpt lat="35.45371" lon="-118.20624"><ele>1398.0</ele></trkpt>
      <trkpt lat="35.45363" lon="-118.20611"><ele>1399.0</ele></trkpt>
      <trkpt lat="35.45356" lon="-118.20595"><ele>1399.0</ele></trkpt>
      <trkpt lat="35.45348" lon="-118.20573"><ele>1400.0</ele></trkpt>
      <trkpt lat="35.45341" lon="-118.20554"><ele>1400.0</ele></trkpt>
      <trkpt lat="35.45335" lon="-118.20533"><ele>1400.0</ele></trkpt>
      <trkpt lat="35.45331" lon="-118.20511"><ele>1399.0</ele></trkpt>
      <trkpt lat="35.45329" lon="-118.20487"><ele>1399.0</ele></trkpt>
      <trkpt lat="35.45326" lon="-118.20471"><ele>1401.0</ele></trkpt>
      <trkpt lat="35.45323" lon="-118.20461"><ele>1401.0</ele></trkpt>
      <trkpt lat="35.45318" lon="-118.20455"><ele>1401.0</ele></trkpt>
      <trkpt lat="35.45312" lon="-118.20452"><ele>1402.0</ele></trkpt>
      <trkpt lat="35.45304" lon="-118.20452"><ele>1403.0</ele></trkpt>
      <trkpt lat="35.45290" lon="-118.20443"><ele>1403.0</ele></trkpt>
      <trkpt lat="35.45282" lon="-118.20439"><ele>1404.0</ele></trkpt>
      <trkpt lat="35.45263" lon="-118.20425"><ele>1404.0</ele></trkpt>
      <trkpt lat="35.45251" lon="-118.20426"><ele>1404.0</ele></trkpt>
      <trkpt lat="35.45232" lon="-118.20433"><ele>1406.0</ele></trkpt>
      <trkpt lat="35.45211" lon="-118.20439"><ele>1406.0</ele></trkpt>
      <trkpt lat="35.45198" lon="-118.20438"><ele>1408.0</ele></trkpt>
      <trkpt lat="35.45180" lon="-118.20431"><ele>1409.0</ele></trkpt>
      <trkpt lat="35.45166" lon="-118.20422"><ele>1409.0</ele></trkpt>
      <trkpt lat="35.45157" lon="-118.20409"><ele>1412.0</ele></trkpt>
      <trkpt lat="35.45151" lon="-118.20394"><ele>1412.0</ele></trkpt>
      <trkpt lat="35.45142" lon="-118.20369"><ele>1416.0</ele></trkpt>
      <trkpt lat="35.45135" lon="-118.20358"><ele>1417.0</ele></trkpt>
      <trkpt lat="35.45127" lon="-118.20349"><ele>1417.0</ele></trkpt>
      <trkpt lat="35.45116" lon="-118.20349"><ele>1419.0</ele></trkpt>
      <trkpt lat="35.45109" lon="-118.20349"><ele>1420.0</ele></trkpt>
      <trkpt lat="35.45099" lon="-118.20342"><ele>1420.0</ele></trkpt>
      <trkpt lat="35.45089" lon="-118.20331"><ele>1421.0</ele></trkpt>
      <trkpt lat="35.45083" lon="-118.20320"><ele>1421.0</ele></trkpt>
      <trkpt lat="35.45075" lon="-118.20305"><ele>1424.0</ele></trkpt>
      <trkpt lat="35.45072" lon="-118.20295"><ele>1424.0</ele></trkpt>
      <trkpt lat="35.45066" lon="-118.20292"><ele>1424.0</ele></trkpt>
      <trkpt lat="35.45051" lon="-118.20291"><ele>1425.0</ele></trkpt>
      <trkpt lat="35.45039" lon="-118.20292"><ele>1426.0</ele></trkpt>
      <trkpt lat="35.45027" lon="-118.20285"><ele>1426.0</ele></trkpt>
      <trkpt lat="35.45016" lon="-118.20276"><ele>1426.0</ele></trkpt>
      <trkpt lat="35.45005" lon="-118.20263"><ele>1426.0</ele></trkpt>
      <trkpt lat="35.44993" lon="-118.20250"><ele>1427.0</ele></trkpt>
      <trkpt lat="35.44987" lon="-118.20239"><ele>1429.0</ele></trkpt>
      <trkpt lat="35.44986" lon="-118.20236"><ele>1429.0</ele></trkpt>
      <trkpt lat="35.44929" lon="-118.20071"><ele>1436.0</ele></trkpt>
      <trkpt lat="35.44925" lon="-118.20065"><ele>1436.0</ele></trkpt>
      <trkpt lat="35.44919" lon="-118.20061"><ele>1436.0</ele></trkpt>
      <trkpt lat="35.44912" lon="-118.20049"><ele>1436.0</ele></trkpt>
      <trkpt lat="35.44903" lon="-118.20038"><ele>1436.0</ele></trkpt>
      <trkpt lat="35.44894" lon="-118.20029"><ele>1438.0</ele></trkpt>
      <trkpt lat="35.44883" lon="-118.20025"><ele>1438.0</ele></trkpt>
      <trkpt lat="35.44872" lon="-118.20025"><ele>1438.0</ele></trkpt>
      <trkpt lat="35.44862" lon="-118.20019"><ele>1439.0</ele></trkpt>
      <trkpt lat="35.44851" lon="-118.20012"><ele>1439.0</ele></trkpt>
      <trkpt lat="35.44842" lon="-118.20000"><ele>1439.0</ele></trkpt>
      <trkpt lat="35.44833" lon="-118.19985"><ele>1439.0</ele></trkpt>
      <trkpt lat="35.44824" lon="-118.19971"><ele>1439.0</ele></trkpt>
      <trkpt lat="35.44813" lon="-118.19945"><ele>1444.0</ele></trkpt>
      <trkpt lat="35.44805" lon="-118.19924"><ele>1446.0</ele></trkpt>
      <trkpt lat="35.44795" lon="-118.19903"><ele>1446.0</ele></trkpt>
      <trkpt lat="35.44782" lon="-118.19882"><ele>1449.0</ele></trkpt>
      <trkpt lat="35.44770" lon="-118.19867"><ele>1450.0</ele></trkpt>
      <trkpt lat="35.44759" lon="-118.19858"><ele>1450.0</ele></trkpt>
      <trkpt lat="35.44750" lon="-118.19844"><ele>1450.0</ele></trkpt>
      <trkpt lat="35.44746" lon="-118.19826"><ele>1450.0</ele></trkpt>
      <trkpt lat="35.44743" lon="-118.19804"><ele>1453.0</ele></trkpt>
      <trkpt lat="35.44744" lon="-118.19783"><ele>1454.0</ele></trkpt>
      <trkpt lat="35.44741" lon="-118.19766"><ele>1454.0</ele></trkpt>
      <trkpt lat="35.44731" lon="-118.19754"><ele>1455.0</ele></trkpt>
      <trkpt lat="35.44721" lon="-118.19746"><ele>1456.0</ele></trkpt>
      <trkpt lat="35.44715" lon="-118.19731"><ele>1456.0</ele></trkpt>
      <trkpt lat="35.44713" lon="-118.19708"><ele>1459.0</ele></trkpt>
      <trkpt lat="35.44715" lon="-118.19688"><ele>1460.0</ele></trkpt>
      <trkpt lat="35.44722" lon="-118.19656"><ele>1460.0</ele></trkpt>
      <trkpt lat="35.44728" lon="-118.19627"><ele>1464.0</ele></trkpt>
      <trkpt lat="35.44729" lon="-118.19610"><ele>1464.0</ele></trkpt>
      <trkpt lat="35.44727" lon="-118.19594"><ele>1466.0</ele></trkpt>
      <trkpt lat="35.44721" lon="-118.19578"><ele>1467.0</ele></trkpt>
      <trkpt lat="35.44719" lon="-118.19563"><ele>1467.0</ele></trkpt>
      <trkpt lat="35.44716" lon="-118.19543"><ele>1468.0</ele></trkpt>
      <trkpt lat="35.44716" lon="-118.19527"><ele>1468.0</ele></trkpt>
      <trkpt lat="35.44712" lon="-118.19514"><ele>1468.0</ele></trkpt>
      <trkpt lat="35.44703" lon="-118.19500"><ele>1469.0</ele></trkpt>
      <trkpt lat="35.44690" lon="-118.19484"><ele>1469.0</ele></trkpt>
      <trkpt lat="35.44676" lon="-118.19466"><ele>1469.0</ele></trkpt>
      <trkpt lat="35.44665" lon="-118.19447"><ele>1469.0</ele></trkpt>
      <trkpt lat="35.44657" lon="-118.19431"><ele>1469.0</ele></trkpt>
      <trkpt lat="35.44650" lon="-118.19410"><ele>1470.0</ele></trkpt>
      <trkpt lat="35.44647" lon="-118.19389"><ele>1471.0</ele></trkpt>
      <trkpt lat="35.44645" lon="-118.19355"><ele>1471.0</ele></trkpt>
      <trkpt lat="35.44644" lon="-118.19332"><ele>1473.0</ele></trkpt>
      <trkpt lat="35.44646" lon="-118.19310"><ele>1473.0</ele></trkpt>
      <trkpt lat="35.44645" lon="-118.19292"><ele>1477.0</ele></trkpt>
      <trkpt lat="35.44643" lon="-118.19270"><ele>1479.0</ele></trkpt>
      <trkpt lat="35.44643" lon="-118.19253"><ele>1479.0</ele></trkpt>
      <trkpt lat="35.44647" lon="-118.19236"><ele>1482.0</ele></trkpt>
      <trkpt lat="35.44638" lon="-118.19164"><ele>1487.0</ele></trkpt>
      <trkpt lat="35.44614" lon="-118.19069"><ele>1487.0</ele></trkpt>
      <trkpt lat="35.44606" lon="-118.19050"><ele>1492.0</ele></trkpt>
      <trkpt lat="35.44563" lon="-118.18989"><ele>1492.0</ele></trkpt>
      <trkpt lat="35.44531" lon="-118.18942"><ele>1496.0</ele></trkpt>
      <trkpt lat="35.44513" lon="-118.18897"><ele>1497.0</ele></trkpt>
      <trkpt lat="35.44497" lon="-118.18774"><ele>1497.0</ele></trkpt>
      <trkpt lat="35.44500" lon="-118.18668"><ele>1510.0</ele></trkpt>
      <trkpt lat="35.44486" lon="-118.18558"><ele>1515.0</ele></trkpt>
      <trkpt lat="35.44415" lon="-118.18393"><ele>1515.0</ele></trkpt>
      <trkpt lat="35.44347" lon="-118.18276"><ele>1536.0</ele></trkpt>
    </trkseg>
  </trk>
</gpx>
