<?xml version="1.0" encoding="UTF-8"?>
<gpx version="1.1" creator="dirt-bikes build-area-routes (MVUM geometry + SRTM elevation)" xmlns="http://www.topografix.com/GPX/1/1">
  <trk><name>Camuesa Road (Romero–Camuesa)</name><trkseg>
    <trkpt lat="34.54183" lon="-119.65885"><ele>562.0</ele></trkpt>
    <trkpt lat="34.54189" lon="-119.65872"><ele>562.0</ele></trkpt>
    <trkpt lat="34.54206" lon="-119.65867"><ele>562.0</ele></trkpt>
    <trkpt lat="34.54219" lon="-119.65870"><ele>562.0</ele></trkpt>
    <trkpt lat="34.54230" lon="-119.65882"><ele>562.0</ele></trkpt>
    <trkpt lat="34.54237" lon="-119.65907"><ele>562.0</ele></trkpt>
    <trkpt lat="34.54245" lon="-119.65936"><ele>562.0</ele></trkpt>
    <trkpt lat="34.54257" lon="-119.65955"><ele>552.0</ele></trkpt>
    <trkpt lat="34.54274" lon="-119.65979"><ele>552.0</ele></trkpt>
    <trkpt lat="34.54287" lon="-119.65993"><ele>552.0</ele></trkpt>
    <trkpt lat="34.54300" lon="-119.66004"><ele>552.0</ele></trkpt>
    <trkpt lat="34.54312" lon="-119.66026"><ele>552.0</ele></trkpt>
    <trkpt lat="34.54323" lon="-119.66048"><ele>552.0</ele></trkpt>
    <trkpt lat="34.54326" lon="-119.66058"><ele>552.0</ele></trkpt>
    <trkpt lat="34.54331" lon="-119.66070"><ele>552.0</ele></trkpt>
    <trkpt lat="34.54339" lon="-119.66086"><ele>552.0</ele></trkpt>
    <trkpt lat="34.54342" lon="-119.66099"><ele>552.0</ele></trkpt>
    <trkpt lat="34.54342" lon="-119.66112"><ele>552.0</ele></trkpt>
    <trkpt lat="34.54346" lon="-119.66133"><ele>552.0</ele></trkpt>
    <trkpt lat="34.54351" lon="-119.66142"><ele>552.0</ele></trkpt>
    <trkpt lat="34.54360" lon="-119.66149"><ele>546.0</ele></trkpt>
    <trkpt lat="34.54368" lon="-119.66156"><ele>546.0</ele></trkpt>
    <trkpt lat="34.54376" lon="-119.66170"><ele>546.0</ele></trkpt>
    <trkpt lat="34.54378" lon="-119.66189"><ele>546.0</ele></trkpt>
    <trkpt lat="34.54380" lon="-119.66207"><ele>546.0</ele></trkpt>
    <trkpt lat="34.54382" lon="-119.66231"><ele>546.0</ele></trkpt>
    <trkpt lat="34.54390" lon="-119.66254"><ele>546.0</ele></trkpt>
    <trkpt lat="34.54397" lon="-119.66265"><ele>546.0</ele></trkpt>
    <trkpt lat="34.54403" lon="-119.66280"><ele>546.0</ele></trkpt>
    <trkpt lat="34.54410" lon="-119.66295"><ele>546.0</ele></trkpt>
    <trkpt lat="34.54415" lon="-119.66310"><ele>546.0</ele></trkpt>
    <trkpt lat="34.54418" lon="-119.66326"><ele>546.0</ele></trkpt>
    <trkpt lat="34.54419" lon="-119.66351"><ele>511.0</ele></trkpt>
    <trkpt lat="34.54416" lon="-119.66376"><ele>511.0</ele></trkpt>
    <trkpt lat="34.54403" lon="-119.66409"><ele>511.0</ele></trkpt>
    <trkpt lat="34.54387" lon="-119.66426"><ele>511.0</ele></trkpt>
    <trkpt lat="34.54369" lon="-119.66456"><ele>511.0</ele></trkpt>
    <trkpt lat="34.54355" lon="-119.66472"><ele>511.0</ele></trkpt>
    <trkpt lat="34.54337" lon="-119.66491"><ele>511.0</ele></trkpt>
    <trkpt lat="34.54322" lon="-119.66499"><ele>511.0</ele></trkpt>
    <trkpt lat="34.54312" lon="-119.66515"><ele>511.0</ele></trkpt>
    <trkpt lat="34.54303" lon="-119.66531"><ele>511.0</ele></trkpt>
    <trkpt lat="34.54293" lon="-119.66553"><ele>511.0</ele></trkpt>
    <trkpt lat="34.54283" lon="-119.66581"><ele>511.0</ele></trkpt>
    <trkpt lat="34.54279" lon="-119.66602"><ele>511.0</ele></trkpt>
    <trkpt lat="34.54275" lon="-119.66621"><ele>483.0</ele></trkpt>
    <trkpt lat="34.54266" lon="-119.66637"><ele>483.0</ele></trkpt>
    <trkpt lat="34.54252" lon="-119.66655"><ele>483.0</ele></trkpt>
    <trkpt lat="34.54239" lon="-119.66671"><ele>483.0</ele></trkpt>
    <trkpt lat="34.54223" lon="-119.66686"><ele>483.0</ele></trkpt>
    <trkpt lat="34.54206" lon="-119.66696"><ele>483.0</ele></trkpt>
    <trkpt lat="34.54185" lon="-119.66699"><ele>483.0</ele></trkpt>
    <trkpt lat="34.54181" lon="-119.66695"><ele>483.0</ele></trkpt>
    <trkpt lat="34.54177" lon="-119.66681"><ele>483.0</ele></trkpt>
    <trkpt lat="34.54173" lon="-119.66667"><ele>483.0</ele></trkpt>
    <trkpt lat="34.54170" lon="-119.66651"><ele>483.0</ele></trkpt>
    <trkpt lat="34.54165" lon="-119.66644"><ele>483.0</ele></trkpt>
    <trkpt lat="34.54157" lon="-119.66641"><ele>483.0</ele></trkpt>
    <trkpt lat="34.54149" lon="-119.66643"><ele>474.0</ele></trkpt>
    <trkpt lat="34.54145" lon="-119.66656"><ele>474.0</ele></trkpt>
    <trkpt lat="34.54145" lon="-119.66670"><ele>474.0</ele></trkpt>
    <trkpt lat="34.54146" lon="-119.66695"><ele>474.0</ele></trkpt>
    <trkpt lat="34.54152" lon="-119.66719"><ele>474.0</ele></trkpt>
    <trkpt lat="34.54159" lon="-119.66734"><ele>474.0</ele></trkpt>
    <trkpt lat="34.54165" lon="-119.66741"><ele>474.0</ele></trkpt>
    <trkpt lat="34.54172" lon="-119.66746"><ele>474.0</ele></trkpt>
    <trkpt lat="34.54178" lon="-119.66750"><ele>474.0</ele></trkpt>
    <trkpt lat="34.54188" lon="-119.66753"><ele>474.0</ele></trkpt>
    <trkpt lat="34.54201" lon="-119.66752"><ele>474.0</ele></trkpt>
    <trkpt lat="34.54217" lon="-119.66750"><ele>474.0</ele></trkpt>
    <trkpt lat="34.54226" lon="-119.66747"><ele>491.0</ele></trkpt>
    <trkpt lat="34.54233" lon="-119.66740"><ele>491.0</ele></trkpt>
    <trkpt lat="34.54243" lon="-119.66730"><ele>491.0</ele></trkpt>
    <trkpt lat="34.54250" lon="-119.66719"><ele>491.0</ele></trkpt>
    <trkpt lat="34.54253" lon="-119.66707"><ele>491.0</ele></trkpt>
    <trkpt lat="34.54265" lon="-119.66699"><ele>491.0</ele></trkpt>
    <trkpt lat="34.54273" lon="-119.66700"><ele>491.0</ele></trkpt>
    <trkpt lat="34.54280" lon="-119.66714"><ele>491.0</ele></trkpt>
    <trkpt lat="34.54276" lon="-119.66727"><ele>491.0</ele></trkpt>
    <trkpt lat="34.54271" lon="-119.66744"><ele>491.0</ele></trkpt>
    <trkpt lat="34.54257" lon="-119.66770"><ele>491.0</ele></trkpt>
    <trkpt lat="34.54247" lon="-119.66786"><ele>491.0</ele></trkpt>
    <trkpt lat="34.54235" lon="-119.66804"><ele>491.0</ele></trkpt>
    <trkpt lat="34.54229" lon="-119.66824"><ele>473.0</ele></trkpt>
    <trkpt lat="34.54232" lon="-119.66852"><ele>473.0</ele></trkpt>
    <trkpt lat="34.54241" lon="-119.66880"><ele>473.0</ele></trkpt>
    <trkpt lat="34.54248" lon="-119.66893"><ele>473.0</ele></trkpt>
    <trkpt lat="34.54254" lon="-119.66911"><ele>473.0</ele></trkpt>
    <trkpt lat="34.54264" lon="-119.66928"><ele>473.0</ele></trkpt>
    <trkpt lat="34.54276" lon="-119.66936"><ele>473.0</ele></trkpt>
    <trkpt lat="34.54286" lon="-119.66948"><ele>473.0</ele></trkpt>
    <trkpt lat="34.54293" lon="-119.66969"><ele>473.0</ele></trkpt>
    <trkpt lat="34.54308" lon="-119.66981"><ele>473.0</ele></trkpt>
    <trkpt lat="34.54319" lon="-119.66986"><ele>473.0</ele></trkpt>
    <trkpt lat="34.54333" lon="-119.66988"><ele>473.0</ele></trkpt>
    <trkpt lat="34.54349" lon="-119.66988"><ele>473.0</ele></trkpt>
    <trkpt lat="34.54364" lon="-119.66988"><ele>482.0</ele></trkpt>
    <trkpt lat="34.54376" lon="-119.66996"><ele>482.0</ele></trkpt>
    <trkpt lat="34.54381" lon="-119.67007"><ele>482.0</ele></trkpt>
    <trkpt lat="34.54389" lon="-119.67023"><ele>482.0</ele></trkpt>
    <trkpt lat="34.54391" lon="-119.67039"><ele>482.0</ele></trkpt>
    <trkpt lat="34.54395" lon="-119.67059"><ele>482.0</ele></trkpt>
    <trkpt lat="34.54401" lon="-119.67070"><ele>482.0</ele></trkpt>
    <trkpt lat="34.54412" lon="-119.67081"><ele>482.0</ele></trkpt>
    <trkpt lat="34.54426" lon="-119.67091"><ele>482.0</ele></trkpt>
    <trkpt lat="34.54436" lon="-119.67105"><ele>482.0</ele></trkpt>
    <trkpt lat="34.54441" lon="-119.67113"><ele>482.0</ele></trkpt>
    <trkpt lat="34.54447" lon="-119.67123"><ele>482.0</ele></trkpt>
    <trkpt lat="34.54450" lon="-119.67130"><ele>479.0</ele></trkpt>
    <trkpt lat="34.54453" lon="-119.67135"><ele>479.0</ele></trkpt>
    <trkpt lat="34.54464" lon="-119.67139"><ele>479.0</ele></trkpt>
    <trkpt lat="34.54474" lon="-119.67144"><ele>479.0</ele></trkpt>
    <trkpt lat="34.54484" lon="-119.67146"><ele>479.0</ele></trkpt>
    <trkpt lat="34.54496" lon="-119.67148"><ele>479.0</ele></trkpt>
    <trkpt lat="34.54501" lon="-119.67148"><ele>479.0</ele></trkpt>
    <trkpt lat="34.54503" lon="-119.67148"><ele>479.0</ele></trkpt>
    <trkpt lat="34.54519" lon="-119.67143"><ele>479.0</ele></trkpt>
    <trkpt lat="34.54532" lon="-119.67141"><ele>479.0</ele></trkpt>
    <trkpt lat="34.54547" lon="-119.67146"><ele>479.0</ele></trkpt>
    <trkpt lat="34.54559" lon="-119.67165"><ele>479.0</ele></trkpt>
    <trkpt lat="34.54571" lon="-119.67189"><ele>479.0</ele></trkpt>
    <trkpt lat="34.54582" lon="-119.67210"><ele>481.0</ele></trkpt>
    <trkpt lat="34.54592" lon="-119.67227"><ele>481.0</ele></trkpt>
    <trkpt lat="34.54603" lon="-119.67243"><ele>481.0</ele></trkpt>
    <trkpt lat="34.54611" lon="-119.67254"><ele>481.0</ele></trkpt>
    <trkpt lat="34.54632" lon="-119.67265"><ele>481.0</ele></trkpt>
    <trkpt lat="34.54648" lon="-119.67268"><ele>481.0</ele></trkpt>
    <trkpt lat="34.54663" lon="-119.67272"><ele>481.0</ele></trkpt>
    <trkpt lat="34.54682" lon="-119.67279"><ele>481.0</ele></trkpt>
    <trkpt lat="34.54698" lon="-119.67293"><ele>481.0</ele></trkpt>
    <trkpt lat="34.54716" lon="-119.67313"><ele>481.0</ele></trkpt>
    <trkpt lat="34.54734" lon="-119.67330"><ele>481.0</ele></trkpt>
    <trkpt lat="34.54748" lon="-119.67336"><ele>481.0</ele></trkpt>
    <trkpt lat="34.54768" lon="-119.67360"><ele>481.0</ele></trkpt>
    <trkpt lat="34.54773" lon="-119.67384"><ele>493.0</ele></trkpt>
    <trkpt lat="34.54774" lon="-119.67404"><ele>493.0</ele></trkpt>
    <trkpt lat="34.54774" lon="-119.67432"><ele>493.0</ele></trkpt>
    <trkpt lat="34.54775" lon="-119.67449"><ele>493.0</ele></trkpt>
    <trkpt lat="34.54777" lon="-119.67455"><ele>493.0</ele></trkpt>
    <trkpt lat="34.54786" lon="-119.67489"><ele>493.0</ele></trkpt>
    <trkpt lat="34.54798" lon="-119.67517"><ele>493.0</ele></trkpt>
    <trkpt lat="34.54809" lon="-119.67539"><ele>493.0</ele></trkpt>
    <trkpt lat="34.54834" lon="-119.67565"><ele>493.0</ele></trkpt>
    <trkpt lat="34.54865" lon="-119.67593"><ele>493.0</ele></trkpt>
    <trkpt lat="34.54884" lon="-119.67616"><ele>493.0</ele></trkpt>
    <trkpt lat="34.54909" lon="-119.67649"><ele>493.0</ele></trkpt>
    <trkpt lat="34.54920" lon="-119.67678"><ele>517.0</ele></trkpt>
    <trkpt lat="34.54928" lon="-119.67704"><ele>517.0</ele></trkpt>
    <trkpt lat="34.54931" lon="-119.67728"><ele>517.0</ele></trkpt>
    <trkpt lat="34.54933" lon="-119.67747"><ele>517.0</ele></trkpt>
    <trkpt lat="34.54938" lon="-119.67783"><ele>517.0</ele></trkpt>
    <trkpt lat="34.54959" lon="-119.67815"><ele>517.0</ele></trkpt>
    <trkpt lat="34.54985" lon="-119.67832"><ele>517.0</ele></trkpt>
    <trkpt lat="34.55010" lon="-119.67836"><ele>517.0</ele></trkpt>
    <trkpt lat="34.55029" lon="-119.67827"><ele>517.0</ele></trkpt>
    <trkpt lat="34.55045" lon="-119.67816"><ele>517.0</ele></trkpt>
    <trkpt lat="34.55069" lon="-119.67798"><ele>517.0</ele></trkpt>
    <trkpt lat="34.55090" lon="-119.67779"><ele>517.0</ele></trkpt>
    <trkpt lat="34.55105" lon="-119.67772"><ele>517.0</ele></trkpt>
    <trkpt lat="34.55114" lon="-119.67772"><ele>523.0</ele></trkpt>
    <trkpt lat="34.55123" lon="-119.67776"><ele>523.0</ele></trkpt>
    <trkpt lat="34.55132" lon="-119.67788"><ele>523.0</ele></trkpt>
    <trkpt lat="34.55141" lon="-119.67808"><ele>523.0</ele></trkpt>
    <trkpt lat="34.55152" lon="-119.67831"><ele>523.0</ele></trkpt>
    <trkpt lat="34.55157" lon="-119.67846"><ele>523.0</ele></trkpt>
    <trkpt lat="34.55171" lon="-119.67871"><ele>523.0</ele></trkpt>
    <trkpt lat="34.55192" lon="-119.67884"><ele>523.0</ele></trkpt>
    <trkpt lat="34.55229" lon="-119.67904"><ele>523.0</ele></trkpt>
    <trkpt lat="34.55259" lon="-119.67917"><ele>523.0</ele></trkpt>
    <trkpt lat="34.55281" lon="-119.67932"><ele>523.0</ele></trkpt>
    <trkpt lat="34.55298" lon="-119.67958"><ele>523.0</ele></trkpt>
    <trkpt lat="34.55311" lon="-119.67991"><ele>523.0</ele></trkpt>
    <trkpt lat="34.55316" lon="-119.68018"><ele>537.0</ele></trkpt>
    <trkpt lat="34.55324" lon="-119.68046"><ele>537.0</ele></trkpt>
    <trkpt lat="34.55334" lon="-119.68066"><ele>537.0</ele></trkpt>
    <trkpt lat="34.55352" lon="-119.68097"><ele>537.0</ele></trkpt>
    <trkpt lat="34.55358" lon="-119.68130"><ele>537.0</ele></trkpt>
    <trkpt lat="34.55352" lon="-119.68161"><ele>537.0</ele></trkpt>
    <trkpt lat="34.55343" lon="-119.68192"><ele>537.0</ele></trkpt>
    <trkpt lat="34.55345" lon="-119.68217"><ele>537.0</ele></trkpt>
    <trkpt lat="34.55350" lon="-119.68237"><ele>537.0</ele></trkpt>
    <trkpt lat="34.55360" lon="-119.68252"><ele>537.0</ele></trkpt>
    <trkpt lat="34.55373" lon="-119.68277"><ele>537.0</ele></trkpt>
    <trkpt lat="34.55380" lon="-119.68306"><ele>537.0</ele></trkpt>
    <trkpt lat="34.55381" lon="-119.68344"><ele>552.0</ele></trkpt>
    <trkpt lat="34.55377" lon="-119.68374"><ele>552.0</ele></trkpt>
    <trkpt lat="34.55378" lon="-119.68398"><ele>552.0</ele></trkpt>
    <trkpt lat="34.55382" lon="-119.68430"><ele>552.0</ele></trkpt>
    <trkpt lat="34.55385" lon="-119.68454"><ele>552.0</ele></trkpt>
    <trkpt lat="34.55387" lon="-119.68478"><ele>552.0</ele></trkpt>
    <trkpt lat="34.55386" lon="-119.68497"><ele>552.0</ele></trkpt>
    <trkpt lat="34.55387" lon="-119.68515"><ele>552.0</ele></trkpt>
    <trkpt lat="34.55387" lon="-119.68545"><ele>552.0</ele></trkpt>
    <trkpt lat="34.55387" lon="-119.68571"><ele>552.0</ele></trkpt>
    <trkpt lat="34.55388" lon="-119.68598"><ele>552.0</ele></trkpt>
    <trkpt lat="34.55386" lon="-119.68622"><ele>552.0</ele></trkpt>
    <trkpt lat="34.55378" lon="-119.68642"><ele>552.0</ele></trkpt>
    <trkpt lat="34.55368" lon="-119.68657"><ele>567.0</ele></trkpt>
    <trkpt lat="34.55358" lon="-119.68665"><ele>567.0</ele></trkpt>
    <trkpt lat="34.55344" lon="-119.68678"><ele>567.0</ele></trkpt>
    <trkpt lat="34.55330" lon="-119.68689"><ele>567.0</ele></trkpt>
    <trkpt lat="34.55316" lon="-119.68704"><ele>567.0</ele></trkpt>
    <trkpt lat="34.55307" lon="-119.68729"><ele>567.0</ele></trkpt>
    <trkpt lat="34.55308" lon="-119.68747"><ele>567.0</ele></trkpt>
    <trkpt lat="34.55310" lon="-119.68760"><ele>567.0</ele></trkpt>
    <trkpt lat="34.55313" lon="-119.68772"><ele>567.0</ele></trkpt>
    <trkpt lat="34.55309" lon="-119.68806"><ele>567.0</ele></trkpt>
    <trkpt lat="34.55311" lon="-119.68822"><ele>567.0</ele></trkpt>
    <trkpt lat="34.55320" lon="-119.68830"><ele>567.0</ele></trkpt>
    <trkpt lat="34.55332" lon="-119.68837"><ele>567.0</ele></trkpt>
    <trkpt lat="34.55339" lon="-119.68839"><ele>574.0</ele></trkpt>
    <trkpt lat="34.55348" lon="-119.68842"><ele>574.0</ele></trkpt>
    <trkpt lat="34.55356" lon="-119.68845"><ele>574.0</ele></trkpt>
    <trkpt lat="34.55360" lon="-119.68847"><ele>574.0</ele></trkpt>
    <trkpt lat="34.55369" lon="-119.68857"><ele>574.0</ele></trkpt>
    <trkpt lat="34.55371" lon="-119.68883"><ele>574.0</ele></trkpt>
    <trkpt lat="34.55366" lon="-119.68901"><ele>574.0</ele></trkpt>
    <trkpt lat="34.55351" lon="-119.68919"><ele>574.0</ele></trkpt>
    <trkpt lat="34.55333" lon="-119.68935"><ele>574.0</ele></trkpt>
    <trkpt lat="34.55326" lon="-119.68951"><ele>574.0</ele></trkpt>
    <trkpt lat="34.55322" lon="-119.68977"><ele>574.0</ele></trkpt>
    <trkpt lat="34.55334" lon="-119.69002"><ele>574.0</ele></trkpt>
    <trkpt lat="34.55344" lon="-119.69014"><ele>580.0</ele></trkpt>
    <trkpt lat="34.55363" lon="-119.69024"><ele>580.0</ele></trkpt>
    <trkpt lat="34.55376" lon="-119.69040"><ele>580.0</ele></trkpt>
    <trkpt lat="34.55384" lon="-119.69052"><ele>580.0</ele></trkpt>
    <trkpt lat="34.55392" lon="-119.69071"><ele>580.0</ele></trkpt>
    <trkpt lat="34.55404" lon="-119.69087"><ele>580.0</ele></trkpt>
    <trkpt lat="34.55414" lon="-119.69089"><ele>580.0</ele></trkpt>
    <trkpt lat="34.55425" lon="-119.69099"><ele>580.0</ele></trkpt>
    <trkpt lat="34.55433" lon="-119.69113"><ele>580.0</ele></trkpt>
    <trkpt lat="34.55440" lon="-119.69127"><ele>580.0</ele></trkpt>
    <trkpt lat="34.55447" lon="-119.69147"><ele>580.0</ele></trkpt>
    <trkpt lat="34.55457" lon="-119.69156"><ele>580.0</ele></trkpt>
    <trkpt lat="34.55470" lon="-119.69167"><ele>580.0</ele></trkpt>
    <trkpt lat="34.55481" lon="-119.69176"><ele>581.0</ele></trkpt>
    <trkpt lat="34.55494" lon="-119.69190"><ele>581.0</ele></trkpt>
    <trkpt lat="34.55505" lon="-119.69204"><ele>581.0</ele></trkpt>
    <trkpt lat="34.55516" lon="-119.69213"><ele>581.0</ele></trkpt>
    <trkpt lat="34.55524" lon="-119.69221"><ele>581.0</ele></trkpt>
    <trkpt lat="34.55529" lon="-119.69225"><ele>581.0</ele></trkpt>
    <trkpt lat="34.55534" lon="-119.69244"><ele>581.0</ele></trkpt>
    <trkpt lat="34.55527" lon="-119.69260"><ele>581.0</ele></trkpt>
    <trkpt lat="34.55515" lon="-119.69286"><ele>581.0</ele></trkpt>
    <trkpt lat="34.55504" lon="-119.69311"><ele>581.0</ele></trkpt>
    <trkpt lat="34.55500" lon="-119.69346"><ele>581.0</ele></trkpt>
    <trkpt lat="34.55505" lon="-119.69380"><ele>581.0</ele></trkpt>
    <trkpt lat="34.55516" lon="-119.69398"><ele>581.0</ele></trkpt>
    <trkpt lat="34.55526" lon="-119.69412"><ele>597.0</ele></trkpt>
    <trkpt lat="34.55541" lon="-119.69427"><ele>597.0</ele></trkpt>
    <trkpt lat="34.55554" lon="-119.69441"><ele>597.0</ele></trkpt>
    <trkpt lat="34.55561" lon="-119.69456"><ele>597.0</ele></trkpt>
    <trkpt lat="34.55565" lon="-119.69470"><ele>597.0</ele></trkpt>
    <trkpt lat="34.55575" lon="-119.69481"><ele>597.0</ele></trkpt>
    <trkpt lat="34.55587" lon="-119.69483"><ele>597.0</ele></trkpt>
    <trkpt lat="34.55611" lon="-119.69483"><ele>597.0</ele></trkpt>
    <trkpt lat="34.55626" lon="-119.69484"><ele>597.0</ele></trkpt>
    <trkpt lat="34.55646" lon="-119.69488"><ele>597.0</ele></trkpt>
    <trkpt lat="34.55657" lon="-119.69491"><ele>597.0</ele></trkpt>
    <trkpt lat="34.55658" lon="-119.69495"><ele>597.0</ele></trkpt>
    <trkpt lat="34.55663" lon="-119.69508"><ele>600.0</ele></trkpt>
    <trkpt lat="34.55665" lon="-119.69521"><ele>600.0</ele></trkpt>
    <trkpt lat="34.55660" lon="-119.69533"><ele>600.0</ele></trkpt>
    <trkpt lat="34.55642" lon="-119.69544"><ele>600.0</ele></trkpt>
    <trkpt lat="34.55632" lon="-119.69553"><ele>600.0</ele></trkpt>
    <trkpt lat="34.55624" lon="-119.69565"><ele>600.0</ele></trkpt>
    <trkpt lat="34.55616" lon="-119.69577"><ele>600.0</ele></trkpt>
    <trkpt lat="34.55606" lon="-119.69612"><ele>600.0</ele></trkpt>
    <trkpt lat="34.55612" lon="-119.69643"><ele>600.0</ele></trkpt>
    <trkpt lat="34.55629" lon="-119.69658"><ele>600.0</ele></trkpt>
    <trkpt lat="34.55655" lon="-119.69670"><ele>600.0</ele></trkpt>
    <trkpt lat="34.55673" lon="-119.69688"><ele>600.0</ele></trkpt>
    <trkpt lat="34.55686" lon="-119.69707"><ele>600.0</ele></trkpt>
    <trkpt lat="34.55702" lon="-119.69732"><ele>614.0</ele></trkpt>
    <trkpt lat="34.55715" lon="-119.69755"><ele>614.0</ele></trkpt>
    <trkpt lat="34.55722" lon="-119.69779"><ele>614.0</ele></trkpt>
    <trkpt lat="34.55725" lon="-119.69792"><ele>614.0</ele></trkpt>
    <trkpt lat="34.55731" lon="-119.69821"><ele>614.0</ele></trkpt>
    <trkpt lat="34.55740" lon="-119.69850"><ele>614.0</ele></trkpt>
    <trkpt lat="34.55750" lon="-119.69873"><ele>614.0</ele></trkpt>
    <trkpt lat="34.55764" lon="-119.69898"><ele>614.0</ele></trkpt>
    <trkpt lat="34.55778" lon="-119.69920"><ele>614.0</ele></trkpt>
    <trkpt lat="34.55794" lon="-119.69933"><ele>614.0</ele></trkpt>
    <trkpt lat="34.55804" lon="-119.69951"><ele>614.0</ele></trkpt>
    <trkpt lat="34.55807" lon="-119.69962"><ele>614.0</ele></trkpt>
    <trkpt lat="34.55813" lon="-119.69975"><ele>614.0</ele></trkpt>
    <trkpt lat="34.55826" lon="-119.69994"><ele>621.0</ele></trkpt>
    <trkpt lat="34.55839" lon="-119.70003"><ele>621.0</ele></trkpt>
    <trkpt lat="34.55859" lon="-119.70021"><ele>621.0</ele></trkpt>
    <trkpt lat="34.55888" lon="-119.70037"><ele>621.0</ele></trkpt>
    <trkpt lat="34.55913" lon="-119.70047"><ele>621.0</ele></trkpt>
    <trkpt lat="34.55932" lon="-119.70054"><ele>621.0</ele></trkpt>
    <trkpt lat="34.55951" lon="-119.70060"><ele>621.0</ele></trkpt>
    <trkpt lat="34.55967" lon="-119.70066"><ele>621.0</ele></trkpt>
    <trkpt lat="34.55982" lon="-119.70074"><ele>621.0</ele></trkpt>
    <trkpt lat="34.55997" lon="-119.70089"><ele>621.0</ele></trkpt>
    <trkpt lat="34.56013" lon="-119.70099"><ele>621.0</ele></trkpt>
    <trkpt lat="34.56031" lon="-119.70106"><ele>621.0</ele></trkpt>
    <trkpt lat="34.56052" lon="-119.70119"><ele>621.0</ele></trkpt>
    <trkpt lat="34.56076" lon="-119.70134"><ele>622.0</ele></trkpt>
    <trkpt lat="34.56093" lon="-119.70148"><ele>622.0</ele></trkpt>
    <trkpt lat="34.56095" lon="-119.70153"><ele>622.0</ele></trkpt>
    <trkpt lat="34.56100" lon="-119.70158"><ele>622.0</ele></trkpt>
    <trkpt lat="34.56115" lon="-119.70181"><ele>622.0</ele></trkpt>
    <trkpt lat="34.56130" lon="-119.70204"><ele>622.0</ele></trkpt>
    <trkpt lat="34.56146" lon="-119.70218"><ele>622.0</ele></trkpt>
    <trkpt lat="34.56159" lon="-119.70227"><ele>622.0</ele></trkpt>
    <trkpt lat="34.56173" lon="-119.70241"><ele>622.0</ele></trkpt>
    <trkpt lat="34.56185" lon="-119.70270"><ele>622.0</ele></trkpt>
    <trkpt lat="34.56198" lon="-119.70292"><ele>622.0</ele></trkpt>
    <trkpt lat="34.56211" lon="-119.70306"><ele>622.0</ele></trkpt>
    <trkpt lat="34.56224" lon="-119.70320"><ele>637.0</ele></trkpt>
    <trkpt lat="34.56245" lon="-119.70341"><ele>637.0</ele></trkpt>
    <trkpt lat="34.56263" lon="-119.70361"><ele>637.0</ele></trkpt>
    <trkpt lat="34.56272" lon="-119.70381"><ele>637.0</ele></trkpt>
    <trkpt lat="34.56286" lon="-119.70410"><ele>637.0</ele></trkpt>
    <trkpt lat="34.56297" lon="-119.70448"><ele>637.0</ele></trkpt>
    <trkpt lat="34.56296" lon="-119.70484"><ele>637.0</ele></trkpt>
    <trkpt lat="34.56279" lon="-119.70521"><ele>637.0</ele></trkpt>
    <trkpt lat="34.56262" lon="-119.70564"><ele>637.0</ele></trkpt>
    <trkpt lat="34.56267" lon="-119.70598"><ele>637.0</ele></trkpt>
    <trkpt lat="34.56283" lon="-119.70621"><ele>637.0</ele></trkpt>
    <trkpt lat="34.56297" lon="-119.70634"><ele>637.0</ele></trkpt>
    <trkpt lat="34.56311" lon="-119.70655"><ele>637.0</ele></trkpt>
    <trkpt lat="34.56322" lon="-119.70678"><ele>649.0</ele></trkpt>
    <trkpt lat="34.56331" lon="-119.70701"><ele>649.0</ele></trkpt>
    <trkpt lat="34.56341" lon="-119.70726"><ele>649.0</ele></trkpt>
    <trkpt lat="34.56359" lon="-119.70744"><ele>649.0</ele></trkpt>
    <trkpt lat="34.56374" lon="-119.70751"><ele>649.0</ele></trkpt>
    <trkpt lat="34.56388" lon="-119.70760"><ele>649.0</ele></trkpt>
    <trkpt lat="34.56398" lon="-119.70765"><ele>649.0</ele></trkpt>
    <trkpt lat="34.56418" lon="-119.70774"><ele>649.0</ele></trkpt>
    <trkpt lat="34.56435" lon="-119.70783"><ele>649.0</ele></trkpt>
    <trkpt lat="34.56450" lon="-119.70788"><ele>649.0</ele></trkpt>
    <trkpt lat="34.56463" lon="-119.70796"><ele>649.0</ele></trkpt>
    <trkpt lat="34.56481" lon="-119.70809"><ele>649.0</ele></trkpt>
    <trkpt lat="34.56496" lon="-119.70826"><ele>649.0</ele></trkpt>
    <trkpt lat="34.56506" lon="-119.70841"><ele>657.0</ele></trkpt>
    <trkpt lat="34.56511" lon="-119.70856"><ele>657.0</ele></trkpt>
    <trkpt lat="34.56519" lon="-119.70879"><ele>657.0</ele></trkpt>
    <trkpt lat="34.56524" lon="-119.70897"><ele>657.0</ele></trkpt>
    <trkpt lat="34.56527" lon="-119.70908"><ele>657.0</ele></trkpt>
    <trkpt lat="34.56532" lon="-119.70922"><ele>657.0</ele></trkpt>
    <trkpt lat="34.56533" lon="-119.70932"><ele>657.0</ele></trkpt>
    <trkpt lat="34.56546" lon="-119.70964"><ele>657.0</ele></trkpt>
    <trkpt lat="34.56555" lon="-119.70996"><ele>657.0</ele></trkpt>
    <trkpt lat="34.56565" lon="-119.71029"><ele>657.0</ele></trkpt>
    <trkpt lat="34.56569" lon="-119.71055"><ele>657.0</ele></trkpt>
    <trkpt lat="34.56576" lon="-119.71092"><ele>657.0</ele></trkpt>
    <trkpt lat="34.56584" lon="-119.71119"><ele>667.0</ele></trkpt>
    <trkpt lat="34.56592" lon="-119.71139"><ele>667.0</ele></trkpt>
    <trkpt lat="34.56597" lon="-119.71156"><ele>667.0</ele></trkpt>
    <trkpt lat="34.56604" lon="-119.71176"><ele>667.0</ele></trkpt>
    <trkpt lat="34.56616" lon="-119.71193"><ele>667.0</ele></trkpt>
    <trkpt lat="34.56630" lon="-119.71213"><ele>667.0</ele></trkpt>
    <trkpt lat="34.56639" lon="-119.71228"><ele>667.0</ele></trkpt>
    <trkpt lat="34.56637" lon="-119.71242"><ele>667.0</ele></trkpt>
    <trkpt lat="34.56626" lon="-119.71252"><ele>667.0</ele></trkpt>
    <trkpt lat="34.56605" lon="-119.71259"><ele>667.0</ele></trkpt>
    <trkpt lat="34.56587" lon="-119.71248"><ele>667.0</ele></trkpt>
    <trkpt lat="34.56576" lon="-119.71237"><ele>667.0</ele></trkpt>
    <trkpt lat="34.56563" lon="-119.71226"><ele>667.0</ele></trkpt>
    <trkpt lat="34.56547" lon="-119.71221"><ele>671.0</ele></trkpt>
    <trkpt lat="34.56533" lon="-119.71219"><ele>671.0</ele></trkpt>
    <trkpt lat="34.56526" lon="-119.71214"><ele>671.0</ele></trkpt>
    <trkpt lat="34.56526" lon="-119.71199"><ele>671.0</ele></trkpt>
    <trkpt lat="34.56529" lon="-119.71183"><ele>671.0</ele></trkpt>
    <trkpt lat="34.56527" lon="-119.71157"><ele>671.0</ele></trkpt>
    <trkpt lat="34.56522" lon="-119.71143"><ele>671.0</ele></trkpt>
    <trkpt lat="34.56514" lon="-119.71133"><ele>671.0</ele></trkpt>
    <trkpt lat="34.56491" lon="-119.71126"><ele>671.0</ele></trkpt>
    <trkpt lat="34.56468" lon="-119.71121"><ele>671.0</ele></trkpt>
    <trkpt lat="34.56447" lon="-119.71117"><ele>671.0</ele></trkpt>
    <trkpt lat="34.56435" lon="-119.71106"><ele>671.0</ele></trkpt>
    <trkpt lat="34.56433" lon="-119.71092"><ele>671.0</ele></trkpt>
    <trkpt lat="34.56432" lon="-119.71079"><ele>683.0</ele></trkpt>
    <trkpt lat="34.56427" lon="-119.71063"><ele>683.0</ele></trkpt>
    <trkpt lat="34.56408" lon="-119.71051"><ele>683.0</ele></trkpt>
    <trkpt lat="34.56406" lon="-119.71036"><ele>683.0</ele></trkpt>
    <trkpt lat="34.56413" lon="-119.71027"><ele>683.0</ele></trkpt>
    <trkpt lat="34.56424" lon="-119.71019"><ele>683.0</ele></trkpt>
    <trkpt lat="34.56440" lon="-119.71010"><ele>683.0</ele></trkpt>
    <trkpt lat="34.56450" lon="-119.71001"><ele>683.0</ele></trkpt>
    <trkpt lat="34.56449" lon="-119.70989"><ele>683.0</ele></trkpt>
    <trkpt lat="34.56444" lon="-119.70977"><ele>683.0</ele></trkpt>
    <trkpt lat="34.56433" lon="-119.70968"><ele>683.0</ele></trkpt>
    <trkpt lat="34.56418" lon="-119.70971"><ele>683.0</ele></trkpt>
    <trkpt lat="34.56408" lon="-119.70986"><ele>714.0</ele></trkpt>
    <trkpt lat="34.56394" lon="-119.71004"><ele>714.0</ele></trkpt>
    <trkpt lat="34.56382" lon="-119.71020"><ele>714.0</ele></trkpt>
    <trkpt lat="34.56369" lon="-119.71038"><ele>714.0</ele></trkpt>
    <trkpt lat="34.56360" lon="-119.71058"><ele>714.0</ele></trkpt>
    <trkpt lat="34.56350" lon="-119.71071"><ele>714.0</ele></trkpt>
    <trkpt lat="34.56334" lon="-119.71090"><ele>714.0</ele></trkpt>
    <trkpt lat="34.56328" lon="-119.71108"><ele>714.0</ele></trkpt>
    <trkpt lat="34.56331" lon="-119.71124"><ele>714.0</ele></trkpt>
    <trkpt lat="34.56335" lon="-119.71138"><ele>714.0</ele></trkpt>
    <trkpt lat="34.56338" lon="-119.71153"><ele>714.0</ele></trkpt>
    <trkpt lat="34.56342" lon="-119.71172"><ele>714.0</ele></trkpt>
    <trkpt lat="34.56345" lon="-119.71197"><ele>714.0</ele></trkpt>
    <trkpt lat="34.56346" lon="-119.71211"><ele>732.0</ele></trkpt>
    <trkpt lat="34.56344" lon="-119.71230"><ele>732.0</ele></trkpt>
    <trkpt lat="34.56339" lon="-119.71244"><ele>732.0</ele></trkpt>
    <trkpt lat="34.56332" lon="-119.71264"><ele>732.0</ele></trkpt>
    <trkpt lat="34.56321" lon="-119.71279"><ele>732.0</ele></trkpt>
    <trkpt lat="34.56310" lon="-119.71300"><ele>732.0</ele></trkpt>
    <trkpt lat="34.56314" lon="-119.71318"><ele>732.0</ele></trkpt>
    <trkpt lat="34.56323" lon="-119.71326"><ele>732.0</ele></trkpt>
    <trkpt lat="34.56335" lon="-119.71329"><ele>732.0</ele></trkpt>
    <trkpt lat="34.56346" lon="-119.71333"><ele>732.0</ele></trkpt>
    <trkpt lat="34.56359" lon="-119.71339"><ele>732.0</ele></trkpt>
    <trkpt lat="34.56369" lon="-119.71347"><ele>732.0</ele></trkpt>
    <trkpt lat="34.56375" lon="-119.71351"><ele>732.0</ele></trkpt>
    <trkpt lat="34.56388" lon="-119.71356"><ele>721.0</ele></trkpt>
    <trkpt lat="34.56402" lon="-119.71356"><ele>721.0</ele></trkpt>
    <trkpt lat="34.56408" lon="-119.71350"><ele>721.0</ele></trkpt>
    <trkpt lat="34.56412" lon="-119.71342"><ele>721.0</ele></trkpt>
    <trkpt lat="34.56425" lon="-119.71334"><ele>721.0</ele></trkpt>
    <trkpt lat="34.56437" lon="-119.71336"><ele>721.0</ele></trkpt>
    <trkpt lat="34.56447" lon="-119.71355"><ele>721.0</ele></trkpt>
    <trkpt lat="34.56448" lon="-119.71369"><ele>721.0</ele></trkpt>
    <trkpt lat="34.56447" lon="-119.71388"><ele>721.0</ele></trkpt>
    <trkpt lat="34.56445" lon="-119.71404"><ele>721.0</ele></trkpt>
    <trkpt lat="34.56442" lon="-119.71418"><ele>721.0</ele></trkpt>
    <trkpt lat="34.56451" lon="-119.71431"><ele>721.0</ele></trkpt>
    <trkpt lat="34.56463" lon="-119.71432"><ele>744.0</ele></trkpt>
    <trkpt lat="34.56480" lon="-119.71433"><ele>744.0</ele></trkpt>
    <trkpt lat="34.56489" lon="-119.71444"><ele>744.0</ele></trkpt>
    <trkpt lat="34.56494" lon="-119.71455"><ele>744.0</ele></trkpt>
    <trkpt lat="34.56496" lon="-119.71471"><ele>744.0</ele></trkpt>
    <trkpt lat="34.56495" lon="-119.71488"><ele>744.0</ele></trkpt>
    <trkpt lat="34.56493" lon="-119.71513"><ele>744.0</ele></trkpt>
    <trkpt lat="34.56491" lon="-119.71541"><ele>744.0</ele></trkpt>
    <trkpt lat="34.56490" lon="-119.71568"><ele>744.0</ele></trkpt>
    <trkpt lat="34.56493" lon="-119.71591"><ele>744.0</ele></trkpt>
    <trkpt lat="34.56498" lon="-119.71608"><ele>744.0</ele></trkpt>
    <trkpt lat="34.56499" lon="-119.71625"><ele>744.0</ele></trkpt>
    <trkpt lat="34.56494" lon="-119.71640"><ele>744.0</ele></trkpt>
    <trkpt lat="34.56489" lon="-119.71658"><ele>764.0</ele></trkpt>
    <trkpt lat="34.56489" lon="-119.71673"><ele>764.0</ele></trkpt>
    <trkpt lat="34.56490" lon="-119.71692"><ele>764.0</ele></trkpt>
    <trkpt lat="34.56492" lon="-119.71709"><ele>764.0</ele></trkpt>
    <trkpt lat="34.56489" lon="-119.71726"><ele>764.0</ele></trkpt>
    <trkpt lat="34.56482" lon="-119.71737"><ele>764.0</ele></trkpt>
    <trkpt lat="34.56466" lon="-119.71754"><ele>764.0</ele></trkpt>
    <trkpt lat="34.56460" lon="-119.71771"><ele>764.0</ele></trkpt>
    <trkpt lat="34.56461" lon="-119.71793"><ele>764.0</ele></trkpt>
    <trkpt lat="34.56465" lon="-119.71809"><ele>764.0</ele></trkpt>
    <trkpt lat="34.56466" lon="-119.71821"><ele>764.0</ele></trkpt>
    <trkpt lat="34.56469" lon="-119.71833"><ele>764.0</ele></trkpt>
    <trkpt lat="34.56461" lon="-119.71846"><ele>764.0</ele></trkpt>
    <trkpt lat="34.56454" lon="-119.71862"><ele>784.0</ele></trkpt>
    <trkpt lat="34.56452" lon="-119.71884"><ele>784.0</ele></trkpt>
    <trkpt lat="34.56458" lon="-119.71898"><ele>784.0</ele></trkpt>
    <trkpt lat="34.56462" lon="-119.71912"><ele>784.0</ele></trkpt>
    <trkpt lat="34.56459" lon="-119.71925"><ele>784.0</ele></trkpt>
    <trkpt lat="34.56454" lon="-119.71935"><ele>784.0</ele></trkpt>
    <trkpt lat="34.56457" lon="-119.71951"><ele>784.0</ele></trkpt>
    <trkpt lat="34.56469" lon="-119.71959"><ele>784.0</ele></trkpt>
    <trkpt lat="34.56482" lon="-119.71963"><ele>784.0</ele></trkpt>
    <trkpt lat="34.56498" lon="-119.71970"><ele>784.0</ele></trkpt>
    <trkpt lat="34.56513" lon="-119.71978"><ele>784.0</ele></trkpt>
    <trkpt lat="34.56530" lon="-119.71986"><ele>784.0</ele></trkpt>
    <trkpt lat="34.56536" lon="-119.71991"><ele>765.0</ele></trkpt>
    <trkpt lat="34.56538" lon="-119.71991"><ele>765.0</ele></trkpt>
    <trkpt lat="34.56549" lon="-119.71994"><ele>765.0</ele></trkpt>
    <trkpt lat="34.56557" lon="-119.71999"><ele>765.0</ele></trkpt>
    <trkpt lat="34.56565" lon="-119.72003"><ele>765.0</ele></trkpt>
    <trkpt lat="34.56575" lon="-119.72009"><ele>765.0</ele></trkpt>
    <trkpt lat="34.56583" lon="-119.72016"><ele>765.0</ele></trkpt>
    <trkpt lat="34.56597" lon="-119.72020"><ele>765.0</ele></trkpt>
    <trkpt lat="34.56606" lon="-119.72014"><ele>765.0</ele></trkpt>
    <trkpt lat="34.56610" lon="-119.72012"><ele>765.0</ele></trkpt>
    <trkpt lat="34.56611" lon="-119.72012"><ele>765.0</ele></trkpt>
    <trkpt lat="34.56621" lon="-119.72009"><ele>765.0</ele></trkpt>
    <trkpt lat="34.56636" lon="-119.72012"><ele>765.0</ele></trkpt>
    <trkpt lat="34.56642" lon="-119.72020"><ele>773.0</ele></trkpt>
    <trkpt lat="34.56650" lon="-119.72029"><ele>773.0</ele></trkpt>
    <trkpt lat="34.56655" lon="-119.72037"><ele>773.0</ele></trkpt>
    <trkpt lat="34.56661" lon="-119.72047"><ele>773.0</ele></trkpt>
    <trkpt lat="34.56668" lon="-119.72049"><ele>773.0</ele></trkpt>
    <trkpt lat="34.56678" lon="-119.72052"><ele>773.0</ele></trkpt>
    <trkpt lat="34.56683" lon="-119.72051"><ele>773.0</ele></trkpt>
    <trkpt lat="34.56696" lon="-119.72050"><ele>773.0</ele></trkpt>
    <trkpt lat="34.56704" lon="-119.72057"><ele>773.0</ele></trkpt>
    <trkpt lat="34.56709" lon="-119.72071"><ele>773.0</ele></trkpt>
    <trkpt lat="34.56712" lon="-119.72081"><ele>773.0</ele></trkpt>
    <trkpt lat="34.56716" lon="-119.72091"><ele>773.0</ele></trkpt>
    <trkpt lat="34.56726" lon="-119.72092"><ele>773.0</ele></trkpt>
    <trkpt lat="34.56735" lon="-119.72095"><ele>776.0</ele></trkpt>
    <trkpt lat="34.56743" lon="-119.72098"><ele>776.0</ele></trkpt>
    <trkpt lat="34.56749" lon="-119.72107"><ele>776.0</ele></trkpt>
    <trkpt lat="34.56754" lon="-119.72127"><ele>776.0</ele></trkpt>
    <trkpt lat="34.56756" lon="-119.72142"><ele>776.0</ele></trkpt>
    <trkpt lat="34.56759" lon="-119.72152"><ele>776.0</ele></trkpt>
    <trkpt lat="34.56766" lon="-119.72162"><ele>776.0</ele></trkpt>
    <trkpt lat="34.56777" lon="-119.72172"><ele>776.0</ele></trkpt>
    <trkpt lat="34.56789" lon="-119.72182"><ele>776.0</ele></trkpt>
    <trkpt lat="34.56797" lon="-119.72185"><ele>776.0</ele></trkpt>
    <trkpt lat="34.56807" lon="-119.72188"><ele>776.0</ele></trkpt>
    <trkpt lat="34.56813" lon="-119.72190"><ele>776.0</ele></trkpt>
    <trkpt lat="34.56821" lon="-119.72195"><ele>785.0</ele></trkpt>
    <trkpt lat="34.56829" lon="-119.72198"><ele>785.0</ele></trkpt>
    <trkpt lat="34.56836" lon="-119.72196"><ele>785.0</ele></trkpt>
    <trkpt lat="34.56844" lon="-119.72192"><ele>785.0</ele></trkpt>
    <trkpt lat="34.56856" lon="-119.72192"><ele>785.0</ele></trkpt>
    <trkpt lat="34.56860" lon="-119.72198"><ele>785.0</ele></trkpt>
    <trkpt lat="34.56863" lon="-119.72210"><ele>785.0</ele></trkpt>
    <trkpt lat="34.56864" lon="-119.72227"><ele>785.0</ele></trkpt>
    <trkpt lat="34.56866" lon="-119.72241"><ele>785.0</ele></trkpt>
    <trkpt lat="34.56869" lon="-119.72260"><ele>785.0</ele></trkpt>
    <trkpt lat="34.56869" lon="-119.72282"><ele>785.0</ele></trkpt>
    <trkpt lat="34.56873" lon="-119.72304"><ele>785.0</ele></trkpt>
    <trkpt lat="34.56878" lon="-119.72313"><ele>785.0</ele></trkpt>
    <trkpt lat="34.56891" lon="-119.72322"><ele>803.0</ele></trkpt>
    <trkpt lat="34.56903" lon="-119.72322"><ele>803.0</ele></trkpt>
    <trkpt lat="34.56919" lon="-119.72320"><ele>803.0</ele></trkpt>
    <trkpt lat="34.56928" lon="-119.72320"><ele>803.0</ele></trkpt>
    <trkpt lat="34.56933" lon="-119.72324"><ele>803.0</ele></trkpt>
    <trkpt lat="34.56939" lon="-119.72331"><ele>803.0</ele></trkpt>
    <trkpt lat="34.56943" lon="-119.72340"><ele>803.0</ele></trkpt>
    <trkpt lat="34.56955" lon="-119.72381"><ele>803.0</ele></trkpt>
    <trkpt lat="34.56962" lon="-119.72398"><ele>803.0</ele></trkpt>
    <trkpt lat="34.56970" lon="-119.72402"><ele>803.0</ele></trkpt>
    <trkpt lat="34.56981" lon="-119.72401"><ele>803.0</ele></trkpt>
    <trkpt lat="34.56996" lon="-119.72398"><ele>803.0</ele></trkpt>
    <trkpt lat="34.57005" lon="-119.72397"><ele>803.0</ele></trkpt>
    <trkpt lat="34.57009" lon="-119.72396"><ele>814.0</ele></trkpt>
    <trkpt lat="34.57021" lon="-119.72395"><ele>814.0</ele></trkpt>
    <trkpt lat="34.57031" lon="-119.72398"><ele>814.0</ele></trkpt>
    <trkpt lat="34.57039" lon="-119.72406"><ele>814.0</ele></trkpt>
    <trkpt lat="34.57042" lon="-119.72415"><ele>814.0</ele></trkpt>
    <trkpt lat="34.57037" lon="-119.72428"><ele>814.0</ele></trkpt>
    <trkpt lat="34.57027" lon="-119.72438"><ele>814.0</ele></trkpt>
    <trkpt lat="34.57020" lon="-119.72446"><ele>814.0</ele></trkpt>
    <trkpt lat="34.57015" lon="-119.72455"><ele>814.0</ele></trkpt>
    <trkpt lat="34.57010" lon="-119.72468"><ele>814.0</ele></trkpt>
    <trkpt lat="34.57005" lon="-119.72487"><ele>814.0</ele></trkpt>
    <trkpt lat="34.57011" lon="-119.72500"><ele>814.0</ele></trkpt>
    <trkpt lat="34.57018" lon="-119.72508"><ele>806.0</ele></trkpt>
    <trkpt lat="34.57029" lon="-119.72510"><ele>806.0</ele></trkpt>
    <trkpt lat="34.57039" lon="-119.72512"><ele>806.0</ele></trkpt>
    <trkpt lat="34.57047" lon="-119.72511"><ele>806.0</ele></trkpt>
    <trkpt lat="34.57054" lon="-119.72509"><ele>806.0</ele></trkpt>
    <trkpt lat="34.57063" lon="-119.72505"><ele>806.0</ele></trkpt>
    <trkpt lat="34.57072" lon="-119.72502"><ele>806.0</ele></trkpt>
    <trkpt lat="34.57078" lon="-119.72504"><ele>806.0</ele></trkpt>
    <trkpt lat="34.57086" lon="-119.72512"><ele>806.0</ele></trkpt>
    <trkpt lat="34.57092" lon="-119.72519"><ele>806.0</ele></trkpt>
    <trkpt lat="34.57100" lon="-119.72519"><ele>806.0</ele></trkpt>
    <trkpt lat="34.57105" lon="-119.72519"><ele>806.0</ele></trkpt>
    <trkpt lat="34.57114" lon="-119.72517"><ele>806.0</ele></trkpt>
    <trkpt lat="34.57120" lon="-119.72509"><ele>819.0</ele></trkpt>
    <trkpt lat="34.57125" lon="-119.72504"><ele>819.0</ele></trkpt>
    <trkpt lat="34.57130" lon="-119.72502"><ele>819.0</ele></trkpt>
    <trkpt lat="34.57136" lon="-119.72500"><ele>819.0</ele></trkpt>
    <trkpt lat="34.57144" lon="-119.72505"><ele>819.0</ele></trkpt>
    <trkpt lat="34.57144" lon="-119.72518"><ele>819.0</ele></trkpt>
    <trkpt lat="34.57141" lon="-119.72529"><ele>819.0</ele></trkpt>
    <trkpt lat="34.57135" lon="-119.72544"><ele>819.0</ele></trkpt>
    <trkpt lat="34.57130" lon="-119.72557"><ele>819.0</ele></trkpt>
    <trkpt lat="34.57124" lon="-119.72566"><ele>819.0</ele></trkpt>
    <trkpt lat="34.57118" lon="-119.72576"><ele>819.0</ele></trkpt>
    <trkpt lat="34.57110" lon="-119.72590"><ele>819.0</ele></trkpt>
    <trkpt lat="34.57108" lon="-119.72602"><ele>819.0</ele></trkpt>
    <trkpt lat="34.57116" lon="-119.72605"><ele>817.0</ele></trkpt>
    <trkpt lat="34.57129" lon="-119.72606"><ele>817.0</ele></trkpt>
    <trkpt lat="34.57142" lon="-119.72607"><ele>817.0</ele></trkpt>
    <trkpt lat="34.57151" lon="-119.72612"><ele>817.0</ele></trkpt>
    <trkpt lat="34.57158" lon="-119.72617"><ele>817.0</ele></trkpt>
    <trkpt lat="34.57167" lon="-119.72618"><ele>817.0</ele></trkpt>
    <trkpt lat="34.57179" lon="-119.72615"><ele>817.0</ele></trkpt>
    <trkpt lat="34.57185" lon="-119.72617"><ele>817.0</ele></trkpt>
    <trkpt lat="34.57189" lon="-119.72625"><ele>817.0</ele></trkpt>
    <trkpt lat="34.57190" lon="-119.72633"><ele>817.0</ele></trkpt>
    <trkpt lat="34.57190" lon="-119.72643"><ele>817.0</ele></trkpt>
    <trkpt lat="34.57189" lon="-119.72653"><ele>817.0</ele></trkpt>
    <trkpt lat="34.57185" lon="-119.72663"><ele>810.0</ele></trkpt>
    <trkpt lat="34.57181" lon="-119.72673"><ele>810.0</ele></trkpt>
    <trkpt lat="34.57176" lon="-119.72678"><ele>810.0</ele></trkpt>
    <trkpt lat="34.57165" lon="-119.72686"><ele>810.0</ele></trkpt>
    <trkpt lat="34.57163" lon="-119.72687"><ele>810.0</ele></trkpt>
    <trkpt lat="34.57158" lon="-119.72692"><ele>810.0</ele></trkpt>
    <trkpt lat="34.57155" lon="-119.72697"><ele>810.0</ele></trkpt>
    <trkpt lat="34.57151" lon="-119.72701"><ele>810.0</ele></trkpt>
    <trkpt lat="34.57148" lon="-119.72709"><ele>810.0</ele></trkpt>
    <trkpt lat="34.57141" lon="-119.72719"><ele>810.0</ele></trkpt>
    <trkpt lat="34.57132" lon="-119.72725"><ele>810.0</ele></trkpt>
    <trkpt lat="34.57124" lon="-119.72728"><ele>810.0</ele></trkpt>
    <trkpt lat="34.57120" lon="-119.72730"><ele>810.0</ele></trkpt>
    <trkpt lat="34.57118" lon="-119.72734"><ele>812.0</ele></trkpt>
    <trkpt lat="34.57118" lon="-119.72742"><ele>812.0</ele></trkpt>
    <trkpt lat="34.57124" lon="-119.72750"><ele>812.0</ele></trkpt>
    <trkpt lat="34.57130" lon="-119.72756"><ele>812.0</ele></trkpt>
    <trkpt lat="34.57138" lon="-119.72762"><ele>812.0</ele></trkpt>
    <trkpt lat="34.57152" lon="-119.72767"><ele>812.0</ele></trkpt>
    <trkpt lat="34.57165" lon="-119.72775"><ele>812.0</ele></trkpt>
    <trkpt lat="34.57172" lon="-119.72779"><ele>812.0</ele></trkpt>
    <trkpt lat="34.57179" lon="-119.72786"><ele>812.0</ele></trkpt>
    <trkpt lat="34.57181" lon="-119.72796"><ele>812.0</ele></trkpt>
    <trkpt lat="34.57181" lon="-119.72809"><ele>812.0</ele></trkpt>
    <trkpt lat="34.57176" lon="-119.72824"><ele>812.0</ele></trkpt>
    <trkpt lat="34.57169" lon="-119.72833"><ele>812.0</ele></trkpt>
    <trkpt lat="34.57158" lon="-119.72838"><ele>801.0</ele></trkpt>
    <trkpt lat="34.57141" lon="-119.72841"><ele>801.0</ele></trkpt>
    <trkpt lat="34.57120" lon="-119.72847"><ele>801.0</ele></trkpt>
    <trkpt lat="34.57113" lon="-119.72854"><ele>801.0</ele></trkpt>
    <trkpt lat="34.57112" lon="-119.72867"><ele>801.0</ele></trkpt>
    <trkpt lat="34.57115" lon="-119.72880"><ele>801.0</ele></trkpt>
    <trkpt lat="34.57120" lon="-119.72888"><ele>801.0</ele></trkpt>
    <trkpt lat="34.57122" lon="-119.72905"><ele>801.0</ele></trkpt>
    <trkpt lat="34.57116" lon="-119.72933"><ele>801.0</ele></trkpt>
    <trkpt lat="34.57112" lon="-119.72964"><ele>801.0</ele></trkpt>
    <trkpt lat="34.57108" lon="-119.72982"><ele>801.0</ele></trkpt>
    <trkpt lat="34.57097" lon="-119.72993"><ele>801.0</ele></trkpt>
    <trkpt lat="34.57083" lon="-119.72982"><ele>797.0</ele></trkpt>
    <trkpt lat="34.57073" lon="-119.72950"><ele>797.0</ele></trkpt>
    <trkpt lat="34.57063" lon="-119.72922"><ele>797.0</ele></trkpt>
    <trkpt lat="34.57048" lon="-119.72902"><ele>797.0</ele></trkpt>
    <trkpt lat="34.57033" lon="-119.72887"><ele>797.0</ele></trkpt>
    <trkpt lat="34.57007" lon="-119.72864"><ele>797.0</ele></trkpt>
    <trkpt lat="34.56981" lon="-119.72843"><ele>797.0</ele></trkpt>
    <trkpt lat="34.56956" lon="-119.72821"><ele>797.0</ele></trkpt>
    <trkpt lat="34.56932" lon="-119.72807"><ele>797.0</ele></trkpt>
    <trkpt lat="34.56911" lon="-119.72801"><ele>797.0</ele></trkpt>
    <trkpt lat="34.56902" lon="-119.72808"><ele>797.0</ele></trkpt>
    <trkpt lat="34.56898" lon="-119.72819"><ele>797.0</ele></trkpt>
    <trkpt lat="34.56893" lon="-119.72833"><ele>797.0</ele></trkpt>
    <trkpt lat="34.56889" lon="-119.72858"><ele>808.0</ele></trkpt>
    <trkpt lat="34.56890" lon="-119.72879"><ele>808.0</ele></trkpt>
    <trkpt lat="34.56897" lon="-119.72903"><ele>808.0</ele></trkpt>
    <trkpt lat="34.56901" lon="-119.72934"><ele>808.0</ele></trkpt>
    <trkpt lat="34.56906" lon="-119.72972"><ele>808.0</ele></trkpt>
    <trkpt lat="34.56906" lon="-119.73007"><ele>808.0</ele></trkpt>
    <trkpt lat="34.56909" lon="-119.73037"><ele>808.0</ele></trkpt>
    <trkpt lat="34.56917" lon="-119.73056"><ele>808.0</ele></trkpt>
    <trkpt lat="34.56918" lon="-119.73082"><ele>808.0</ele></trkpt>
    <trkpt lat="34.56915" lon="-119.73105"><ele>808.0</ele></trkpt>
    <trkpt lat="34.56920" lon="-119.73124"><ele>808.0</ele></trkpt>
    <trkpt lat="34.56924" lon="-119.73139"><ele>808.0</ele></trkpt>
    <trkpt lat="34.56931" lon="-119.73161"><ele>808.0</ele></trkpt>
    <trkpt lat="34.56946" lon="-119.73186"><ele>827.0</ele></trkpt>
    <trkpt lat="34.56960" lon="-119.73197"><ele>827.0</ele></trkpt>
    <trkpt lat="34.56975" lon="-119.73205"><ele>827.0</ele></trkpt>
    <trkpt lat="34.56983" lon="-119.73221"><ele>827.0</ele></trkpt>
    <trkpt lat="34.56979" lon="-119.73237"><ele>827.0</ele></trkpt>
    <trkpt lat="34.56972" lon="-119.73254"><ele>827.0</ele></trkpt>
    <trkpt lat="34.56962" lon="-119.73270"><ele>827.0</ele></trkpt>
    <trkpt lat="34.56956" lon="-119.73283"><ele>827.0</ele></trkpt>
    <trkpt lat="34.56955" lon="-119.73305"><ele>827.0</ele></trkpt>
    <trkpt lat="34.56962" lon="-119.73326"><ele>827.0</ele></trkpt>
    <trkpt lat="34.56971" lon="-119.73342"><ele>827.0</ele></trkpt>
    <trkpt lat="34.56977" lon="-119.73356"><ele>827.0</ele></trkpt>
    <trkpt lat="34.56982" lon="-119.73359"><ele>841.0</ele></trkpt>
    <trkpt lat="34.56982" lon="-119.73360"><ele>841.0</ele></trkpt>
    <trkpt lat="34.56991" lon="-119.73371"><ele>841.0</ele></trkpt>
    <trkpt lat="34.57000" lon="-119.73381"><ele>841.0</ele></trkpt>
    <trkpt lat="34.57006" lon="-119.73393"><ele>841.0</ele></trkpt>
    <trkpt lat="34.57007" lon="-119.73408"><ele>841.0</ele></trkpt>
    <trkpt lat="34.57001" lon="-119.73414"><ele>841.0</ele></trkpt>
    <trkpt lat="34.56994" lon="-119.73421"><ele>841.0</ele></trkpt>
    <trkpt lat="34.56989" lon="-119.73430"><ele>841.0</ele></trkpt>
    <trkpt lat="34.56987" lon="-119.73446"><ele>841.0</ele></trkpt>
    <trkpt lat="34.56991" lon="-119.73461"><ele>841.0</ele></trkpt>
    <trkpt lat="34.56992" lon="-119.73472"><ele>841.0</ele></trkpt>
    <trkpt lat="34.56992" lon="-119.73484"><ele>841.0</ele></trkpt>
    <trkpt lat="34.56993" lon="-119.73493"><ele>844.0</ele></trkpt>
    <trkpt lat="34.56988" lon="-119.73499"><ele>844.0</ele></trkpt>
    <trkpt lat="34.56981" lon="-119.73504"><ele>844.0</ele></trkpt>
    <trkpt lat="34.56971" lon="-119.73512"><ele>844.0</ele></trkpt>
    <trkpt lat="34.56967" lon="-119.73517"><ele>844.0</ele></trkpt>
    <trkpt lat="34.56956" lon="-119.73523"><ele>844.0</ele></trkpt>
    <trkpt lat="34.56953" lon="-119.73532"><ele>844.0</ele></trkpt>
    <trkpt lat="34.56951" lon="-119.73539"><ele>844.0</ele></trkpt>
    <trkpt lat="34.56947" lon="-119.73543"><ele>844.0</ele></trkpt>
    <trkpt lat="34.56941" lon="-119.73545"><ele>844.0</ele></trkpt>
    <trkpt lat="34.56937" lon="-119.73545"><ele>844.0</ele></trkpt>
    <trkpt lat="34.56928" lon="-119.73546"><ele>844.0</ele></trkpt>
    <trkpt lat="34.56921" lon="-119.73546"><ele>844.0</ele></trkpt>
    <trkpt lat="34.56910" lon="-119.73551"><ele>848.0</ele></trkpt>
    <trkpt lat="34.56904" lon="-119.73554"><ele>848.0</ele></trkpt>
    <trkpt lat="34.56895" lon="-119.73567"><ele>848.0</ele></trkpt>
    <trkpt lat="34.56888" lon="-119.73574"><ele>848.0</ele></trkpt>
    <trkpt lat="34.56882" lon="-119.73581"><ele>848.0</ele></trkpt>
    <trkpt lat="34.56877" lon="-119.73588"><ele>848.0</ele></trkpt>
    <trkpt lat="34.56873" lon="-119.73598"><ele>848.0</ele></trkpt>
    <trkpt lat="34.56872" lon="-119.73609"><ele>848.0</ele></trkpt>
    <trkpt lat="34.56873" lon="-119.73618"><ele>848.0</ele></trkpt>
    <trkpt lat="34.56871" lon="-119.73633"><ele>848.0</ele></trkpt>
    <trkpt lat="34.56867" lon="-119.73651"><ele>848.0</ele></trkpt>
    <trkpt lat="34.56864" lon="-119.73666"><ele>848.0</ele></trkpt>
    <trkpt lat="34.56860" lon="-119.73681"><ele>850.0</ele></trkpt>
    <trkpt lat="34.56853" lon="-119.73696"><ele>850.0</ele></trkpt>
    <trkpt lat="34.56842" lon="-119.73712"><ele>850.0</ele></trkpt>
    <trkpt lat="34.56839" lon="-119.73724"><ele>850.0</ele></trkpt>
    <trkpt lat="34.56834" lon="-119.73740"><ele>850.0</ele></trkpt>
    <trkpt lat="34.56833" lon="-119.73762"><ele>850.0</ele></trkpt>
    <trkpt lat="34.56834" lon="-119.73781"><ele>850.0</ele></trkpt>
    <trkpt lat="34.56842" lon="-119.73795"><ele>850.0</ele></trkpt>
    <trkpt lat="34.56852" lon="-119.73806"><ele>850.0</ele></trkpt>
    <trkpt lat="34.56867" lon="-119.73822"><ele>850.0</ele></trkpt>
    <trkpt lat="34.56871" lon="-119.73849"><ele>850.0</ele></trkpt>
    <trkpt lat="34.56873" lon="-119.73878"><ele>850.0</ele></trkpt>
    <trkpt lat="34.56885" lon="-119.73902"><ele>850.0</ele></trkpt>
    <trkpt lat="34.56899" lon="-119.73918"><ele>827.0</ele></trkpt>
    <trkpt lat="34.56913" lon="-119.73936"><ele>827.0</ele></trkpt>
    <trkpt lat="34.56924" lon="-119.73956"><ele>827.0</ele></trkpt>
    <trkpt lat="34.56927" lon="-119.73966"><ele>827.0</ele></trkpt>
    <trkpt lat="34.56926" lon="-119.73980"><ele>827.0</ele></trkpt>
    <trkpt lat="34.56915" lon="-119.73986"><ele>827.0</ele></trkpt>
    <trkpt lat="34.56901" lon="-119.73992"><ele>827.0</ele></trkpt>
    <trkpt lat="34.56885" lon="-119.74001"><ele>827.0</ele></trkpt>
    <trkpt lat="34.56870" lon="-119.74008"><ele>827.0</ele></trkpt>
    <trkpt lat="34.56860" lon="-119.74014"><ele>827.0</ele></trkpt>
    <trkpt lat="34.56848" lon="-119.74023"><ele>827.0</ele></trkpt>
    <trkpt lat="34.56842" lon="-119.74036"><ele>827.0</ele></trkpt>
    <trkpt lat="34.56838" lon="-119.74054"><ele>827.0</ele></trkpt>
    <trkpt lat="34.56834" lon="-119.74068"><ele>801.0</ele></trkpt>
    <trkpt lat="34.56829" lon="-119.74091"><ele>801.0</ele></trkpt>
    <trkpt lat="34.56823" lon="-119.74112"><ele>801.0</ele></trkpt>
    <trkpt lat="34.56819" lon="-119.74119"><ele>801.0</ele></trkpt>
    <trkpt lat="34.56815" lon="-119.74132"><ele>801.0</ele></trkpt>
    <trkpt lat="34.56808" lon="-119.74144"><ele>801.0</ele></trkpt>
    <trkpt lat="34.56797" lon="-119.74155"><ele>801.0</ele></trkpt>
    <trkpt lat="34.56781" lon="-119.74166"><ele>801.0</ele></trkpt>
    <trkpt lat="34.56768" lon="-119.74170"><ele>801.0</ele></trkpt>
    <trkpt lat="34.56756" lon="-119.74170"><ele>801.0</ele></trkpt>
    <trkpt lat="34.56743" lon="-119.74167"><ele>801.0</ele></trkpt>
    <trkpt lat="34.56726" lon="-119.74162"><ele>801.0</ele></trkpt>
    <trkpt lat="34.56705" lon="-119.74162"><ele>791.0</ele></trkpt>
    <trkpt lat="34.56695" lon="-119.74171"><ele>791.0</ele></trkpt>
    <trkpt lat="34.56692" lon="-119.74181"><ele>791.0</ele></trkpt>
    <trkpt lat="34.56697" lon="-119.74189"><ele>791.0</ele></trkpt>
    <trkpt lat="34.56709" lon="-119.74193"><ele>791.0</ele></trkpt>
    <trkpt lat="34.56730" lon="-119.74193"><ele>791.0</ele></trkpt>
    <trkpt lat="34.56748" lon="-119.74197"><ele>791.0</ele></trkpt>
    <trkpt lat="34.56768" lon="-119.74199"><ele>791.0</ele></trkpt>
    <trkpt lat="34.56790" lon="-119.74200"><ele>791.0</ele></trkpt>
    <trkpt lat="34.56803" lon="-119.74200"><ele>791.0</ele></trkpt>
    <trkpt lat="34.56809" lon="-119.74204"><ele>791.0</ele></trkpt>
    <trkpt lat="34.56811" lon="-119.74214"><ele>791.0</ele></trkpt>
    <trkpt lat="34.56808" lon="-119.74223"><ele>791.0</ele></trkpt>
    <trkpt lat="34.56796" lon="-119.74233"><ele>776.0</ele></trkpt>
    <trkpt lat="34.56788" lon="-119.74241"><ele>776.0</ele></trkpt>
    <trkpt lat="34.56784" lon="-119.74249"><ele>776.0</ele></trkpt>
    <trkpt lat="34.56777" lon="-119.74258"><ele>776.0</ele></trkpt>
    <trkpt lat="34.56770" lon="-119.74270"><ele>776.0</ele></trkpt>
    <trkpt lat="34.56759" lon="-119.74282"><ele>776.0</ele></trkpt>
    <trkpt lat="34.56746" lon="-119.74299"><ele>776.0</ele></trkpt>
    <trkpt lat="34.56734" lon="-119.74311"><ele>776.0</ele></trkpt>
    <trkpt lat="34.56733" lon="-119.74322"><ele>776.0</ele></trkpt>
    <trkpt lat="34.56733" lon="-119.74341"><ele>776.0</ele></trkpt>
    <trkpt lat="34.56729" lon="-119.74359"><ele>776.0</ele></trkpt>
    <trkpt lat="34.56719" lon="-119.74375"><ele>776.0</ele></trkpt>
    <trkpt lat="34.56715" lon="-119.74388"><ele>776.0</ele></trkpt>
    <trkpt lat="34.56718" lon="-119.74410"><ele>757.0</ele></trkpt>
    <trkpt lat="34.56718" lon="-119.74421"><ele>757.0</ele></trkpt>
    <trkpt lat="34.56715" lon="-119.74448"><ele>757.0</ele></trkpt>
    <trkpt lat="34.56715" lon="-119.74473"><ele>757.0</ele></trkpt>
    <trkpt lat="34.56716" lon="-119.74501"><ele>757.0</ele></trkpt>
    <trkpt lat="34.56722" lon="-119.74527"><ele>757.0</ele></trkpt>
    <trkpt lat="34.56724" lon="-119.74531"><ele>757.0</ele></trkpt>
    <trkpt lat="34.56728" lon="-119.74540"><ele>757.0</ele></trkpt>
    <trkpt lat="34.56736" lon="-119.74549"><ele>757.0</ele></trkpt>
    <trkpt lat="34.56744" lon="-119.74554"><ele>757.0</ele></trkpt>
    <trkpt lat="34.56752" lon="-119.74562"><ele>757.0</ele></trkpt>
    <trkpt lat="34.56749" lon="-119.74575"><ele>757.0</ele></trkpt>
    <trkpt lat="34.56742" lon="-119.74585"><ele>738.0</ele></trkpt>
    <trkpt lat="34.56727" lon="-119.74594"><ele>738.0</ele></trkpt>
    <trkpt lat="34.56706" lon="-119.74600"><ele>738.0</ele></trkpt>
    <trkpt lat="34.56686" lon="-119.74606"><ele>738.0</ele></trkpt>
    <trkpt lat="34.56666" lon="-119.74613"><ele>738.0</ele></trkpt>
    <trkpt lat="34.56661" lon="-119.74619"><ele>738.0</ele></trkpt>
    <trkpt lat="34.56655" lon="-119.74637"><ele>738.0</ele></trkpt>
    <trkpt lat="34.56652" lon="-119.74652"><ele>738.0</ele></trkpt>
    <trkpt lat="34.56648" lon="-119.74677"><ele>738.0</ele></trkpt>
    <trkpt lat="34.56643" lon="-119.74707"><ele>738.0</ele></trkpt>
    <trkpt lat="34.56640" lon="-119.74723"><ele>738.0</ele></trkpt>
    <trkpt lat="34.56633" lon="-119.74745"><ele>738.0</ele></trkpt>
    <trkpt lat="34.56622" lon="-119.74760"><ele>738.0</ele></trkpt>
    <trkpt lat="34.56610" lon="-119.74771"><ele>730.0</ele></trkpt>
    <trkpt lat="34.56599" lon="-119.74778"><ele>730.0</ele></trkpt>
    <trkpt lat="34.56584" lon="-119.74778"><ele>730.0</ele></trkpt>
    <trkpt lat="34.56564" lon="-119.74769"><ele>730.0</ele></trkpt>
    <trkpt lat="34.56548" lon="-119.74766"><ele>730.0</ele></trkpt>
    <trkpt lat="34.56532" lon="-119.74775"><ele>730.0</ele></trkpt>
    <trkpt lat="34.56521" lon="-119.74786"><ele>730.0</ele></trkpt>
    <trkpt lat="34.56506" lon="-119.74791"><ele>730.0</ele></trkpt>
    <trkpt lat="34.56493" lon="-119.74788"><ele>730.0</ele></trkpt>
    <trkpt lat="34.56479" lon="-119.74780"><ele>730.0</ele></trkpt>
    <trkpt lat="34.56468" lon="-119.74757"><ele>730.0</ele></trkpt>
    <trkpt lat="34.56463" lon="-119.74749"><ele>730.0</ele></trkpt>
    <trkpt lat="34.56460" lon="-119.74747"><ele>730.0</ele></trkpt>
    <trkpt lat="34.56458" lon="-119.74749"><ele>723.0</ele></trkpt>
    <trkpt lat="34.56452" lon="-119.74754"><ele>723.0</ele></trkpt>
    <trkpt lat="34.56447" lon="-119.74767"><ele>723.0</ele></trkpt>
    <trkpt lat="34.56438" lon="-119.74785"><ele>723.0</ele></trkpt>
    <trkpt lat="34.56429" lon="-119.74803"><ele>723.0</ele></trkpt>
    <trkpt lat="34.56425" lon="-119.74808"><ele>723.0</ele></trkpt>
    <trkpt lat="34.56419" lon="-119.74818"><ele>723.0</ele></trkpt>
    <trkpt lat="34.56413" lon="-119.74836"><ele>723.0</ele></trkpt>
    <trkpt lat="34.56409" lon="-119.74838"><ele>723.0</ele></trkpt>
    <trkpt lat="34.56399" lon="-119.74839"><ele>723.0</ele></trkpt>
    <trkpt lat="34.56389" lon="-119.74834"><ele>723.0</ele></trkpt>
    <trkpt lat="34.56380" lon="-119.74826"><ele>723.0</ele></trkpt>
    <trkpt lat="34.56372" lon="-119.74818"><ele>709.0</ele></trkpt>
    <trkpt lat="34.56359" lon="-119.74813"><ele>709.0</ele></trkpt>
    <trkpt lat="34.56348" lon="-119.74811"><ele>709.0</ele></trkpt>
    <trkpt lat="34.56338" lon="-119.74804"><ele>709.0</ele></trkpt>
    <trkpt lat="34.56328" lon="-119.74795"><ele>709.0</ele></trkpt>
    <trkpt lat="34.56322" lon="-119.74788"><ele>709.0</ele></trkpt>
    <trkpt lat="34.56316" lon="-119.74778"><ele>709.0</ele></trkpt>
    <trkpt lat="34.56311" lon="-119.74773"><ele>709.0</ele></trkpt>
    <trkpt lat="34.56298" lon="-119.74758"><ele>709.0</ele></trkpt>
    <trkpt lat="34.56298" lon="-119.74769"><ele>709.0</ele></trkpt>
    <trkpt lat="34.56294" lon="-119.74773"><ele>709.0</ele></trkpt>
    <trkpt lat="34.56292" lon="-119.74793"><ele>709.0</ele></trkpt>
    <trkpt lat="34.56291" lon="-119.74814"><ele>709.0</ele></trkpt>
    <trkpt lat="34.56291" lon="-119.74834"><ele>696.0</ele></trkpt>
    <trkpt lat="34.56288" lon="-119.74855"><ele>696.0</ele></trkpt>
    <trkpt lat="34.56271" lon="-119.74864"><ele>696.0</ele></trkpt>
    <trkpt lat="34.56254" lon="-119.74876"><ele>696.0</ele></trkpt>
    <trkpt lat="34.56237" lon="-119.74885"><ele>696.0</ele></trkpt>
    <trkpt lat="34.56220" lon="-119.74897"><ele>696.0</ele></trkpt>
    <trkpt lat="34.56213" lon="-119.74911"><ele>696.0</ele></trkpt>
    <trkpt lat="34.56218" lon="-119.74929"><ele>696.0</ele></trkpt>
    <trkpt lat="34.56227" lon="-119.74934"><ele>696.0</ele></trkpt>
    <trkpt lat="34.56241" lon="-119.74932"><ele>696.0</ele></trkpt>
    <trkpt lat="34.56269" lon="-119.74918"><ele>696.0</ele></trkpt>
    <trkpt lat="34.56290" lon="-119.74909"><ele>696.0</ele></trkpt>
    <trkpt lat="34.56311" lon="-119.74916"><ele>696.0</ele></trkpt>
    <trkpt lat="34.56319" lon="-119.74937"><ele>686.0</ele></trkpt>
    <trkpt lat="34.56319" lon="-119.74959"><ele>686.0</ele></trkpt>
    <trkpt lat="34.56315" lon="-119.74982"><ele>686.0</ele></trkpt>
    <trkpt lat="34.56317" lon="-119.75006"><ele>686.0</ele></trkpt>
    <trkpt lat="34.56306" lon="-119.75026"><ele>686.0</ele></trkpt>
    <trkpt lat="34.56296" lon="-119.75055"><ele>686.0</ele></trkpt>
    <trkpt lat="34.56296" lon="-119.75083"><ele>686.0</ele></trkpt>
    <trkpt lat="34.56299" lon="-119.75099"><ele>686.0</ele></trkpt>
    <trkpt lat="34.56303" lon="-119.75114"><ele>686.0</ele></trkpt>
    <trkpt lat="34.56306" lon="-119.75122"><ele>686.0</ele></trkpt>
    <trkpt lat="34.56308" lon="-119.75135"><ele>686.0</ele></trkpt>
    <trkpt lat="34.56306" lon="-119.75143"><ele>686.0</ele></trkpt>
    <trkpt lat="34.56286" lon="-119.75169"><ele>673.0</ele></trkpt>
    <trkpt lat="34.56276" lon="-119.75180"><ele>673.0</ele></trkpt>
    <trkpt lat="34.56260" lon="-119.75197"><ele>673.0</ele></trkpt>
    <trkpt lat="34.56242" lon="-119.75216"><ele>673.0</ele></trkpt>
    <trkpt lat="34.56240" lon="-119.75219"><ele>673.0</ele></trkpt>
    <trkpt lat="34.56234" lon="-119.75234"><ele>673.0</ele></trkpt>
    <trkpt lat="34.56234" lon="-119.75245"><ele>673.0</ele></trkpt>
    <trkpt lat="34.56237" lon="-119.75257"><ele>673.0</ele></trkpt>
    <trkpt lat="34.56246" lon="-119.75277"><ele>673.0</ele></trkpt>
    <trkpt lat="34.56253" lon="-119.75293"><ele>673.0</ele></trkpt>
    <trkpt lat="34.56255" lon="-119.75302"><ele>673.0</ele></trkpt>
    <trkpt lat="34.56267" lon="-119.75330"><ele>673.0</ele></trkpt>
    <trkpt lat="34.56273" lon="-119.75344"><ele>673.0</ele></trkpt>
    <trkpt lat="34.56279" lon="-119.75368"><ele>665.0</ele></trkpt>
    <trkpt lat="34.56279" lon="-119.75380"><ele>665.0</ele></trkpt>
    <trkpt lat="34.56275" lon="-119.75390"><ele>665.0</ele></trkpt>
    <trkpt lat="34.56272" lon="-119.75392"><ele>665.0</ele></trkpt>
    <trkpt lat="34.56258" lon="-119.75405"><ele>665.0</ele></trkpt>
    <trkpt lat="34.56242" lon="-119.75415"><ele>665.0</ele></trkpt>
    <trkpt lat="34.56225" lon="-119.75428"><ele>665.0</ele></trkpt>
    <trkpt lat="34.56219" lon="-119.75433"><ele>665.0</ele></trkpt>
    <trkpt lat="34.56217" lon="-119.75444"><ele>665.0</ele></trkpt>
    <trkpt lat="34.56207" lon="-119.75464"><ele>665.0</ele></trkpt>
    <trkpt lat="34.56203" lon="-119.75473"><ele>665.0</ele></trkpt>
    <trkpt lat="34.56195" lon="-119.75482"><ele>665.0</ele></trkpt>
    <trkpt lat="34.56181" lon="-119.75494"><ele>665.0</ele></trkpt>
    <trkpt lat="34.56168" lon="-119.75503"><ele>654.0</ele></trkpt>
    <trkpt lat="34.56162" lon="-119.75510"><ele>654.0</ele></trkpt>
    <trkpt lat="34.56157" lon="-119.75526"><ele>654.0</ele></trkpt>
    <trkpt lat="34.56154" lon="-119.75539"><ele>654.0</ele></trkpt>
    <trkpt lat="34.56154" lon="-119.75552"><ele>654.0</ele></trkpt>
    <trkpt lat="34.56161" lon="-119.75583"><ele>654.0</ele></trkpt>
    <trkpt lat="34.56164" lon="-119.75602"><ele>654.0</ele></trkpt>
    <trkpt lat="34.56167" lon="-119.75623"><ele>654.0</ele></trkpt>
    <trkpt lat="34.56168" lon="-119.75635"><ele>654.0</ele></trkpt>
    <trkpt lat="34.56173" lon="-119.75642"><ele>654.0</ele></trkpt>
    <trkpt lat="34.56184" lon="-119.75659"><ele>654.0</ele></trkpt>
    <trkpt lat="34.56186" lon="-119.75668"><ele>654.0</ele></trkpt>
    <trkpt lat="34.56183" lon="-119.75673"><ele>654.0</ele></trkpt>
    <trkpt lat="34.56174" lon="-119.75681"><ele>644.0</ele></trkpt>
    <trkpt lat="34.56165" lon="-119.75685"><ele>644.0</ele></trkpt>
    <trkpt lat="34.56155" lon="-119.75688"><ele>644.0</ele></trkpt>
    <trkpt lat="34.56137" lon="-119.75693"><ele>644.0</ele></trkpt>
    <trkpt lat="34.56131" lon="-119.75700"><ele>644.0</ele></trkpt>
    <trkpt lat="34.56124" lon="-119.75717"><ele>644.0</ele></trkpt>
    <trkpt lat="34.56114" lon="-119.75722"><ele>644.0</ele></trkpt>
    <trkpt lat="34.56103" lon="-119.75727"><ele>644.0</ele></trkpt>
    <trkpt lat="34.56084" lon="-119.75732"><ele>644.0</ele></trkpt>
    <trkpt lat="34.56078" lon="-119.75733"><ele>644.0</ele></trkpt>
    <trkpt lat="34.56066" lon="-119.75743"><ele>644.0</ele></trkpt>
    <trkpt lat="34.56063" lon="-119.75753"><ele>644.0</ele></trkpt>
    <trkpt lat="34.56063" lon="-119.75761"><ele>628.0</ele></trkpt>
    <trkpt lat="34.56062" lon="-119.75777"><ele>628.0</ele></trkpt>
    <trkpt lat="34.56067" lon="-119.75798"><ele>628.0</ele></trkpt>
    <trkpt lat="34.56075" lon="-119.75809"><ele>628.0</ele></trkpt>
    <trkpt lat="34.56092" lon="-119.75827"><ele>628.0</ele></trkpt>
    <trkpt lat="34.56103" lon="-119.75838"><ele>628.0</ele></trkpt>
    <trkpt lat="34.56117" lon="-119.75857"><ele>628.0</ele></trkpt>
    <trkpt lat="34.56125" lon="-119.75872"><ele>628.0</ele></trkpt>
    <trkpt lat="34.56127" lon="-119.75884"><ele>628.0</ele></trkpt>
    <trkpt lat="34.56120" lon="-119.75900"><ele>628.0</ele></trkpt>
    <trkpt lat="34.56106" lon="-119.75915"><ele>628.0</ele></trkpt>
    <trkpt lat="34.56100" lon="-119.75927"><ele>628.0</ele></trkpt>
    <trkpt lat="34.56102" lon="-119.75939"><ele>628.0</ele></trkpt>
    <trkpt lat="34.56104" lon="-119.75956"><ele>613.0</ele></trkpt>
    <trkpt lat="34.56101" lon="-119.75968"><ele>613.0</ele></trkpt>
    <trkpt lat="34.56101" lon="-119.75988"><ele>613.0</ele></trkpt>
    <trkpt lat="34.56109" lon="-119.76006"><ele>613.0</ele></trkpt>
    <trkpt lat="34.56116" lon="-119.76020"><ele>613.0</ele></trkpt>
    <trkpt lat="34.56135" lon="-119.76042"><ele>613.0</ele></trkpt>
    <trkpt lat="34.56146" lon="-119.76055"><ele>613.0</ele></trkpt>
    <trkpt lat="34.56157" lon="-119.76074"><ele>613.0</ele></trkpt>
    <trkpt lat="34.56164" lon="-119.76083"><ele>613.0</ele></trkpt>
    <trkpt lat="34.56165" lon="-119.76093"><ele>613.0</ele></trkpt>
    <trkpt lat="34.56159" lon="-119.76115"><ele>613.0</ele></trkpt>
    <trkpt lat="34.56159" lon="-119.76130"><ele>613.0</ele></trkpt>
    <trkpt lat="34.56163" lon="-119.76144"><ele>613.0</ele></trkpt>
    <trkpt lat="34.56168" lon="-119.76152"><ele>598.0</ele></trkpt>
    <trkpt lat="34.56178" lon="-119.76155"><ele>598.0</ele></trkpt>
    <trkpt lat="34.56195" lon="-119.76159"><ele>598.0</ele></trkpt>
    <trkpt lat="34.56199" lon="-119.76167"><ele>598.0</ele></trkpt>
    <trkpt lat="34.56205" lon="-119.76181"><ele>598.0</ele></trkpt>
    <trkpt lat="34.56211" lon="-119.76190"><ele>598.0</ele></trkpt>
    <trkpt lat="34.56228" lon="-119.76195"><ele>598.0</ele></trkpt>
    <trkpt lat="34.56236" lon="-119.76201"><ele>598.0</ele></trkpt>
    <trkpt lat="34.56248" lon="-119.76220"><ele>598.0</ele></trkpt>
    <trkpt lat="34.56258" lon="-119.76231"><ele>598.0</ele></trkpt>
    <trkpt lat="34.56261" lon="-119.76241"><ele>598.0</ele></trkpt>
    <trkpt lat="34.56261" lon="-119.76253"><ele>598.0</ele></trkpt>
    <trkpt lat="34.56250" lon="-119.76261"><ele>589.0</ele></trkpt>
    <trkpt lat="34.56240" lon="-119.76266"><ele>589.0</ele></trkpt>
    <trkpt lat="34.56225" lon="-119.76284"><ele>589.0</ele></trkpt>
    <trkpt lat="34.56216" lon="-119.76296"><ele>589.0</ele></trkpt>
    <trkpt lat="34.56215" lon="-119.76312"><ele>589.0</ele></trkpt>
    <trkpt lat="34.56217" lon="-119.76322"><ele>589.0</ele></trkpt>
    <trkpt lat="34.56225" lon="-119.76339"><ele>589.0</ele></trkpt>
    <trkpt lat="34.56224" lon="-119.76346"><ele>589.0</ele></trkpt>
    <trkpt lat="34.56224" lon="-119.76379"><ele>589.0</ele></trkpt>
    <trkpt lat="34.56226" lon="-119.76415"><ele>589.0</ele></trkpt>
    <trkpt lat="34.56230" lon="-119.76432"><ele>589.0</ele></trkpt>
    <trkpt lat="34.56232" lon="-119.76443"><ele>589.0</ele></trkpt>
    <trkpt lat="34.56225" lon="-119.76452"><ele>589.0</ele></trkpt>
    <trkpt lat="34.56210" lon="-119.76464"><ele>560.0</ele></trkpt>
    <trkpt lat="34.56187" lon="-119.76481"><ele>560.0</ele></trkpt>
    <trkpt lat="34.56179" lon="-119.76492"><ele>560.0</ele></trkpt>
    <trkpt lat="34.56158" lon="-119.76501"><ele>560.0</ele></trkpt>
    <trkpt lat="34.56143" lon="-119.76508"><ele>560.0</ele></trkpt>
    <trkpt lat="34.56122" lon="-119.76523"><ele>560.0</ele></trkpt>
    <trkpt lat="34.56103" lon="-119.76532"><ele>560.0</ele></trkpt>
    <trkpt lat="34.56093" lon="-119.76533"><ele>560.0</ele></trkpt>
    <trkpt lat="34.56074" lon="-119.76535"><ele>560.0</ele></trkpt>
    <trkpt lat="34.56046" lon="-119.76533"><ele>560.0</ele></trkpt>
    <trkpt lat="34.56032" lon="-119.76538"><ele>560.0</ele></trkpt>
    <trkpt lat="34.56006" lon="-119.76543"><ele>560.0</ele></trkpt>
    <trkpt lat="34.55988" lon="-119.76554"><ele>560.0</ele></trkpt>
    <trkpt lat="34.55980" lon="-119.76564"><ele>536.0</ele></trkpt>
    <trkpt lat="34.55965" lon="-119.76591"><ele>536.0</ele></trkpt>
    <trkpt lat="34.55952" lon="-119.76619"><ele>536.0</ele></trkpt>
    <trkpt lat="34.55944" lon="-119.76638"><ele>536.0</ele></trkpt>
    <trkpt lat="34.55943" lon="-119.76652"><ele>536.0</ele></trkpt>
    <trkpt lat="34.55949" lon="-119.76666"><ele>536.0</ele></trkpt>
    <trkpt lat="34.55958" lon="-119.76679"><ele>536.0</ele></trkpt>
    <trkpt lat="34.55977" lon="-119.76680"><ele>536.0</ele></trkpt>
    <trkpt lat="34.55991" lon="-119.76686"><ele>536.0</ele></trkpt>
    <trkpt lat="34.55999" lon="-119.76694"><ele>536.0</ele></trkpt>
    <trkpt lat="34.56010" lon="-119.76712"><ele>536.0</ele></trkpt>
    <trkpt lat="34.56018" lon="-119.76733"><ele>536.0</ele></trkpt>
    <trkpt lat="34.56027" lon="-119.76754"><ele>507.0</ele></trkpt>
    <trkpt lat="34.56033" lon="-119.76762"><ele>507.0</ele></trkpt>
    <trkpt lat="34.56037" lon="-119.76765"><ele>507.0</ele></trkpt>
    <trkpt lat="34.56044" lon="-119.76767"><ele>507.0</ele></trkpt>
    <trkpt lat="34.56048" lon="-119.76764"><ele>507.0</ele></trkpt>
    <trkpt lat="34.56048" lon="-119.76755"><ele>507.0</ele></trkpt>
    <trkpt lat="34.56043" lon="-119.76738"><ele>507.0</ele></trkpt>
    <trkpt lat="34.56035" lon="-119.76725"><ele>507.0</ele></trkpt>
    <trkpt lat="34.56028" lon="-119.76710"><ele>507.0</ele></trkpt>
    <trkpt lat="34.56026" lon="-119.76702"><ele>507.0</ele></trkpt>
    <trkpt lat="34.56027" lon="-119.76694"><ele>507.0</ele></trkpt>
    <trkpt lat="34.56037" lon="-119.76687"><ele>507.0</ele></trkpt>
    <trkpt lat="34.56043" lon="-119.76680"><ele>507.0</ele></trkpt>
    <trkpt lat="34.56049" lon="-119.76662"><ele>505.0</ele></trkpt>
    <trkpt lat="34.56059" lon="-119.76649"><ele>505.0</ele></trkpt>
    <trkpt lat="34.56072" lon="-119.76641"><ele>505.0</ele></trkpt>
    <trkpt lat="34.56079" lon="-119.76641"><ele>505.0</ele></trkpt>
    <trkpt lat="34.56086" lon="-119.76645"><ele>505.0</ele></trkpt>
    <trkpt lat="34.56095" lon="-119.76652"><ele>505.0</ele></trkpt>
    <trkpt lat="34.56106" lon="-119.76665"><ele>505.0</ele></trkpt>
    <trkpt lat="34.56125" lon="-119.76680"><ele>505.0</ele></trkpt>
    <trkpt lat="34.56136" lon="-119.76682"><ele>505.0</ele></trkpt>
    <trkpt lat="34.56167" lon="-119.76687"><ele>505.0</ele></trkpt>
    <trkpt lat="34.56180" lon="-119.76686"><ele>505.0</ele></trkpt>
    <trkpt lat="34.56193" lon="-119.76684"><ele>505.0</ele></trkpt>
    <trkpt lat="34.56200" lon="-119.76678"><ele>505.0</ele></trkpt>
    <trkpt lat="34.56204" lon="-119.76668"><ele>498.0</ele></trkpt>
    <trkpt lat="34.56218" lon="-119.76647"><ele>498.0</ele></trkpt>
    <trkpt lat="34.56224" lon="-119.76635"><ele>498.0</ele></trkpt>
    <trkpt lat="34.56234" lon="-119.76614"><ele>498.0</ele></trkpt>
    <trkpt lat="34.56241" lon="-119.76605"><ele>498.0</ele></trkpt>
    <trkpt lat="34.56252" lon="-119.76598"><ele>498.0</ele></trkpt>
    <trkpt lat="34.56263" lon="-119.76594"><ele>498.0</ele></trkpt>
    <trkpt lat="34.56286" lon="-119.76575"><ele>498.0</ele></trkpt>
    <trkpt lat="34.56298" lon="-119.76565"><ele>498.0</ele></trkpt>
    <trkpt lat="34.56313" lon="-119.76550"><ele>498.0</ele></trkpt>
    <trkpt lat="34.56331" lon="-119.76535"><ele>498.0</ele></trkpt>
    <trkpt lat="34.56344" lon="-119.76514"><ele>498.0</ele></trkpt>
    <trkpt lat="34.56351" lon="-119.76497"><ele>475.0</ele></trkpt>
    <trkpt lat="34.56357" lon="-119.76481"><ele>475.0</ele></trkpt>
    <trkpt lat="34.56363" lon="-119.76477"><ele>475.0</ele></trkpt>
    <trkpt lat="34.56366" lon="-119.76480"><ele>475.0</ele></trkpt>
    <trkpt lat="34.56369" lon="-119.76484"><ele>475.0</ele></trkpt>
    <trkpt lat="34.56370" lon="-119.76498"><ele>475.0</ele></trkpt>
    <trkpt lat="34.56367" lon="-119.76508"><ele>475.0</ele></trkpt>
    <trkpt lat="34.56363" lon="-119.76522"><ele>475.0</ele></trkpt>
    <trkpt lat="34.56351" lon="-119.76545"><ele>475.0</ele></trkpt>
    <trkpt lat="34.56346" lon="-119.76553"><ele>475.0</ele></trkpt>
    <trkpt lat="34.56333" lon="-119.76571"><ele>475.0</ele></trkpt>
    <trkpt lat="34.56318" lon="-119.76591"><ele>475.0</ele></trkpt>
    <trkpt lat="34.56309" lon="-119.76609"><ele>475.0</ele></trkpt>
    <trkpt lat="34.56306" lon="-119.76636"><ele>464.0</ele></trkpt>
    <trkpt lat="34.56306" lon="-119.76651"><ele>464.0</ele></trkpt>
    <trkpt lat="34.56301" lon="-119.76661"><ele>464.0</ele></trkpt>
    <trkpt lat="34.56280" lon="-119.76681"><ele>464.0</ele></trkpt>
    <trkpt lat="34.56279" lon="-119.76688"><ele>464.0</ele></trkpt>
    <trkpt lat="34.56279" lon="-119.76694"><ele>464.0</ele></trkpt>
    <trkpt lat="34.56285" lon="-119.76698"><ele>464.0</ele></trkpt>
    <trkpt lat="34.56292" lon="-119.76697"><ele>464.0</ele></trkpt>
    <trkpt lat="34.56307" lon="-119.76686"><ele>464.0</ele></trkpt>
    <trkpt lat="34.56320" lon="-119.76678"><ele>464.0</ele></trkpt>
    <trkpt lat="34.56343" lon="-119.76673"><ele>464.0</ele></trkpt>
    <trkpt lat="34.56367" lon="-119.76669"><ele>464.0</ele></trkpt>
    <trkpt lat="34.56372" lon="-119.76665"><ele>464.0</ele></trkpt>
    <trkpt lat="34.56373" lon="-119.76658"><ele>443.0</ele></trkpt>
    <trkpt lat="34.56374" lon="-119.76640"><ele>443.0</ele></trkpt>
    <trkpt lat="34.56380" lon="-119.76622"><ele>443.0</ele></trkpt>
    <trkpt lat="34.56389" lon="-119.76606"><ele>443.0</ele></trkpt>
    <trkpt lat="34.56407" lon="-119.76578"><ele>443.0</ele></trkpt>
    <trkpt lat="34.56414" lon="-119.76564"><ele>443.0</ele></trkpt>
    <trkpt lat="34.56424" lon="-119.76548"><ele>443.0</ele></trkpt>
    <trkpt lat="34.56430" lon="-119.76548"><ele>443.0</ele></trkpt>
    <trkpt lat="34.56436" lon="-119.76554"><ele>443.0</ele></trkpt>
    <trkpt lat="34.56438" lon="-119.76562"><ele>443.0</ele></trkpt>
    <trkpt lat="34.56435" lon="-119.76570"><ele>443.0</ele></trkpt>
    <trkpt lat="34.56428" lon="-119.76580"><ele>443.0</ele></trkpt>
    <trkpt lat="34.56418" lon="-119.76607"><ele>425.0</ele></trkpt>
    <trkpt lat="34.56408" lon="-119.76635"><ele>425.0</ele></trkpt>
    <trkpt lat="34.56399" lon="-119.76665"><ele>425.0</ele></trkpt>
    <trkpt lat="34.56386" lon="-119.76691"><ele>425.0</ele></trkpt>
    <trkpt lat="34.56392" lon="-119.76700"><ele>425.0</ele></trkpt>
    <trkpt lat="34.56397" lon="-119.76699"><ele>425.0</ele></trkpt>
    <trkpt lat="34.56403" lon="-119.76693"><ele>425.0</ele></trkpt>
    <trkpt lat="34.56412" lon="-119.76681"><ele>425.0</ele></trkpt>
    <trkpt lat="34.56416" lon="-119.76673"><ele>425.0</ele></trkpt>
    <trkpt lat="34.56424" lon="-119.76661"><ele>425.0</ele></trkpt>
    <trkpt lat="34.56433" lon="-119.76640"><ele>425.0</ele></trkpt>
    <trkpt lat="34.56440" lon="-119.76621"><ele>425.0</ele></trkpt>
    <trkpt lat="34.56446" lon="-119.76603"><ele>425.0</ele></trkpt>
    <trkpt lat="34.56453" lon="-119.76576"><ele>427.0</ele></trkpt>
    <trkpt lat="34.56458" lon="-119.76570"><ele>427.0</ele></trkpt>
    <trkpt lat="34.56462" lon="-119.76565"><ele>427.0</ele></trkpt>
    <trkpt lat="34.56470" lon="-119.76568"><ele>427.0</ele></trkpt>
    <trkpt lat="34.56472" lon="-119.76571"><ele>427.0</ele></trkpt>
    <trkpt lat="34.56471" lon="-119.76579"><ele>427.0</ele></trkpt>
    <trkpt lat="34.56470" lon="-119.76584"><ele>427.0</ele></trkpt>
    <trkpt lat="34.56468" lon="-119.76603"><ele>427.0</ele></trkpt>
    <trkpt lat="34.56465" lon="-119.76617"><ele>427.0</ele></trkpt>
    <trkpt lat="34.56462" lon="-119.76641"><ele>427.0</ele></trkpt>
    <trkpt lat="34.56457" lon="-119.76649"><ele>427.0</ele></trkpt>
    <trkpt lat="34.56447" lon="-119.76679"><ele>427.0</ele></trkpt>
    <trkpt lat="34.56444" lon="-119.76694"><ele>427.0</ele></trkpt>
    <trkpt lat="34.56441" lon="-119.76712"><ele>414.0</ele></trkpt>
    <trkpt lat="34.56436" lon="-119.76722"><ele>414.0</ele></trkpt>
    <trkpt lat="34.56427" lon="-119.76733"><ele>414.0</ele></trkpt>
    <trkpt lat="34.56414" lon="-119.76745"><ele>414.0</ele></trkpt>
    <trkpt lat="34.56404" lon="-119.76749"><ele>414.0</ele></trkpt>
    <trkpt lat="34.56392" lon="-119.76756"><ele>414.0</ele></trkpt>
    <trkpt lat="34.56383" lon="-119.76768"><ele>414.0</ele></trkpt>
    <trkpt lat="34.56377" lon="-119.76779"><ele>414.0</ele></trkpt>
    <trkpt lat="34.56367" lon="-119.76786"><ele>414.0</ele></trkpt>
    <trkpt lat="34.56350" lon="-119.76796"><ele>414.0</ele></trkpt>
    <trkpt lat="34.56333" lon="-119.76813"><ele>414.0</ele></trkpt>
    <trkpt lat="34.56323" lon="-119.76828"><ele>414.0</ele></trkpt>
    <trkpt lat="34.56315" lon="-119.76840"><ele>393.0</ele></trkpt>
    <trkpt lat="34.56315" lon="-119.76855"><ele>393.0</ele></trkpt>
    <trkpt lat="34.56315" lon="-119.76866"><ele>393.0</ele></trkpt>
    <trkpt lat="34.56326" lon="-119.76878"><ele>393.0</ele></trkpt>
    <trkpt lat="34.56336" lon="-119.76889"><ele>393.0</ele></trkpt>
    <trkpt lat="34.56337" lon="-119.76894"><ele>393.0</ele></trkpt>
    <trkpt lat="34.56334" lon="-119.76902"><ele>393.0</ele></trkpt>
    <trkpt lat="34.56328" lon="-119.76909"><ele>393.0</ele></trkpt>
    <trkpt lat="34.56316" lon="-119.76916"><ele>393.0</ele></trkpt>
    <trkpt lat="34.56311" lon="-119.76916"><ele>393.0</ele></trkpt>
    <trkpt lat="34.56299" lon="-119.76909"><ele>393.0</ele></trkpt>
    <trkpt lat="34.56286" lon="-119.76902"><ele>393.0</ele></trkpt>
    <trkpt lat="34.56276" lon="-119.76896"><ele>393.0</ele></trkpt>
    <trkpt lat="34.56264" lon="-119.76901"><ele>408.0</ele></trkpt>
    <trkpt lat="34.56255" lon="-119.76912"><ele>408.0</ele></trkpt>
    <trkpt lat="34.56243" lon="-119.76921"><ele>408.0</ele></trkpt>
    <trkpt lat="34.56233" lon="-119.76925"><ele>408.0</ele></trkpt>
    <trkpt lat="34.56223" lon="-119.76926"><ele>408.0</ele></trkpt>
    <trkpt lat="34.56203" lon="-119.76925"><ele>408.0</ele></trkpt>
    <trkpt lat="34.56186" lon="-119.76925"><ele>408.0</ele></trkpt>
    <trkpt lat="34.56176" lon="-119.76931"><ele>408.0</ele></trkpt>
    <trkpt lat="34.56163" lon="-119.76932"><ele>408.0</ele></trkpt>
    <trkpt lat="34.56143" lon="-119.76933"><ele>408.0</ele></trkpt>
    <trkpt lat="34.56134" lon="-119.76935"><ele>408.0</ele></trkpt>
    <trkpt lat="34.56118" lon="-119.76940"><ele>408.0</ele></trkpt>
    <trkpt lat="34.56110" lon="-119.76946"><ele>408.0</ele></trkpt>
    <trkpt lat="34.56090" lon="-119.76959"><ele>400.0</ele></trkpt>
    <trkpt lat="34.56079" lon="-119.76970"><ele>400.0</ele></trkpt>
    <trkpt lat="34.56063" lon="-119.76996"><ele>400.0</ele></trkpt>
    <trkpt lat="34.56050" lon="-119.77025"><ele>400.0</ele></trkpt>
    <trkpt lat="34.56039" lon="-119.77046"><ele>400.0</ele></trkpt>
    <trkpt lat="34.56028" lon="-119.77053"><ele>400.0</ele></trkpt>
    <trkpt lat="34.56022" lon="-119.77056"><ele>400.0</ele></trkpt>
    <trkpt lat="34.56011" lon="-119.77058"><ele>400.0</ele></trkpt>
    <trkpt lat="34.55991" lon="-119.77072"><ele>400.0</ele></trkpt>
    <trkpt lat="34.55979" lon="-119.77076"><ele>400.0</ele></trkpt>
    <trkpt lat="34.55967" lon="-119.77081"><ele>400.0</ele></trkpt>
    <trkpt lat="34.55947" lon="-119.77080"><ele>400.0</ele></trkpt>
    <trkpt lat="34.55932" lon="-119.77081"><ele>377.0</ele></trkpt>
    <trkpt lat="34.55888" lon="-119.77100"><ele>377.0</ele></trkpt>
    <trkpt lat="34.55858" lon="-119.77113"><ele>377.0</ele></trkpt>
    <trkpt lat="34.55847" lon="-119.77117"><ele>377.0</ele></trkpt>
    <trkpt lat="34.55827" lon="-119.77119"><ele>377.0</ele></trkpt>
    <trkpt lat="34.55805" lon="-119.77117"><ele>377.0</ele></trkpt>
    <trkpt lat="34.55780" lon="-119.77113"><ele>377.0</ele></trkpt>
  </trkseg></trk>
</gpx>
