<?xml version="1.0" encoding="UTF-8"?>
<gpx version="1.1" creator="dirt-bikes build-area-routes (MVUM geometry + SRTM elevation)" xmlns="http://www.topografix.com/GPX/1/1">
  <trk><name>Coon Creek Jumpoff Road</name><trkseg>
    <trkpt lat="34.16225" lon="-116.78578"><ele>2098.0</ele></trkpt>
    <trkpt lat="34.16215" lon="-116.78577"><ele>2098.0</ele></trkpt>
    <trkpt lat="34.16209" lon="-116.78573"><ele>2098.0</ele></trkpt>
    <trkpt lat="34.16204" lon="-116.78568"><ele>2098.0</ele></trkpt>
    <trkpt lat="34.16200" lon="-116.78564"><ele>2098.0</ele></trkpt>
    <trkpt lat="34.16197" lon="-116.78558"><ele>2096.0</ele></trkpt>
    <trkpt lat="34.16194" lon="-116.78548"><ele>2096.0</ele></trkpt>
    <trkpt lat="34.16190" lon="-116.78532"><ele>2096.0</ele></trkpt>
    <trkpt lat="34.16187" lon="-116.78520"><ele>2096.0</ele></trkpt>
    <trkpt lat="34.16183" lon="-116.78507"><ele>2096.0</ele></trkpt>
    <trkpt lat="34.16179" lon="-116.78497"><ele>2096.0</ele></trkpt>
    <trkpt lat="34.16174" lon="-116.78491"><ele>2096.0</ele></trkpt>
    <trkpt lat="34.16167" lon="-116.78487"><ele>2096.0</ele></trkpt>
    <trkpt lat="34.16162" lon="-116.78486"><ele>2096.0</ele></trkpt>
    <trkpt lat="34.16156" lon="-116.78485"><ele>2102.0</ele></trkpt>
    <trkpt lat="34.16147" lon="-116.78486"><ele>2102.0</ele></trkpt>
    <trkpt lat="34.16140" lon="-116.78490"><ele>2102.0</ele></trkpt>
    <trkpt lat="34.16130" lon="-116.78498"><ele>2102.0</ele></trkpt>
    <trkpt lat="34.16110" lon="-116.78517"><ele>2102.0</ele></trkpt>
    <trkpt lat="34.16074" lon="-116.78563"><ele>2102.0</ele></trkpt>
    <trkpt lat="34.16055" lon="-116.78588"><ele>2102.0</ele></trkpt>
    <trkpt lat="34.16046" lon="-116.78595"><ele>2102.0</ele></trkpt>
    <trkpt lat="34.16037" lon="-116.78598"><ele>2102.0</ele></trkpt>
    <trkpt lat="34.16029" lon="-116.78599"><ele>2106.0</ele></trkpt>
    <trkpt lat="34.16019" lon="-116.78599"><ele>2106.0</ele></trkpt>
    <trkpt lat="34.16005" lon="-116.78595"><ele>2106.0</ele></trkpt>
    <trkpt lat="34.15988" lon="-116.78587"><ele>2106.0</ele></trkpt>
    <trkpt lat="34.15971" lon="-116.78577"><ele>2106.0</ele></trkpt>
    <trkpt lat="34.15952" lon="-116.78565"><ele>2106.0</ele></trkpt>
    <trkpt lat="34.15936" lon="-116.78555"><ele>2106.0</ele></trkpt>
    <trkpt lat="34.15910" lon="-116.78541"><ele>2106.0</ele></trkpt>
    <trkpt lat="34.15882" lon="-116.78531"><ele>2106.0</ele></trkpt>
    <trkpt lat="34.15840" lon="-116.78510"><ele>2100.0</ele></trkpt>
    <trkpt lat="34.15803" lon="-116.78490"><ele>2100.0</ele></trkpt>
    <trkpt lat="34.15768" lon="-116.78468"><ele>2100.0</ele></trkpt>
    <trkpt lat="34.15748" lon="-116.78453"><ele>2100.0</ele></trkpt>
    <trkpt lat="34.15738" lon="-116.78446"><ele>2100.0</ele></trkpt>
    <trkpt lat="34.15716" lon="-116.78429"><ele>2100.0</ele></trkpt>
    <trkpt lat="34.15705" lon="-116.78417"><ele>2100.0</ele></trkpt>
    <trkpt lat="34.15690" lon="-116.78398"><ele>2100.0</ele></trkpt>
    <trkpt lat="34.15629" lon="-116.78315"><ele>2100.0</ele></trkpt>
    <trkpt lat="34.15589" lon="-116.78261"><ele>2105.0</ele></trkpt>
    <trkpt lat="34.15572" lon="-116.78237"><ele>2105.0</ele></trkpt>
    <trkpt lat="34.15572" lon="-116.78237"><ele>2105.0</ele></trkpt>
    <trkpt lat="34.15523" lon="-116.78172"><ele>2105.0</ele></trkpt>
    <trkpt lat="34.15520" lon="-116.78168"><ele>2105.0</ele></trkpt>
    <trkpt lat="34.15476" lon="-116.78110"><ele>2105.0</ele></trkpt>
    <trkpt lat="34.15426" lon="-116.78043"><ele>2105.0</ele></trkpt>
    <trkpt lat="34.15383" lon="-116.77986"><ele>2105.0</ele></trkpt>
    <trkpt lat="34.15343" lon="-116.77933"><ele>2105.0</ele></trkpt>
    <trkpt lat="34.15341" lon="-116.77930"><ele>2113.0</ele></trkpt>
    <trkpt lat="34.15331" lon="-116.77918"><ele>2113.0</ele></trkpt>
    <trkpt lat="34.15325" lon="-116.77909"><ele>2113.0</ele></trkpt>
    <trkpt lat="34.15318" lon="-116.77895"><ele>2113.0</ele></trkpt>
    <trkpt lat="34.15308" lon="-116.77867"><ele>2113.0</ele></trkpt>
    <trkpt lat="34.15297" lon="-116.77831"><ele>2113.0</ele></trkpt>
    <trkpt lat="34.15295" lon="-116.77824"><ele>2113.0</ele></trkpt>
    <trkpt lat="34.15267" lon="-116.77725"><ele>2113.0</ele></trkpt>
    <trkpt lat="34.15257" lon="-116.77686"><ele>2113.0</ele></trkpt>
    <trkpt lat="34.15249" lon="-116.77646"><ele>2131.0</ele></trkpt>
    <trkpt lat="34.15239" lon="-116.77591"><ele>2131.0</ele></trkpt>
    <trkpt lat="34.15229" lon="-116.77537"><ele>2131.0</ele></trkpt>
    <trkpt lat="34.15222" lon="-116.77498"><ele>2131.0</ele></trkpt>
    <trkpt lat="34.15213" lon="-116.77459"><ele>2131.0</ele></trkpt>
    <trkpt lat="34.15201" lon="-116.77423"><ele>2131.0</ele></trkpt>
    <trkpt lat="34.15188" lon="-116.77390"><ele>2131.0</ele></trkpt>
    <trkpt lat="34.15170" lon="-116.77349"><ele>2131.0</ele></trkpt>
    <trkpt lat="34.15153" lon="-116.77313"><ele>2131.0</ele></trkpt>
    <trkpt lat="34.15126" lon="-116.77257"><ele>2140.0</ele></trkpt>
    <trkpt lat="34.15112" lon="-116.77227"><ele>2140.0</ele></trkpt>
    <trkpt lat="34.15106" lon="-116.77212"><ele>2140.0</ele></trkpt>
    <trkpt lat="34.15103" lon="-116.77202"><ele>2140.0</ele></trkpt>
    <trkpt lat="34.15100" lon="-116.77183"><ele>2140.0</ele></trkpt>
    <trkpt lat="34.15099" lon="-116.77170"><ele>2140.0</ele></trkpt>
    <trkpt lat="34.15099" lon="-116.77157"><ele>2140.0</ele></trkpt>
    <trkpt lat="34.15100" lon="-116.77132"><ele>2140.0</ele></trkpt>
    <trkpt lat="34.15103" lon="-116.77102"><ele>2140.0</ele></trkpt>
    <trkpt lat="34.15107" lon="-116.77067"><ele>2150.0</ele></trkpt>
    <trkpt lat="34.15109" lon="-116.77041"><ele>2150.0</ele></trkpt>
    <trkpt lat="34.15110" lon="-116.77014"><ele>2150.0</ele></trkpt>
    <trkpt lat="34.15111" lon="-116.76994"><ele>2150.0</ele></trkpt>
    <trkpt lat="34.15109" lon="-116.76985"><ele>2150.0</ele></trkpt>
    <trkpt lat="34.15105" lon="-116.76972"><ele>2150.0</ele></trkpt>
    <trkpt lat="34.15102" lon="-116.76966"><ele>2150.0</ele></trkpt>
    <trkpt lat="34.15097" lon="-116.76943"><ele>2150.0</ele></trkpt>
    <trkpt lat="34.15096" lon="-116.76932"><ele>2150.0</ele></trkpt>
    <trkpt lat="34.15090" lon="-116.76886"><ele>2156.0</ele></trkpt>
    <trkpt lat="34.15088" lon="-116.76876"><ele>2156.0</ele></trkpt>
    <trkpt lat="34.15087" lon="-116.76872"><ele>2156.0</ele></trkpt>
    <trkpt lat="34.15085" lon="-116.76854"><ele>2156.0</ele></trkpt>
    <trkpt lat="34.15084" lon="-116.76838"><ele>2156.0</ele></trkpt>
    <trkpt lat="34.15086" lon="-116.76827"><ele>2156.0</ele></trkpt>
    <trkpt lat="34.15088" lon="-116.76813"><ele>2156.0</ele></trkpt>
    <trkpt lat="34.15088" lon="-116.76805"><ele>2156.0</ele></trkpt>
    <trkpt lat="34.15088" lon="-116.76798"><ele>2156.0</ele></trkpt>
    <trkpt lat="34.15087" lon="-116.76793"><ele>2163.0</ele></trkpt>
    <trkpt lat="34.15082" lon="-116.76767"><ele>2163.0</ele></trkpt>
    <trkpt lat="34.15079" lon="-116.76747"><ele>2163.0</ele></trkpt>
    <trkpt lat="34.15077" lon="-116.76730"><ele>2163.0</ele></trkpt>
    <trkpt lat="34.15074" lon="-116.76713"><ele>2163.0</ele></trkpt>
    <trkpt lat="34.15071" lon="-116.76702"><ele>2163.0</ele></trkpt>
    <trkpt lat="34.15067" lon="-116.76691"><ele>2163.0</ele></trkpt>
    <trkpt lat="34.15056" lon="-116.76665"><ele>2163.0</ele></trkpt>
    <trkpt lat="34.15053" lon="-116.76649"><ele>2163.0</ele></trkpt>
    <trkpt lat="34.15049" lon="-116.76635"><ele>2165.0</ele></trkpt>
    <trkpt lat="34.15046" lon="-116.76625"><ele>2165.0</ele></trkpt>
    <trkpt lat="34.15043" lon="-116.76615"><ele>2165.0</ele></trkpt>
    <trkpt lat="34.15042" lon="-116.76603"><ele>2165.0</ele></trkpt>
    <trkpt lat="34.15042" lon="-116.76590"><ele>2165.0</ele></trkpt>
    <trkpt lat="34.15043" lon="-116.76576"><ele>2165.0</ele></trkpt>
    <trkpt lat="34.15047" lon="-116.76560"><ele>2165.0</ele></trkpt>
    <trkpt lat="34.15051" lon="-116.76546"><ele>2165.0</ele></trkpt>
    <trkpt lat="34.15056" lon="-116.76531"><ele>2165.0</ele></trkpt>
    <trkpt lat="34.15058" lon="-116.76518"><ele>2172.0</ele></trkpt>
    <trkpt lat="34.15059" lon="-116.76514"><ele>2172.0</ele></trkpt>
    <trkpt lat="34.15063" lon="-116.76500"><ele>2172.0</ele></trkpt>
    <trkpt lat="34.15070" lon="-116.76486"><ele>2172.0</ele></trkpt>
    <trkpt lat="34.15077" lon="-116.76471"><ele>2172.0</ele></trkpt>
    <trkpt lat="34.15091" lon="-116.76444"><ele>2172.0</ele></trkpt>
    <trkpt lat="34.15096" lon="-116.76428"><ele>2172.0</ele></trkpt>
    <trkpt lat="34.15100" lon="-116.76411"><ele>2172.0</ele></trkpt>
    <trkpt lat="34.15105" lon="-116.76394"><ele>2172.0</ele></trkpt>
    <trkpt lat="34.15111" lon="-116.76380"><ele>2196.0</ele></trkpt>
    <trkpt lat="34.15125" lon="-116.76362"><ele>2196.0</ele></trkpt>
    <trkpt lat="34.15145" lon="-116.76339"><ele>2196.0</ele></trkpt>
    <trkpt lat="34.15165" lon="-116.76317"><ele>2196.0</ele></trkpt>
    <trkpt lat="34.15188" lon="-116.76292"><ele>2196.0</ele></trkpt>
    <trkpt lat="34.15198" lon="-116.76280"><ele>2196.0</ele></trkpt>
    <trkpt lat="34.15205" lon="-116.76269"><ele>2196.0</ele></trkpt>
    <trkpt lat="34.15210" lon="-116.76258"><ele>2196.0</ele></trkpt>
    <trkpt lat="34.15215" lon="-116.76243"><ele>2196.0</ele></trkpt>
    <trkpt lat="34.15221" lon="-116.76226"><ele>2204.0</ele></trkpt>
    <trkpt lat="34.15223" lon="-116.76211"><ele>2204.0</ele></trkpt>
    <trkpt lat="34.15227" lon="-116.76193"><ele>2204.0</ele></trkpt>
    <trkpt lat="34.15232" lon="-116.76174"><ele>2204.0</ele></trkpt>
    <trkpt lat="34.15236" lon="-116.76162"><ele>2204.0</ele></trkpt>
    <trkpt lat="34.15247" lon="-116.76140"><ele>2204.0</ele></trkpt>
    <trkpt lat="34.15254" lon="-116.76126"><ele>2204.0</ele></trkpt>
    <trkpt lat="34.15261" lon="-116.76116"><ele>2204.0</ele></trkpt>
    <trkpt lat="34.15267" lon="-116.76104"><ele>2204.0</ele></trkpt>
    <trkpt lat="34.15273" lon="-116.76088"><ele>2216.0</ele></trkpt>
    <trkpt lat="34.15280" lon="-116.76078"><ele>2216.0</ele></trkpt>
    <trkpt lat="34.15288" lon="-116.76070"><ele>2216.0</ele></trkpt>
    <trkpt lat="34.15293" lon="-116.76062"><ele>2216.0</ele></trkpt>
    <trkpt lat="34.15296" lon="-116.76054"><ele>2216.0</ele></trkpt>
    <trkpt lat="34.15297" lon="-116.76043"><ele>2216.0</ele></trkpt>
    <trkpt lat="34.15301" lon="-116.76013"><ele>2216.0</ele></trkpt>
    <trkpt lat="34.15301" lon="-116.75996"><ele>2216.0</ele></trkpt>
    <trkpt lat="34.15303" lon="-116.75967"><ele>2216.0</ele></trkpt>
    <trkpt lat="34.15305" lon="-116.75950"><ele>2215.0</ele></trkpt>
    <trkpt lat="34.15308" lon="-116.75936"><ele>2215.0</ele></trkpt>
    <trkpt lat="34.15313" lon="-116.75923"><ele>2215.0</ele></trkpt>
    <trkpt lat="34.15321" lon="-116.75907"><ele>2215.0</ele></trkpt>
    <trkpt lat="34.15333" lon="-116.75889"><ele>2215.0</ele></trkpt>
    <trkpt lat="34.15348" lon="-116.75870"><ele>2215.0</ele></trkpt>
    <trkpt lat="34.15356" lon="-116.75859"><ele>2215.0</ele></trkpt>
    <trkpt lat="34.15363" lon="-116.75846"><ele>2215.0</ele></trkpt>
    <trkpt lat="34.15374" lon="-116.75828"><ele>2215.0</ele></trkpt>
    <trkpt lat="34.15387" lon="-116.75806"><ele>2224.0</ele></trkpt>
    <trkpt lat="34.15396" lon="-116.75788"><ele>2224.0</ele></trkpt>
    <trkpt lat="34.15410" lon="-116.75755"><ele>2224.0</ele></trkpt>
    <trkpt lat="34.15419" lon="-116.75730"><ele>2224.0</ele></trkpt>
    <trkpt lat="34.15426" lon="-116.75709"><ele>2224.0</ele></trkpt>
    <trkpt lat="34.15432" lon="-116.75692"><ele>2224.0</ele></trkpt>
    <trkpt lat="34.15435" lon="-116.75674"><ele>2224.0</ele></trkpt>
    <trkpt lat="34.15436" lon="-116.75657"><ele>2224.0</ele></trkpt>
    <trkpt lat="34.15437" lon="-116.75643"><ele>2224.0</ele></trkpt>
    <trkpt lat="34.15440" lon="-116.75631"><ele>2234.0</ele></trkpt>
    <trkpt lat="34.15443" lon="-116.75620"><ele>2234.0</ele></trkpt>
    <trkpt lat="34.15447" lon="-116.75610"><ele>2234.0</ele></trkpt>
    <trkpt lat="34.15452" lon="-116.75602"><ele>2234.0</ele></trkpt>
    <trkpt lat="34.15459" lon="-116.75595"><ele>2234.0</ele></trkpt>
    <trkpt lat="34.15464" lon="-116.75587"><ele>2234.0</ele></trkpt>
    <trkpt lat="34.15471" lon="-116.75572"><ele>2234.0</ele></trkpt>
    <trkpt lat="34.15476" lon="-116.75561"><ele>2234.0</ele></trkpt>
    <trkpt lat="34.15478" lon="-116.75553"><ele>2234.0</ele></trkpt>
    <trkpt lat="34.15479" lon="-116.75545"><ele>2239.0</ele></trkpt>
    <trkpt lat="34.15478" lon="-116.75533"><ele>2239.0</ele></trkpt>
    <trkpt lat="34.15474" lon="-116.75519"><ele>2239.0</ele></trkpt>
    <trkpt lat="34.15469" lon="-116.75498"><ele>2239.0</ele></trkpt>
    <trkpt lat="34.15467" lon="-116.75483"><ele>2239.0</ele></trkpt>
    <trkpt lat="34.15465" lon="-116.75467"><ele>2239.0</ele></trkpt>
    <trkpt lat="34.15463" lon="-116.75446"><ele>2239.0</ele></trkpt>
    <trkpt lat="34.15461" lon="-116.75425"><ele>2239.0</ele></trkpt>
    <trkpt lat="34.15459" lon="-116.75409"><ele>2239.0</ele></trkpt>
    <trkpt lat="34.15456" lon="-116.75392"><ele>2247.0</ele></trkpt>
    <trkpt lat="34.15455" lon="-116.75368"><ele>2247.0</ele></trkpt>
    <trkpt lat="34.15455" lon="-116.75338"><ele>2247.0</ele></trkpt>
    <trkpt lat="34.15455" lon="-116.75322"><ele>2247.0</ele></trkpt>
    <trkpt lat="34.15456" lon="-116.75306"><ele>2247.0</ele></trkpt>
    <trkpt lat="34.15459" lon="-116.75296"><ele>2247.0</ele></trkpt>
    <trkpt lat="34.15463" lon="-116.75282"><ele>2247.0</ele></trkpt>
    <trkpt lat="34.15464" lon="-116.75271"><ele>2247.0</ele></trkpt>
    <trkpt lat="34.15464" lon="-116.75254"><ele>2247.0</ele></trkpt>
    <trkpt lat="34.15463" lon="-116.75240"><ele>2254.0</ele></trkpt>
    <trkpt lat="34.15460" lon="-116.75219"><ele>2254.0</ele></trkpt>
    <trkpt lat="34.15457" lon="-116.75202"><ele>2254.0</ele></trkpt>
    <trkpt lat="34.15455" lon="-116.75179"><ele>2254.0</ele></trkpt>
    <trkpt lat="34.15454" lon="-116.75160"><ele>2254.0</ele></trkpt>
    <trkpt lat="34.15452" lon="-116.75130"><ele>2254.0</ele></trkpt>
    <trkpt lat="34.15449" lon="-116.75106"><ele>2254.0</ele></trkpt>
    <trkpt lat="34.15446" lon="-116.75093"><ele>2254.0</ele></trkpt>
    <trkpt lat="34.15442" lon="-116.75082"><ele>2254.0</ele></trkpt>
    <trkpt lat="34.15440" lon="-116.75071"><ele>2259.0</ele></trkpt>
    <trkpt lat="34.15438" lon="-116.75058"><ele>2259.0</ele></trkpt>
    <trkpt lat="34.15438" lon="-116.75037"><ele>2259.0</ele></trkpt>
    <trkpt lat="34.15439" lon="-116.75024"><ele>2259.0</ele></trkpt>
    <trkpt lat="34.15439" lon="-116.75013"><ele>2259.0</ele></trkpt>
    <trkpt lat="34.15439" lon="-116.75008"><ele>2259.0</ele></trkpt>
    <trkpt lat="34.15441" lon="-116.74987"><ele>2259.0</ele></trkpt>
    <trkpt lat="34.15438" lon="-116.74975"><ele>2259.0</ele></trkpt>
    <trkpt lat="34.15431" lon="-116.74957"><ele>2259.0</ele></trkpt>
    <trkpt lat="34.15419" lon="-116.74928"><ele>2271.0</ele></trkpt>
    <trkpt lat="34.15411" lon="-116.74907"><ele>2271.0</ele></trkpt>
    <trkpt lat="34.15402" lon="-116.74889"><ele>2271.0</ele></trkpt>
    <trkpt lat="34.15398" lon="-116.74875"><ele>2271.0</ele></trkpt>
    <trkpt lat="34.15395" lon="-116.74859"><ele>2271.0</ele></trkpt>
    <trkpt lat="34.15395" lon="-116.74843"><ele>2271.0</ele></trkpt>
    <trkpt lat="34.15397" lon="-116.74823"><ele>2271.0</ele></trkpt>
    <trkpt lat="34.15400" lon="-116.74801"><ele>2271.0</ele></trkpt>
    <trkpt lat="34.15400" lon="-116.74773"><ele>2271.0</ele></trkpt>
    <trkpt lat="34.15404" lon="-116.74743"><ele>2285.0</ele></trkpt>
    <trkpt lat="34.15407" lon="-116.74718"><ele>2285.0</ele></trkpt>
    <trkpt lat="34.15413" lon="-116.74701"><ele>2285.0</ele></trkpt>
    <trkpt lat="34.15427" lon="-116.74676"><ele>2285.0</ele></trkpt>
    <trkpt lat="34.15438" lon="-116.74659"><ele>2285.0</ele></trkpt>
    <trkpt lat="34.15449" lon="-116.74642"><ele>2285.0</ele></trkpt>
    <trkpt lat="34.15459" lon="-116.74630"><ele>2285.0</ele></trkpt>
    <trkpt lat="34.15468" lon="-116.74619"><ele>2285.0</ele></trkpt>
    <trkpt lat="34.15475" lon="-116.74609"><ele>2285.0</ele></trkpt>
    <trkpt lat="34.15480" lon="-116.74598"><ele>2292.0</ele></trkpt>
    <trkpt lat="34.15485" lon="-116.74587"><ele>2292.0</ele></trkpt>
    <trkpt lat="34.15490" lon="-116.74574"><ele>2292.0</ele></trkpt>
    <trkpt lat="34.15493" lon="-116.74563"><ele>2292.0</ele></trkpt>
    <trkpt lat="34.15498" lon="-116.74546"><ele>2292.0</ele></trkpt>
    <trkpt lat="34.15504" lon="-116.74533"><ele>2292.0</ele></trkpt>
    <trkpt lat="34.15513" lon="-116.74519"><ele>2292.0</ele></trkpt>
    <trkpt lat="34.15524" lon="-116.74504"><ele>2292.0</ele></trkpt>
    <trkpt lat="34.15529" lon="-116.74496"><ele>2292.0</ele></trkpt>
    <trkpt lat="34.15531" lon="-116.74491"><ele>2297.0</ele></trkpt>
    <trkpt lat="34.15531" lon="-116.74485"><ele>2297.0</ele></trkpt>
    <trkpt lat="34.15530" lon="-116.74479"><ele>2297.0</ele></trkpt>
    <trkpt lat="34.15526" lon="-116.74471"><ele>2297.0</ele></trkpt>
    <trkpt lat="34.15519" lon="-116.74466"><ele>2297.0</ele></trkpt>
    <trkpt lat="34.15512" lon="-116.74462"><ele>2297.0</ele></trkpt>
    <trkpt lat="34.15506" lon="-116.74462"><ele>2297.0</ele></trkpt>
    <trkpt lat="34.15494" lon="-116.74463"><ele>2297.0</ele></trkpt>
    <trkpt lat="34.15483" lon="-116.74468"><ele>2297.0</ele></trkpt>
    <trkpt lat="34.15471" lon="-116.74472"><ele>2291.0</ele></trkpt>
    <trkpt lat="34.15458" lon="-116.74473"><ele>2291.0</ele></trkpt>
    <trkpt lat="34.15446" lon="-116.74472"><ele>2291.0</ele></trkpt>
    <trkpt lat="34.15438" lon="-116.74467"><ele>2291.0</ele></trkpt>
    <trkpt lat="34.15433" lon="-116.74458"><ele>2291.0</ele></trkpt>
    <trkpt lat="34.15424" lon="-116.74439"><ele>2291.0</ele></trkpt>
    <trkpt lat="34.15415" lon="-116.74420"><ele>2291.0</ele></trkpt>
    <trkpt lat="34.15411" lon="-116.74405"><ele>2291.0</ele></trkpt>
    <trkpt lat="34.15409" lon="-116.74392"><ele>2291.0</ele></trkpt>
    <trkpt lat="34.15407" lon="-116.74380"><ele>2306.0</ele></trkpt>
    <trkpt lat="34.15404" lon="-116.74368"><ele>2306.0</ele></trkpt>
    <trkpt lat="34.15399" lon="-116.74357"><ele>2306.0</ele></trkpt>
    <trkpt lat="34.15390" lon="-116.74346"><ele>2306.0</ele></trkpt>
    <trkpt lat="34.15364" lon="-116.74322"><ele>2306.0</ele></trkpt>
    <trkpt lat="34.15346" lon="-116.74303"><ele>2306.0</ele></trkpt>
    <trkpt lat="34.15322" lon="-116.74279"><ele>2306.0</ele></trkpt>
    <trkpt lat="34.15301" lon="-116.74260"><ele>2306.0</ele></trkpt>
    <trkpt lat="34.15285" lon="-116.74249"><ele>2306.0</ele></trkpt>
    <trkpt lat="34.15273" lon="-116.74237"><ele>2321.0</ele></trkpt>
    <trkpt lat="34.15263" lon="-116.74229"><ele>2321.0</ele></trkpt>
    <trkpt lat="34.15252" lon="-116.74223"><ele>2321.0</ele></trkpt>
    <trkpt lat="34.15236" lon="-116.74214"><ele>2321.0</ele></trkpt>
    <trkpt lat="34.15209" lon="-116.74195"><ele>2321.0</ele></trkpt>
    <trkpt lat="34.15195" lon="-116.74186"><ele>2321.0</ele></trkpt>
    <trkpt lat="34.15181" lon="-116.74174"><ele>2321.0</ele></trkpt>
    <trkpt lat="34.15166" lon="-116.74160"><ele>2321.0</ele></trkpt>
    <trkpt lat="34.15155" lon="-116.74148"><ele>2321.0</ele></trkpt>
    <trkpt lat="34.15144" lon="-116.74134"><ele>2335.0</ele></trkpt>
    <trkpt lat="34.15136" lon="-116.74121"><ele>2335.0</ele></trkpt>
    <trkpt lat="34.15131" lon="-116.74109"><ele>2335.0</ele></trkpt>
    <trkpt lat="34.15126" lon="-116.74096"><ele>2335.0</ele></trkpt>
    <trkpt lat="34.15120" lon="-116.74079"><ele>2335.0</ele></trkpt>
    <trkpt lat="34.15117" lon="-116.74061"><ele>2335.0</ele></trkpt>
    <trkpt lat="34.15114" lon="-116.74041"><ele>2335.0</ele></trkpt>
    <trkpt lat="34.15114" lon="-116.74023"><ele>2335.0</ele></trkpt>
    <trkpt lat="34.15117" lon="-116.74002"><ele>2335.0</ele></trkpt>
    <trkpt lat="34.15117" lon="-116.73981"><ele>2347.0</ele></trkpt>
    <trkpt lat="34.15118" lon="-116.73963"><ele>2347.0</ele></trkpt>
    <trkpt lat="34.15121" lon="-116.73952"><ele>2347.0</ele></trkpt>
    <trkpt lat="34.15127" lon="-116.73938"><ele>2347.0</ele></trkpt>
    <trkpt lat="34.15134" lon="-116.73921"><ele>2347.0</ele></trkpt>
    <trkpt lat="34.15140" lon="-116.73906"><ele>2347.0</ele></trkpt>
    <trkpt lat="34.15144" lon="-116.73893"><ele>2347.0</ele></trkpt>
    <trkpt lat="34.15147" lon="-116.73874"><ele>2347.0</ele></trkpt>
    <trkpt lat="34.15149" lon="-116.73857"><ele>2347.0</ele></trkpt>
    <trkpt lat="34.15153" lon="-116.73839"><ele>2350.0</ele></trkpt>
    <trkpt lat="34.15155" lon="-116.73824"><ele>2350.0</ele></trkpt>
    <trkpt lat="34.15155" lon="-116.73814"><ele>2350.0</ele></trkpt>
    <trkpt lat="34.15152" lon="-116.73805"><ele>2350.0</ele></trkpt>
    <trkpt lat="34.15142" lon="-116.73783"><ele>2350.0</ele></trkpt>
    <trkpt lat="34.15137" lon="-116.73771"><ele>2350.0</ele></trkpt>
    <trkpt lat="34.15134" lon="-116.73758"><ele>2350.0</ele></trkpt>
    <trkpt lat="34.15131" lon="-116.73739"><ele>2350.0</ele></trkpt>
    <trkpt lat="34.15128" lon="-116.73726"><ele>2350.0</ele></trkpt>
    <trkpt lat="34.15126" lon="-116.73714"><ele>2360.0</ele></trkpt>
    <trkpt lat="34.15128" lon="-116.73702"><ele>2360.0</ele></trkpt>
    <trkpt lat="34.15131" lon="-116.73689"><ele>2360.0</ele></trkpt>
    <trkpt lat="34.15136" lon="-116.73670"><ele>2360.0</ele></trkpt>
    <trkpt lat="34.15143" lon="-116.73653"><ele>2360.0</ele></trkpt>
    <trkpt lat="34.15150" lon="-116.73637"><ele>2360.0</ele></trkpt>
    <trkpt lat="34.15153" lon="-116.73623"><ele>2360.0</ele></trkpt>
    <trkpt lat="34.15154" lon="-116.73610"><ele>2360.0</ele></trkpt>
    <trkpt lat="34.15153" lon="-116.73598"><ele>2360.0</ele></trkpt>
    <trkpt lat="34.15151" lon="-116.73589"><ele>2362.0</ele></trkpt>
    <trkpt lat="34.15146" lon="-116.73575"><ele>2362.0</ele></trkpt>
    <trkpt lat="34.15140" lon="-116.73556"><ele>2362.0</ele></trkpt>
    <trkpt lat="34.15133" lon="-116.73534"><ele>2362.0</ele></trkpt>
    <trkpt lat="34.15124" lon="-116.73508"><ele>2362.0</ele></trkpt>
    <trkpt lat="34.15122" lon="-116.73498"><ele>2362.0</ele></trkpt>
    <trkpt lat="34.15121" lon="-116.73487"><ele>2362.0</ele></trkpt>
    <trkpt lat="34.15120" lon="-116.73475"><ele>2362.0</ele></trkpt>
    <trkpt lat="34.15121" lon="-116.73458"><ele>2362.0</ele></trkpt>
    <trkpt lat="34.15123" lon="-116.73431"><ele>2368.0</ele></trkpt>
    <trkpt lat="34.15127" lon="-116.73405"><ele>2368.0</ele></trkpt>
    <trkpt lat="34.15129" lon="-116.73388"><ele>2368.0</ele></trkpt>
    <trkpt lat="34.15128" lon="-116.73371"><ele>2368.0</ele></trkpt>
    <trkpt lat="34.15129" lon="-116.73359"><ele>2368.0</ele></trkpt>
    <trkpt lat="34.15131" lon="-116.73344"><ele>2368.0</ele></trkpt>
    <trkpt lat="34.15134" lon="-116.73325"><ele>2368.0</ele></trkpt>
    <trkpt lat="34.15138" lon="-116.73306"><ele>2368.0</ele></trkpt>
    <trkpt lat="34.15140" lon="-116.73289"><ele>2368.0</ele></trkpt>
    <trkpt lat="34.15142" lon="-116.73277"><ele>2375.0</ele></trkpt>
    <trkpt lat="34.15142" lon="-116.73261"><ele>2375.0</ele></trkpt>
    <trkpt lat="34.15142" lon="-116.73236"><ele>2375.0</ele></trkpt>
    <trkpt lat="34.15141" lon="-116.73217"><ele>2375.0</ele></trkpt>
    <trkpt lat="34.15137" lon="-116.73201"><ele>2375.0</ele></trkpt>
    <trkpt lat="34.15129" lon="-116.73181"><ele>2375.0</ele></trkpt>
    <trkpt lat="34.15118" lon="-116.73159"><ele>2375.0</ele></trkpt>
    <trkpt lat="34.15108" lon="-116.73133"><ele>2375.0</ele></trkpt>
    <trkpt lat="34.15105" lon="-116.73121"><ele>2375.0</ele></trkpt>
    <trkpt lat="34.15104" lon="-116.73107"><ele>2382.0</ele></trkpt>
    <trkpt lat="34.15105" lon="-116.73076"><ele>2382.0</ele></trkpt>
    <trkpt lat="34.15105" lon="-116.73037"><ele>2382.0</ele></trkpt>
    <trkpt lat="34.15104" lon="-116.72998"><ele>2382.0</ele></trkpt>
    <trkpt lat="34.15102" lon="-116.72981"><ele>2382.0</ele></trkpt>
    <trkpt lat="34.15098" lon="-116.72965"><ele>2382.0</ele></trkpt>
    <trkpt lat="34.15091" lon="-116.72950"><ele>2382.0</ele></trkpt>
    <trkpt lat="34.15084" lon="-116.72928"><ele>2382.0</ele></trkpt>
    <trkpt lat="34.15080" lon="-116.72912"><ele>2382.0</ele></trkpt>
    <trkpt lat="34.15079" lon="-116.72900"><ele>2396.0</ele></trkpt>
    <trkpt lat="34.15076" lon="-116.72869"><ele>2396.0</ele></trkpt>
    <trkpt lat="34.15072" lon="-116.72839"><ele>2396.0</ele></trkpt>
    <trkpt lat="34.15067" lon="-116.72800"><ele>2396.0</ele></trkpt>
    <trkpt lat="34.15063" lon="-116.72769"><ele>2396.0</ele></trkpt>
    <trkpt lat="34.15060" lon="-116.72750"><ele>2396.0</ele></trkpt>
    <trkpt lat="34.15057" lon="-116.72737"><ele>2396.0</ele></trkpt>
    <trkpt lat="34.15050" lon="-116.72718"><ele>2396.0</ele></trkpt>
    <trkpt lat="34.15037" lon="-116.72683"><ele>2396.0</ele></trkpt>
    <trkpt lat="34.15027" lon="-116.72660"><ele>2403.0</ele></trkpt>
    <trkpt lat="34.15015" lon="-116.72635"><ele>2403.0</ele></trkpt>
    <trkpt lat="34.15004" lon="-116.72615"><ele>2403.0</ele></trkpt>
    <trkpt lat="34.14987" lon="-116.72586"><ele>2403.0</ele></trkpt>
    <trkpt lat="34.14980" lon="-116.72572"><ele>2403.0</ele></trkpt>
    <trkpt lat="34.14975" lon="-116.72559"><ele>2403.0</ele></trkpt>
    <trkpt lat="34.14971" lon="-116.72546"><ele>2403.0</ele></trkpt>
    <trkpt lat="34.14969" lon="-116.72532"><ele>2403.0</ele></trkpt>
    <trkpt lat="34.14968" lon="-116.72519"><ele>2403.0</ele></trkpt>
    <trkpt lat="34.14966" lon="-116.72508"><ele>2406.0</ele></trkpt>
    <trkpt lat="34.14962" lon="-116.72493"><ele>2406.0</ele></trkpt>
    <trkpt lat="34.14958" lon="-116.72483"><ele>2406.0</ele></trkpt>
    <trkpt lat="34.14956" lon="-116.72471"><ele>2406.0</ele></trkpt>
    <trkpt lat="34.14955" lon="-116.72457"><ele>2406.0</ele></trkpt>
    <trkpt lat="34.14950" lon="-116.72445"><ele>2406.0</ele></trkpt>
    <trkpt lat="34.14943" lon="-116.72429"><ele>2406.0</ele></trkpt>
    <trkpt lat="34.14937" lon="-116.72411"><ele>2406.0</ele></trkpt>
    <trkpt lat="34.14932" lon="-116.72395"><ele>2406.0</ele></trkpt>
    <trkpt lat="34.14931" lon="-116.72378"><ele>2414.0</ele></trkpt>
    <trkpt lat="34.14930" lon="-116.72349"><ele>2414.0</ele></trkpt>
    <trkpt lat="34.14929" lon="-116.72301"><ele>2414.0</ele></trkpt>
    <trkpt lat="34.14930" lon="-116.72281"><ele>2414.0</ele></trkpt>
    <trkpt lat="34.14929" lon="-116.72263"><ele>2414.0</ele></trkpt>
    <trkpt lat="34.14926" lon="-116.72242"><ele>2414.0</ele></trkpt>
    <trkpt lat="34.14926" lon="-116.72218"><ele>2414.0</ele></trkpt>
    <trkpt lat="34.14926" lon="-116.72202"><ele>2414.0</ele></trkpt>
    <trkpt lat="34.14927" lon="-116.72187"><ele>2414.0</ele></trkpt>
    <trkpt lat="34.14928" lon="-116.72169"><ele>2425.0</ele></trkpt>
    <trkpt lat="34.14926" lon="-116.72147"><ele>2425.0</ele></trkpt>
    <trkpt lat="34.14924" lon="-116.72130"><ele>2425.0</ele></trkpt>
    <trkpt lat="34.14923" lon="-116.72117"><ele>2425.0</ele></trkpt>
    <trkpt lat="34.14923" lon="-116.72104"><ele>2425.0</ele></trkpt>
    <trkpt lat="34.14925" lon="-116.72093"><ele>2425.0</ele></trkpt>
    <trkpt lat="34.14927" lon="-116.72076"><ele>2425.0</ele></trkpt>
    <trkpt lat="34.14929" lon="-116.72049"><ele>2425.0</ele></trkpt>
    <trkpt lat="34.14930" lon="-116.72023"><ele>2425.0</ele></trkpt>
    <trkpt lat="34.14933" lon="-116.71998"><ele>2434.0</ele></trkpt>
    <trkpt lat="34.14934" lon="-116.71983"><ele>2434.0</ele></trkpt>
    <trkpt lat="34.14932" lon="-116.71971"><ele>2434.0</ele></trkpt>
    <trkpt lat="34.14929" lon="-116.71957"><ele>2434.0</ele></trkpt>
    <trkpt lat="34.14925" lon="-116.71942"><ele>2434.0</ele></trkpt>
    <trkpt lat="34.14922" lon="-116.71930"><ele>2434.0</ele></trkpt>
    <trkpt lat="34.14915" lon="-116.71919"><ele>2434.0</ele></trkpt>
    <trkpt lat="34.14910" lon="-116.71907"><ele>2434.0</ele></trkpt>
    <trkpt lat="34.14906" lon="-116.71890"><ele>2434.0</ele></trkpt>
    <trkpt lat="34.14900" lon="-116.71871"><ele>2442.0</ele></trkpt>
    <trkpt lat="34.14894" lon="-116.71854"><ele>2442.0</ele></trkpt>
    <trkpt lat="34.14892" lon="-116.71845"><ele>2442.0</ele></trkpt>
    <trkpt lat="34.14892" lon="-116.71832"><ele>2442.0</ele></trkpt>
    <trkpt lat="34.14892" lon="-116.71814"><ele>2442.0</ele></trkpt>
    <trkpt lat="34.14891" lon="-116.71796"><ele>2442.0</ele></trkpt>
    <trkpt lat="34.14891" lon="-116.71771"><ele>2442.0</ele></trkpt>
    <trkpt lat="34.14890" lon="-116.71742"><ele>2442.0</ele></trkpt>
    <trkpt lat="34.14891" lon="-116.71724"><ele>2442.0</ele></trkpt>
    <trkpt lat="34.14897" lon="-116.71695"><ele>2454.0</ele></trkpt>
    <trkpt lat="34.14897" lon="-116.71683"><ele>2454.0</ele></trkpt>
    <trkpt lat="34.14896" lon="-116.71667"><ele>2454.0</ele></trkpt>
    <trkpt lat="34.14895" lon="-116.71647"><ele>2454.0</ele></trkpt>
    <trkpt lat="34.14892" lon="-116.71633"><ele>2454.0</ele></trkpt>
    <trkpt lat="34.14887" lon="-116.71619"><ele>2454.0</ele></trkpt>
    <trkpt lat="34.14882" lon="-116.71598"><ele>2454.0</ele></trkpt>
    <trkpt lat="34.14879" lon="-116.71589"><ele>2454.0</ele></trkpt>
    <trkpt lat="34.14875" lon="-116.71584"><ele>2454.0</ele></trkpt>
    <trkpt lat="34.14870" lon="-116.71578"><ele>2458.0</ele></trkpt>
    <trkpt lat="34.14852" lon="-116.71560"><ele>2458.0</ele></trkpt>
    <trkpt lat="34.14830" lon="-116.71534"><ele>2458.0</ele></trkpt>
    <trkpt lat="34.14822" lon="-116.71522"><ele>2458.0</ele></trkpt>
    <trkpt lat="34.14816" lon="-116.71512"><ele>2458.0</ele></trkpt>
    <trkpt lat="34.14812" lon="-116.71497"><ele>2458.0</ele></trkpt>
    <trkpt lat="34.14805" lon="-116.71473"><ele>2458.0</ele></trkpt>
    <trkpt lat="34.14801" lon="-116.71459"><ele>2458.0</ele></trkpt>
    <trkpt lat="34.14800" lon="-116.71444"><ele>2458.0</ele></trkpt>
    <trkpt lat="34.14799" lon="-116.71437"><ele>2459.0</ele></trkpt>
    <trkpt lat="34.14800" lon="-116.71420"><ele>2459.0</ele></trkpt>
    <trkpt lat="34.14799" lon="-116.71412"><ele>2459.0</ele></trkpt>
    <trkpt lat="34.14797" lon="-116.71400"><ele>2459.0</ele></trkpt>
    <trkpt lat="34.14795" lon="-116.71389"><ele>2459.0</ele></trkpt>
    <trkpt lat="34.14796" lon="-116.71380"><ele>2459.0</ele></trkpt>
    <trkpt lat="34.14800" lon="-116.71360"><ele>2459.0</ele></trkpt>
    <trkpt lat="34.14805" lon="-116.71340"><ele>2459.0</ele></trkpt>
    <trkpt lat="34.14809" lon="-116.71325"><ele>2459.0</ele></trkpt>
    <trkpt lat="34.14813" lon="-116.71314"><ele>2462.0</ele></trkpt>
    <trkpt lat="34.14815" lon="-116.71305"><ele>2462.0</ele></trkpt>
    <trkpt lat="34.14816" lon="-116.71293"><ele>2462.0</ele></trkpt>
    <trkpt lat="34.14816" lon="-116.71280"><ele>2462.0</ele></trkpt>
    <trkpt lat="34.14818" lon="-116.71270"><ele>2462.0</ele></trkpt>
    <trkpt lat="34.14823" lon="-116.71257"><ele>2462.0</ele></trkpt>
    <trkpt lat="34.14826" lon="-116.71244"><ele>2462.0</ele></trkpt>
    <trkpt lat="34.14827" lon="-116.71233"><ele>2462.0</ele></trkpt>
    <trkpt lat="34.14827" lon="-116.71222"><ele>2462.0</ele></trkpt>
    <trkpt lat="34.14828" lon="-116.71208"><ele>2468.0</ele></trkpt>
    <trkpt lat="34.14830" lon="-116.71199"><ele>2468.0</ele></trkpt>
    <trkpt lat="34.14836" lon="-116.71181"><ele>2468.0</ele></trkpt>
    <trkpt lat="34.14842" lon="-116.71164"><ele>2468.0</ele></trkpt>
    <trkpt lat="34.14851" lon="-116.71139"><ele>2468.0</ele></trkpt>
    <trkpt lat="34.14857" lon="-116.71123"><ele>2468.0</ele></trkpt>
    <trkpt lat="34.14862" lon="-116.71108"><ele>2468.0</ele></trkpt>
    <trkpt lat="34.14864" lon="-116.71090"><ele>2468.0</ele></trkpt>
    <trkpt lat="34.14869" lon="-116.71066"><ele>2468.0</ele></trkpt>
    <trkpt lat="34.14875" lon="-116.71043"><ele>2469.0</ele></trkpt>
    <trkpt lat="34.14881" lon="-116.71030"><ele>2469.0</ele></trkpt>
    <trkpt lat="34.14886" lon="-116.71019"><ele>2469.0</ele></trkpt>
    <trkpt lat="34.14893" lon="-116.71009"><ele>2469.0</ele></trkpt>
    <trkpt lat="34.14899" lon="-116.71002"><ele>2469.0</ele></trkpt>
    <trkpt lat="34.14906" lon="-116.70992"><ele>2469.0</ele></trkpt>
    <trkpt lat="34.14913" lon="-116.70982"><ele>2469.0</ele></trkpt>
    <trkpt lat="34.14917" lon="-116.70973"><ele>2469.0</ele></trkpt>
    <trkpt lat="34.14920" lon="-116.70960"><ele>2469.0</ele></trkpt>
    <trkpt lat="34.14925" lon="-116.70943"><ele>2485.0</ele></trkpt>
    <trkpt lat="34.14932" lon="-116.70918"><ele>2485.0</ele></trkpt>
    <trkpt lat="34.14937" lon="-116.70896"><ele>2485.0</ele></trkpt>
    <trkpt lat="34.14940" lon="-116.70881"><ele>2485.0</ele></trkpt>
    <trkpt lat="34.14943" lon="-116.70863"><ele>2485.0</ele></trkpt>
    <trkpt lat="34.14947" lon="-116.70843"><ele>2485.0</ele></trkpt>
    <trkpt lat="34.14948" lon="-116.70828"><ele>2485.0</ele></trkpt>
    <trkpt lat="34.14949" lon="-116.70813"><ele>2485.0</ele></trkpt>
    <trkpt lat="34.14950" lon="-116.70800"><ele>2485.0</ele></trkpt>
    <trkpt lat="34.14952" lon="-116.70783"><ele>2494.0</ele></trkpt>
    <trkpt lat="34.14953" lon="-116.70772"><ele>2494.0</ele></trkpt>
    <trkpt lat="34.14953" lon="-116.70760"><ele>2494.0</ele></trkpt>
    <trkpt lat="34.14954" lon="-116.70750"><ele>2494.0</ele></trkpt>
    <trkpt lat="34.14956" lon="-116.70736"><ele>2494.0</ele></trkpt>
    <trkpt lat="34.14959" lon="-116.70723"><ele>2494.0</ele></trkpt>
    <trkpt lat="34.14962" lon="-116.70707"><ele>2494.0</ele></trkpt>
    <trkpt lat="34.14964" lon="-116.70690"><ele>2494.0</ele></trkpt>
    <trkpt lat="34.14966" lon="-116.70684"><ele>2494.0</ele></trkpt>
    <trkpt lat="34.14970" lon="-116.70674"><ele>2497.0</ele></trkpt>
    <trkpt lat="34.14979" lon="-116.70658"><ele>2497.0</ele></trkpt>
    <trkpt lat="34.14986" lon="-116.70644"><ele>2497.0</ele></trkpt>
    <trkpt lat="34.14994" lon="-116.70630"><ele>2497.0</ele></trkpt>
    <trkpt lat="34.15002" lon="-116.70621"><ele>2497.0</ele></trkpt>
    <trkpt lat="34.15009" lon="-116.70616"><ele>2497.0</ele></trkpt>
    <trkpt lat="34.15016" lon="-116.70609"><ele>2497.0</ele></trkpt>
    <trkpt lat="34.15020" lon="-116.70602"><ele>2497.0</ele></trkpt>
    <trkpt lat="34.15026" lon="-116.70590"><ele>2497.0</ele></trkpt>
    <trkpt lat="34.15033" lon="-116.70568"><ele>2507.0</ele></trkpt>
    <trkpt lat="34.15042" lon="-116.70546"><ele>2507.0</ele></trkpt>
    <trkpt lat="34.15051" lon="-116.70529"><ele>2507.0</ele></trkpt>
    <trkpt lat="34.15057" lon="-116.70513"><ele>2507.0</ele></trkpt>
    <trkpt lat="34.15059" lon="-116.70502"><ele>2507.0</ele></trkpt>
    <trkpt lat="34.15060" lon="-116.70490"><ele>2507.0</ele></trkpt>
    <trkpt lat="34.15059" lon="-116.70480"><ele>2507.0</ele></trkpt>
    <trkpt lat="34.15060" lon="-116.70468"><ele>2507.0</ele></trkpt>
    <trkpt lat="34.15061" lon="-116.70460"><ele>2507.0</ele></trkpt>
    <trkpt lat="34.15064" lon="-116.70452"><ele>2508.0</ele></trkpt>
    <trkpt lat="34.15067" lon="-116.70446"><ele>2508.0</ele></trkpt>
    <trkpt lat="34.15074" lon="-116.70442"><ele>2508.0</ele></trkpt>
    <trkpt lat="34.15082" lon="-116.70437"><ele>2508.0</ele></trkpt>
    <trkpt lat="34.15092" lon="-116.70432"><ele>2508.0</ele></trkpt>
    <trkpt lat="34.15097" lon="-116.70427"><ele>2508.0</ele></trkpt>
    <trkpt lat="34.15102" lon="-116.70420"><ele>2508.0</ele></trkpt>
    <trkpt lat="34.15107" lon="-116.70412"><ele>2508.0</ele></trkpt>
    <trkpt lat="34.15109" lon="-116.70402"><ele>2508.0</ele></trkpt>
    <trkpt lat="34.15111" lon="-116.70393"><ele>2513.0</ele></trkpt>
    <trkpt lat="34.15113" lon="-116.70381"><ele>2513.0</ele></trkpt>
    <trkpt lat="34.15116" lon="-116.70366"><ele>2513.0</ele></trkpt>
    <trkpt lat="34.15120" lon="-116.70360"><ele>2513.0</ele></trkpt>
    <trkpt lat="34.15123" lon="-116.70351"><ele>2513.0</ele></trkpt>
    <trkpt lat="34.15125" lon="-116.70345"><ele>2513.0</ele></trkpt>
    <trkpt lat="34.15128" lon="-116.70338"><ele>2513.0</ele></trkpt>
    <trkpt lat="34.15134" lon="-116.70331"><ele>2513.0</ele></trkpt>
    <trkpt lat="34.15150" lon="-116.70315"><ele>2513.0</ele></trkpt>
    <trkpt lat="34.15164" lon="-116.70303"><ele>2521.0</ele></trkpt>
    <trkpt lat="34.15174" lon="-116.70293"><ele>2521.0</ele></trkpt>
    <trkpt lat="34.15181" lon="-116.70283"><ele>2521.0</ele></trkpt>
    <trkpt lat="34.15184" lon="-116.70275"><ele>2521.0</ele></trkpt>
    <trkpt lat="34.15186" lon="-116.70264"><ele>2521.0</ele></trkpt>
    <trkpt lat="34.15186" lon="-116.70251"><ele>2521.0</ele></trkpt>
    <trkpt lat="34.15188" lon="-116.70239"><ele>2521.0</ele></trkpt>
    <trkpt lat="34.15189" lon="-116.70229"><ele>2521.0</ele></trkpt>
    <trkpt lat="34.15187" lon="-116.70221"><ele>2521.0</ele></trkpt>
    <trkpt lat="34.15184" lon="-116.70211"><ele>2526.0</ele></trkpt>
    <trkpt lat="34.15181" lon="-116.70199"><ele>2526.0</ele></trkpt>
    <trkpt lat="34.15180" lon="-116.70189"><ele>2526.0</ele></trkpt>
    <trkpt lat="34.15182" lon="-116.70179"><ele>2526.0</ele></trkpt>
    <trkpt lat="34.15185" lon="-116.70166"><ele>2526.0</ele></trkpt>
    <trkpt lat="34.15189" lon="-116.70149"><ele>2526.0</ele></trkpt>
    <trkpt lat="34.15191" lon="-116.70139"><ele>2526.0</ele></trkpt>
    <trkpt lat="34.15190" lon="-116.70132"><ele>2526.0</ele></trkpt>
    <trkpt lat="34.15189" lon="-116.70123"><ele>2526.0</ele></trkpt>
    <trkpt lat="34.15189" lon="-116.70114"><ele>2531.0</ele></trkpt>
    <trkpt lat="34.15191" lon="-116.70103"><ele>2531.0</ele></trkpt>
    <trkpt lat="34.15194" lon="-116.70092"><ele>2531.0</ele></trkpt>
    <trkpt lat="34.15196" lon="-116.70081"><ele>2531.0</ele></trkpt>
    <trkpt lat="34.15197" lon="-116.70073"><ele>2531.0</ele></trkpt>
    <trkpt lat="34.15197" lon="-116.70066"><ele>2531.0</ele></trkpt>
    <trkpt lat="34.15198" lon="-116.70058"><ele>2531.0</ele></trkpt>
    <trkpt lat="34.15201" lon="-116.70045"><ele>2531.0</ele></trkpt>
    <trkpt lat="34.15206" lon="-116.70033"><ele>2531.0</ele></trkpt>
    <trkpt lat="34.15209" lon="-116.70020"><ele>2538.0</ele></trkpt>
    <trkpt lat="34.15211" lon="-116.70006"><ele>2538.0</ele></trkpt>
    <trkpt lat="34.15212" lon="-116.69996"><ele>2538.0</ele></trkpt>
    <trkpt lat="34.15210" lon="-116.69986"><ele>2538.0</ele></trkpt>
    <trkpt lat="34.15208" lon="-116.69973"><ele>2538.0</ele></trkpt>
    <trkpt lat="34.15206" lon="-116.69962"><ele>2538.0</ele></trkpt>
    <trkpt lat="34.15205" lon="-116.69953"><ele>2538.0</ele></trkpt>
    <trkpt lat="34.15206" lon="-116.69942"><ele>2538.0</ele></trkpt>
    <trkpt lat="34.15209" lon="-116.69931"><ele>2538.0</ele></trkpt>
    <trkpt lat="34.15214" lon="-116.69917"><ele>2542.0</ele></trkpt>
    <trkpt lat="34.15217" lon="-116.69901"><ele>2542.0</ele></trkpt>
    <trkpt lat="34.15220" lon="-116.69883"><ele>2542.0</ele></trkpt>
    <trkpt lat="34.15222" lon="-116.69867"><ele>2542.0</ele></trkpt>
    <trkpt lat="34.15225" lon="-116.69853"><ele>2542.0</ele></trkpt>
    <trkpt lat="34.15230" lon="-116.69841"><ele>2542.0</ele></trkpt>
    <trkpt lat="34.15233" lon="-116.69825"><ele>2542.0</ele></trkpt>
    <trkpt lat="34.15238" lon="-116.69813"><ele>2542.0</ele></trkpt>
    <trkpt lat="34.15242" lon="-116.69804"><ele>2542.0</ele></trkpt>
    <trkpt lat="34.15247" lon="-116.69794"><ele>2544.0</ele></trkpt>
    <trkpt lat="34.15254" lon="-116.69786"><ele>2544.0</ele></trkpt>
    <trkpt lat="34.15264" lon="-116.69778"><ele>2544.0</ele></trkpt>
    <trkpt lat="34.15274" lon="-116.69771"><ele>2544.0</ele></trkpt>
    <trkpt lat="34.15281" lon="-116.69763"><ele>2544.0</ele></trkpt>
    <trkpt lat="34.15286" lon="-116.69754"><ele>2544.0</ele></trkpt>
    <trkpt lat="34.15290" lon="-116.69747"><ele>2544.0</ele></trkpt>
    <trkpt lat="34.15293" lon="-116.69740"><ele>2544.0</ele></trkpt>
    <trkpt lat="34.15292" lon="-116.69727"><ele>2544.0</ele></trkpt>
    <trkpt lat="34.15291" lon="-116.69713"><ele>2553.0</ele></trkpt>
    <trkpt lat="34.15292" lon="-116.69698"><ele>2553.0</ele></trkpt>
    <trkpt lat="34.15292" lon="-116.69683"><ele>2553.0</ele></trkpt>
    <trkpt lat="34.15291" lon="-116.69668"><ele>2553.0</ele></trkpt>
    <trkpt lat="34.15289" lon="-116.69657"><ele>2553.0</ele></trkpt>
    <trkpt lat="34.15283" lon="-116.69643"><ele>2553.0</ele></trkpt>
    <trkpt lat="34.15273" lon="-116.69627"><ele>2553.0</ele></trkpt>
    <trkpt lat="34.15267" lon="-116.69614"><ele>2553.0</ele></trkpt>
    <trkpt lat="34.15263" lon="-116.69601"><ele>2553.0</ele></trkpt>
    <trkpt lat="34.15261" lon="-116.69581"><ele>2563.0</ele></trkpt>
    <trkpt lat="34.15261" lon="-116.69560"><ele>2563.0</ele></trkpt>
    <trkpt lat="34.15262" lon="-116.69536"><ele>2563.0</ele></trkpt>
    <trkpt lat="34.15263" lon="-116.69520"><ele>2563.0</ele></trkpt>
    <trkpt lat="34.15262" lon="-116.69508"><ele>2563.0</ele></trkpt>
    <trkpt lat="34.15259" lon="-116.69491"><ele>2563.0</ele></trkpt>
    <trkpt lat="34.15259" lon="-116.69471"><ele>2563.0</ele></trkpt>
    <trkpt lat="34.15258" lon="-116.69451"><ele>2563.0</ele></trkpt>
    <trkpt lat="34.15257" lon="-116.69436"><ele>2563.0</ele></trkpt>
    <trkpt lat="34.15255" lon="-116.69415"><ele>2573.0</ele></trkpt>
    <trkpt lat="34.15254" lon="-116.69396"><ele>2573.0</ele></trkpt>
    <trkpt lat="34.15254" lon="-116.69388"><ele>2573.0</ele></trkpt>
    <trkpt lat="34.15257" lon="-116.69378"><ele>2573.0</ele></trkpt>
    <trkpt lat="34.15263" lon="-116.69360"><ele>2573.0</ele></trkpt>
    <trkpt lat="34.15267" lon="-116.69348"><ele>2573.0</ele></trkpt>
    <trkpt lat="34.15268" lon="-116.69339"><ele>2573.0</ele></trkpt>
    <trkpt lat="34.15266" lon="-116.69325"><ele>2573.0</ele></trkpt>
    <trkpt lat="34.15263" lon="-116.69312"><ele>2573.0</ele></trkpt>
    <trkpt lat="34.15259" lon="-116.69298"><ele>2578.0</ele></trkpt>
    <trkpt lat="34.15256" lon="-116.69284"><ele>2578.0</ele></trkpt>
    <trkpt lat="34.15255" lon="-116.69272"><ele>2578.0</ele></trkpt>
    <trkpt lat="34.15257" lon="-116.69259"><ele>2578.0</ele></trkpt>
    <trkpt lat="34.15263" lon="-116.69241"><ele>2578.0</ele></trkpt>
    <trkpt lat="34.15277" lon="-116.69200"><ele>2578.0</ele></trkpt>
    <trkpt lat="34.15285" lon="-116.69176"><ele>2578.0</ele></trkpt>
    <trkpt lat="34.15292" lon="-116.69160"><ele>2578.0</ele></trkpt>
    <trkpt lat="34.15298" lon="-116.69151"><ele>2578.0</ele></trkpt>
    <trkpt lat="34.15308" lon="-116.69142"><ele>2584.0</ele></trkpt>
    <trkpt lat="34.15314" lon="-116.69137"><ele>2584.0</ele></trkpt>
    <trkpt lat="34.15315" lon="-116.69129"><ele>2584.0</ele></trkpt>
    <trkpt lat="34.15314" lon="-116.69122"><ele>2584.0</ele></trkpt>
    <trkpt lat="34.15308" lon="-116.69115"><ele>2584.0</ele></trkpt>
    <trkpt lat="34.15302" lon="-116.69113"><ele>2584.0</ele></trkpt>
    <trkpt lat="34.15293" lon="-116.69116"><ele>2584.0</ele></trkpt>
    <trkpt lat="34.15283" lon="-116.69118"><ele>2584.0</ele></trkpt>
    <trkpt lat="34.15278" lon="-116.69119"><ele>2584.0</ele></trkpt>
    <trkpt lat="34.15272" lon="-116.69117"><ele>2580.0</ele></trkpt>
    <trkpt lat="34.15266" lon="-116.69113"><ele>2580.0</ele></trkpt>
    <trkpt lat="34.15260" lon="-116.69109"><ele>2580.0</ele></trkpt>
    <trkpt lat="34.15254" lon="-116.69106"><ele>2580.0</ele></trkpt>
    <trkpt lat="34.15244" lon="-116.69102"><ele>2580.0</ele></trkpt>
    <trkpt lat="34.15233" lon="-116.69100"><ele>2580.0</ele></trkpt>
    <trkpt lat="34.15220" lon="-116.69095"><ele>2580.0</ele></trkpt>
    <trkpt lat="34.15211" lon="-116.69091"><ele>2580.0</ele></trkpt>
    <trkpt lat="34.15203" lon="-116.69087"><ele>2580.0</ele></trkpt>
    <trkpt lat="34.15197" lon="-116.69083"><ele>2571.0</ele></trkpt>
    <trkpt lat="34.15193" lon="-116.69076"><ele>2571.0</ele></trkpt>
    <trkpt lat="34.15190" lon="-116.69069"><ele>2571.0</ele></trkpt>
    <trkpt lat="34.15189" lon="-116.69061"><ele>2571.0</ele></trkpt>
    <trkpt lat="34.15189" lon="-116.69050"><ele>2571.0</ele></trkpt>
    <trkpt lat="34.15190" lon="-116.69040"><ele>2571.0</ele></trkpt>
    <trkpt lat="34.15189" lon="-116.69029"><ele>2571.0</ele></trkpt>
    <trkpt lat="34.15188" lon="-116.69015"><ele>2571.0</ele></trkpt>
    <trkpt lat="34.15190" lon="-116.68997"><ele>2571.0</ele></trkpt>
    <trkpt lat="34.15192" lon="-116.68981"><ele>2571.0</ele></trkpt>
    <trkpt lat="34.15194" lon="-116.68970"><ele>2571.0</ele></trkpt>
    <trkpt lat="34.15198" lon="-116.68958"><ele>2571.0</ele></trkpt>
    <trkpt lat="34.15198" lon="-116.68945"><ele>2571.0</ele></trkpt>
    <trkpt lat="34.15196" lon="-116.68933"><ele>2571.0</ele></trkpt>
    <trkpt lat="34.15192" lon="-116.68921"><ele>2571.0</ele></trkpt>
    <trkpt lat="34.15185" lon="-116.68908"><ele>2571.0</ele></trkpt>
    <trkpt lat="34.15175" lon="-116.68898"><ele>2571.0</ele></trkpt>
    <trkpt lat="34.15164" lon="-116.68884"><ele>2571.0</ele></trkpt>
    <trkpt lat="34.15157" lon="-116.68871"><ele>2553.0</ele></trkpt>
    <trkpt lat="34.15151" lon="-116.68853"><ele>2553.0</ele></trkpt>
    <trkpt lat="34.15149" lon="-116.68842"><ele>2553.0</ele></trkpt>
    <trkpt lat="34.15151" lon="-116.68829"><ele>2553.0</ele></trkpt>
    <trkpt lat="34.15153" lon="-116.68820"><ele>2553.0</ele></trkpt>
    <trkpt lat="34.15158" lon="-116.68812"><ele>2553.0</ele></trkpt>
    <trkpt lat="34.15164" lon="-116.68806"><ele>2553.0</ele></trkpt>
    <trkpt lat="34.15166" lon="-116.68800"><ele>2553.0</ele></trkpt>
    <trkpt lat="34.15164" lon="-116.68793"><ele>2553.0</ele></trkpt>
    <trkpt lat="34.15159" lon="-116.68791"><ele>2549.0</ele></trkpt>
    <trkpt lat="34.15152" lon="-116.68793"><ele>2549.0</ele></trkpt>
    <trkpt lat="34.15146" lon="-116.68797"><ele>2549.0</ele></trkpt>
    <trkpt lat="34.15145" lon="-116.68802"><ele>2549.0</ele></trkpt>
    <trkpt lat="34.15144" lon="-116.68813"><ele>2549.0</ele></trkpt>
    <trkpt lat="34.15142" lon="-116.68821"><ele>2549.0</ele></trkpt>
    <trkpt lat="34.15138" lon="-116.68831"><ele>2549.0</ele></trkpt>
    <trkpt lat="34.15134" lon="-116.68839"><ele>2549.0</ele></trkpt>
    <trkpt lat="34.15133" lon="-116.68847"><ele>2549.0</ele></trkpt>
    <trkpt lat="34.15134" lon="-116.68856"><ele>2554.0</ele></trkpt>
    <trkpt lat="34.15135" lon="-116.68864"><ele>2554.0</ele></trkpt>
    <trkpt lat="34.15135" lon="-116.68874"><ele>2554.0</ele></trkpt>
    <trkpt lat="34.15135" lon="-116.68886"><ele>2554.0</ele></trkpt>
    <trkpt lat="34.15136" lon="-116.68898"><ele>2554.0</ele></trkpt>
    <trkpt lat="34.15137" lon="-116.68906"><ele>2554.0</ele></trkpt>
    <trkpt lat="34.15141" lon="-116.68914"><ele>2554.0</ele></trkpt>
    <trkpt lat="34.15144" lon="-116.68924"><ele>2554.0</ele></trkpt>
    <trkpt lat="34.15143" lon="-116.68932"><ele>2554.0</ele></trkpt>
    <trkpt lat="34.15141" lon="-116.68939"><ele>2553.0</ele></trkpt>
    <trkpt lat="34.15137" lon="-116.68942"><ele>2553.0</ele></trkpt>
    <trkpt lat="34.15132" lon="-116.68940"><ele>2553.0</ele></trkpt>
    <trkpt lat="34.15130" lon="-116.68934"><ele>2553.0</ele></trkpt>
    <trkpt lat="34.15129" lon="-116.68926"><ele>2553.0</ele></trkpt>
    <trkpt lat="34.15129" lon="-116.68914"><ele>2553.0</ele></trkpt>
    <trkpt lat="34.15126" lon="-116.68899"><ele>2553.0</ele></trkpt>
    <trkpt lat="34.15123" lon="-116.68887"><ele>2553.0</ele></trkpt>
    <trkpt lat="34.15118" lon="-116.68874"><ele>2553.0</ele></trkpt>
    <trkpt lat="34.15111" lon="-116.68858"><ele>2539.0</ele></trkpt>
    <trkpt lat="34.15106" lon="-116.68844"><ele>2539.0</ele></trkpt>
    <trkpt lat="34.15105" lon="-116.68830"><ele>2539.0</ele></trkpt>
    <trkpt lat="34.15108" lon="-116.68818"><ele>2539.0</ele></trkpt>
    <trkpt lat="34.15108" lon="-116.68803"><ele>2539.0</ele></trkpt>
    <trkpt lat="34.15111" lon="-116.68787"><ele>2539.0</ele></trkpt>
    <trkpt lat="34.15117" lon="-116.68772"><ele>2539.0</ele></trkpt>
    <trkpt lat="34.15122" lon="-116.68761"><ele>2539.0</ele></trkpt>
    <trkpt lat="34.15129" lon="-116.68755"><ele>2539.0</ele></trkpt>
    <trkpt lat="34.15138" lon="-116.68751"><ele>2540.0</ele></trkpt>
    <trkpt lat="34.15152" lon="-116.68748"><ele>2540.0</ele></trkpt>
    <trkpt lat="34.15163" lon="-116.68748"><ele>2540.0</ele></trkpt>
    <trkpt lat="34.15177" lon="-116.68751"><ele>2540.0</ele></trkpt>
    <trkpt lat="34.15184" lon="-116.68755"><ele>2540.0</ele></trkpt>
    <trkpt lat="34.15190" lon="-116.68762"><ele>2540.0</ele></trkpt>
    <trkpt lat="34.15199" lon="-116.68769"><ele>2540.0</ele></trkpt>
    <trkpt lat="34.15210" lon="-116.68777"><ele>2540.0</ele></trkpt>
    <trkpt lat="34.15219" lon="-116.68783"><ele>2540.0</ele></trkpt>
    <trkpt lat="34.15227" lon="-116.68789"><ele>2539.0</ele></trkpt>
    <trkpt lat="34.15233" lon="-116.68789"><ele>2539.0</ele></trkpt>
    <trkpt lat="34.15236" lon="-116.68787"><ele>2539.0</ele></trkpt>
    <trkpt lat="34.15238" lon="-116.68781"><ele>2539.0</ele></trkpt>
    <trkpt lat="34.15236" lon="-116.68774"><ele>2539.0</ele></trkpt>
    <trkpt lat="34.15229" lon="-116.68763"><ele>2539.0</ele></trkpt>
    <trkpt lat="34.15221" lon="-116.68750"><ele>2539.0</ele></trkpt>
    <trkpt lat="34.15211" lon="-116.68736"><ele>2539.0</ele></trkpt>
    <trkpt lat="34.15199" lon="-116.68724"><ele>2539.0</ele></trkpt>
    <trkpt lat="34.15194" lon="-116.68717"><ele>2527.0</ele></trkpt>
    <trkpt lat="34.15189" lon="-116.68707"><ele>2527.0</ele></trkpt>
    <trkpt lat="34.15185" lon="-116.68697"><ele>2527.0</ele></trkpt>
    <trkpt lat="34.15182" lon="-116.68688"><ele>2527.0</ele></trkpt>
    <trkpt lat="34.15180" lon="-116.68680"><ele>2527.0</ele></trkpt>
    <trkpt lat="34.15179" lon="-116.68667"><ele>2527.0</ele></trkpt>
    <trkpt lat="34.15179" lon="-116.68655"><ele>2527.0</ele></trkpt>
    <trkpt lat="34.15179" lon="-116.68643"><ele>2527.0</ele></trkpt>
    <trkpt lat="34.15177" lon="-116.68631"><ele>2527.0</ele></trkpt>
    <trkpt lat="34.15172" lon="-116.68623"><ele>2516.0</ele></trkpt>
    <trkpt lat="34.15167" lon="-116.68617"><ele>2516.0</ele></trkpt>
    <trkpt lat="34.15164" lon="-116.68607"><ele>2516.0</ele></trkpt>
    <trkpt lat="34.15162" lon="-116.68598"><ele>2516.0</ele></trkpt>
    <trkpt lat="34.15158" lon="-116.68589"><ele>2516.0</ele></trkpt>
    <trkpt lat="34.15159" lon="-116.68580"><ele>2516.0</ele></trkpt>
    <trkpt lat="34.15162" lon="-116.68570"><ele>2516.0</ele></trkpt>
    <trkpt lat="34.15169" lon="-116.68556"><ele>2516.0</ele></trkpt>
    <trkpt lat="34.15172" lon="-116.68543"><ele>2516.0</ele></trkpt>
    <trkpt lat="34.15172" lon="-116.68533"><ele>2518.0</ele></trkpt>
    <trkpt lat="34.15166" lon="-116.68523"><ele>2518.0</ele></trkpt>
    <trkpt lat="34.15161" lon="-116.68511"><ele>2518.0</ele></trkpt>
    <trkpt lat="34.15159" lon="-116.68497"><ele>2518.0</ele></trkpt>
    <trkpt lat="34.15154" lon="-116.68475"><ele>2518.0</ele></trkpt>
    <trkpt lat="34.15153" lon="-116.68460"><ele>2518.0</ele></trkpt>
    <trkpt lat="34.15153" lon="-116.68447"><ele>2518.0</ele></trkpt>
    <trkpt lat="34.15157" lon="-116.68435"><ele>2518.0</ele></trkpt>
    <trkpt lat="34.15162" lon="-116.68424"><ele>2518.0</ele></trkpt>
    <trkpt lat="34.15168" lon="-116.68414"><ele>2517.0</ele></trkpt>
    <trkpt lat="34.15172" lon="-116.68404"><ele>2517.0</ele></trkpt>
    <trkpt lat="34.15174" lon="-116.68392"><ele>2517.0</ele></trkpt>
    <trkpt lat="34.15175" lon="-116.68376"><ele>2517.0</ele></trkpt>
    <trkpt lat="34.15173" lon="-116.68368"><ele>2517.0</ele></trkpt>
    <trkpt lat="34.15172" lon="-116.68356"><ele>2517.0</ele></trkpt>
    <trkpt lat="34.15173" lon="-116.68345"><ele>2517.0</ele></trkpt>
    <trkpt lat="34.15176" lon="-116.68332"><ele>2517.0</ele></trkpt>
    <trkpt lat="34.15176" lon="-116.68319"><ele>2517.0</ele></trkpt>
    <trkpt lat="34.15176" lon="-116.68305"><ele>2508.0</ele></trkpt>
    <trkpt lat="34.15174" lon="-116.68292"><ele>2508.0</ele></trkpt>
    <trkpt lat="34.15171" lon="-116.68278"><ele>2508.0</ele></trkpt>
    <trkpt lat="34.15169" lon="-116.68267"><ele>2508.0</ele></trkpt>
    <trkpt lat="34.15171" lon="-116.68252"><ele>2508.0</ele></trkpt>
    <trkpt lat="34.15175" lon="-116.68236"><ele>2508.0</ele></trkpt>
    <trkpt lat="34.15176" lon="-116.68215"><ele>2508.0</ele></trkpt>
    <trkpt lat="34.15173" lon="-116.68207"><ele>2508.0</ele></trkpt>
    <trkpt lat="34.15166" lon="-116.68204"><ele>2508.0</ele></trkpt>
    <trkpt lat="34.15144" lon="-116.68200"><ele>2501.0</ele></trkpt>
    <trkpt lat="34.15129" lon="-116.68199"><ele>2501.0</ele></trkpt>
    <trkpt lat="34.15116" lon="-116.68202"><ele>2501.0</ele></trkpt>
    <trkpt lat="34.15107" lon="-116.68200"><ele>2501.0</ele></trkpt>
    <trkpt lat="34.15092" lon="-116.68193"><ele>2501.0</ele></trkpt>
    <trkpt lat="34.15082" lon="-116.68186"><ele>2501.0</ele></trkpt>
    <trkpt lat="34.15077" lon="-116.68180"><ele>2501.0</ele></trkpt>
    <trkpt lat="34.15069" lon="-116.68167"><ele>2501.0</ele></trkpt>
    <trkpt lat="34.15062" lon="-116.68158"><ele>2501.0</ele></trkpt>
    <trkpt lat="34.15055" lon="-116.68153"><ele>2489.0</ele></trkpt>
    <trkpt lat="34.15044" lon="-116.68141"><ele>2489.0</ele></trkpt>
    <trkpt lat="34.15034" lon="-116.68128"><ele>2489.0</ele></trkpt>
    <trkpt lat="34.15027" lon="-116.68116"><ele>2489.0</ele></trkpt>
    <trkpt lat="34.15022" lon="-116.68102"><ele>2489.0</ele></trkpt>
    <trkpt lat="34.15018" lon="-116.68084"><ele>2489.0</ele></trkpt>
    <trkpt lat="34.15014" lon="-116.68068"><ele>2489.0</ele></trkpt>
    <trkpt lat="34.15010" lon="-116.68057"><ele>2489.0</ele></trkpt>
    <trkpt lat="34.15003" lon="-116.68041"><ele>2489.0</ele></trkpt>
    <trkpt lat="34.15000" lon="-116.68028"><ele>2476.0</ele></trkpt>
    <trkpt lat="34.14996" lon="-116.68013"><ele>2476.0</ele></trkpt>
    <trkpt lat="34.14991" lon="-116.68003"><ele>2476.0</ele></trkpt>
    <trkpt lat="34.14987" lon="-116.67996"><ele>2476.0</ele></trkpt>
    <trkpt lat="34.14980" lon="-116.67986"><ele>2476.0</ele></trkpt>
    <trkpt lat="34.14972" lon="-116.67980"><ele>2476.0</ele></trkpt>
    <trkpt lat="34.14958" lon="-116.67973"><ele>2476.0</ele></trkpt>
    <trkpt lat="34.14947" lon="-116.67968"><ele>2476.0</ele></trkpt>
    <trkpt lat="34.14934" lon="-116.67964"><ele>2476.0</ele></trkpt>
    <trkpt lat="34.14926" lon="-116.67959"><ele>2467.0</ele></trkpt>
    <trkpt lat="34.14920" lon="-116.67952"><ele>2467.0</ele></trkpt>
    <trkpt lat="34.14906" lon="-116.67941"><ele>2467.0</ele></trkpt>
    <trkpt lat="34.14896" lon="-116.67931"><ele>2467.0</ele></trkpt>
    <trkpt lat="34.14883" lon="-116.67920"><ele>2467.0</ele></trkpt>
    <trkpt lat="34.14876" lon="-116.67916"><ele>2467.0</ele></trkpt>
    <trkpt lat="34.14871" lon="-116.67915"><ele>2467.0</ele></trkpt>
    <trkpt lat="34.14865" lon="-116.67916"><ele>2467.0</ele></trkpt>
    <trkpt lat="34.14862" lon="-116.67923"><ele>2467.0</ele></trkpt>
    <trkpt lat="34.14860" lon="-116.67929"><ele>2474.0</ele></trkpt>
    <trkpt lat="34.14860" lon="-116.67945"><ele>2474.0</ele></trkpt>
    <trkpt lat="34.14858" lon="-116.67960"><ele>2474.0</ele></trkpt>
    <trkpt lat="34.14855" lon="-116.67970"><ele>2474.0</ele></trkpt>
    <trkpt lat="34.14853" lon="-116.67982"><ele>2474.0</ele></trkpt>
    <trkpt lat="34.14849" lon="-116.67993"><ele>2474.0</ele></trkpt>
    <trkpt lat="34.14844" lon="-116.67998"><ele>2474.0</ele></trkpt>
    <trkpt lat="34.14837" lon="-116.68002"><ele>2474.0</ele></trkpt>
    <trkpt lat="34.14830" lon="-116.68000"><ele>2474.0</ele></trkpt>
    <trkpt lat="34.14823" lon="-116.67986"><ele>2467.0</ele></trkpt>
    <trkpt lat="34.14818" lon="-116.67969"><ele>2467.0</ele></trkpt>
    <trkpt lat="34.14810" lon="-116.67949"><ele>2467.0</ele></trkpt>
    <trkpt lat="34.14805" lon="-116.67932"><ele>2467.0</ele></trkpt>
    <trkpt lat="34.14803" lon="-116.67920"><ele>2467.0</ele></trkpt>
  </trkseg></trk>
</gpx>
