<?xml version="1.0" encoding="UTF-8"?>
<gpx version="1.1" creator="dirt-bikes build-area-routes (MVUM geometry + SRTM elevation)" xmlns="http://www.topografix.com/GPX/1/1">
  <trk><name>Corral Canyon Road</name><trkseg>
    <trkpt lat="32.71033" lon="-116.52023"><ele>930.0</ele></trkpt>
    <trkpt lat="32.71061" lon="-116.52043"><ele>930.0</ele></trkpt>
    <trkpt lat="32.71126" lon="-116.52110"><ele>930.0</ele></trkpt>
    <trkpt lat="32.71164" lon="-116.52177"><ele>930.0</ele></trkpt>
    <trkpt lat="32.71231" lon="-116.52207"><ele>930.0</ele></trkpt>
    <trkpt lat="32.71276" lon="-116.52228"><ele>930.0</ele></trkpt>
    <trkpt lat="32.71345" lon="-116.52287"><ele>932.0</ele></trkpt>
    <trkpt lat="32.71371" lon="-116.52282"><ele>932.0</ele></trkpt>
    <trkpt lat="32.71428" lon="-116.52328"><ele>932.0</ele></trkpt>
    <trkpt lat="32.71456" lon="-116.52393"><ele>932.0</ele></trkpt>
    <trkpt lat="32.71456" lon="-116.52456"><ele>932.0</ele></trkpt>
    <trkpt lat="32.71498" lon="-116.52525"><ele>932.0</ele></trkpt>
    <trkpt lat="32.71515" lon="-116.52561"><ele>932.0</ele></trkpt>
    <trkpt lat="32.71594" lon="-116.52648"><ele>932.0</ele></trkpt>
    <trkpt lat="32.71668" lon="-116.52673"><ele>932.0</ele></trkpt>
    <trkpt lat="32.71728" lon="-116.52693"><ele>934.0</ele></trkpt>
    <trkpt lat="32.71816" lon="-116.52742"><ele>934.0</ele></trkpt>
    <trkpt lat="32.71855" lon="-116.52740"><ele>934.0</ele></trkpt>
    <trkpt lat="32.71917" lon="-116.52770"><ele>934.0</ele></trkpt>
    <trkpt lat="32.71978" lon="-116.52800"><ele>934.0</ele></trkpt>
    <trkpt lat="32.72033" lon="-116.52840"><ele>934.0</ele></trkpt>
    <trkpt lat="32.72066" lon="-116.52877"><ele>934.0</ele></trkpt>
    <trkpt lat="32.72138" lon="-116.52973"><ele>934.0</ele></trkpt>
    <trkpt lat="32.72175" lon="-116.53040"><ele>934.0</ele></trkpt>
    <trkpt lat="32.72188" lon="-116.53077"><ele>934.0</ele></trkpt>
    <trkpt lat="32.72211" lon="-116.53148"><ele>933.0</ele></trkpt>
    <trkpt lat="32.72257" lon="-116.53174"><ele>933.0</ele></trkpt>
    <trkpt lat="32.72286" lon="-116.53195"><ele>933.0</ele></trkpt>
    <trkpt lat="32.72314" lon="-116.53242"><ele>933.0</ele></trkpt>
    <trkpt lat="32.72348" lon="-116.53278"><ele>935.0</ele></trkpt>
    <trkpt lat="32.72342" lon="-116.53338"><ele>935.0</ele></trkpt>
    <trkpt lat="32.72324" lon="-116.53386"><ele>935.0</ele></trkpt>
    <trkpt lat="32.72318" lon="-116.53396"><ele>940.0</ele></trkpt>
    <trkpt lat="32.72303" lon="-116.53424"><ele>940.0</ele></trkpt>
    <trkpt lat="32.72309" lon="-116.53475"><ele>940.0</ele></trkpt>
    <trkpt lat="32.72337" lon="-116.53529"><ele>942.0</ele></trkpt>
    <trkpt lat="32.72361" lon="-116.53557"><ele>942.0</ele></trkpt>
    <trkpt lat="32.72391" lon="-116.53562"><ele>942.0</ele></trkpt>
    <trkpt lat="32.72508" lon="-116.53599"><ele>942.0</ele></trkpt>
    <trkpt lat="32.72550" lon="-116.53638"><ele>945.0</ele></trkpt>
    <trkpt lat="32.72582" lon="-116.53676"><ele>945.0</ele></trkpt>
    <trkpt lat="32.72631" lon="-116.53724"><ele>945.0</ele></trkpt>
    <trkpt lat="32.72658" lon="-116.53765"><ele>947.0</ele></trkpt>
    <trkpt lat="32.72674" lon="-116.53804"><ele>947.0</ele></trkpt>
    <trkpt lat="32.72728" lon="-116.53819"><ele>947.0</ele></trkpt>
    <trkpt lat="32.72754" lon="-116.53849"><ele>946.0</ele></trkpt>
    <trkpt lat="32.72811" lon="-116.53954"><ele>946.0</ele></trkpt>
    <trkpt lat="32.72823" lon="-116.53975"><ele>946.0</ele></trkpt>
    <trkpt lat="32.72828" lon="-116.53983"><ele>947.0</ele></trkpt>
    <trkpt lat="32.72859" lon="-116.54036"><ele>947.0</ele></trkpt>
    <trkpt lat="32.72889" lon="-116.54077"><ele>947.0</ele></trkpt>
    <trkpt lat="32.72915" lon="-116.54120"><ele>947.0</ele></trkpt>
    <trkpt lat="32.72964" lon="-116.54246"><ele>956.0</ele></trkpt>
    <trkpt lat="32.73005" lon="-116.54319"><ele>956.0</ele></trkpt>
    <trkpt lat="32.73045" lon="-116.54391"><ele>956.0</ele></trkpt>
    <trkpt lat="32.73049" lon="-116.54431"><ele>964.0</ele></trkpt>
    <trkpt lat="32.73077" lon="-116.54529"><ele>964.0</ele></trkpt>
    <trkpt lat="32.73116" lon="-116.54611"><ele>964.0</ele></trkpt>
    <trkpt lat="32.73144" lon="-116.54704"><ele>972.0</ele></trkpt>
    <trkpt lat="32.73164" lon="-116.54890"><ele>972.0</ele></trkpt>
    <trkpt lat="32.73181" lon="-116.54926"><ele>972.0</ele></trkpt>
    <trkpt lat="32.73205" lon="-116.54997"><ele>972.0</ele></trkpt>
    <trkpt lat="32.73223" lon="-116.55084"><ele>982.0</ele></trkpt>
    <trkpt lat="32.73247" lon="-116.55146"><ele>982.0</ele></trkpt>
    <trkpt lat="32.73243" lon="-116.55185"><ele>982.0</ele></trkpt>
    <trkpt lat="32.73254" lon="-116.55228"><ele>986.0</ele></trkpt>
    <trkpt lat="32.73281" lon="-116.55262"><ele>986.0</ele></trkpt>
    <trkpt lat="32.73367" lon="-116.55355"><ele>986.0</ele></trkpt>
    <trkpt lat="32.73418" lon="-116.55446"><ele>999.0</ele></trkpt>
    <trkpt lat="32.73468" lon="-116.55463"><ele>999.0</ele></trkpt>
    <trkpt lat="32.73482" lon="-116.55476"><ele>999.0</ele></trkpt>
    <trkpt lat="32.73487" lon="-116.55505"><ele>1003.0</ele></trkpt>
    <trkpt lat="32.73501" lon="-116.55526"><ele>1003.0</ele></trkpt>
    <trkpt lat="32.73526" lon="-116.55570"><ele>1003.0</ele></trkpt>
    <trkpt lat="32.73526" lon="-116.55598"><ele>1003.0</ele></trkpt>
    <trkpt lat="32.73538" lon="-116.55628"><ele>1013.0</ele></trkpt>
    <trkpt lat="32.73571" lon="-116.55674"><ele>1013.0</ele></trkpt>
    <trkpt lat="32.73587" lon="-116.55714"><ele>1013.0</ele></trkpt>
    <trkpt lat="32.73580" lon="-116.55730"><ele>1018.0</ele></trkpt>
    <trkpt lat="32.73578" lon="-116.55731"><ele>1018.0</ele></trkpt>
    <trkpt lat="32.73569" lon="-116.55735"><ele>1018.0</ele></trkpt>
    <trkpt lat="32.73547" lon="-116.55732"><ele>1016.0</ele></trkpt>
    <trkpt lat="32.73526" lon="-116.55738"><ele>1016.0</ele></trkpt>
    <trkpt lat="32.73516" lon="-116.55760"><ele>1016.0</ele></trkpt>
    <trkpt lat="32.73515" lon="-116.55799"><ele>1016.0</ele></trkpt>
    <trkpt lat="32.73506" lon="-116.55850"><ele>1034.0</ele></trkpt>
    <trkpt lat="32.73516" lon="-116.55899"><ele>1034.0</ele></trkpt>
    <trkpt lat="32.73513" lon="-116.55923"><ele>1034.0</ele></trkpt>
    <trkpt lat="32.73492" lon="-116.55942"><ele>1043.0</ele></trkpt>
    <trkpt lat="32.73474" lon="-116.55965"><ele>1043.0</ele></trkpt>
    <trkpt lat="32.73470" lon="-116.55992"><ele>1043.0</ele></trkpt>
    <trkpt lat="32.73452" lon="-116.55999"><ele>1049.0</ele></trkpt>
    <trkpt lat="32.73425" lon="-116.55989"><ele>1049.0</ele></trkpt>
    <trkpt lat="32.73383" lon="-116.55982"><ele>1049.0</ele></trkpt>
    <trkpt lat="32.73349" lon="-116.55967"><ele>1056.0</ele></trkpt>
    <trkpt lat="32.73327" lon="-116.55964"><ele>1056.0</ele></trkpt>
    <trkpt lat="32.73287" lon="-116.55986"><ele>1056.0</ele></trkpt>
    <trkpt lat="32.73250" lon="-116.56049"><ele>1056.0</ele></trkpt>
    <trkpt lat="32.73233" lon="-116.56060"><ele>1080.0</ele></trkpt>
    <trkpt lat="32.73218" lon="-116.56046"><ele>1080.0</ele></trkpt>
    <trkpt lat="32.73186" lon="-116.56042"><ele>1080.0</ele></trkpt>
    <trkpt lat="32.73161" lon="-116.56020"><ele>1087.0</ele></trkpt>
    <trkpt lat="32.73089" lon="-116.55996"><ele>1087.0</ele></trkpt>
    <trkpt lat="32.73061" lon="-116.56003"><ele>1087.0</ele></trkpt>
    <trkpt lat="32.73048" lon="-116.56032"><ele>1098.0</ele></trkpt>
    <trkpt lat="32.73019" lon="-116.56053"><ele>1098.0</ele></trkpt>
    <trkpt lat="32.73007" lon="-116.56076"><ele>1098.0</ele></trkpt>
    <trkpt lat="32.73006" lon="-116.56110"><ele>1098.0</ele></trkpt>
    <trkpt lat="32.72992" lon="-116.56121"><ele>1108.0</ele></trkpt>
    <trkpt lat="32.72973" lon="-116.56113"><ele>1108.0</ele></trkpt>
    <trkpt lat="32.72957" lon="-116.56107"><ele>1108.0</ele></trkpt>
    <trkpt lat="32.72937" lon="-116.56123"><ele>1113.0</ele></trkpt>
    <trkpt lat="32.72917" lon="-116.56107"><ele>1113.0</ele></trkpt>
    <trkpt lat="32.72906" lon="-116.56085"><ele>1113.0</ele></trkpt>
    <trkpt lat="32.72926" lon="-116.56027"><ele>1110.0</ele></trkpt>
    <trkpt lat="32.72927" lon="-116.56004"><ele>1110.0</ele></trkpt>
    <trkpt lat="32.72877" lon="-116.55956"><ele>1110.0</ele></trkpt>
    <trkpt lat="32.72843" lon="-116.55942"><ele>1110.0</ele></trkpt>
    <trkpt lat="32.72783" lon="-116.55941"><ele>1141.0</ele></trkpt>
    <trkpt lat="32.72753" lon="-116.55973"><ele>1141.0</ele></trkpt>
    <trkpt lat="32.72690" lon="-116.55971"><ele>1141.0</ele></trkpt>
    <trkpt lat="32.72675" lon="-116.55946"><ele>1154.0</ele></trkpt>
    <trkpt lat="32.72611" lon="-116.55920"><ele>1154.0</ele></trkpt>
    <trkpt lat="32.72587" lon="-116.55901"><ele>1154.0</ele></trkpt>
    <trkpt lat="32.72538" lon="-116.55871"><ele>1166.0</ele></trkpt>
    <trkpt lat="32.72514" lon="-116.55886"><ele>1166.0</ele></trkpt>
    <trkpt lat="32.72498" lon="-116.55925"><ele>1166.0</ele></trkpt>
    <trkpt lat="32.72493" lon="-116.55936"><ele>1168.0</ele></trkpt>
    <trkpt lat="32.72493" lon="-116.55936"><ele>1168.0</ele></trkpt>
    <trkpt lat="32.72492" lon="-116.55939"><ele>1168.0</ele></trkpt>
    <trkpt lat="32.72491" lon="-116.55942"><ele>1168.0</ele></trkpt>
    <trkpt lat="32.72489" lon="-116.55943"><ele>1168.0</ele></trkpt>
    <trkpt lat="32.72471" lon="-116.55957"><ele>1168.0</ele></trkpt>
    <trkpt lat="32.72443" lon="-116.55960"><ele>1168.0</ele></trkpt>
    <trkpt lat="32.72395" lon="-116.55987"><ele>1154.0</ele></trkpt>
    <trkpt lat="32.72322" lon="-116.56060"><ele>1154.0</ele></trkpt>
    <trkpt lat="32.72278" lon="-116.56089"><ele>1154.0</ele></trkpt>
    <trkpt lat="32.72219" lon="-116.56132"><ele>1133.0</ele></trkpt>
    <trkpt lat="32.72164" lon="-116.56182"><ele>1133.0</ele></trkpt>
    <trkpt lat="32.72138" lon="-116.56215"><ele>1133.0</ele></trkpt>
    <trkpt lat="32.72094" lon="-116.56269"><ele>1133.0</ele></trkpt>
    <trkpt lat="32.72086" lon="-116.56280"><ele>1120.0</ele></trkpt>
    <trkpt lat="32.72061" lon="-116.56315"><ele>1120.0</ele></trkpt>
    <trkpt lat="32.72045" lon="-116.56350"><ele>1120.0</ele></trkpt>
    <trkpt lat="32.72045" lon="-116.56396"><ele>1116.0</ele></trkpt>
    <trkpt lat="32.72042" lon="-116.56435"><ele>1116.0</ele></trkpt>
    <trkpt lat="32.72033" lon="-116.56471"><ele>1116.0</ele></trkpt>
    <trkpt lat="32.72032" lon="-116.56517"><ele>1114.0</ele></trkpt>
    <trkpt lat="32.72014" lon="-116.56564"><ele>1114.0</ele></trkpt>
    <trkpt lat="32.71981" lon="-116.56618"><ele>1114.0</ele></trkpt>
    <trkpt lat="32.71985" lon="-116.56633"><ele>1110.0</ele></trkpt>
    <trkpt lat="32.71964" lon="-116.56656"><ele>1110.0</ele></trkpt>
    <trkpt lat="32.71959" lon="-116.56674"><ele>1110.0</ele></trkpt>
    <trkpt lat="32.71935" lon="-116.56688"><ele>1110.0</ele></trkpt>
    <trkpt lat="32.71894" lon="-116.56703"><ele>1097.0</ele></trkpt>
    <trkpt lat="32.71876" lon="-116.56789"><ele>1097.0</ele></trkpt>
    <trkpt lat="32.71891" lon="-116.56821"><ele>1097.0</ele></trkpt>
    <trkpt lat="32.71888" lon="-116.56843"><ele>1098.0</ele></trkpt>
    <trkpt lat="32.71855" lon="-116.56865"><ele>1098.0</ele></trkpt>
    <trkpt lat="32.71839" lon="-116.56898"><ele>1098.0</ele></trkpt>
    <trkpt lat="32.71803" lon="-116.56918"><ele>1094.0</ele></trkpt>
    <trkpt lat="32.71781" lon="-116.56970"><ele>1094.0</ele></trkpt>
    <trkpt lat="32.71747" lon="-116.57021"><ele>1094.0</ele></trkpt>
    <trkpt lat="32.71743" lon="-116.57049"><ele>1094.0</ele></trkpt>
    <trkpt lat="32.71748" lon="-116.57078"><ele>1091.0</ele></trkpt>
    <trkpt lat="32.71744" lon="-116.57108"><ele>1091.0</ele></trkpt>
    <trkpt lat="32.71706" lon="-116.57112"><ele>1091.0</ele></trkpt>
    <trkpt lat="32.71653" lon="-116.57151"><ele>1081.0</ele></trkpt>
    <trkpt lat="32.71648" lon="-116.57172"><ele>1081.0</ele></trkpt>
    <trkpt lat="32.71655" lon="-116.57208"><ele>1081.0</ele></trkpt>
    <trkpt lat="32.71640" lon="-116.57227"><ele>1080.0</ele></trkpt>
    <trkpt lat="32.71608" lon="-116.57233"><ele>1080.0</ele></trkpt>
    <trkpt lat="32.71595" lon="-116.57234"><ele>1080.0</ele></trkpt>
    <trkpt lat="32.71573" lon="-116.57254"><ele>1077.0</ele></trkpt>
    <trkpt lat="32.71556" lon="-116.57260"><ele>1077.0</ele></trkpt>
    <trkpt lat="32.71526" lon="-116.57242"><ele>1077.0</ele></trkpt>
    <trkpt lat="32.71493" lon="-116.57224"><ele>1077.0</ele></trkpt>
    <trkpt lat="32.71438" lon="-116.57246"><ele>1068.0</ele></trkpt>
    <trkpt lat="32.71432" lon="-116.57250"><ele>1068.0</ele></trkpt>
    <trkpt lat="32.71421" lon="-116.57256"><ele>1068.0</ele></trkpt>
    <trkpt lat="32.71378" lon="-116.57281"><ele>1064.0</ele></trkpt>
    <trkpt lat="32.71352" lon="-116.57283"><ele>1064.0</ele></trkpt>
    <trkpt lat="32.71296" lon="-116.57313"><ele>1064.0</ele></trkpt>
    <trkpt lat="32.71203" lon="-116.57320"><ele>1052.0</ele></trkpt>
    <trkpt lat="32.71183" lon="-116.57333"><ele>1052.0</ele></trkpt>
    <trkpt lat="32.71166" lon="-116.57345"><ele>1052.0</ele></trkpt>
    <trkpt lat="32.71166" lon="-116.57345"><ele>1052.0</ele></trkpt>
    <trkpt lat="32.71148" lon="-116.57357"><ele>1050.0</ele></trkpt>
    <trkpt lat="32.71113" lon="-116.57351"><ele>1050.0</ele></trkpt>
    <trkpt lat="32.71066" lon="-116.57353"><ele>1050.0</ele></trkpt>
    <trkpt lat="32.71005" lon="-116.57407"><ele>1041.0</ele></trkpt>
    <trkpt lat="32.70998" lon="-116.57413"><ele>1041.0</ele></trkpt>
    <trkpt lat="32.70968" lon="-116.57454"><ele>1041.0</ele></trkpt>
    <trkpt lat="32.70974" lon="-116.57488"><ele>1042.0</ele></trkpt>
    <trkpt lat="32.70969" lon="-116.57517"><ele>1042.0</ele></trkpt>
    <trkpt lat="32.70973" lon="-116.57527"><ele>1042.0</ele></trkpt>
    <trkpt lat="32.70982" lon="-116.57563"><ele>1042.0</ele></trkpt>
    <trkpt lat="32.71050" lon="-116.57608"><ele>1032.0</ele></trkpt>
    <trkpt lat="32.71073" lon="-116.57663"><ele>1032.0</ele></trkpt>
    <trkpt lat="32.71111" lon="-116.57715"><ele>1032.0</ele></trkpt>
    <trkpt lat="32.71124" lon="-116.57741"><ele>1030.0</ele></trkpt>
    <trkpt lat="32.71129" lon="-116.57808"><ele>1030.0</ele></trkpt>
    <trkpt lat="32.71135" lon="-116.57894"><ele>1030.0</ele></trkpt>
    <trkpt lat="32.71185" lon="-116.57945"><ele>1019.0</ele></trkpt>
    <trkpt lat="32.71188" lon="-116.58024"><ele>1019.0</ele></trkpt>
    <trkpt lat="32.71204" lon="-116.58081"><ele>1019.0</ele></trkpt>
    <trkpt lat="32.71208" lon="-116.58133"><ele>1014.0</ele></trkpt>
    <trkpt lat="32.71209" lon="-116.58153"><ele>1014.0</ele></trkpt>
    <trkpt lat="32.71222" lon="-116.58185"><ele>1014.0</ele></trkpt>
    <trkpt lat="32.71238" lon="-116.58225"><ele>1014.0</ele></trkpt>
    <trkpt lat="32.71261" lon="-116.58250"><ele>1006.0</ele></trkpt>
    <trkpt lat="32.71274" lon="-116.58306"><ele>1006.0</ele></trkpt>
    <trkpt lat="32.71259" lon="-116.58392"><ele>1006.0</ele></trkpt>
    <trkpt lat="32.71261" lon="-116.58469"><ele>997.0</ele></trkpt>
    <trkpt lat="32.71243" lon="-116.58519"><ele>997.0</ele></trkpt>
    <trkpt lat="32.71239" lon="-116.58566"><ele>997.0</ele></trkpt>
    <trkpt lat="32.71299" lon="-116.58648"><ele>993.0</ele></trkpt>
    <trkpt lat="32.71366" lon="-116.58677"><ele>993.0</ele></trkpt>
    <trkpt lat="32.71401" lon="-116.58722"><ele>993.0</ele></trkpt>
    <trkpt lat="32.71423" lon="-116.58742"><ele>993.0</ele></trkpt>
    <trkpt lat="32.71459" lon="-116.58757"><ele>993.0</ele></trkpt>
    <trkpt lat="32.71487" lon="-116.58762"><ele>993.0</ele></trkpt>
    <trkpt lat="32.71520" lon="-116.58784"><ele>993.0</ele></trkpt>
    <trkpt lat="32.71533" lon="-116.58802"><ele>992.0</ele></trkpt>
    <trkpt lat="32.71527" lon="-116.58819"><ele>992.0</ele></trkpt>
    <trkpt lat="32.71478" lon="-116.58833"><ele>992.0</ele></trkpt>
    <trkpt lat="32.71468" lon="-116.58851"><ele>1002.0</ele></trkpt>
    <trkpt lat="32.71472" lon="-116.58895"><ele>1002.0</ele></trkpt>
    <trkpt lat="32.71444" lon="-116.58935"><ele>1002.0</ele></trkpt>
    <trkpt lat="32.71428" lon="-116.58972"><ele>1018.0</ele></trkpt>
    <trkpt lat="32.71389" lon="-116.58993"><ele>1018.0</ele></trkpt>
    <trkpt lat="32.71366" lon="-116.59025"><ele>1018.0</ele></trkpt>
    <trkpt lat="32.71322" lon="-116.59012"><ele>1018.0</ele></trkpt>
    <trkpt lat="32.71288" lon="-116.59038"><ele>1030.0</ele></trkpt>
    <trkpt lat="32.71270" lon="-116.59043"><ele>1030.0</ele></trkpt>
    <trkpt lat="32.71254" lon="-116.59031"><ele>1030.0</ele></trkpt>
    <trkpt lat="32.71233" lon="-116.59033"><ele>1035.0</ele></trkpt>
    <trkpt lat="32.71207" lon="-116.59059"><ele>1035.0</ele></trkpt>
    <trkpt lat="32.71194" lon="-116.59064"><ele>1035.0</ele></trkpt>
    <trkpt lat="32.71188" lon="-116.59066"><ele>1041.0</ele></trkpt>
    <trkpt lat="32.71156" lon="-116.59108"><ele>1041.0</ele></trkpt>
    <trkpt lat="32.71139" lon="-116.59157"><ele>1041.0</ele></trkpt>
    <trkpt lat="32.71115" lon="-116.59168"><ele>1041.0</ele></trkpt>
    <trkpt lat="32.71085" lon="-116.59201"><ele>1050.0</ele></trkpt>
    <trkpt lat="32.71060" lon="-116.59205"><ele>1050.0</ele></trkpt>
    <trkpt lat="32.71042" lon="-116.59226"><ele>1050.0</ele></trkpt>
    <trkpt lat="32.71001" lon="-116.59239"><ele>1054.0</ele></trkpt>
    <trkpt lat="32.70938" lon="-116.59273"><ele>1054.0</ele></trkpt>
    <trkpt lat="32.70925" lon="-116.59304"><ele>1054.0</ele></trkpt>
    <trkpt lat="32.70925" lon="-116.59309"><ele>1054.0</ele></trkpt>
    <trkpt lat="32.70924" lon="-116.59309"><ele>1054.0</ele></trkpt>
    <trkpt lat="32.70920" lon="-116.59368"><ele>1054.0</ele></trkpt>
    <trkpt lat="32.70911" lon="-116.59409"><ele>1048.0</ele></trkpt>
    <trkpt lat="32.70907" lon="-116.59470"><ele>1048.0</ele></trkpt>
    <trkpt lat="32.70913" lon="-116.59529"><ele>1048.0</ele></trkpt>
    <trkpt lat="32.70926" lon="-116.59560"><ele>1048.0</ele></trkpt>
    <trkpt lat="32.70933" lon="-116.59623"><ele>1038.0</ele></trkpt>
    <trkpt lat="32.70922" lon="-116.59662"><ele>1038.0</ele></trkpt>
    <trkpt lat="32.70925" lon="-116.59684"><ele>1038.0</ele></trkpt>
    <trkpt lat="32.70911" lon="-116.59708"><ele>1035.0</ele></trkpt>
    <trkpt lat="32.70872" lon="-116.59706"><ele>1035.0</ele></trkpt>
    <trkpt lat="32.70837" lon="-116.59730"><ele>1035.0</ele></trkpt>
    <trkpt lat="32.70805" lon="-116.59714"><ele>1031.0</ele></trkpt>
    <trkpt lat="32.70761" lon="-116.59711"><ele>1031.0</ele></trkpt>
    <trkpt lat="32.70741" lon="-116.59725"><ele>1031.0</ele></trkpt>
    <trkpt lat="32.70731" lon="-116.59730"><ele>1031.0</ele></trkpt>
    <trkpt lat="32.70721" lon="-116.59734"><ele>1012.0</ele></trkpt>
    <trkpt lat="32.70634" lon="-116.59751"><ele>1012.0</ele></trkpt>
    <trkpt lat="32.70608" lon="-116.59790"><ele>1012.0</ele></trkpt>
    <trkpt lat="32.70605" lon="-116.59837"><ele>1002.0</ele></trkpt>
    <trkpt lat="32.70613" lon="-116.59876"><ele>1002.0</ele></trkpt>
    <trkpt lat="32.70602" lon="-116.59902"><ele>1002.0</ele></trkpt>
    <trkpt lat="32.70605" lon="-116.59923"><ele>992.0</ele></trkpt>
    <trkpt lat="32.70630" lon="-116.59963"><ele>992.0</ele></trkpt>
    <trkpt lat="32.70633" lon="-116.59976"><ele>992.0</ele></trkpt>
    <trkpt lat="32.70618" lon="-116.59981"><ele>992.0</ele></trkpt>
    <trkpt lat="32.70593" lon="-116.59959"><ele>985.0</ele></trkpt>
    <trkpt lat="32.70546" lon="-116.59914"><ele>985.0</ele></trkpt>
    <trkpt lat="32.70548" lon="-116.59890"><ele>985.0</ele></trkpt>
    <trkpt lat="32.70538" lon="-116.59861"><ele>986.0</ele></trkpt>
    <trkpt lat="32.70541" lon="-116.59849"><ele>986.0</ele></trkpt>
    <trkpt lat="32.70531" lon="-116.59771"><ele>986.0</ele></trkpt>
    <trkpt lat="32.70508" lon="-116.59749"><ele>976.0</ele></trkpt>
    <trkpt lat="32.70483" lon="-116.59703"><ele>976.0</ele></trkpt>
    <trkpt lat="32.70482" lon="-116.59670"><ele>976.0</ele></trkpt>
    <trkpt lat="32.70456" lon="-116.59633"><ele>970.0</ele></trkpt>
    <trkpt lat="32.70423" lon="-116.59641"><ele>970.0</ele></trkpt>
    <trkpt lat="32.70411" lon="-116.59619"><ele>970.0</ele></trkpt>
    <trkpt lat="32.70409" lon="-116.59593"><ele>970.0</ele></trkpt>
    <trkpt lat="32.70395" lon="-116.59587"><ele>975.0</ele></trkpt>
    <trkpt lat="32.70380" lon="-116.59609"><ele>975.0</ele></trkpt>
    <trkpt lat="32.70376" lon="-116.59652"><ele>975.0</ele></trkpt>
    <trkpt lat="32.70373" lon="-116.59697"><ele>973.0</ele></trkpt>
    <trkpt lat="32.70361" lon="-116.59722"><ele>973.0</ele></trkpt>
  </trkseg></trk>
</gpx>
