<?xml version="1.0" encoding="UTF-8"?>
<gpx version="1.1" creator="dirt-bikes build-area-routes (MVUM geometry + SRTM elevation)" xmlns="http://www.topografix.com/GPX/1/1">
  <trk><name>Coxey Road Connector</name><trkseg>
    <trkpt lat="34.28367" lon="-116.96465"><ele>2197.0</ele></trkpt>
    <trkpt lat="34.28366" lon="-116.96489"><ele>2197.0</ele></trkpt>
    <trkpt lat="34.28365" lon="-116.96514"><ele>2197.0</ele></trkpt>
    <trkpt lat="34.28364" lon="-116.96544"><ele>2197.0</ele></trkpt>
    <trkpt lat="34.28365" lon="-116.96560"><ele>2197.0</ele></trkpt>
    <trkpt lat="34.28368" lon="-116.96585"><ele>2197.0</ele></trkpt>
    <trkpt lat="34.28373" lon="-116.96607"><ele>2197.0</ele></trkpt>
    <trkpt lat="34.28381" lon="-116.96637"><ele>2197.0</ele></trkpt>
    <trkpt lat="34.28389" lon="-116.96668"><ele>2196.0</ele></trkpt>
    <trkpt lat="34.28391" lon="-116.96685"><ele>2196.0</ele></trkpt>
    <trkpt lat="34.28392" lon="-116.96706"><ele>2196.0</ele></trkpt>
    <trkpt lat="34.28392" lon="-116.96729"><ele>2196.0</ele></trkpt>
    <trkpt lat="34.28393" lon="-116.96740"><ele>2196.0</ele></trkpt>
    <trkpt lat="34.28395" lon="-116.96751"><ele>2196.0</ele></trkpt>
    <trkpt lat="34.28398" lon="-116.96762"><ele>2196.0</ele></trkpt>
    <trkpt lat="34.28411" lon="-116.96791"><ele>2196.0</ele></trkpt>
    <trkpt lat="34.28423" lon="-116.96824"><ele>2196.0</ele></trkpt>
    <trkpt lat="34.28430" lon="-116.96840"><ele>2196.0</ele></trkpt>
    <trkpt lat="34.28448" lon="-116.96854"><ele>2196.0</ele></trkpt>
    <trkpt lat="34.28461" lon="-116.96862"><ele>2196.0</ele></trkpt>
    <trkpt lat="34.28465" lon="-116.96864"><ele>2196.0</ele></trkpt>
    <trkpt lat="34.28486" lon="-116.96876"><ele>2196.0</ele></trkpt>
    <trkpt lat="34.28502" lon="-116.96886"><ele>2196.0</ele></trkpt>
    <trkpt lat="34.28506" lon="-116.96890"><ele>2197.0</ele></trkpt>
    <trkpt lat="34.28518" lon="-116.96901"><ele>2197.0</ele></trkpt>
    <trkpt lat="34.28533" lon="-116.96921"><ele>2197.0</ele></trkpt>
    <trkpt lat="34.28547" lon="-116.96941"><ele>2197.0</ele></trkpt>
    <trkpt lat="34.28556" lon="-116.96959"><ele>2197.0</ele></trkpt>
    <trkpt lat="34.28563" lon="-116.96978"><ele>2197.0</ele></trkpt>
    <trkpt lat="34.28571" lon="-116.96994"><ele>2197.0</ele></trkpt>
    <trkpt lat="34.28580" lon="-116.97010"><ele>2197.0</ele></trkpt>
    <trkpt lat="34.28588" lon="-116.97023"><ele>2197.0</ele></trkpt>
    <trkpt lat="34.28598" lon="-116.97036"><ele>2197.0</ele></trkpt>
    <trkpt lat="34.28613" lon="-116.97049"><ele>2197.0</ele></trkpt>
    <trkpt lat="34.28627" lon="-116.97061"><ele>2197.0</ele></trkpt>
    <trkpt lat="34.28637" lon="-116.97066"><ele>2197.0</ele></trkpt>
    <trkpt lat="34.28660" lon="-116.97077"><ele>2197.0</ele></trkpt>
    <trkpt lat="34.28670" lon="-116.97083"><ele>2189.0</ele></trkpt>
    <trkpt lat="34.28679" lon="-116.97092"><ele>2189.0</ele></trkpt>
    <trkpt lat="34.28683" lon="-116.97098"><ele>2189.0</ele></trkpt>
    <trkpt lat="34.28687" lon="-116.97107"><ele>2189.0</ele></trkpt>
    <trkpt lat="34.28688" lon="-116.97120"><ele>2189.0</ele></trkpt>
    <trkpt lat="34.28692" lon="-116.97133"><ele>2189.0</ele></trkpt>
    <trkpt lat="34.28700" lon="-116.97144"><ele>2189.0</ele></trkpt>
    <trkpt lat="34.28710" lon="-116.97157"><ele>2189.0</ele></trkpt>
    <trkpt lat="34.28719" lon="-116.97171"><ele>2189.0</ele></trkpt>
    <trkpt lat="34.28725" lon="-116.97185"><ele>2189.0</ele></trkpt>
    <trkpt lat="34.28728" lon="-116.97198"><ele>2189.0</ele></trkpt>
    <trkpt lat="34.28729" lon="-116.97215"><ele>2189.0</ele></trkpt>
    <trkpt lat="34.28729" lon="-116.97232"><ele>2189.0</ele></trkpt>
    <trkpt lat="34.28730" lon="-116.97242"><ele>2189.0</ele></trkpt>
    <trkpt lat="34.28734" lon="-116.97251"><ele>2189.0</ele></trkpt>
    <trkpt lat="34.28747" lon="-116.97268"><ele>2182.0</ele></trkpt>
    <trkpt lat="34.28759" lon="-116.97282"><ele>2182.0</ele></trkpt>
    <trkpt lat="34.28769" lon="-116.97294"><ele>2182.0</ele></trkpt>
    <trkpt lat="34.28782" lon="-116.97307"><ele>2182.0</ele></trkpt>
    <trkpt lat="34.28796" lon="-116.97316"><ele>2182.0</ele></trkpt>
    <trkpt lat="34.28809" lon="-116.97325"><ele>2182.0</ele></trkpt>
    <trkpt lat="34.28831" lon="-116.97340"><ele>2182.0</ele></trkpt>
    <trkpt lat="34.28833" lon="-116.97341"><ele>2182.0</ele></trkpt>
    <trkpt lat="34.28846" lon="-116.97352"><ele>2182.0</ele></trkpt>
    <trkpt lat="34.28858" lon="-116.97359"><ele>2182.0</ele></trkpt>
    <trkpt lat="34.28864" lon="-116.97364"><ele>2182.0</ele></trkpt>
    <trkpt lat="34.28866" lon="-116.97366"><ele>2182.0</ele></trkpt>
    <trkpt lat="34.28867" lon="-116.97367"><ele>2182.0</ele></trkpt>
    <trkpt lat="34.28871" lon="-116.97374"><ele>2182.0</ele></trkpt>
    <trkpt lat="34.28872" lon="-116.97376"><ele>2172.0</ele></trkpt>
    <trkpt lat="34.28873" lon="-116.97378"><ele>2172.0</ele></trkpt>
    <trkpt lat="34.28875" lon="-116.97386"><ele>2172.0</ele></trkpt>
    <trkpt lat="34.28878" lon="-116.97400"><ele>2172.0</ele></trkpt>
    <trkpt lat="34.28882" lon="-116.97420"><ele>2172.0</ele></trkpt>
    <trkpt lat="34.28885" lon="-116.97432"><ele>2172.0</ele></trkpt>
    <trkpt lat="34.28893" lon="-116.97443"><ele>2172.0</ele></trkpt>
    <trkpt lat="34.28902" lon="-116.97456"><ele>2172.0</ele></trkpt>
    <trkpt lat="34.28909" lon="-116.97461"><ele>2172.0</ele></trkpt>
    <trkpt lat="34.28917" lon="-116.97462"><ele>2172.0</ele></trkpt>
    <trkpt lat="34.28926" lon="-116.97459"><ele>2172.0</ele></trkpt>
    <trkpt lat="34.28936" lon="-116.97454"><ele>2172.0</ele></trkpt>
    <trkpt lat="34.28944" lon="-116.97455"><ele>2172.0</ele></trkpt>
    <trkpt lat="34.28951" lon="-116.97457"><ele>2172.0</ele></trkpt>
    <trkpt lat="34.28955" lon="-116.97465"><ele>2172.0</ele></trkpt>
    <trkpt lat="34.28958" lon="-116.97478"><ele>2163.0</ele></trkpt>
    <trkpt lat="34.28957" lon="-116.97493"><ele>2163.0</ele></trkpt>
    <trkpt lat="34.28955" lon="-116.97508"><ele>2163.0</ele></trkpt>
    <trkpt lat="34.28951" lon="-116.97522"><ele>2163.0</ele></trkpt>
    <trkpt lat="34.28944" lon="-116.97539"><ele>2163.0</ele></trkpt>
    <trkpt lat="34.28943" lon="-116.97549"><ele>2163.0</ele></trkpt>
    <trkpt lat="34.28943" lon="-116.97560"><ele>2163.0</ele></trkpt>
    <trkpt lat="34.28945" lon="-116.97569"><ele>2163.0</ele></trkpt>
    <trkpt lat="34.28951" lon="-116.97579"><ele>2163.0</ele></trkpt>
    <trkpt lat="34.28958" lon="-116.97586"><ele>2163.0</ele></trkpt>
    <trkpt lat="34.28966" lon="-116.97589"><ele>2163.0</ele></trkpt>
    <trkpt lat="34.28978" lon="-116.97593"><ele>2163.0</ele></trkpt>
    <trkpt lat="34.28986" lon="-116.97597"><ele>2163.0</ele></trkpt>
    <trkpt lat="34.28990" lon="-116.97604"><ele>2163.0</ele></trkpt>
    <trkpt lat="34.28992" lon="-116.97612"><ele>2163.0</ele></trkpt>
    <trkpt lat="34.28991" lon="-116.97622"><ele>2161.0</ele></trkpt>
    <trkpt lat="34.28988" lon="-116.97635"><ele>2161.0</ele></trkpt>
    <trkpt lat="34.28983" lon="-116.97650"><ele>2161.0</ele></trkpt>
    <trkpt lat="34.28982" lon="-116.97658"><ele>2161.0</ele></trkpt>
    <trkpt lat="34.28983" lon="-116.97670"><ele>2161.0</ele></trkpt>
    <trkpt lat="34.28987" lon="-116.97704"><ele>2161.0</ele></trkpt>
    <trkpt lat="34.28990" lon="-116.97732"><ele>2161.0</ele></trkpt>
    <trkpt lat="34.28992" lon="-116.97746"><ele>2161.0</ele></trkpt>
    <trkpt lat="34.28997" lon="-116.97760"><ele>2161.0</ele></trkpt>
    <trkpt lat="34.29005" lon="-116.97774"><ele>2161.0</ele></trkpt>
    <trkpt lat="34.29015" lon="-116.97786"><ele>2161.0</ele></trkpt>
    <trkpt lat="34.29025" lon="-116.97798"><ele>2161.0</ele></trkpt>
    <trkpt lat="34.29031" lon="-116.97810"><ele>2161.0</ele></trkpt>
    <trkpt lat="34.29034" lon="-116.97821"><ele>2161.0</ele></trkpt>
    <trkpt lat="34.29033" lon="-116.97834"><ele>2157.0</ele></trkpt>
    <trkpt lat="34.29030" lon="-116.97843"><ele>2157.0</ele></trkpt>
    <trkpt lat="34.29023" lon="-116.97849"><ele>2157.0</ele></trkpt>
    <trkpt lat="34.29014" lon="-116.97852"><ele>2157.0</ele></trkpt>
    <trkpt lat="34.29006" lon="-116.97858"><ele>2157.0</ele></trkpt>
    <trkpt lat="34.29002" lon="-116.97871"><ele>2157.0</ele></trkpt>
    <trkpt lat="34.29003" lon="-116.97893"><ele>2157.0</ele></trkpt>
    <trkpt lat="34.29003" lon="-116.97908"><ele>2157.0</ele></trkpt>
    <trkpt lat="34.29004" lon="-116.97919"><ele>2157.0</ele></trkpt>
    <trkpt lat="34.29009" lon="-116.97929"><ele>2157.0</ele></trkpt>
    <trkpt lat="34.29020" lon="-116.97943"><ele>2157.0</ele></trkpt>
    <trkpt lat="34.29032" lon="-116.97959"><ele>2157.0</ele></trkpt>
    <trkpt lat="34.29043" lon="-116.97974"><ele>2157.0</ele></trkpt>
    <trkpt lat="34.29050" lon="-116.97988"><ele>2157.0</ele></trkpt>
    <trkpt lat="34.29057" lon="-116.98000"><ele>2157.0</ele></trkpt>
    <trkpt lat="34.29062" lon="-116.98008"><ele>2149.0</ele></trkpt>
    <trkpt lat="34.29063" lon="-116.98017"><ele>2149.0</ele></trkpt>
    <trkpt lat="34.29065" lon="-116.98028"><ele>2149.0</ele></trkpt>
    <trkpt lat="34.29066" lon="-116.98040"><ele>2149.0</ele></trkpt>
    <trkpt lat="34.29069" lon="-116.98047"><ele>2149.0</ele></trkpt>
    <trkpt lat="34.29077" lon="-116.98055"><ele>2149.0</ele></trkpt>
    <trkpt lat="34.29087" lon="-116.98057"><ele>2149.0</ele></trkpt>
    <trkpt lat="34.29098" lon="-116.98058"><ele>2149.0</ele></trkpt>
    <trkpt lat="34.29110" lon="-116.98060"><ele>2149.0</ele></trkpt>
    <trkpt lat="34.29121" lon="-116.98067"><ele>2149.0</ele></trkpt>
    <trkpt lat="34.29134" lon="-116.98078"><ele>2149.0</ele></trkpt>
    <trkpt lat="34.29140" lon="-116.98088"><ele>2149.0</ele></trkpt>
    <trkpt lat="34.29143" lon="-116.98094"><ele>2149.0</ele></trkpt>
    <trkpt lat="34.29144" lon="-116.98105"><ele>2149.0</ele></trkpt>
    <trkpt lat="34.29145" lon="-116.98144"><ele>2139.0</ele></trkpt>
    <trkpt lat="34.29149" lon="-116.98169"><ele>2139.0</ele></trkpt>
    <trkpt lat="34.29152" lon="-116.98187"><ele>2139.0</ele></trkpt>
    <trkpt lat="34.29156" lon="-116.98199"><ele>2139.0</ele></trkpt>
    <trkpt lat="34.29161" lon="-116.98207"><ele>2139.0</ele></trkpt>
    <trkpt lat="34.29183" lon="-116.98231"><ele>2139.0</ele></trkpt>
    <trkpt lat="34.29198" lon="-116.98249"><ele>2139.0</ele></trkpt>
    <trkpt lat="34.29202" lon="-116.98258"><ele>2139.0</ele></trkpt>
    <trkpt lat="34.29204" lon="-116.98269"><ele>2139.0</ele></trkpt>
    <trkpt lat="34.29204" lon="-116.98281"><ele>2139.0</ele></trkpt>
    <trkpt lat="34.29203" lon="-116.98292"><ele>2139.0</ele></trkpt>
    <trkpt lat="34.29204" lon="-116.98302"><ele>2139.0</ele></trkpt>
    <trkpt lat="34.29207" lon="-116.98311"><ele>2139.0</ele></trkpt>
    <trkpt lat="34.29209" lon="-116.98314"><ele>2139.0</ele></trkpt>
    <trkpt lat="34.29216" lon="-116.98330"><ele>2139.0</ele></trkpt>
    <trkpt lat="34.29218" lon="-116.98334"><ele>2123.0</ele></trkpt>
    <trkpt lat="34.29223" lon="-116.98345"><ele>2123.0</ele></trkpt>
    <trkpt lat="34.29231" lon="-116.98359"><ele>2123.0</ele></trkpt>
    <trkpt lat="34.29238" lon="-116.98368"><ele>2123.0</ele></trkpt>
    <trkpt lat="34.29239" lon="-116.98369"><ele>2123.0</ele></trkpt>
    <trkpt lat="34.29245" lon="-116.98375"><ele>2123.0</ele></trkpt>
    <trkpt lat="34.29253" lon="-116.98380"><ele>2123.0</ele></trkpt>
    <trkpt lat="34.29258" lon="-116.98381"><ele>2123.0</ele></trkpt>
    <trkpt lat="34.29260" lon="-116.98382"><ele>2123.0</ele></trkpt>
    <trkpt lat="34.29267" lon="-116.98382"><ele>2123.0</ele></trkpt>
    <trkpt lat="34.29276" lon="-116.98378"><ele>2123.0</ele></trkpt>
    <trkpt lat="34.29295" lon="-116.98367"><ele>2123.0</ele></trkpt>
    <trkpt lat="34.29304" lon="-116.98366"><ele>2123.0</ele></trkpt>
    <trkpt lat="34.29320" lon="-116.98369"><ele>2123.0</ele></trkpt>
    <trkpt lat="34.29331" lon="-116.98376"><ele>2123.0</ele></trkpt>
    <trkpt lat="34.29341" lon="-116.98383"><ele>2110.0</ele></trkpt>
    <trkpt lat="34.29355" lon="-116.98391"><ele>2110.0</ele></trkpt>
    <trkpt lat="34.29370" lon="-116.98397"><ele>2110.0</ele></trkpt>
    <trkpt lat="34.29383" lon="-116.98403"><ele>2110.0</ele></trkpt>
    <trkpt lat="34.29399" lon="-116.98410"><ele>2110.0</ele></trkpt>
    <trkpt lat="34.29411" lon="-116.98415"><ele>2110.0</ele></trkpt>
    <trkpt lat="34.29422" lon="-116.98415"><ele>2110.0</ele></trkpt>
    <trkpt lat="34.29432" lon="-116.98413"><ele>2110.0</ele></trkpt>
    <trkpt lat="34.29442" lon="-116.98411"><ele>2110.0</ele></trkpt>
    <trkpt lat="34.29455" lon="-116.98412"><ele>2110.0</ele></trkpt>
    <trkpt lat="34.29472" lon="-116.98416"><ele>2110.0</ele></trkpt>
    <trkpt lat="34.29484" lon="-116.98416"><ele>2110.0</ele></trkpt>
    <trkpt lat="34.29493" lon="-116.98418"><ele>2110.0</ele></trkpt>
    <trkpt lat="34.29507" lon="-116.98421"><ele>2110.0</ele></trkpt>
    <trkpt lat="34.29517" lon="-116.98422"><ele>2106.0</ele></trkpt>
    <trkpt lat="34.29528" lon="-116.98420"><ele>2106.0</ele></trkpt>
    <trkpt lat="34.29533" lon="-116.98416"><ele>2106.0</ele></trkpt>
    <trkpt lat="34.29540" lon="-116.98412"><ele>2106.0</ele></trkpt>
    <trkpt lat="34.29546" lon="-116.98410"><ele>2106.0</ele></trkpt>
    <trkpt lat="34.29552" lon="-116.98415"><ele>2106.0</ele></trkpt>
    <trkpt lat="34.29553" lon="-116.98424"><ele>2106.0</ele></trkpt>
    <trkpt lat="34.29547" lon="-116.98446"><ele>2106.0</ele></trkpt>
    <trkpt lat="34.29544" lon="-116.98459"><ele>2106.0</ele></trkpt>
    <trkpt lat="34.29540" lon="-116.98470"><ele>2106.0</ele></trkpt>
    <trkpt lat="34.29534" lon="-116.98477"><ele>2106.0</ele></trkpt>
    <trkpt lat="34.29523" lon="-116.98488"><ele>2106.0</ele></trkpt>
    <trkpt lat="34.29512" lon="-116.98500"><ele>2106.0</ele></trkpt>
    <trkpt lat="34.29504" lon="-116.98513"><ele>2106.0</ele></trkpt>
    <trkpt lat="34.29496" lon="-116.98529"><ele>2106.0</ele></trkpt>
    <trkpt lat="34.29490" lon="-116.98543"><ele>2072.0</ele></trkpt>
    <trkpt lat="34.29487" lon="-116.98554"><ele>2072.0</ele></trkpt>
    <trkpt lat="34.29484" lon="-116.98570"><ele>2072.0</ele></trkpt>
    <trkpt lat="34.29484" lon="-116.98586"><ele>2072.0</ele></trkpt>
    <trkpt lat="34.29485" lon="-116.98600"><ele>2072.0</ele></trkpt>
    <trkpt lat="34.29493" lon="-116.98631"><ele>2072.0</ele></trkpt>
    <trkpt lat="34.29502" lon="-116.98664"><ele>2072.0</ele></trkpt>
    <trkpt lat="34.29511" lon="-116.98700"><ele>2072.0</ele></trkpt>
    <trkpt lat="34.29515" lon="-116.98721"><ele>2072.0</ele></trkpt>
    <trkpt lat="34.29517" lon="-116.98736"><ele>2072.0</ele></trkpt>
    <trkpt lat="34.29518" lon="-116.98746"><ele>2072.0</ele></trkpt>
    <trkpt lat="34.29521" lon="-116.98752"><ele>2072.0</ele></trkpt>
    <trkpt lat="34.29525" lon="-116.98757"><ele>2072.0</ele></trkpt>
    <trkpt lat="34.29533" lon="-116.98759"><ele>2072.0</ele></trkpt>
    <trkpt lat="34.29540" lon="-116.98756"><ele>2065.0</ele></trkpt>
    <trkpt lat="34.29544" lon="-116.98752"><ele>2065.0</ele></trkpt>
    <trkpt lat="34.29548" lon="-116.98740"><ele>2065.0</ele></trkpt>
    <trkpt lat="34.29554" lon="-116.98731"><ele>2065.0</ele></trkpt>
    <trkpt lat="34.29563" lon="-116.98722"><ele>2065.0</ele></trkpt>
    <trkpt lat="34.29576" lon="-116.98710"><ele>2065.0</ele></trkpt>
    <trkpt lat="34.29588" lon="-116.98701"><ele>2065.0</ele></trkpt>
    <trkpt lat="34.29601" lon="-116.98695"><ele>2065.0</ele></trkpt>
    <trkpt lat="34.29613" lon="-116.98692"><ele>2065.0</ele></trkpt>
    <trkpt lat="34.29624" lon="-116.98692"><ele>2065.0</ele></trkpt>
    <trkpt lat="34.29633" lon="-116.98689"><ele>2065.0</ele></trkpt>
    <trkpt lat="34.29637" lon="-116.98684"><ele>2065.0</ele></trkpt>
    <trkpt lat="34.29641" lon="-116.98672"><ele>2065.0</ele></trkpt>
    <trkpt lat="34.29646" lon="-116.98655"><ele>2065.0</ele></trkpt>
    <trkpt lat="34.29649" lon="-116.98645"><ele>2065.0</ele></trkpt>
    <trkpt lat="34.29659" lon="-116.98637"><ele>2043.0</ele></trkpt>
    <trkpt lat="34.29674" lon="-116.98630"><ele>2043.0</ele></trkpt>
    <trkpt lat="34.29693" lon="-116.98626"><ele>2043.0</ele></trkpt>
    <trkpt lat="34.29703" lon="-116.98625"><ele>2043.0</ele></trkpt>
    <trkpt lat="34.29712" lon="-116.98629"><ele>2043.0</ele></trkpt>
    <trkpt lat="34.29723" lon="-116.98638"><ele>2043.0</ele></trkpt>
    <trkpt lat="34.29735" lon="-116.98643"><ele>2043.0</ele></trkpt>
    <trkpt lat="34.29751" lon="-116.98649"><ele>2043.0</ele></trkpt>
    <trkpt lat="34.29762" lon="-116.98647"><ele>2043.0</ele></trkpt>
    <trkpt lat="34.29775" lon="-116.98641"><ele>2043.0</ele></trkpt>
    <trkpt lat="34.29786" lon="-116.98639"><ele>2043.0</ele></trkpt>
    <trkpt lat="34.29796" lon="-116.98639"><ele>2043.0</ele></trkpt>
    <trkpt lat="34.29805" lon="-116.98636"><ele>2043.0</ele></trkpt>
    <trkpt lat="34.29814" lon="-116.98630"><ele>2043.0</ele></trkpt>
    <trkpt lat="34.29830" lon="-116.98614"><ele>2043.0</ele></trkpt>
    <trkpt lat="34.29845" lon="-116.98599"><ele>2035.0</ele></trkpt>
    <trkpt lat="34.29852" lon="-116.98587"><ele>2035.0</ele></trkpt>
    <trkpt lat="34.29863" lon="-116.98563"><ele>2035.0</ele></trkpt>
    <trkpt lat="34.29874" lon="-116.98532"><ele>2035.0</ele></trkpt>
    <trkpt lat="34.29883" lon="-116.98508"><ele>2035.0</ele></trkpt>
    <trkpt lat="34.29885" lon="-116.98493"><ele>2035.0</ele></trkpt>
    <trkpt lat="34.29886" lon="-116.98468"><ele>2035.0</ele></trkpt>
    <trkpt lat="34.29889" lon="-116.98450"><ele>2035.0</ele></trkpt>
    <trkpt lat="34.29895" lon="-116.98435"><ele>2035.0</ele></trkpt>
    <trkpt lat="34.29901" lon="-116.98417"><ele>2035.0</ele></trkpt>
    <trkpt lat="34.29903" lon="-116.98405"><ele>2035.0</ele></trkpt>
    <trkpt lat="34.29901" lon="-116.98389"><ele>2035.0</ele></trkpt>
    <trkpt lat="34.29896" lon="-116.98368"><ele>2035.0</ele></trkpt>
    <trkpt lat="34.29893" lon="-116.98352"><ele>2035.0</ele></trkpt>
    <trkpt lat="34.29891" lon="-116.98336"><ele>2026.0</ele></trkpt>
    <trkpt lat="34.29893" lon="-116.98327"><ele>2026.0</ele></trkpt>
    <trkpt lat="34.29897" lon="-116.98305"><ele>2026.0</ele></trkpt>
    <trkpt lat="34.29897" lon="-116.98294"><ele>2026.0</ele></trkpt>
    <trkpt lat="34.29898" lon="-116.98282"><ele>2026.0</ele></trkpt>
    <trkpt lat="34.29900" lon="-116.98269"><ele>2026.0</ele></trkpt>
    <trkpt lat="34.29901" lon="-116.98254"><ele>2026.0</ele></trkpt>
    <trkpt lat="34.29901" lon="-116.98245"><ele>2026.0</ele></trkpt>
    <trkpt lat="34.29900" lon="-116.98235"><ele>2026.0</ele></trkpt>
    <trkpt lat="34.29902" lon="-116.98227"><ele>2026.0</ele></trkpt>
    <trkpt lat="34.29905" lon="-116.98219"><ele>2026.0</ele></trkpt>
    <trkpt lat="34.29919" lon="-116.98192"><ele>2026.0</ele></trkpt>
    <trkpt lat="34.29928" lon="-116.98177"><ele>2026.0</ele></trkpt>
    <trkpt lat="34.29939" lon="-116.98163"><ele>2026.0</ele></trkpt>
    <trkpt lat="34.29948" lon="-116.98145"><ele>2026.0</ele></trkpt>
    <trkpt lat="34.29957" lon="-116.98124"><ele>2011.0</ele></trkpt>
    <trkpt lat="34.29966" lon="-116.98108"><ele>2011.0</ele></trkpt>
    <trkpt lat="34.29975" lon="-116.98098"><ele>2011.0</ele></trkpt>
    <trkpt lat="34.29982" lon="-116.98083"><ele>2011.0</ele></trkpt>
    <trkpt lat="34.29990" lon="-116.98072"><ele>2011.0</ele></trkpt>
    <trkpt lat="34.29998" lon="-116.98063"><ele>2011.0</ele></trkpt>
    <trkpt lat="34.30008" lon="-116.98058"><ele>2011.0</ele></trkpt>
    <trkpt lat="34.30018" lon="-116.98061"><ele>2011.0</ele></trkpt>
    <trkpt lat="34.30026" lon="-116.98066"><ele>2011.0</ele></trkpt>
    <trkpt lat="34.30032" lon="-116.98074"><ele>2011.0</ele></trkpt>
    <trkpt lat="34.30035" lon="-116.98084"><ele>2011.0</ele></trkpt>
    <trkpt lat="34.30035" lon="-116.98095"><ele>2011.0</ele></trkpt>
    <trkpt lat="34.30033" lon="-116.98106"><ele>2011.0</ele></trkpt>
    <trkpt lat="34.30029" lon="-116.98118"><ele>2011.0</ele></trkpt>
    <trkpt lat="34.30020" lon="-116.98136"><ele>1995.0</ele></trkpt>
    <trkpt lat="34.30014" lon="-116.98150"><ele>1995.0</ele></trkpt>
    <trkpt lat="34.30012" lon="-116.98163"><ele>1995.0</ele></trkpt>
    <trkpt lat="34.30013" lon="-116.98176"><ele>1995.0</ele></trkpt>
    <trkpt lat="34.30016" lon="-116.98193"><ele>1995.0</ele></trkpt>
    <trkpt lat="34.30021" lon="-116.98208"><ele>1995.0</ele></trkpt>
    <trkpt lat="34.30029" lon="-116.98221"><ele>1995.0</ele></trkpt>
    <trkpt lat="34.30038" lon="-116.98230"><ele>1995.0</ele></trkpt>
    <trkpt lat="34.30042" lon="-116.98236"><ele>1995.0</ele></trkpt>
    <trkpt lat="34.30050" lon="-116.98249"><ele>1995.0</ele></trkpt>
    <trkpt lat="34.30063" lon="-116.98269"><ele>1995.0</ele></trkpt>
    <trkpt lat="34.30073" lon="-116.98287"><ele>1995.0</ele></trkpt>
    <trkpt lat="34.30078" lon="-116.98298"><ele>1995.0</ele></trkpt>
    <trkpt lat="34.30081" lon="-116.98310"><ele>1995.0</ele></trkpt>
    <trkpt lat="34.30082" lon="-116.98313"><ele>1995.0</ele></trkpt>
    <trkpt lat="34.30085" lon="-116.98325"><ele>2004.0</ele></trkpt>
    <trkpt lat="34.30088" lon="-116.98339"><ele>2004.0</ele></trkpt>
    <trkpt lat="34.30091" lon="-116.98347"><ele>2004.0</ele></trkpt>
    <trkpt lat="34.30096" lon="-116.98355"><ele>2004.0</ele></trkpt>
    <trkpt lat="34.30103" lon="-116.98361"><ele>2004.0</ele></trkpt>
    <trkpt lat="34.30111" lon="-116.98363"><ele>2004.0</ele></trkpt>
    <trkpt lat="34.30123" lon="-116.98363"><ele>2004.0</ele></trkpt>
    <trkpt lat="34.30135" lon="-116.98361"><ele>2004.0</ele></trkpt>
    <trkpt lat="34.30152" lon="-116.98358"><ele>2004.0</ele></trkpt>
    <trkpt lat="34.30160" lon="-116.98358"><ele>2004.0</ele></trkpt>
    <trkpt lat="34.30173" lon="-116.98362"><ele>2004.0</ele></trkpt>
    <trkpt lat="34.30194" lon="-116.98368"><ele>2004.0</ele></trkpt>
    <trkpt lat="34.30203" lon="-116.98370"><ele>2004.0</ele></trkpt>
    <trkpt lat="34.30206" lon="-116.98370"><ele>2004.0</ele></trkpt>
    <trkpt lat="34.30207" lon="-116.98370"><ele>2004.0</ele></trkpt>
    <trkpt lat="34.30210" lon="-116.98369"><ele>2014.0</ele></trkpt>
    <trkpt lat="34.30216" lon="-116.98366"><ele>2014.0</ele></trkpt>
    <trkpt lat="34.30219" lon="-116.98363"><ele>2014.0</ele></trkpt>
    <trkpt lat="34.30221" lon="-116.98359"><ele>2014.0</ele></trkpt>
    <trkpt lat="34.30221" lon="-116.98359"><ele>2014.0</ele></trkpt>
    <trkpt lat="34.30221" lon="-116.98359"><ele>2014.0</ele></trkpt>
    <trkpt lat="34.30227" lon="-116.98344"><ele>2014.0</ele></trkpt>
    <trkpt lat="34.30233" lon="-116.98329"><ele>2014.0</ele></trkpt>
    <trkpt lat="34.30237" lon="-116.98318"><ele>2014.0</ele></trkpt>
    <trkpt lat="34.30241" lon="-116.98313"><ele>2014.0</ele></trkpt>
    <trkpt lat="34.30244" lon="-116.98312"><ele>2014.0</ele></trkpt>
    <trkpt lat="34.30248" lon="-116.98311"><ele>2014.0</ele></trkpt>
    <trkpt lat="34.30248" lon="-116.98311"><ele>2014.0</ele></trkpt>
    <trkpt lat="34.30249" lon="-116.98311"><ele>2014.0</ele></trkpt>
    <trkpt lat="34.30255" lon="-116.98313"><ele>2024.0</ele></trkpt>
    <trkpt lat="34.30255" lon="-116.98313"><ele>2024.0</ele></trkpt>
    <trkpt lat="34.30256" lon="-116.98314"><ele>2024.0</ele></trkpt>
    <trkpt lat="34.30264" lon="-116.98320"><ele>2024.0</ele></trkpt>
    <trkpt lat="34.30276" lon="-116.98333"><ele>2024.0</ele></trkpt>
    <trkpt lat="34.30291" lon="-116.98344"><ele>2024.0</ele></trkpt>
    <trkpt lat="34.30297" lon="-116.98351"><ele>2024.0</ele></trkpt>
    <trkpt lat="34.30306" lon="-116.98363"><ele>2024.0</ele></trkpt>
    <trkpt lat="34.30316" lon="-116.98375"><ele>2024.0</ele></trkpt>
    <trkpt lat="34.30324" lon="-116.98383"><ele>2024.0</ele></trkpt>
    <trkpt lat="34.30330" lon="-116.98389"><ele>2024.0</ele></trkpt>
    <trkpt lat="34.30337" lon="-116.98392"><ele>2024.0</ele></trkpt>
    <trkpt lat="34.30344" lon="-116.98394"><ele>2024.0</ele></trkpt>
    <trkpt lat="34.30355" lon="-116.98394"><ele>2024.0</ele></trkpt>
    <trkpt lat="34.30360" lon="-116.98396"><ele>2024.0</ele></trkpt>
    <trkpt lat="34.30362" lon="-116.98403"><ele>2030.0</ele></trkpt>
    <trkpt lat="34.30363" lon="-116.98411"><ele>2030.0</ele></trkpt>
    <trkpt lat="34.30361" lon="-116.98421"><ele>2030.0</ele></trkpt>
    <trkpt lat="34.30361" lon="-116.98434"><ele>2030.0</ele></trkpt>
    <trkpt lat="34.30362" lon="-116.98443"><ele>2030.0</ele></trkpt>
    <trkpt lat="34.30365" lon="-116.98456"><ele>2030.0</ele></trkpt>
    <trkpt lat="34.30369" lon="-116.98464"><ele>2030.0</ele></trkpt>
    <trkpt lat="34.30372" lon="-116.98470"><ele>2030.0</ele></trkpt>
    <trkpt lat="34.30378" lon="-116.98476"><ele>2030.0</ele></trkpt>
    <trkpt lat="34.30385" lon="-116.98482"><ele>2030.0</ele></trkpt>
    <trkpt lat="34.30394" lon="-116.98487"><ele>2030.0</ele></trkpt>
    <trkpt lat="34.30402" lon="-116.98494"><ele>2030.0</ele></trkpt>
    <trkpt lat="34.30408" lon="-116.98501"><ele>2030.0</ele></trkpt>
    <trkpt lat="34.30415" lon="-116.98509"><ele>2030.0</ele></trkpt>
    <trkpt lat="34.30423" lon="-116.98518"><ele>2046.0</ele></trkpt>
    <trkpt lat="34.30432" lon="-116.98526"><ele>2046.0</ele></trkpt>
    <trkpt lat="34.30440" lon="-116.98532"><ele>2046.0</ele></trkpt>
    <trkpt lat="34.30447" lon="-116.98538"><ele>2046.0</ele></trkpt>
    <trkpt lat="34.30450" lon="-116.98546"><ele>2046.0</ele></trkpt>
    <trkpt lat="34.30451" lon="-116.98555"><ele>2046.0</ele></trkpt>
    <trkpt lat="34.30449" lon="-116.98562"><ele>2046.0</ele></trkpt>
    <trkpt lat="34.30445" lon="-116.98567"><ele>2046.0</ele></trkpt>
    <trkpt lat="34.30444" lon="-116.98568"><ele>2046.0</ele></trkpt>
    <trkpt lat="34.30437" lon="-116.98571"><ele>2046.0</ele></trkpt>
    <trkpt lat="34.30426" lon="-116.98573"><ele>2046.0</ele></trkpt>
    <trkpt lat="34.30424" lon="-116.98573"><ele>2046.0</ele></trkpt>
    <trkpt lat="34.30413" lon="-116.98577"><ele>2046.0</ele></trkpt>
    <trkpt lat="34.30410" lon="-116.98583"><ele>2046.0</ele></trkpt>
    <trkpt lat="34.30409" lon="-116.98591"><ele>2046.0</ele></trkpt>
    <trkpt lat="34.30412" lon="-116.98599"><ele>2059.0</ele></trkpt>
    <trkpt lat="34.30417" lon="-116.98610"><ele>2059.0</ele></trkpt>
    <trkpt lat="34.30421" lon="-116.98621"><ele>2059.0</ele></trkpt>
    <trkpt lat="34.30421" lon="-116.98628"><ele>2059.0</ele></trkpt>
    <trkpt lat="34.30420" lon="-116.98645"><ele>2059.0</ele></trkpt>
    <trkpt lat="34.30415" lon="-116.98701"><ele>2059.0</ele></trkpt>
    <trkpt lat="34.30412" lon="-116.98737"><ele>2059.0</ele></trkpt>
    <trkpt lat="34.30413" lon="-116.98746"><ele>2059.0</ele></trkpt>
    <trkpt lat="34.30415" lon="-116.98754"><ele>2059.0</ele></trkpt>
    <trkpt lat="34.30419" lon="-116.98760"><ele>2059.0</ele></trkpt>
    <trkpt lat="34.30426" lon="-116.98769"><ele>2059.0</ele></trkpt>
    <trkpt lat="34.30435" lon="-116.98776"><ele>2059.0</ele></trkpt>
    <trkpt lat="34.30461" lon="-116.98798"><ele>2059.0</ele></trkpt>
    <trkpt lat="34.30472" lon="-116.98809"><ele>2059.0</ele></trkpt>
    <trkpt lat="34.30484" lon="-116.98820"><ele>2075.0</ele></trkpt>
    <trkpt lat="34.30492" lon="-116.98831"><ele>2075.0</ele></trkpt>
    <trkpt lat="34.30496" lon="-116.98841"><ele>2075.0</ele></trkpt>
    <trkpt lat="34.30498" lon="-116.98847"><ele>2075.0</ele></trkpt>
    <trkpt lat="34.30502" lon="-116.98862"><ele>2075.0</ele></trkpt>
    <trkpt lat="34.30506" lon="-116.98876"><ele>2075.0</ele></trkpt>
    <trkpt lat="34.30511" lon="-116.98887"><ele>2075.0</ele></trkpt>
    <trkpt lat="34.30516" lon="-116.98897"><ele>2075.0</ele></trkpt>
    <trkpt lat="34.30520" lon="-116.98905"><ele>2075.0</ele></trkpt>
    <trkpt lat="34.30524" lon="-116.98913"><ele>2075.0</ele></trkpt>
    <trkpt lat="34.30531" lon="-116.98923"><ele>2075.0</ele></trkpt>
    <trkpt lat="34.30541" lon="-116.98936"><ele>2075.0</ele></trkpt>
    <trkpt lat="34.30548" lon="-116.98946"><ele>2075.0</ele></trkpt>
    <trkpt lat="34.30554" lon="-116.98955"><ele>2075.0</ele></trkpt>
    <trkpt lat="34.30560" lon="-116.98970"><ele>2075.0</ele></trkpt>
    <trkpt lat="34.30566" lon="-116.98983"><ele>2083.0</ele></trkpt>
    <trkpt lat="34.30571" lon="-116.98992"><ele>2083.0</ele></trkpt>
    <trkpt lat="34.30581" lon="-116.99008"><ele>2083.0</ele></trkpt>
    <trkpt lat="34.30588" lon="-116.99018"><ele>2083.0</ele></trkpt>
    <trkpt lat="34.30594" lon="-116.99027"><ele>2083.0</ele></trkpt>
    <trkpt lat="34.30603" lon="-116.99038"><ele>2083.0</ele></trkpt>
    <trkpt lat="34.30615" lon="-116.99050"><ele>2083.0</ele></trkpt>
    <trkpt lat="34.30627" lon="-116.99062"><ele>2083.0</ele></trkpt>
    <trkpt lat="34.30641" lon="-116.99079"><ele>2083.0</ele></trkpt>
    <trkpt lat="34.30656" lon="-116.99099"><ele>2083.0</ele></trkpt>
    <trkpt lat="34.30665" lon="-116.99109"><ele>2083.0</ele></trkpt>
    <trkpt lat="34.30670" lon="-116.99113"><ele>2083.0</ele></trkpt>
    <trkpt lat="34.30679" lon="-116.99117"><ele>2083.0</ele></trkpt>
    <trkpt lat="34.30691" lon="-116.99122"><ele>2083.0</ele></trkpt>
    <trkpt lat="34.30708" lon="-116.99128"><ele>2083.0</ele></trkpt>
    <trkpt lat="34.30717" lon="-116.99133"><ele>2080.0</ele></trkpt>
    <trkpt lat="34.30724" lon="-116.99138"><ele>2080.0</ele></trkpt>
    <trkpt lat="34.30730" lon="-116.99143"><ele>2080.0</ele></trkpt>
    <trkpt lat="34.30735" lon="-116.99151"><ele>2080.0</ele></trkpt>
    <trkpt lat="34.30736" lon="-116.99158"><ele>2080.0</ele></trkpt>
    <trkpt lat="34.30737" lon="-116.99160"><ele>2080.0</ele></trkpt>
    <trkpt lat="34.30737" lon="-116.99162"><ele>2080.0</ele></trkpt>
    <trkpt lat="34.30736" lon="-116.99168"><ele>2080.0</ele></trkpt>
    <trkpt lat="34.30733" lon="-116.99178"><ele>2080.0</ele></trkpt>
    <trkpt lat="34.30732" lon="-116.99189"><ele>2080.0</ele></trkpt>
    <trkpt lat="34.30733" lon="-116.99195"><ele>2080.0</ele></trkpt>
    <trkpt lat="34.30735" lon="-116.99201"><ele>2080.0</ele></trkpt>
    <trkpt lat="34.30739" lon="-116.99207"><ele>2080.0</ele></trkpt>
    <trkpt lat="34.30744" lon="-116.99211"><ele>2080.0</ele></trkpt>
    <trkpt lat="34.30750" lon="-116.99212"><ele>2079.0</ele></trkpt>
    <trkpt lat="34.30753" lon="-116.99212"><ele>2079.0</ele></trkpt>
    <trkpt lat="34.30755" lon="-116.99212"><ele>2079.0</ele></trkpt>
    <trkpt lat="34.30759" lon="-116.99211"><ele>2079.0</ele></trkpt>
    <trkpt lat="34.30766" lon="-116.99211"><ele>2079.0</ele></trkpt>
    <trkpt lat="34.30766" lon="-116.99211"><ele>2079.0</ele></trkpt>
    <trkpt lat="34.30767" lon="-116.99211"><ele>2079.0</ele></trkpt>
    <trkpt lat="34.30772" lon="-116.99215"><ele>2079.0</ele></trkpt>
    <trkpt lat="34.30776" lon="-116.99222"><ele>2079.0</ele></trkpt>
    <trkpt lat="34.30778" lon="-116.99230"><ele>2079.0</ele></trkpt>
    <trkpt lat="34.30776" lon="-116.99237"><ele>2079.0</ele></trkpt>
    <trkpt lat="34.30770" lon="-116.99246"><ele>2079.0</ele></trkpt>
    <trkpt lat="34.30764" lon="-116.99250"><ele>2079.0</ele></trkpt>
    <trkpt lat="34.30757" lon="-116.99253"><ele>2079.0</ele></trkpt>
    <trkpt lat="34.30747" lon="-116.99257"><ele>2079.0</ele></trkpt>
    <trkpt lat="34.30737" lon="-116.99263"><ele>2067.0</ele></trkpt>
    <trkpt lat="34.30729" lon="-116.99270"><ele>2067.0</ele></trkpt>
    <trkpt lat="34.30721" lon="-116.99281"><ele>2067.0</ele></trkpt>
    <trkpt lat="34.30715" lon="-116.99291"><ele>2067.0</ele></trkpt>
    <trkpt lat="34.30708" lon="-116.99302"><ele>2067.0</ele></trkpt>
    <trkpt lat="34.30702" lon="-116.99314"><ele>2067.0</ele></trkpt>
    <trkpt lat="34.30697" lon="-116.99325"><ele>2067.0</ele></trkpt>
    <trkpt lat="34.30694" lon="-116.99337"><ele>2067.0</ele></trkpt>
    <trkpt lat="34.30691" lon="-116.99354"><ele>2067.0</ele></trkpt>
    <trkpt lat="34.30687" lon="-116.99370"><ele>2067.0</ele></trkpt>
    <trkpt lat="34.30685" lon="-116.99382"><ele>2067.0</ele></trkpt>
    <trkpt lat="34.30684" lon="-116.99394"><ele>2067.0</ele></trkpt>
    <trkpt lat="34.30685" lon="-116.99404"><ele>2067.0</ele></trkpt>
    <trkpt lat="34.30688" lon="-116.99415"><ele>2067.0</ele></trkpt>
    <trkpt lat="34.30694" lon="-116.99427"><ele>2064.0</ele></trkpt>
    <trkpt lat="34.30701" lon="-116.99438"><ele>2064.0</ele></trkpt>
    <trkpt lat="34.30708" lon="-116.99448"><ele>2064.0</ele></trkpt>
    <trkpt lat="34.30716" lon="-116.99455"><ele>2064.0</ele></trkpt>
    <trkpt lat="34.30727" lon="-116.99464"><ele>2064.0</ele></trkpt>
    <trkpt lat="34.30737" lon="-116.99471"><ele>2064.0</ele></trkpt>
    <trkpt lat="34.30747" lon="-116.99476"><ele>2064.0</ele></trkpt>
    <trkpt lat="34.30755" lon="-116.99478"><ele>2064.0</ele></trkpt>
    <trkpt lat="34.30767" lon="-116.99478"><ele>2064.0</ele></trkpt>
    <trkpt lat="34.30778" lon="-116.99476"><ele>2064.0</ele></trkpt>
    <trkpt lat="34.30793" lon="-116.99471"><ele>2064.0</ele></trkpt>
    <trkpt lat="34.30804" lon="-116.99469"><ele>2064.0</ele></trkpt>
    <trkpt lat="34.30812" lon="-116.99472"><ele>2064.0</ele></trkpt>
    <trkpt lat="34.30816" lon="-116.99477"><ele>2064.0</ele></trkpt>
    <trkpt lat="34.30818" lon="-116.99485"><ele>2064.0</ele></trkpt>
    <trkpt lat="34.30819" lon="-116.99504"><ele>2065.0</ele></trkpt>
    <trkpt lat="34.30824" lon="-116.99585"><ele>2065.0</ele></trkpt>
    <trkpt lat="34.30829" lon="-116.99650"><ele>2065.0</ele></trkpt>
    <trkpt lat="34.30834" lon="-116.99690"><ele>2065.0</ele></trkpt>
    <trkpt lat="34.30836" lon="-116.99706"><ele>2065.0</ele></trkpt>
    <trkpt lat="34.30839" lon="-116.99716"><ele>2065.0</ele></trkpt>
    <trkpt lat="34.30842" lon="-116.99722"><ele>2065.0</ele></trkpt>
    <trkpt lat="34.30851" lon="-116.99729"><ele>2065.0</ele></trkpt>
    <trkpt lat="34.30869" lon="-116.99745"><ele>2065.0</ele></trkpt>
    <trkpt lat="34.30889" lon="-116.99762"><ele>2065.0</ele></trkpt>
    <trkpt lat="34.30914" lon="-116.99788"><ele>2065.0</ele></trkpt>
    <trkpt lat="34.30929" lon="-116.99806"><ele>2065.0</ele></trkpt>
    <trkpt lat="34.30938" lon="-116.99822"><ele>2065.0</ele></trkpt>
    <trkpt lat="34.30945" lon="-116.99836"><ele>2065.0</ele></trkpt>
    <trkpt lat="34.30952" lon="-116.99853"><ele>2065.0</ele></trkpt>
    <trkpt lat="34.30960" lon="-116.99872"><ele>2075.0</ele></trkpt>
    <trkpt lat="34.30965" lon="-116.99883"><ele>2075.0</ele></trkpt>
    <trkpt lat="34.30974" lon="-116.99894"><ele>2075.0</ele></trkpt>
    <trkpt lat="34.30986" lon="-116.99906"><ele>2075.0</ele></trkpt>
    <trkpt lat="34.31001" lon="-116.99920"><ele>2075.0</ele></trkpt>
    <trkpt lat="34.31004" lon="-116.99923"><ele>2075.0</ele></trkpt>
    <trkpt lat="34.31024" lon="-116.99943"><ele>2075.0</ele></trkpt>
    <trkpt lat="34.31042" lon="-116.99959"><ele>2075.0</ele></trkpt>
    <trkpt lat="34.31045" lon="-116.99962"><ele>2075.0</ele></trkpt>
    <trkpt lat="34.31057" lon="-116.99973"><ele>2075.0</ele></trkpt>
    <trkpt lat="34.31060" lon="-116.99978"><ele>2075.0</ele></trkpt>
    <trkpt lat="34.31062" lon="-116.99981"><ele>2075.0</ele></trkpt>
    <trkpt lat="34.31067" lon="-116.99991"><ele>2075.0</ele></trkpt>
    <trkpt lat="34.31069" lon="-117.00004"><ele>2075.0</ele></trkpt>
    <trkpt lat="34.31072" lon="-117.00022"><ele>2080.0</ele></trkpt>
    <trkpt lat="34.31076" lon="-117.00053"><ele>2080.0</ele></trkpt>
    <trkpt lat="34.31082" lon="-117.00099"><ele>2080.0</ele></trkpt>
    <trkpt lat="34.31084" lon="-117.00115"><ele>2080.0</ele></trkpt>
    <trkpt lat="34.31085" lon="-117.00125"><ele>2080.0</ele></trkpt>
    <trkpt lat="34.31095" lon="-117.00154"><ele>2080.0</ele></trkpt>
    <trkpt lat="34.31109" lon="-117.00188"><ele>2080.0</ele></trkpt>
    <trkpt lat="34.31126" lon="-117.00223"><ele>2080.0</ele></trkpt>
    <trkpt lat="34.31141" lon="-117.00244"><ele>2080.0</ele></trkpt>
    <trkpt lat="34.31161" lon="-117.00267"><ele>2080.0</ele></trkpt>
    <trkpt lat="34.31178" lon="-117.00282"><ele>2080.0</ele></trkpt>
    <trkpt lat="34.31205" lon="-117.00300"><ele>2080.0</ele></trkpt>
    <trkpt lat="34.31249" lon="-117.00337"><ele>2080.0</ele></trkpt>
    <trkpt lat="34.31284" lon="-117.00363"><ele>2080.0</ele></trkpt>
    <trkpt lat="34.31314" lon="-117.00385"><ele>2080.0</ele></trkpt>
    <trkpt lat="34.31343" lon="-117.00407"><ele>2082.0</ele></trkpt>
    <trkpt lat="34.31366" lon="-117.00425"><ele>2082.0</ele></trkpt>
    <trkpt lat="34.31386" lon="-117.00435"><ele>2082.0</ele></trkpt>
    <trkpt lat="34.31417" lon="-117.00446"><ele>2082.0</ele></trkpt>
    <trkpt lat="34.31438" lon="-117.00453"><ele>2082.0</ele></trkpt>
    <trkpt lat="34.31467" lon="-117.00463"><ele>2082.0</ele></trkpt>
    <trkpt lat="34.31495" lon="-117.00474"><ele>2082.0</ele></trkpt>
    <trkpt lat="34.31523" lon="-117.00486"><ele>2082.0</ele></trkpt>
    <trkpt lat="34.31538" lon="-117.00494"><ele>2082.0</ele></trkpt>
    <trkpt lat="34.31549" lon="-117.00500"><ele>2082.0</ele></trkpt>
    <trkpt lat="34.31576" lon="-117.00518"><ele>2082.0</ele></trkpt>
    <trkpt lat="34.31599" lon="-117.00536"><ele>2082.0</ele></trkpt>
    <trkpt lat="34.31617" lon="-117.00552"><ele>2082.0</ele></trkpt>
    <trkpt lat="34.31630" lon="-117.00568"><ele>2082.0</ele></trkpt>
    <trkpt lat="34.31645" lon="-117.00592"><ele>2090.0</ele></trkpt>
    <trkpt lat="34.31664" lon="-117.00628"><ele>2090.0</ele></trkpt>
    <trkpt lat="34.31681" lon="-117.00658"><ele>2090.0</ele></trkpt>
    <trkpt lat="34.31696" lon="-117.00691"><ele>2090.0</ele></trkpt>
    <trkpt lat="34.31709" lon="-117.00724"><ele>2090.0</ele></trkpt>
    <trkpt lat="34.31721" lon="-117.00746"><ele>2090.0</ele></trkpt>
    <trkpt lat="34.31733" lon="-117.00762"><ele>2090.0</ele></trkpt>
    <trkpt lat="34.31749" lon="-117.00775"><ele>2090.0</ele></trkpt>
    <trkpt lat="34.31794" lon="-117.00811"><ele>2090.0</ele></trkpt>
    <trkpt lat="34.31842" lon="-117.00851"><ele>2090.0</ele></trkpt>
    <trkpt lat="34.31842" lon="-117.00851"><ele>2090.0</ele></trkpt>
    <trkpt lat="34.31857" lon="-117.00864"><ele>2090.0</ele></trkpt>
    <trkpt lat="34.31869" lon="-117.00877"><ele>2090.0</ele></trkpt>
    <trkpt lat="34.31885" lon="-117.00899"><ele>2090.0</ele></trkpt>
    <trkpt lat="34.31909" lon="-117.00928"><ele>2090.0</ele></trkpt>
    <trkpt lat="34.31948" lon="-117.00978"><ele>2091.0</ele></trkpt>
    <trkpt lat="34.31968" lon="-117.01006"><ele>2091.0</ele></trkpt>
    <trkpt lat="34.31979" lon="-117.01021"><ele>2091.0</ele></trkpt>
    <trkpt lat="34.31984" lon="-117.01029"><ele>2091.0</ele></trkpt>
    <trkpt lat="34.31984" lon="-117.01029"><ele>2091.0</ele></trkpt>
    <trkpt lat="34.31994" lon="-117.01040"><ele>2091.0</ele></trkpt>
    <trkpt lat="34.32002" lon="-117.01050"><ele>2091.0</ele></trkpt>
    <trkpt lat="34.32011" lon="-117.01064"><ele>2091.0</ele></trkpt>
    <trkpt lat="34.32018" lon="-117.01075"><ele>2091.0</ele></trkpt>
    <trkpt lat="34.32025" lon="-117.01088"><ele>2091.0</ele></trkpt>
    <trkpt lat="34.32030" lon="-117.01099"><ele>2091.0</ele></trkpt>
    <trkpt lat="34.32035" lon="-117.01112"><ele>2091.0</ele></trkpt>
    <trkpt lat="34.32040" lon="-117.01126"><ele>2091.0</ele></trkpt>
    <trkpt lat="34.32046" lon="-117.01139"><ele>2091.0</ele></trkpt>
    <trkpt lat="34.32052" lon="-117.01150"><ele>2091.0</ele></trkpt>
    <trkpt lat="34.32058" lon="-117.01161"><ele>2087.0</ele></trkpt>
    <trkpt lat="34.32065" lon="-117.01173"><ele>2087.0</ele></trkpt>
    <trkpt lat="34.32070" lon="-117.01187"><ele>2087.0</ele></trkpt>
    <trkpt lat="34.32076" lon="-117.01203"><ele>2087.0</ele></trkpt>
    <trkpt lat="34.32082" lon="-117.01231"><ele>2087.0</ele></trkpt>
    <trkpt lat="34.32090" lon="-117.01262"><ele>2087.0</ele></trkpt>
    <trkpt lat="34.32096" lon="-117.01292"><ele>2087.0</ele></trkpt>
    <trkpt lat="34.32100" lon="-117.01323"><ele>2087.0</ele></trkpt>
    <trkpt lat="34.32102" lon="-117.01340"><ele>2087.0</ele></trkpt>
    <trkpt lat="34.32103" lon="-117.01356"><ele>2087.0</ele></trkpt>
    <trkpt lat="34.32103" lon="-117.01372"><ele>2087.0</ele></trkpt>
    <trkpt lat="34.32101" lon="-117.01387"><ele>2087.0</ele></trkpt>
    <trkpt lat="34.32099" lon="-117.01403"><ele>2087.0</ele></trkpt>
    <trkpt lat="34.32098" lon="-117.01416"><ele>2087.0</ele></trkpt>
    <trkpt lat="34.32097" lon="-117.01434"><ele>2079.0</ele></trkpt>
    <trkpt lat="34.32099" lon="-117.01448"><ele>2079.0</ele></trkpt>
    <trkpt lat="34.32101" lon="-117.01458"><ele>2079.0</ele></trkpt>
    <trkpt lat="34.32105" lon="-117.01472"><ele>2079.0</ele></trkpt>
    <trkpt lat="34.32105" lon="-117.01472"><ele>2079.0</ele></trkpt>
    <trkpt lat="34.32112" lon="-117.01478"><ele>2079.0</ele></trkpt>
    <trkpt lat="34.32124" lon="-117.01488"><ele>2079.0</ele></trkpt>
    <trkpt lat="34.32135" lon="-117.01497"><ele>2079.0</ele></trkpt>
    <trkpt lat="34.32141" lon="-117.01508"><ele>2079.0</ele></trkpt>
    <trkpt lat="34.32145" lon="-117.01515"><ele>2079.0</ele></trkpt>
    <trkpt lat="34.32145" lon="-117.01516"><ele>2079.0</ele></trkpt>
    <trkpt lat="34.32147" lon="-117.01525"><ele>2079.0</ele></trkpt>
    <trkpt lat="34.32147" lon="-117.01535"><ele>2079.0</ele></trkpt>
    <trkpt lat="34.32145" lon="-117.01545"><ele>2079.0</ele></trkpt>
    <trkpt lat="34.32145" lon="-117.01554"><ele>2079.0</ele></trkpt>
    <trkpt lat="34.32145" lon="-117.01560"><ele>2079.0</ele></trkpt>
    <trkpt lat="34.32145" lon="-117.01561"><ele>2079.0</ele></trkpt>
    <trkpt lat="34.32148" lon="-117.01572"><ele>2079.0</ele></trkpt>
    <trkpt lat="34.32153" lon="-117.01586"><ele>2079.0</ele></trkpt>
    <trkpt lat="34.32161" lon="-117.01602"><ele>2079.0</ele></trkpt>
    <trkpt lat="34.32168" lon="-117.01616"><ele>2079.0</ele></trkpt>
    <trkpt lat="34.32174" lon="-117.01626"><ele>2079.0</ele></trkpt>
    <trkpt lat="34.32177" lon="-117.01632"><ele>2079.0</ele></trkpt>
    <trkpt lat="34.32178" lon="-117.01636"><ele>2079.0</ele></trkpt>
    <trkpt lat="34.32181" lon="-117.01646"><ele>2079.0</ele></trkpt>
    <trkpt lat="34.32184" lon="-117.01656"><ele>2079.0</ele></trkpt>
    <trkpt lat="34.32185" lon="-117.01667"><ele>2079.0</ele></trkpt>
    <trkpt lat="34.32184" lon="-117.01675"><ele>2079.0</ele></trkpt>
    <trkpt lat="34.32182" lon="-117.01682"><ele>2079.0</ele></trkpt>
    <trkpt lat="34.32179" lon="-117.01688"><ele>2072.0</ele></trkpt>
    <trkpt lat="34.32174" lon="-117.01694"><ele>2072.0</ele></trkpt>
    <trkpt lat="34.32169" lon="-117.01700"><ele>2072.0</ele></trkpt>
    <trkpt lat="34.32165" lon="-117.01706"><ele>2072.0</ele></trkpt>
    <trkpt lat="34.32162" lon="-117.01713"><ele>2072.0</ele></trkpt>
    <trkpt lat="34.32158" lon="-117.01721"><ele>2072.0</ele></trkpt>
    <trkpt lat="34.32154" lon="-117.01733"><ele>2072.0</ele></trkpt>
    <trkpt lat="34.32150" lon="-117.01744"><ele>2072.0</ele></trkpt>
    <trkpt lat="34.32144" lon="-117.01754"><ele>2072.0</ele></trkpt>
    <trkpt lat="34.32137" lon="-117.01763"><ele>2072.0</ele></trkpt>
    <trkpt lat="34.32128" lon="-117.01773"><ele>2072.0</ele></trkpt>
    <trkpt lat="34.32119" lon="-117.01781"><ele>2072.0</ele></trkpt>
    <trkpt lat="34.32111" lon="-117.01788"><ele>2072.0</ele></trkpt>
    <trkpt lat="34.32105" lon="-117.01792"><ele>2072.0</ele></trkpt>
    <trkpt lat="34.32104" lon="-117.01793"><ele>2072.0</ele></trkpt>
    <trkpt lat="34.32094" lon="-117.01802"><ele>2054.0</ele></trkpt>
    <trkpt lat="34.32084" lon="-117.01811"><ele>2054.0</ele></trkpt>
    <trkpt lat="34.32075" lon="-117.01821"><ele>2054.0</ele></trkpt>
    <trkpt lat="34.32068" lon="-117.01829"><ele>2054.0</ele></trkpt>
    <trkpt lat="34.32059" lon="-117.01838"><ele>2054.0</ele></trkpt>
    <trkpt lat="34.32053" lon="-117.01845"><ele>2054.0</ele></trkpt>
    <trkpt lat="34.32046" lon="-117.01849"><ele>2054.0</ele></trkpt>
    <trkpt lat="34.32037" lon="-117.01851"><ele>2054.0</ele></trkpt>
    <trkpt lat="34.32030" lon="-117.01850"><ele>2054.0</ele></trkpt>
    <trkpt lat="34.32017" lon="-117.01849"><ele>2054.0</ele></trkpt>
    <trkpt lat="34.32002" lon="-117.01848"><ele>2054.0</ele></trkpt>
    <trkpt lat="34.31991" lon="-117.01849"><ele>2054.0</ele></trkpt>
    <trkpt lat="34.31983" lon="-117.01852"><ele>2054.0</ele></trkpt>
    <trkpt lat="34.31982" lon="-117.01853"><ele>2054.0</ele></trkpt>
    <trkpt lat="34.31974" lon="-117.01858"><ele>2054.0</ele></trkpt>
    <trkpt lat="34.31965" lon="-117.01867"><ele>2040.0</ele></trkpt>
    <trkpt lat="34.31956" lon="-117.01876"><ele>2040.0</ele></trkpt>
    <trkpt lat="34.31949" lon="-117.01885"><ele>2040.0</ele></trkpt>
    <trkpt lat="34.31948" lon="-117.01886"><ele>2040.0</ele></trkpt>
    <trkpt lat="34.31942" lon="-117.01897"><ele>2040.0</ele></trkpt>
    <trkpt lat="34.31935" lon="-117.01907"><ele>2040.0</ele></trkpt>
    <trkpt lat="34.31927" lon="-117.01918"><ele>2040.0</ele></trkpt>
    <trkpt lat="34.31919" lon="-117.01928"><ele>2040.0</ele></trkpt>
    <trkpt lat="34.31917" lon="-117.01932"><ele>2040.0</ele></trkpt>
    <trkpt lat="34.31911" lon="-117.01940"><ele>2040.0</ele></trkpt>
    <trkpt lat="34.31898" lon="-117.01953"><ele>2040.0</ele></trkpt>
    <trkpt lat="34.31885" lon="-117.01967"><ele>2040.0</ele></trkpt>
    <trkpt lat="34.31868" lon="-117.01981"><ele>2040.0</ele></trkpt>
    <trkpt lat="34.31860" lon="-117.01990"><ele>2040.0</ele></trkpt>
    <trkpt lat="34.31848" lon="-117.02002"><ele>2039.0</ele></trkpt>
    <trkpt lat="34.31832" lon="-117.02019"><ele>2039.0</ele></trkpt>
    <trkpt lat="34.31824" lon="-117.02028"><ele>2039.0</ele></trkpt>
    <trkpt lat="34.31824" lon="-117.02028"><ele>2039.0</ele></trkpt>
    <trkpt lat="34.31816" lon="-117.02039"><ele>2039.0</ele></trkpt>
    <trkpt lat="34.31809" lon="-117.02049"><ele>2039.0</ele></trkpt>
    <trkpt lat="34.31799" lon="-117.02067"><ele>2039.0</ele></trkpt>
    <trkpt lat="34.31790" lon="-117.02083"><ele>2039.0</ele></trkpt>
    <trkpt lat="34.31783" lon="-117.02099"><ele>2039.0</ele></trkpt>
    <trkpt lat="34.31777" lon="-117.02114"><ele>2039.0</ele></trkpt>
    <trkpt lat="34.31770" lon="-117.02130"><ele>2039.0</ele></trkpt>
    <trkpt lat="34.31768" lon="-117.02134"><ele>2039.0</ele></trkpt>
    <trkpt lat="34.31762" lon="-117.02149"><ele>2039.0</ele></trkpt>
    <trkpt lat="34.31758" lon="-117.02162"><ele>2039.0</ele></trkpt>
    <trkpt lat="34.31756" lon="-117.02170"><ele>2039.0</ele></trkpt>
    <trkpt lat="34.31757" lon="-117.02179"><ele>2022.0</ele></trkpt>
    <trkpt lat="34.31760" lon="-117.02189"><ele>2022.0</ele></trkpt>
    <trkpt lat="34.31769" lon="-117.02211"><ele>2022.0</ele></trkpt>
    <trkpt lat="34.31779" lon="-117.02232"><ele>2022.0</ele></trkpt>
    <trkpt lat="34.31784" lon="-117.02251"><ele>2022.0</ele></trkpt>
    <trkpt lat="34.31787" lon="-117.02266"><ele>2022.0</ele></trkpt>
    <trkpt lat="34.31789" lon="-117.02288"><ele>2022.0</ele></trkpt>
    <trkpt lat="34.31791" lon="-117.02308"><ele>2022.0</ele></trkpt>
    <trkpt lat="34.31795" lon="-117.02324"><ele>2022.0</ele></trkpt>
    <trkpt lat="34.31799" lon="-117.02343"><ele>2022.0</ele></trkpt>
    <trkpt lat="34.31806" lon="-117.02361"><ele>2022.0</ele></trkpt>
    <trkpt lat="34.31815" lon="-117.02382"><ele>2022.0</ele></trkpt>
    <trkpt lat="34.31824" lon="-117.02399"><ele>2022.0</ele></trkpt>
    <trkpt lat="34.31828" lon="-117.02409"><ele>2022.0</ele></trkpt>
    <trkpt lat="34.31832" lon="-117.02421"><ele>2008.0</ele></trkpt>
    <trkpt lat="34.31838" lon="-117.02434"><ele>2008.0</ele></trkpt>
    <trkpt lat="34.31844" lon="-117.02448"><ele>2008.0</ele></trkpt>
    <trkpt lat="34.31847" lon="-117.02458"><ele>2008.0</ele></trkpt>
    <trkpt lat="34.31848" lon="-117.02462"><ele>2008.0</ele></trkpt>
    <trkpt lat="34.31849" lon="-117.02471"><ele>2008.0</ele></trkpt>
    <trkpt lat="34.31849" lon="-117.02486"><ele>2008.0</ele></trkpt>
    <trkpt lat="34.31846" lon="-117.02499"><ele>2008.0</ele></trkpt>
    <trkpt lat="34.31842" lon="-117.02514"><ele>2008.0</ele></trkpt>
    <trkpt lat="34.31836" lon="-117.02532"><ele>2008.0</ele></trkpt>
    <trkpt lat="34.31833" lon="-117.02544"><ele>2008.0</ele></trkpt>
    <trkpt lat="34.31831" lon="-117.02555"><ele>2008.0</ele></trkpt>
    <trkpt lat="34.31825" lon="-117.02588"><ele>2008.0</ele></trkpt>
    <trkpt lat="34.31819" lon="-117.02621"><ele>2008.0</ele></trkpt>
    <trkpt lat="34.31816" lon="-117.02647"><ele>2008.0</ele></trkpt>
    <trkpt lat="34.31814" lon="-117.02663"><ele>1998.0</ele></trkpt>
    <trkpt lat="34.31815" lon="-117.02677"><ele>1998.0</ele></trkpt>
    <trkpt lat="34.31817" lon="-117.02692"><ele>1998.0</ele></trkpt>
    <trkpt lat="34.31821" lon="-117.02708"><ele>1998.0</ele></trkpt>
    <trkpt lat="34.31828" lon="-117.02733"><ele>1998.0</ele></trkpt>
    <trkpt lat="34.31832" lon="-117.02754"><ele>1998.0</ele></trkpt>
    <trkpt lat="34.31835" lon="-117.02776"><ele>1998.0</ele></trkpt>
    <trkpt lat="34.31837" lon="-117.02796"><ele>1998.0</ele></trkpt>
    <trkpt lat="34.31838" lon="-117.02814"><ele>1998.0</ele></trkpt>
    <trkpt lat="34.31837" lon="-117.02837"><ele>1998.0</ele></trkpt>
    <trkpt lat="34.31836" lon="-117.02859"><ele>1998.0</ele></trkpt>
    <trkpt lat="34.31834" lon="-117.02873"><ele>1998.0</ele></trkpt>
    <trkpt lat="34.31829" lon="-117.02893"><ele>1998.0</ele></trkpt>
    <trkpt lat="34.31824" lon="-117.02913"><ele>1998.0</ele></trkpt>
    <trkpt lat="34.31813" lon="-117.02947"><ele>1998.0</ele></trkpt>
    <trkpt lat="34.31811" lon="-117.02959"><ele>1989.0</ele></trkpt>
    <trkpt lat="34.31809" lon="-117.02976"><ele>1989.0</ele></trkpt>
    <trkpt lat="34.31808" lon="-117.02994"><ele>1989.0</ele></trkpt>
    <trkpt lat="34.31806" lon="-117.03010"><ele>1989.0</ele></trkpt>
    <trkpt lat="34.31808" lon="-117.03022"><ele>1989.0</ele></trkpt>
    <trkpt lat="34.31814" lon="-117.03040"><ele>1989.0</ele></trkpt>
    <trkpt lat="34.31819" lon="-117.03058"><ele>1989.0</ele></trkpt>
    <trkpt lat="34.31821" lon="-117.03068"><ele>1989.0</ele></trkpt>
    <trkpt lat="34.31821" lon="-117.03084"><ele>1989.0</ele></trkpt>
    <trkpt lat="34.31821" lon="-117.03085"><ele>1989.0</ele></trkpt>
    <trkpt lat="34.31819" lon="-117.03102"><ele>1989.0</ele></trkpt>
    <trkpt lat="34.31818" lon="-117.03111"><ele>1989.0</ele></trkpt>
    <trkpt lat="34.31817" lon="-117.03114"><ele>1989.0</ele></trkpt>
    <trkpt lat="34.31814" lon="-117.03122"><ele>1989.0</ele></trkpt>
    <trkpt lat="34.31808" lon="-117.03128"><ele>1985.0</ele></trkpt>
    <trkpt lat="34.31803" lon="-117.03131"><ele>1985.0</ele></trkpt>
    <trkpt lat="34.31800" lon="-117.03132"><ele>1985.0</ele></trkpt>
    <trkpt lat="34.31793" lon="-117.03139"><ele>1985.0</ele></trkpt>
    <trkpt lat="34.31788" lon="-117.03146"><ele>1985.0</ele></trkpt>
    <trkpt lat="34.31784" lon="-117.03154"><ele>1985.0</ele></trkpt>
    <trkpt lat="34.31781" lon="-117.03163"><ele>1985.0</ele></trkpt>
    <trkpt lat="34.31779" lon="-117.03173"><ele>1985.0</ele></trkpt>
    <trkpt lat="34.31779" lon="-117.03173"><ele>1985.0</ele></trkpt>
    <trkpt lat="34.31778" lon="-117.03189"><ele>1985.0</ele></trkpt>
    <trkpt lat="34.31777" lon="-117.03202"><ele>1985.0</ele></trkpt>
    <trkpt lat="34.31776" lon="-117.03209"><ele>1985.0</ele></trkpt>
    <trkpt lat="34.31776" lon="-117.03222"><ele>1985.0</ele></trkpt>
    <trkpt lat="34.31776" lon="-117.03236"><ele>1985.0</ele></trkpt>
    <trkpt lat="34.31776" lon="-117.03252"><ele>1985.0</ele></trkpt>
    <trkpt lat="34.31775" lon="-117.03261"><ele>1971.0</ele></trkpt>
    <trkpt lat="34.31773" lon="-117.03270"><ele>1971.0</ele></trkpt>
    <trkpt lat="34.31769" lon="-117.03280"><ele>1971.0</ele></trkpt>
    <trkpt lat="34.31764" lon="-117.03290"><ele>1971.0</ele></trkpt>
    <trkpt lat="34.31759" lon="-117.03297"><ele>1971.0</ele></trkpt>
    <trkpt lat="34.31752" lon="-117.03306"><ele>1971.0</ele></trkpt>
    <trkpt lat="34.31744" lon="-117.03315"><ele>1971.0</ele></trkpt>
    <trkpt lat="34.31737" lon="-117.03322"><ele>1971.0</ele></trkpt>
    <trkpt lat="34.31727" lon="-117.03330"><ele>1971.0</ele></trkpt>
    <trkpt lat="34.31720" lon="-117.03338"><ele>1971.0</ele></trkpt>
    <trkpt lat="34.31710" lon="-117.03345"><ele>1971.0</ele></trkpt>
    <trkpt lat="34.31701" lon="-117.03351"><ele>1971.0</ele></trkpt>
    <trkpt lat="34.31694" lon="-117.03359"><ele>1971.0</ele></trkpt>
    <trkpt lat="34.31689" lon="-117.03367"><ele>1971.0</ele></trkpt>
    <trkpt lat="34.31686" lon="-117.03378"><ele>1964.0</ele></trkpt>
    <trkpt lat="34.31683" lon="-117.03389"><ele>1964.0</ele></trkpt>
    <trkpt lat="34.31680" lon="-117.03399"><ele>1964.0</ele></trkpt>
    <trkpt lat="34.31673" lon="-117.03414"><ele>1964.0</ele></trkpt>
    <trkpt lat="34.31668" lon="-117.03423"><ele>1964.0</ele></trkpt>
    <trkpt lat="34.31660" lon="-117.03437"><ele>1964.0</ele></trkpt>
    <trkpt lat="34.31654" lon="-117.03446"><ele>1964.0</ele></trkpt>
    <trkpt lat="34.31647" lon="-117.03454"><ele>1964.0</ele></trkpt>
    <trkpt lat="34.31641" lon="-117.03463"><ele>1964.0</ele></trkpt>
    <trkpt lat="34.31636" lon="-117.03473"><ele>1964.0</ele></trkpt>
    <trkpt lat="34.31631" lon="-117.03485"><ele>1964.0</ele></trkpt>
    <trkpt lat="34.31626" lon="-117.03497"><ele>1964.0</ele></trkpt>
    <trkpt lat="34.31621" lon="-117.03507"><ele>1964.0</ele></trkpt>
    <trkpt lat="34.31614" lon="-117.03516"><ele>1964.0</ele></trkpt>
    <trkpt lat="34.31606" lon="-117.03526"><ele>1964.0</ele></trkpt>
    <trkpt lat="34.31602" lon="-117.03536"><ele>1959.0</ele></trkpt>
    <trkpt lat="34.31595" lon="-117.03550"><ele>1959.0</ele></trkpt>
    <trkpt lat="34.31589" lon="-117.03565"><ele>1959.0</ele></trkpt>
    <trkpt lat="34.31583" lon="-117.03576"><ele>1959.0</ele></trkpt>
    <trkpt lat="34.31577" lon="-117.03594"><ele>1959.0</ele></trkpt>
    <trkpt lat="34.31573" lon="-117.03611"><ele>1959.0</ele></trkpt>
    <trkpt lat="34.31570" lon="-117.03631"><ele>1959.0</ele></trkpt>
    <trkpt lat="34.31571" lon="-117.03651"><ele>1959.0</ele></trkpt>
    <trkpt lat="34.31572" lon="-117.03665"><ele>1959.0</ele></trkpt>
    <trkpt lat="34.31574" lon="-117.03685"><ele>1959.0</ele></trkpt>
    <trkpt lat="34.31578" lon="-117.03697"><ele>1959.0</ele></trkpt>
    <trkpt lat="34.31583" lon="-117.03707"><ele>1959.0</ele></trkpt>
    <trkpt lat="34.31584" lon="-117.03709"><ele>1959.0</ele></trkpt>
    <trkpt lat="34.31592" lon="-117.03722"><ele>1959.0</ele></trkpt>
    <trkpt lat="34.31595" lon="-117.03730"><ele>1959.0</ele></trkpt>
    <trkpt lat="34.31597" lon="-117.03737"><ele>1948.0</ele></trkpt>
    <trkpt lat="34.31596" lon="-117.03738"><ele>1948.0</ele></trkpt>
    <trkpt lat="34.31596" lon="-117.03742"><ele>1948.0</ele></trkpt>
    <trkpt lat="34.31592" lon="-117.03748"><ele>1948.0</ele></trkpt>
    <trkpt lat="34.31587" lon="-117.03751"><ele>1948.0</ele></trkpt>
    <trkpt lat="34.31578" lon="-117.03761"><ele>1948.0</ele></trkpt>
    <trkpt lat="34.31570" lon="-117.03775"><ele>1948.0</ele></trkpt>
    <trkpt lat="34.31561" lon="-117.03790"><ele>1948.0</ele></trkpt>
    <trkpt lat="34.31555" lon="-117.03804"><ele>1948.0</ele></trkpt>
    <trkpt lat="34.31552" lon="-117.03818"><ele>1948.0</ele></trkpt>
    <trkpt lat="34.31551" lon="-117.03830"><ele>1948.0</ele></trkpt>
    <trkpt lat="34.31551" lon="-117.03834"><ele>1948.0</ele></trkpt>
    <trkpt lat="34.31553" lon="-117.03858"><ele>1948.0</ele></trkpt>
    <trkpt lat="34.31555" lon="-117.03875"><ele>1948.0</ele></trkpt>
    <trkpt lat="34.31556" lon="-117.03894"><ele>1928.0</ele></trkpt>
    <trkpt lat="34.31559" lon="-117.03912"><ele>1928.0</ele></trkpt>
    <trkpt lat="34.31564" lon="-117.03926"><ele>1928.0</ele></trkpt>
    <trkpt lat="34.31570" lon="-117.03939"><ele>1928.0</ele></trkpt>
    <trkpt lat="34.31579" lon="-117.03952"><ele>1928.0</ele></trkpt>
    <trkpt lat="34.31591" lon="-117.03964"><ele>1928.0</ele></trkpt>
    <trkpt lat="34.31603" lon="-117.03976"><ele>1928.0</ele></trkpt>
    <trkpt lat="34.31610" lon="-117.03985"><ele>1928.0</ele></trkpt>
    <trkpt lat="34.31614" lon="-117.03995"><ele>1928.0</ele></trkpt>
    <trkpt lat="34.31617" lon="-117.04005"><ele>1928.0</ele></trkpt>
    <trkpt lat="34.31618" lon="-117.04013"><ele>1928.0</ele></trkpt>
    <trkpt lat="34.31619" lon="-117.04024"><ele>1928.0</ele></trkpt>
    <trkpt lat="34.31618" lon="-117.04033"><ele>1928.0</ele></trkpt>
    <trkpt lat="34.31616" lon="-117.04044"><ele>1928.0</ele></trkpt>
    <trkpt lat="34.31614" lon="-117.04052"><ele>1928.0</ele></trkpt>
    <trkpt lat="34.31609" lon="-117.04061"><ele>1914.0</ele></trkpt>
    <trkpt lat="34.31609" lon="-117.04062"><ele>1914.0</ele></trkpt>
    <trkpt lat="34.31603" lon="-117.04070"><ele>1914.0</ele></trkpt>
    <trkpt lat="34.31593" lon="-117.04087"><ele>1914.0</ele></trkpt>
    <trkpt lat="34.31588" lon="-117.04103"><ele>1914.0</ele></trkpt>
    <trkpt lat="34.31584" lon="-117.04117"><ele>1914.0</ele></trkpt>
    <trkpt lat="34.31581" lon="-117.04130"><ele>1914.0</ele></trkpt>
    <trkpt lat="34.31580" lon="-117.04143"><ele>1914.0</ele></trkpt>
    <trkpt lat="34.31578" lon="-117.04154"><ele>1914.0</ele></trkpt>
    <trkpt lat="34.31575" lon="-117.04169"><ele>1914.0</ele></trkpt>
    <trkpt lat="34.31575" lon="-117.04171"><ele>1914.0</ele></trkpt>
    <trkpt lat="34.31565" lon="-117.04207"><ele>1914.0</ele></trkpt>
    <trkpt lat="34.31565" lon="-117.04208"><ele>1914.0</ele></trkpt>
    <trkpt lat="34.31551" lon="-117.04258"><ele>1914.0</ele></trkpt>
    <trkpt lat="34.31544" lon="-117.04288"><ele>1886.0</ele></trkpt>
    <trkpt lat="34.31539" lon="-117.04310"><ele>1886.0</ele></trkpt>
    <trkpt lat="34.31537" lon="-117.04321"><ele>1886.0</ele></trkpt>
    <trkpt lat="34.31525" lon="-117.04372"><ele>1886.0</ele></trkpt>
    <trkpt lat="34.31520" lon="-117.04402"><ele>1886.0</ele></trkpt>
    <trkpt lat="34.31517" lon="-117.04426"><ele>1886.0</ele></trkpt>
    <trkpt lat="34.31514" lon="-117.04456"><ele>1886.0</ele></trkpt>
    <trkpt lat="34.31512" lon="-117.04480"><ele>1886.0</ele></trkpt>
    <trkpt lat="34.31513" lon="-117.04513"><ele>1886.0</ele></trkpt>
    <trkpt lat="34.31515" lon="-117.04563"><ele>1886.0</ele></trkpt>
    <trkpt lat="34.31517" lon="-117.04595"><ele>1886.0</ele></trkpt>
    <trkpt lat="34.31517" lon="-117.04595"><ele>1886.0</ele></trkpt>
    <trkpt lat="34.31519" lon="-117.04615"><ele>1886.0</ele></trkpt>
    <trkpt lat="34.31520" lon="-117.04620"><ele>1886.0</ele></trkpt>
    <trkpt lat="34.31523" lon="-117.04634"><ele>1886.0</ele></trkpt>
    <trkpt lat="34.31529" lon="-117.04648"><ele>1866.0</ele></trkpt>
    <trkpt lat="34.31535" lon="-117.04666"><ele>1866.0</ele></trkpt>
    <trkpt lat="34.31544" lon="-117.04687"><ele>1866.0</ele></trkpt>
    <trkpt lat="34.31553" lon="-117.04702"><ele>1866.0</ele></trkpt>
    <trkpt lat="34.31563" lon="-117.04718"><ele>1866.0</ele></trkpt>
    <trkpt lat="34.31571" lon="-117.04735"><ele>1866.0</ele></trkpt>
    <trkpt lat="34.31575" lon="-117.04748"><ele>1866.0</ele></trkpt>
    <trkpt lat="34.31577" lon="-117.04761"><ele>1866.0</ele></trkpt>
    <trkpt lat="34.31580" lon="-117.04777"><ele>1866.0</ele></trkpt>
    <trkpt lat="34.31583" lon="-117.04804"><ele>1866.0</ele></trkpt>
    <trkpt lat="34.31587" lon="-117.04827"><ele>1866.0</ele></trkpt>
    <trkpt lat="34.31590" lon="-117.04837"><ele>1866.0</ele></trkpt>
    <trkpt lat="34.31594" lon="-117.04851"><ele>1866.0</ele></trkpt>
    <trkpt lat="34.31597" lon="-117.04863"><ele>1866.0</ele></trkpt>
    <trkpt lat="34.31601" lon="-117.04872"><ele>1866.0</ele></trkpt>
    <trkpt lat="34.31607" lon="-117.04879"><ele>1857.0</ele></trkpt>
    <trkpt lat="34.31609" lon="-117.04881"><ele>1857.0</ele></trkpt>
    <trkpt lat="34.31615" lon="-117.04885"><ele>1857.0</ele></trkpt>
    <trkpt lat="34.31624" lon="-117.04887"><ele>1857.0</ele></trkpt>
    <trkpt lat="34.31637" lon="-117.04889"><ele>1857.0</ele></trkpt>
    <trkpt lat="34.31654" lon="-117.04889"><ele>1857.0</ele></trkpt>
    <trkpt lat="34.31670" lon="-117.04893"><ele>1857.0</ele></trkpt>
    <trkpt lat="34.31681" lon="-117.04898"><ele>1857.0</ele></trkpt>
    <trkpt lat="34.31682" lon="-117.04899"><ele>1857.0</ele></trkpt>
    <trkpt lat="34.31689" lon="-117.04907"><ele>1857.0</ele></trkpt>
    <trkpt lat="34.31696" lon="-117.04917"><ele>1857.0</ele></trkpt>
    <trkpt lat="34.31700" lon="-117.04927"><ele>1857.0</ele></trkpt>
    <trkpt lat="34.31703" lon="-117.04938"><ele>1857.0</ele></trkpt>
    <trkpt lat="34.31703" lon="-117.04951"><ele>1857.0</ele></trkpt>
    <trkpt lat="34.31702" lon="-117.04967"><ele>1839.0</ele></trkpt>
    <trkpt lat="34.31700" lon="-117.04986"><ele>1839.0</ele></trkpt>
    <trkpt lat="34.31697" lon="-117.05001"><ele>1839.0</ele></trkpt>
    <trkpt lat="34.31693" lon="-117.05018"><ele>1839.0</ele></trkpt>
    <trkpt lat="34.31691" lon="-117.05029"><ele>1839.0</ele></trkpt>
    <trkpt lat="34.31691" lon="-117.05040"><ele>1839.0</ele></trkpt>
    <trkpt lat="34.31694" lon="-117.05049"><ele>1839.0</ele></trkpt>
    <trkpt lat="34.31698" lon="-117.05054"><ele>1839.0</ele></trkpt>
    <trkpt lat="34.31716" lon="-117.05065"><ele>1839.0</ele></trkpt>
    <trkpt lat="34.31729" lon="-117.05075"><ele>1839.0</ele></trkpt>
    <trkpt lat="34.31738" lon="-117.05086"><ele>1839.0</ele></trkpt>
    <trkpt lat="34.31746" lon="-117.05097"><ele>1839.0</ele></trkpt>
    <trkpt lat="34.31750" lon="-117.05110"><ele>1839.0</ele></trkpt>
    <trkpt lat="34.31754" lon="-117.05124"><ele>1839.0</ele></trkpt>
    <trkpt lat="34.31756" lon="-117.05140"><ele>1839.0</ele></trkpt>
    <trkpt lat="34.31759" lon="-117.05164"><ele>1834.0</ele></trkpt>
    <trkpt lat="34.31762" lon="-117.05176"><ele>1834.0</ele></trkpt>
    <trkpt lat="34.31762" lon="-117.05177"><ele>1834.0</ele></trkpt>
    <trkpt lat="34.31763" lon="-117.05179"><ele>1834.0</ele></trkpt>
    <trkpt lat="34.31768" lon="-117.05197"><ele>1834.0</ele></trkpt>
    <trkpt lat="34.31770" lon="-117.05205"><ele>1834.0</ele></trkpt>
    <trkpt lat="34.31771" lon="-117.05208"><ele>1834.0</ele></trkpt>
    <trkpt lat="34.31773" lon="-117.05218"><ele>1834.0</ele></trkpt>
    <trkpt lat="34.31773" lon="-117.05227"><ele>1834.0</ele></trkpt>
    <trkpt lat="34.31770" lon="-117.05236"><ele>1834.0</ele></trkpt>
    <trkpt lat="34.31770" lon="-117.05237"><ele>1834.0</ele></trkpt>
    <trkpt lat="34.31765" lon="-117.05243"><ele>1834.0</ele></trkpt>
    <trkpt lat="34.31757" lon="-117.05249"><ele>1834.0</ele></trkpt>
    <trkpt lat="34.31747" lon="-117.05255"><ele>1834.0</ele></trkpt>
    <trkpt lat="34.31738" lon="-117.05262"><ele>1826.0</ele></trkpt>
    <trkpt lat="34.31730" lon="-117.05272"><ele>1826.0</ele></trkpt>
    <trkpt lat="34.31722" lon="-117.05281"><ele>1826.0</ele></trkpt>
    <trkpt lat="34.31716" lon="-117.05292"><ele>1826.0</ele></trkpt>
    <trkpt lat="34.31711" lon="-117.05302"><ele>1826.0</ele></trkpt>
    <trkpt lat="34.31711" lon="-117.05303"><ele>1826.0</ele></trkpt>
    <trkpt lat="34.31710" lon="-117.05306"><ele>1826.0</ele></trkpt>
    <trkpt lat="34.31708" lon="-117.05311"><ele>1826.0</ele></trkpt>
    <trkpt lat="34.31706" lon="-117.05318"><ele>1826.0</ele></trkpt>
    <trkpt lat="34.31703" lon="-117.05327"><ele>1826.0</ele></trkpt>
    <trkpt lat="34.31702" lon="-117.05351"><ele>1826.0</ele></trkpt>
    <trkpt lat="34.31702" lon="-117.05365"><ele>1826.0</ele></trkpt>
    <trkpt lat="34.31703" lon="-117.05388"><ele>1826.0</ele></trkpt>
    <trkpt lat="34.31703" lon="-117.05411"><ele>1826.0</ele></trkpt>
    <trkpt lat="34.31704" lon="-117.05416"><ele>1826.0</ele></trkpt>
    <trkpt lat="34.31705" lon="-117.05431"><ele>1817.0</ele></trkpt>
    <trkpt lat="34.31709" lon="-117.05442"><ele>1817.0</ele></trkpt>
    <trkpt lat="34.31712" lon="-117.05445"><ele>1817.0</ele></trkpt>
    <trkpt lat="34.31715" lon="-117.05449"><ele>1817.0</ele></trkpt>
    <trkpt lat="34.31716" lon="-117.05451"><ele>1817.0</ele></trkpt>
    <trkpt lat="34.31717" lon="-117.05451"><ele>1817.0</ele></trkpt>
    <trkpt lat="34.31725" lon="-117.05456"><ele>1817.0</ele></trkpt>
    <trkpt lat="34.31726" lon="-117.05456"><ele>1817.0</ele></trkpt>
    <trkpt lat="34.31734" lon="-117.05457"><ele>1817.0</ele></trkpt>
    <trkpt lat="34.31737" lon="-117.05458"><ele>1817.0</ele></trkpt>
    <trkpt lat="34.31752" lon="-117.05457"><ele>1817.0</ele></trkpt>
    <trkpt lat="34.31764" lon="-117.05453"><ele>1817.0</ele></trkpt>
    <trkpt lat="34.31778" lon="-117.05446"><ele>1817.0</ele></trkpt>
    <trkpt lat="34.31800" lon="-117.05431"><ele>1817.0</ele></trkpt>
    <trkpt lat="34.31811" lon="-117.05424"><ele>1817.0</ele></trkpt>
    <trkpt lat="34.31820" lon="-117.05422"><ele>1818.0</ele></trkpt>
    <trkpt lat="34.31830" lon="-117.05421"><ele>1818.0</ele></trkpt>
    <trkpt lat="34.31840" lon="-117.05422"><ele>1818.0</ele></trkpt>
    <trkpt lat="34.31855" lon="-117.05424"><ele>1818.0</ele></trkpt>
    <trkpt lat="34.31866" lon="-117.05423"><ele>1818.0</ele></trkpt>
    <trkpt lat="34.31881" lon="-117.05418"><ele>1818.0</ele></trkpt>
    <trkpt lat="34.31901" lon="-117.05411"><ele>1818.0</ele></trkpt>
    <trkpt lat="34.31916" lon="-117.05405"><ele>1818.0</ele></trkpt>
    <trkpt lat="34.31931" lon="-117.05397"><ele>1818.0</ele></trkpt>
    <trkpt lat="34.31945" lon="-117.05389"><ele>1818.0</ele></trkpt>
    <trkpt lat="34.31959" lon="-117.05383"><ele>1818.0</ele></trkpt>
    <trkpt lat="34.31968" lon="-117.05380"><ele>1818.0</ele></trkpt>
    <trkpt lat="34.31982" lon="-117.05378"><ele>1818.0</ele></trkpt>
    <trkpt lat="34.32004" lon="-117.05381"><ele>1818.0</ele></trkpt>
    <trkpt lat="34.32023" lon="-117.05387"><ele>1817.0</ele></trkpt>
    <trkpt lat="34.32029" lon="-117.05388"><ele>1817.0</ele></trkpt>
    <trkpt lat="34.32055" lon="-117.05395"><ele>1817.0</ele></trkpt>
    <trkpt lat="34.32083" lon="-117.05404"><ele>1817.0</ele></trkpt>
    <trkpt lat="34.32109" lon="-117.05415"><ele>1817.0</ele></trkpt>
    <trkpt lat="34.32122" lon="-117.05424"><ele>1817.0</ele></trkpt>
    <trkpt lat="34.32131" lon="-117.05432"><ele>1817.0</ele></trkpt>
    <trkpt lat="34.32133" lon="-117.05435"><ele>1817.0</ele></trkpt>
    <trkpt lat="34.32138" lon="-117.05442"><ele>1817.0</ele></trkpt>
    <trkpt lat="34.32147" lon="-117.05457"><ele>1817.0</ele></trkpt>
    <trkpt lat="34.32161" lon="-117.05485"><ele>1817.0</ele></trkpt>
    <trkpt lat="34.32173" lon="-117.05509"><ele>1817.0</ele></trkpt>
    <trkpt lat="34.32190" lon="-117.05547"><ele>1817.0</ele></trkpt>
    <trkpt lat="34.32205" lon="-117.05582"><ele>1817.0</ele></trkpt>
    <trkpt lat="34.32217" lon="-117.05612"><ele>1817.0</ele></trkpt>
    <trkpt lat="34.32224" lon="-117.05623"><ele>1812.0</ele></trkpt>
    <trkpt lat="34.32233" lon="-117.05634"><ele>1812.0</ele></trkpt>
    <trkpt lat="34.32240" lon="-117.05641"><ele>1812.0</ele></trkpt>
    <trkpt lat="34.32250" lon="-117.05646"><ele>1812.0</ele></trkpt>
    <trkpt lat="34.32262" lon="-117.05650"><ele>1812.0</ele></trkpt>
    <trkpt lat="34.32263" lon="-117.05650"><ele>1812.0</ele></trkpt>
    <trkpt lat="34.32277" lon="-117.05656"><ele>1812.0</ele></trkpt>
    <trkpt lat="34.32283" lon="-117.05660"><ele>1812.0</ele></trkpt>
    <trkpt lat="34.32287" lon="-117.05662"><ele>1812.0</ele></trkpt>
    <trkpt lat="34.32296" lon="-117.05669"><ele>1812.0</ele></trkpt>
    <trkpt lat="34.32306" lon="-117.05680"><ele>1812.0</ele></trkpt>
    <trkpt lat="34.32314" lon="-117.05693"><ele>1812.0</ele></trkpt>
    <trkpt lat="34.32324" lon="-117.05710"><ele>1812.0</ele></trkpt>
    <trkpt lat="34.32335" lon="-117.05732"><ele>1812.0</ele></trkpt>
    <trkpt lat="34.32344" lon="-117.05750"><ele>1808.0</ele></trkpt>
    <trkpt lat="34.32351" lon="-117.05762"><ele>1808.0</ele></trkpt>
    <trkpt lat="34.32351" lon="-117.05763"><ele>1808.0</ele></trkpt>
    <trkpt lat="34.32357" lon="-117.05775"><ele>1808.0</ele></trkpt>
    <trkpt lat="34.32360" lon="-117.05785"><ele>1808.0</ele></trkpt>
    <trkpt lat="34.32360" lon="-117.05788"><ele>1808.0</ele></trkpt>
    <trkpt lat="34.32360" lon="-117.05790"><ele>1808.0</ele></trkpt>
    <trkpt lat="34.32360" lon="-117.05793"><ele>1808.0</ele></trkpt>
    <trkpt lat="34.32359" lon="-117.05800"><ele>1808.0</ele></trkpt>
    <trkpt lat="34.32358" lon="-117.05806"><ele>1808.0</ele></trkpt>
    <trkpt lat="34.32360" lon="-117.05811"><ele>1808.0</ele></trkpt>
    <trkpt lat="34.32366" lon="-117.05825"><ele>1808.0</ele></trkpt>
    <trkpt lat="34.32373" lon="-117.05836"><ele>1808.0</ele></trkpt>
    <trkpt lat="34.32384" lon="-117.05848"><ele>1808.0</ele></trkpt>
    <trkpt lat="34.32391" lon="-117.05856"><ele>1808.0</ele></trkpt>
    <trkpt lat="34.32392" lon="-117.05856"><ele>1808.0</ele></trkpt>
    <trkpt lat="34.32393" lon="-117.05858"><ele>1808.0</ele></trkpt>
    <trkpt lat="34.32408" lon="-117.05868"><ele>1808.0</ele></trkpt>
    <trkpt lat="34.32412" lon="-117.05871"><ele>1808.0</ele></trkpt>
    <trkpt lat="34.32423" lon="-117.05876"><ele>1808.0</ele></trkpt>
    <trkpt lat="34.32433" lon="-117.05881"><ele>1808.0</ele></trkpt>
    <trkpt lat="34.32435" lon="-117.05882"><ele>1808.0</ele></trkpt>
    <trkpt lat="34.32444" lon="-117.05886"><ele>1808.0</ele></trkpt>
    <trkpt lat="34.32453" lon="-117.05892"><ele>1808.0</ele></trkpt>
    <trkpt lat="34.32463" lon="-117.05900"><ele>1808.0</ele></trkpt>
    <trkpt lat="34.32474" lon="-117.05910"><ele>1808.0</ele></trkpt>
    <trkpt lat="34.32480" lon="-117.05913"><ele>1808.0</ele></trkpt>
    <trkpt lat="34.32481" lon="-117.05914"><ele>1808.0</ele></trkpt>
    <trkpt lat="34.32488" lon="-117.05916"><ele>1808.0</ele></trkpt>
    <trkpt lat="34.32493" lon="-117.05917"><ele>1803.0</ele></trkpt>
    <trkpt lat="34.32496" lon="-117.05918"><ele>1803.0</ele></trkpt>
    <trkpt lat="34.32501" lon="-117.05918"><ele>1803.0</ele></trkpt>
    <trkpt lat="34.32511" lon="-117.05921"><ele>1803.0</ele></trkpt>
    <trkpt lat="34.32523" lon="-117.05927"><ele>1803.0</ele></trkpt>
    <trkpt lat="34.32537" lon="-117.05934"><ele>1803.0</ele></trkpt>
    <trkpt lat="34.32539" lon="-117.05935"><ele>1803.0</ele></trkpt>
    <trkpt lat="34.32544" lon="-117.05936"><ele>1803.0</ele></trkpt>
    <trkpt lat="34.32552" lon="-117.05938"><ele>1803.0</ele></trkpt>
    <trkpt lat="34.32562" lon="-117.05938"><ele>1803.0</ele></trkpt>
    <trkpt lat="34.32569" lon="-117.05939"><ele>1803.0</ele></trkpt>
    <trkpt lat="34.32574" lon="-117.05941"><ele>1803.0</ele></trkpt>
    <trkpt lat="34.32575" lon="-117.05941"><ele>1803.0</ele></trkpt>
    <trkpt lat="34.32580" lon="-117.05945"><ele>1803.0</ele></trkpt>
    <trkpt lat="34.32586" lon="-117.05948"><ele>1803.0</ele></trkpt>
    <trkpt lat="34.32586" lon="-117.05948"><ele>1794.0</ele></trkpt>
    <trkpt lat="34.32593" lon="-117.05949"><ele>1794.0</ele></trkpt>
    <trkpt lat="34.32607" lon="-117.05950"><ele>1794.0</ele></trkpt>
    <trkpt lat="34.32615" lon="-117.05951"><ele>1794.0</ele></trkpt>
    <trkpt lat="34.32619" lon="-117.05951"><ele>1794.0</ele></trkpt>
    <trkpt lat="34.32626" lon="-117.05952"><ele>1794.0</ele></trkpt>
    <trkpt lat="34.32640" lon="-117.05956"><ele>1794.0</ele></trkpt>
    <trkpt lat="34.32646" lon="-117.05958"><ele>1794.0</ele></trkpt>
    <trkpt lat="34.32649" lon="-117.05959"><ele>1794.0</ele></trkpt>
    <trkpt lat="34.32653" lon="-117.05960"><ele>1794.0</ele></trkpt>
    <trkpt lat="34.32655" lon="-117.05960"><ele>1794.0</ele></trkpt>
    <trkpt lat="34.32662" lon="-117.05961"><ele>1794.0</ele></trkpt>
    <trkpt lat="34.32670" lon="-117.05961"><ele>1794.0</ele></trkpt>
    <trkpt lat="34.32675" lon="-117.05959"><ele>1794.0</ele></trkpt>
    <trkpt lat="34.32677" lon="-117.05959"><ele>1794.0</ele></trkpt>
    <trkpt lat="34.32687" lon="-117.05954"><ele>1783.0</ele></trkpt>
    <trkpt lat="34.32697" lon="-117.05949"><ele>1783.0</ele></trkpt>
    <trkpt lat="34.32699" lon="-117.05947"><ele>1783.0</ele></trkpt>
    <trkpt lat="34.32713" lon="-117.05941"><ele>1783.0</ele></trkpt>
    <trkpt lat="34.32722" lon="-117.05938"><ele>1783.0</ele></trkpt>
    <trkpt lat="34.32730" lon="-117.05937"><ele>1783.0</ele></trkpt>
    <trkpt lat="34.32737" lon="-117.05938"><ele>1783.0</ele></trkpt>
    <trkpt lat="34.32738" lon="-117.05938"><ele>1783.0</ele></trkpt>
    <trkpt lat="34.32743" lon="-117.05941"><ele>1783.0</ele></trkpt>
    <trkpt lat="34.32754" lon="-117.05946"><ele>1783.0</ele></trkpt>
    <trkpt lat="34.32762" lon="-117.05950"><ele>1783.0</ele></trkpt>
    <trkpt lat="34.32768" lon="-117.05952"><ele>1783.0</ele></trkpt>
    <trkpt lat="34.32771" lon="-117.05953"><ele>1783.0</ele></trkpt>
    <trkpt lat="34.32775" lon="-117.05956"><ele>1783.0</ele></trkpt>
    <trkpt lat="34.32783" lon="-117.05963"><ele>1774.0</ele></trkpt>
    <trkpt lat="34.32788" lon="-117.05969"><ele>1774.0</ele></trkpt>
    <trkpt lat="34.32791" lon="-117.05976"><ele>1774.0</ele></trkpt>
    <trkpt lat="34.32794" lon="-117.05983"><ele>1774.0</ele></trkpt>
    <trkpt lat="34.32794" lon="-117.05984"><ele>1774.0</ele></trkpt>
    <trkpt lat="34.32798" lon="-117.05990"><ele>1774.0</ele></trkpt>
    <trkpt lat="34.32803" lon="-117.05994"><ele>1774.0</ele></trkpt>
    <trkpt lat="34.32803" lon="-117.05994"><ele>1774.0</ele></trkpt>
    <trkpt lat="34.32811" lon="-117.05997"><ele>1774.0</ele></trkpt>
    <trkpt lat="34.32818" lon="-117.06002"><ele>1774.0</ele></trkpt>
    <trkpt lat="34.32824" lon="-117.06009"><ele>1774.0</ele></trkpt>
    <trkpt lat="34.32828" lon="-117.06020"><ele>1774.0</ele></trkpt>
    <trkpt lat="34.32830" lon="-117.06031"><ele>1774.0</ele></trkpt>
    <trkpt lat="34.32831" lon="-117.06032"><ele>1774.0</ele></trkpt>
    <trkpt lat="34.32834" lon="-117.06044"><ele>1774.0</ele></trkpt>
    <trkpt lat="34.32837" lon="-117.06052"><ele>1758.0</ele></trkpt>
    <trkpt lat="34.32843" lon="-117.06062"><ele>1758.0</ele></trkpt>
    <trkpt lat="34.32849" lon="-117.06072"><ele>1758.0</ele></trkpt>
    <trkpt lat="34.32855" lon="-117.06079"><ele>1758.0</ele></trkpt>
    <trkpt lat="34.32862" lon="-117.06084"><ele>1758.0</ele></trkpt>
    <trkpt lat="34.32875" lon="-117.06087"><ele>1758.0</ele></trkpt>
    <trkpt lat="34.32884" lon="-117.06091"><ele>1758.0</ele></trkpt>
    <trkpt lat="34.32886" lon="-117.06091"><ele>1758.0</ele></trkpt>
    <trkpt lat="34.32897" lon="-117.06098"><ele>1758.0</ele></trkpt>
    <trkpt lat="34.32905" lon="-117.06101"><ele>1758.0</ele></trkpt>
    <trkpt lat="34.32913" lon="-117.06106"><ele>1758.0</ele></trkpt>
    <trkpt lat="34.32923" lon="-117.06115"><ele>1758.0</ele></trkpt>
    <trkpt lat="34.32923" lon="-117.06115"><ele>1758.0</ele></trkpt>
    <trkpt lat="34.32932" lon="-117.06123"><ele>1758.0</ele></trkpt>
    <trkpt lat="34.32945" lon="-117.06129"><ele>1743.0</ele></trkpt>
    <trkpt lat="34.32958" lon="-117.06134"><ele>1743.0</ele></trkpt>
    <trkpt lat="34.32965" lon="-117.06136"><ele>1743.0</ele></trkpt>
    <trkpt lat="34.32975" lon="-117.06137"><ele>1743.0</ele></trkpt>
    <trkpt lat="34.32990" lon="-117.06136"><ele>1743.0</ele></trkpt>
    <trkpt lat="34.33005" lon="-117.06134"><ele>1743.0</ele></trkpt>
    <trkpt lat="34.33021" lon="-117.06130"><ele>1743.0</ele></trkpt>
    <trkpt lat="34.33035" lon="-117.06129"><ele>1743.0</ele></trkpt>
    <trkpt lat="34.33044" lon="-117.06129"><ele>1743.0</ele></trkpt>
    <trkpt lat="34.33053" lon="-117.06132"><ele>1743.0</ele></trkpt>
    <trkpt lat="34.33059" lon="-117.06134"><ele>1743.0</ele></trkpt>
    <trkpt lat="34.33066" lon="-117.06138"><ele>1743.0</ele></trkpt>
    <trkpt lat="34.33072" lon="-117.06143"><ele>1743.0</ele></trkpt>
    <trkpt lat="34.33082" lon="-117.06151"><ele>1743.0</ele></trkpt>
    <trkpt lat="34.33090" lon="-117.06160"><ele>1743.0</ele></trkpt>
    <trkpt lat="34.33103" lon="-117.06172"><ele>1732.0</ele></trkpt>
    <trkpt lat="34.33115" lon="-117.06180"><ele>1732.0</ele></trkpt>
    <trkpt lat="34.33124" lon="-117.06187"><ele>1732.0</ele></trkpt>
    <trkpt lat="34.33129" lon="-117.06194"><ele>1732.0</ele></trkpt>
    <trkpt lat="34.33131" lon="-117.06196"><ele>1732.0</ele></trkpt>
    <trkpt lat="34.33135" lon="-117.06204"><ele>1732.0</ele></trkpt>
    <trkpt lat="34.33142" lon="-117.06218"><ele>1732.0</ele></trkpt>
    <trkpt lat="34.33148" lon="-117.06230"><ele>1732.0</ele></trkpt>
    <trkpt lat="34.33151" lon="-117.06241"><ele>1732.0</ele></trkpt>
    <trkpt lat="34.33152" lon="-117.06249"><ele>1732.0</ele></trkpt>
    <trkpt lat="34.33152" lon="-117.06263"><ele>1732.0</ele></trkpt>
    <trkpt lat="34.33153" lon="-117.06273"><ele>1732.0</ele></trkpt>
    <trkpt lat="34.33153" lon="-117.06274"><ele>1732.0</ele></trkpt>
    <trkpt lat="34.33154" lon="-117.06280"><ele>1732.0</ele></trkpt>
    <trkpt lat="34.33157" lon="-117.06286"><ele>1732.0</ele></trkpt>
    <trkpt lat="34.33160" lon="-117.06291"><ele>1728.0</ele></trkpt>
    <trkpt lat="34.33168" lon="-117.06298"><ele>1728.0</ele></trkpt>
    <trkpt lat="34.33171" lon="-117.06301"><ele>1728.0</ele></trkpt>
    <trkpt lat="34.33177" lon="-117.06309"><ele>1728.0</ele></trkpt>
    <trkpt lat="34.33181" lon="-117.06318"><ele>1728.0</ele></trkpt>
    <trkpt lat="34.33183" lon="-117.06329"><ele>1728.0</ele></trkpt>
    <trkpt lat="34.33184" lon="-117.06341"><ele>1728.0</ele></trkpt>
    <trkpt lat="34.33185" lon="-117.06357"><ele>1728.0</ele></trkpt>
    <trkpt lat="34.33186" lon="-117.06362"><ele>1728.0</ele></trkpt>
    <trkpt lat="34.33188" lon="-117.06370"><ele>1728.0</ele></trkpt>
    <trkpt lat="34.33190" lon="-117.06379"><ele>1728.0</ele></trkpt>
    <trkpt lat="34.33196" lon="-117.06389"><ele>1728.0</ele></trkpt>
    <trkpt lat="34.33204" lon="-117.06401"><ele>1728.0</ele></trkpt>
    <trkpt lat="34.33205" lon="-117.06403"><ele>1728.0</ele></trkpt>
    <trkpt lat="34.33208" lon="-117.06410"><ele>1725.0</ele></trkpt>
    <trkpt lat="34.33211" lon="-117.06417"><ele>1725.0</ele></trkpt>
    <trkpt lat="34.33211" lon="-117.06417"><ele>1725.0</ele></trkpt>
    <trkpt lat="34.33213" lon="-117.06426"><ele>1725.0</ele></trkpt>
    <trkpt lat="34.33213" lon="-117.06435"><ele>1725.0</ele></trkpt>
    <trkpt lat="34.33213" lon="-117.06436"><ele>1725.0</ele></trkpt>
    <trkpt lat="34.33212" lon="-117.06447"><ele>1725.0</ele></trkpt>
    <trkpt lat="34.33209" lon="-117.06460"><ele>1725.0</ele></trkpt>
    <trkpt lat="34.33205" lon="-117.06475"><ele>1725.0</ele></trkpt>
    <trkpt lat="34.33203" lon="-117.06481"><ele>1725.0</ele></trkpt>
    <trkpt lat="34.33202" lon="-117.06486"><ele>1725.0</ele></trkpt>
    <trkpt lat="34.33195" lon="-117.06501"><ele>1725.0</ele></trkpt>
    <trkpt lat="34.33191" lon="-117.06517"><ele>1725.0</ele></trkpt>
    <trkpt lat="34.33187" lon="-117.06532"><ele>1725.0</ele></trkpt>
    <trkpt lat="34.33184" lon="-117.06552"><ele>1725.0</ele></trkpt>
    <trkpt lat="34.33180" lon="-117.06580"><ele>1720.0</ele></trkpt>
    <trkpt lat="34.33175" lon="-117.06614"><ele>1720.0</ele></trkpt>
    <trkpt lat="34.33174" lon="-117.06626"><ele>1720.0</ele></trkpt>
    <trkpt lat="34.33174" lon="-117.06637"><ele>1720.0</ele></trkpt>
    <trkpt lat="34.33177" lon="-117.06648"><ele>1720.0</ele></trkpt>
    <trkpt lat="34.33182" lon="-117.06658"><ele>1720.0</ele></trkpt>
    <trkpt lat="34.33188" lon="-117.06668"><ele>1720.0</ele></trkpt>
    <trkpt lat="34.33198" lon="-117.06678"><ele>1720.0</ele></trkpt>
    <trkpt lat="34.33214" lon="-117.06691"><ele>1720.0</ele></trkpt>
    <trkpt lat="34.33230" lon="-117.06700"><ele>1720.0</ele></trkpt>
    <trkpt lat="34.33242" lon="-117.06707"><ele>1720.0</ele></trkpt>
    <trkpt lat="34.33261" lon="-117.06714"><ele>1720.0</ele></trkpt>
    <trkpt lat="34.33268" lon="-117.06717"><ele>1720.0</ele></trkpt>
    <trkpt lat="34.33276" lon="-117.06720"><ele>1720.0</ele></trkpt>
    <trkpt lat="34.33291" lon="-117.06725"><ele>1722.0</ele></trkpt>
    <trkpt lat="34.33303" lon="-117.06728"><ele>1722.0</ele></trkpt>
    <trkpt lat="34.33316" lon="-117.06729"><ele>1722.0</ele></trkpt>
    <trkpt lat="34.33331" lon="-117.06729"><ele>1722.0</ele></trkpt>
    <trkpt lat="34.33342" lon="-117.06728"><ele>1722.0</ele></trkpt>
    <trkpt lat="34.33345" lon="-117.06728"><ele>1722.0</ele></trkpt>
    <trkpt lat="34.33362" lon="-117.06726"><ele>1722.0</ele></trkpt>
    <trkpt lat="34.33384" lon="-117.06723"><ele>1722.0</ele></trkpt>
    <trkpt lat="34.33402" lon="-117.06723"><ele>1722.0</ele></trkpt>
    <trkpt lat="34.33406" lon="-117.06723"><ele>1722.0</ele></trkpt>
    <trkpt lat="34.33413" lon="-117.06723"><ele>1722.0</ele></trkpt>
    <trkpt lat="34.33423" lon="-117.06725"><ele>1722.0</ele></trkpt>
    <trkpt lat="34.33430" lon="-117.06730"><ele>1722.0</ele></trkpt>
    <trkpt lat="34.33435" lon="-117.06736"><ele>1722.0</ele></trkpt>
    <trkpt lat="34.33438" lon="-117.06741"><ele>1722.0</ele></trkpt>
    <trkpt lat="34.33441" lon="-117.06746"><ele>1719.0</ele></trkpt>
    <trkpt lat="34.33443" lon="-117.06754"><ele>1719.0</ele></trkpt>
    <trkpt lat="34.33442" lon="-117.06764"><ele>1719.0</ele></trkpt>
    <trkpt lat="34.33441" lon="-117.06778"><ele>1719.0</ele></trkpt>
    <trkpt lat="34.33437" lon="-117.06798"><ele>1719.0</ele></trkpt>
    <trkpt lat="34.33432" lon="-117.06816"><ele>1719.0</ele></trkpt>
    <trkpt lat="34.33430" lon="-117.06825"><ele>1719.0</ele></trkpt>
    <trkpt lat="34.33428" lon="-117.06836"><ele>1719.0</ele></trkpt>
    <trkpt lat="34.33429" lon="-117.06846"><ele>1719.0</ele></trkpt>
    <trkpt lat="34.33432" lon="-117.06855"><ele>1719.0</ele></trkpt>
    <trkpt lat="34.33436" lon="-117.06863"><ele>1719.0</ele></trkpt>
    <trkpt lat="34.33447" lon="-117.06875"><ele>1719.0</ele></trkpt>
    <trkpt lat="34.33456" lon="-117.06886"><ele>1719.0</ele></trkpt>
    <trkpt lat="34.33466" lon="-117.06901"><ele>1719.0</ele></trkpt>
    <trkpt lat="34.33472" lon="-117.06906"><ele>1719.0</ele></trkpt>
    <trkpt lat="34.33477" lon="-117.06909"><ele>1722.0</ele></trkpt>
    <trkpt lat="34.33479" lon="-117.06910"><ele>1722.0</ele></trkpt>
    <trkpt lat="34.33485" lon="-117.06910"><ele>1722.0</ele></trkpt>
    <trkpt lat="34.33492" lon="-117.06908"><ele>1722.0</ele></trkpt>
    <trkpt lat="34.33507" lon="-117.06903"><ele>1722.0</ele></trkpt>
    <trkpt lat="34.33518" lon="-117.06899"><ele>1722.0</ele></trkpt>
    <trkpt lat="34.33530" lon="-117.06895"><ele>1722.0</ele></trkpt>
    <trkpt lat="34.33535" lon="-117.06892"><ele>1722.0</ele></trkpt>
    <trkpt lat="34.33541" lon="-117.06887"><ele>1722.0</ele></trkpt>
    <trkpt lat="34.33547" lon="-117.06882"><ele>1722.0</ele></trkpt>
    <trkpt lat="34.33549" lon="-117.06879"><ele>1722.0</ele></trkpt>
    <trkpt lat="34.33551" lon="-117.06876"><ele>1722.0</ele></trkpt>
    <trkpt lat="34.33557" lon="-117.06871"><ele>1722.0</ele></trkpt>
    <trkpt lat="34.33563" lon="-117.06868"><ele>1722.0</ele></trkpt>
    <trkpt lat="34.33570" lon="-117.06864"><ele>1730.0</ele></trkpt>
    <trkpt lat="34.33579" lon="-117.06864"><ele>1730.0</ele></trkpt>
    <trkpt lat="34.33588" lon="-117.06865"><ele>1730.0</ele></trkpt>
    <trkpt lat="34.33596" lon="-117.06868"><ele>1730.0</ele></trkpt>
    <trkpt lat="34.33605" lon="-117.06869"><ele>1730.0</ele></trkpt>
    <trkpt lat="34.33612" lon="-117.06868"><ele>1730.0</ele></trkpt>
    <trkpt lat="34.33617" lon="-117.06865"><ele>1730.0</ele></trkpt>
    <trkpt lat="34.33618" lon="-117.06865"><ele>1730.0</ele></trkpt>
    <trkpt lat="34.33625" lon="-117.06859"><ele>1730.0</ele></trkpt>
    <trkpt lat="34.33631" lon="-117.06851"><ele>1730.0</ele></trkpt>
    <trkpt lat="34.33636" lon="-117.06844"><ele>1730.0</ele></trkpt>
    <trkpt lat="34.33640" lon="-117.06834"><ele>1730.0</ele></trkpt>
    <trkpt lat="34.33641" lon="-117.06832"><ele>1730.0</ele></trkpt>
    <trkpt lat="34.33647" lon="-117.06816"><ele>1730.0</ele></trkpt>
    <trkpt lat="34.33651" lon="-117.06807"><ele>1730.0</ele></trkpt>
    <trkpt lat="34.33656" lon="-117.06796"><ele>1737.0</ele></trkpt>
    <trkpt lat="34.33663" lon="-117.06783"><ele>1737.0</ele></trkpt>
    <trkpt lat="34.33663" lon="-117.06783"><ele>1737.0</ele></trkpt>
    <trkpt lat="34.33669" lon="-117.06774"><ele>1737.0</ele></trkpt>
    <trkpt lat="34.33671" lon="-117.06770"><ele>1737.0</ele></trkpt>
    <trkpt lat="34.33673" lon="-117.06764"><ele>1737.0</ele></trkpt>
    <trkpt lat="34.33678" lon="-117.06753"><ele>1737.0</ele></trkpt>
    <trkpt lat="34.33683" lon="-117.06738"><ele>1737.0</ele></trkpt>
    <trkpt lat="34.33689" lon="-117.06724"><ele>1737.0</ele></trkpt>
    <trkpt lat="34.33695" lon="-117.06709"><ele>1737.0</ele></trkpt>
    <trkpt lat="34.33701" lon="-117.06698"><ele>1737.0</ele></trkpt>
    <trkpt lat="34.33709" lon="-117.06682"><ele>1737.0</ele></trkpt>
    <trkpt lat="34.33720" lon="-117.06663"><ele>1737.0</ele></trkpt>
    <trkpt lat="34.33730" lon="-117.06645"><ele>1737.0</ele></trkpt>
    <trkpt lat="34.33739" lon="-117.06629"><ele>1751.0</ele></trkpt>
    <trkpt lat="34.33756" lon="-117.06604"><ele>1751.0</ele></trkpt>
    <trkpt lat="34.33767" lon="-117.06585"><ele>1751.0</ele></trkpt>
    <trkpt lat="34.33775" lon="-117.06572"><ele>1751.0</ele></trkpt>
    <trkpt lat="34.33781" lon="-117.06564"><ele>1751.0</ele></trkpt>
    <trkpt lat="34.33787" lon="-117.06556"><ele>1751.0</ele></trkpt>
    <trkpt lat="34.33798" lon="-117.06545"><ele>1751.0</ele></trkpt>
    <trkpt lat="34.33806" lon="-117.06537"><ele>1751.0</ele></trkpt>
    <trkpt lat="34.33813" lon="-117.06528"><ele>1751.0</ele></trkpt>
    <trkpt lat="34.33818" lon="-117.06519"><ele>1751.0</ele></trkpt>
    <trkpt lat="34.33824" lon="-117.06508"><ele>1751.0</ele></trkpt>
    <trkpt lat="34.33828" lon="-117.06497"><ele>1751.0</ele></trkpt>
    <trkpt lat="34.33830" lon="-117.06488"><ele>1751.0</ele></trkpt>
    <trkpt lat="34.33832" lon="-117.06477"><ele>1751.0</ele></trkpt>
    <trkpt lat="34.33834" lon="-117.06468"><ele>1751.0</ele></trkpt>
    <trkpt lat="34.33839" lon="-117.06460"><ele>1758.0</ele></trkpt>
    <trkpt lat="34.33846" lon="-117.06450"><ele>1758.0</ele></trkpt>
    <trkpt lat="34.33851" lon="-117.06442"><ele>1758.0</ele></trkpt>
    <trkpt lat="34.33859" lon="-117.06434"><ele>1758.0</ele></trkpt>
    <trkpt lat="34.33867" lon="-117.06427"><ele>1758.0</ele></trkpt>
    <trkpt lat="34.33874" lon="-117.06423"><ele>1758.0</ele></trkpt>
    <trkpt lat="34.33884" lon="-117.06419"><ele>1758.0</ele></trkpt>
    <trkpt lat="34.33894" lon="-117.06417"><ele>1758.0</ele></trkpt>
    <trkpt lat="34.33908" lon="-117.06417"><ele>1758.0</ele></trkpt>
    <trkpt lat="34.33919" lon="-117.06415"><ele>1758.0</ele></trkpt>
    <trkpt lat="34.33926" lon="-117.06413"><ele>1758.0</ele></trkpt>
    <trkpt lat="34.33933" lon="-117.06409"><ele>1758.0</ele></trkpt>
    <trkpt lat="34.33939" lon="-117.06404"><ele>1758.0</ele></trkpt>
    <trkpt lat="34.33946" lon="-117.06396"><ele>1758.0</ele></trkpt>
    <trkpt lat="34.33953" lon="-117.06388"><ele>1758.0</ele></trkpt>
    <trkpt lat="34.33955" lon="-117.06387"><ele>1765.0</ele></trkpt>
    <trkpt lat="34.33962" lon="-117.06380"><ele>1765.0</ele></trkpt>
    <trkpt lat="34.33970" lon="-117.06373"><ele>1765.0</ele></trkpt>
    <trkpt lat="34.33978" lon="-117.06367"><ele>1765.0</ele></trkpt>
    <trkpt lat="34.33985" lon="-117.06362"><ele>1765.0</ele></trkpt>
    <trkpt lat="34.33994" lon="-117.06357"><ele>1765.0</ele></trkpt>
    <trkpt lat="34.33996" lon="-117.06356"><ele>1765.0</ele></trkpt>
    <trkpt lat="34.34006" lon="-117.06352"><ele>1765.0</ele></trkpt>
    <trkpt lat="34.34006" lon="-117.06352"><ele>1765.0</ele></trkpt>
    <trkpt lat="34.34019" lon="-117.06349"><ele>1765.0</ele></trkpt>
    <trkpt lat="34.34022" lon="-117.06349"><ele>1765.0</ele></trkpt>
    <trkpt lat="34.34031" lon="-117.06348"><ele>1765.0</ele></trkpt>
    <trkpt lat="34.34038" lon="-117.06349"><ele>1765.0</ele></trkpt>
    <trkpt lat="34.34045" lon="-117.06353"><ele>1765.0</ele></trkpt>
    <trkpt lat="34.34051" lon="-117.06360"><ele>1761.0</ele></trkpt>
    <trkpt lat="34.34052" lon="-117.06360"><ele>1761.0</ele></trkpt>
    <trkpt lat="34.34056" lon="-117.06367"><ele>1761.0</ele></trkpt>
    <trkpt lat="34.34061" lon="-117.06375"><ele>1761.0</ele></trkpt>
    <trkpt lat="34.34067" lon="-117.06381"><ele>1761.0</ele></trkpt>
    <trkpt lat="34.34075" lon="-117.06387"><ele>1761.0</ele></trkpt>
    <trkpt lat="34.34084" lon="-117.06391"><ele>1761.0</ele></trkpt>
    <trkpt lat="34.34090" lon="-117.06393"><ele>1761.0</ele></trkpt>
    <trkpt lat="34.34102" lon="-117.06397"><ele>1761.0</ele></trkpt>
    <trkpt lat="34.34116" lon="-117.06402"><ele>1761.0</ele></trkpt>
    <trkpt lat="34.34124" lon="-117.06405"><ele>1761.0</ele></trkpt>
    <trkpt lat="34.34126" lon="-117.06406"><ele>1761.0</ele></trkpt>
    <trkpt lat="34.34132" lon="-117.06408"><ele>1761.0</ele></trkpt>
    <trkpt lat="34.34140" lon="-117.06413"><ele>1761.0</ele></trkpt>
    <trkpt lat="34.34149" lon="-117.06420"><ele>1761.0</ele></trkpt>
    <trkpt lat="34.34157" lon="-117.06427"><ele>1755.0</ele></trkpt>
    <trkpt lat="34.34165" lon="-117.06434"><ele>1755.0</ele></trkpt>
    <trkpt lat="34.34174" lon="-117.06439"><ele>1755.0</ele></trkpt>
    <trkpt lat="34.34182" lon="-117.06442"><ele>1755.0</ele></trkpt>
    <trkpt lat="34.34185" lon="-117.06442"><ele>1755.0</ele></trkpt>
    <trkpt lat="34.34190" lon="-117.06442"><ele>1755.0</ele></trkpt>
    <trkpt lat="34.34197" lon="-117.06440"><ele>1755.0</ele></trkpt>
    <trkpt lat="34.34203" lon="-117.06435"><ele>1755.0</ele></trkpt>
    <trkpt lat="34.34210" lon="-117.06430"><ele>1755.0</ele></trkpt>
    <trkpt lat="34.34217" lon="-117.06424"><ele>1755.0</ele></trkpt>
    <trkpt lat="34.34220" lon="-117.06423"><ele>1755.0</ele></trkpt>
    <trkpt lat="34.34220" lon="-117.06423"><ele>1755.0</ele></trkpt>
    <trkpt lat="34.34226" lon="-117.06421"><ele>1755.0</ele></trkpt>
    <trkpt lat="34.34229" lon="-117.06420"><ele>1755.0</ele></trkpt>
    <trkpt lat="34.34234" lon="-117.06420"><ele>1754.0</ele></trkpt>
    <trkpt lat="34.34242" lon="-117.06423"><ele>1754.0</ele></trkpt>
    <trkpt lat="34.34257" lon="-117.06428"><ele>1754.0</ele></trkpt>
    <trkpt lat="34.34282" lon="-117.06432"><ele>1754.0</ele></trkpt>
    <trkpt lat="34.34291" lon="-117.06430"><ele>1754.0</ele></trkpt>
    <trkpt lat="34.34302" lon="-117.06425"><ele>1754.0</ele></trkpt>
    <trkpt lat="34.34313" lon="-117.06419"><ele>1754.0</ele></trkpt>
    <trkpt lat="34.34320" lon="-117.06414"><ele>1754.0</ele></trkpt>
  </trkseg></trk>
</gpx>
