<?xml version="1.0" encoding="UTF-8"?>
<gpx version="1.1" creator="dirt-bikes build-area-routes (MVUM geometry + SRTM elevation)" xmlns="http://www.topografix.com/GPX/1/1">
  <trk><name>Dark Canyon Road</name><trkseg>
    <trkpt lat="33.80991" lon="-116.74915"><ele>1843.0</ele></trkpt>
    <trkpt lat="33.80990" lon="-116.74910"><ele>1843.0</ele></trkpt>
    <trkpt lat="33.80990" lon="-116.74903"><ele>1843.0</ele></trkpt>
    <trkpt lat="33.80992" lon="-116.74896"><ele>1843.0</ele></trkpt>
    <trkpt lat="33.80996" lon="-116.74890"><ele>1843.0</ele></trkpt>
    <trkpt lat="33.80999" lon="-116.74885"><ele>1843.0</ele></trkpt>
    <trkpt lat="33.81015" lon="-116.74868"><ele>1843.0</ele></trkpt>
    <trkpt lat="33.81026" lon="-116.74858"><ele>1843.0</ele></trkpt>
    <trkpt lat="33.81031" lon="-116.74852"><ele>1843.0</ele></trkpt>
    <trkpt lat="33.81044" lon="-116.74840"><ele>1843.0</ele></trkpt>
    <trkpt lat="33.81052" lon="-116.74831"><ele>1843.0</ele></trkpt>
    <trkpt lat="33.81061" lon="-116.74822"><ele>1843.0</ele></trkpt>
    <trkpt lat="33.81068" lon="-116.74817"><ele>1843.0</ele></trkpt>
    <trkpt lat="33.81075" lon="-116.74812"><ele>1843.0</ele></trkpt>
    <trkpt lat="33.81082" lon="-116.74807"><ele>1843.0</ele></trkpt>
    <trkpt lat="33.81087" lon="-116.74801"><ele>1839.0</ele></trkpt>
    <trkpt lat="33.81092" lon="-116.74793"><ele>1839.0</ele></trkpt>
    <trkpt lat="33.81096" lon="-116.74783"><ele>1839.0</ele></trkpt>
    <trkpt lat="33.81099" lon="-116.74775"><ele>1839.0</ele></trkpt>
    <trkpt lat="33.81104" lon="-116.74764"><ele>1839.0</ele></trkpt>
    <trkpt lat="33.81108" lon="-116.74753"><ele>1839.0</ele></trkpt>
    <trkpt lat="33.81110" lon="-116.74744"><ele>1839.0</ele></trkpt>
    <trkpt lat="33.81113" lon="-116.74738"><ele>1839.0</ele></trkpt>
    <trkpt lat="33.81118" lon="-116.74727"><ele>1839.0</ele></trkpt>
    <trkpt lat="33.81122" lon="-116.74721"><ele>1839.0</ele></trkpt>
    <trkpt lat="33.81127" lon="-116.74712"><ele>1835.0</ele></trkpt>
    <trkpt lat="33.81132" lon="-116.74705"><ele>1835.0</ele></trkpt>
    <trkpt lat="33.81137" lon="-116.74699"><ele>1835.0</ele></trkpt>
    <trkpt lat="33.81144" lon="-116.74692"><ele>1835.0</ele></trkpt>
    <trkpt lat="33.81152" lon="-116.74687"><ele>1835.0</ele></trkpt>
    <trkpt lat="33.81159" lon="-116.74683"><ele>1835.0</ele></trkpt>
    <trkpt lat="33.81163" lon="-116.74681"><ele>1835.0</ele></trkpt>
    <trkpt lat="33.81166" lon="-116.74678"><ele>1835.0</ele></trkpt>
    <trkpt lat="33.81168" lon="-116.74675"><ele>1835.0</ele></trkpt>
    <trkpt lat="33.81168" lon="-116.74669"><ele>1833.0</ele></trkpt>
    <trkpt lat="33.81167" lon="-116.74664"><ele>1833.0</ele></trkpt>
    <trkpt lat="33.81166" lon="-116.74660"><ele>1833.0</ele></trkpt>
    <trkpt lat="33.81161" lon="-116.74654"><ele>1833.0</ele></trkpt>
    <trkpt lat="33.81154" lon="-116.74649"><ele>1833.0</ele></trkpt>
    <trkpt lat="33.81146" lon="-116.74639"><ele>1833.0</ele></trkpt>
    <trkpt lat="33.81141" lon="-116.74630"><ele>1833.0</ele></trkpt>
    <trkpt lat="33.81139" lon="-116.74625"><ele>1833.0</ele></trkpt>
    <trkpt lat="33.81136" lon="-116.74614"><ele>1833.0</ele></trkpt>
    <trkpt lat="33.81131" lon="-116.74595"><ele>1833.0</ele></trkpt>
    <trkpt lat="33.81126" lon="-116.74581"><ele>1833.0</ele></trkpt>
    <trkpt lat="33.81122" lon="-116.74571"><ele>1833.0</ele></trkpt>
    <trkpt lat="33.81114" lon="-116.74560"><ele>1833.0</ele></trkpt>
    <trkpt lat="33.81110" lon="-116.74551"><ele>1833.0</ele></trkpt>
    <trkpt lat="33.81107" lon="-116.74546"><ele>1833.0</ele></trkpt>
    <trkpt lat="33.81104" lon="-116.74535"><ele>1833.0</ele></trkpt>
    <trkpt lat="33.81103" lon="-116.74523"><ele>1833.0</ele></trkpt>
    <trkpt lat="33.81104" lon="-116.74516"><ele>1833.0</ele></trkpt>
    <trkpt lat="33.81106" lon="-116.74509"><ele>1833.0</ele></trkpt>
    <trkpt lat="33.81289" lon="-116.73336"><ele>1881.0</ele></trkpt>
    <trkpt lat="33.81288" lon="-116.73337"><ele>1881.0</ele></trkpt>
    <trkpt lat="33.81279" lon="-116.73343"><ele>1881.0</ele></trkpt>
    <trkpt lat="33.81268" lon="-116.73350"><ele>1881.0</ele></trkpt>
    <trkpt lat="33.81259" lon="-116.73357"><ele>1881.0</ele></trkpt>
    <trkpt lat="33.81253" lon="-116.73365"><ele>1881.0</ele></trkpt>
    <trkpt lat="33.81249" lon="-116.73372"><ele>1881.0</ele></trkpt>
    <trkpt lat="33.81244" lon="-116.73383"><ele>1881.0</ele></trkpt>
    <trkpt lat="33.81241" lon="-116.73391"><ele>1881.0</ele></trkpt>
    <trkpt lat="33.81236" lon="-116.73400"><ele>1881.0</ele></trkpt>
    <trkpt lat="33.81232" lon="-116.73406"><ele>1878.0</ele></trkpt>
    <trkpt lat="33.81225" lon="-116.73413"><ele>1878.0</ele></trkpt>
    <trkpt lat="33.81219" lon="-116.73418"><ele>1878.0</ele></trkpt>
    <trkpt lat="33.81213" lon="-116.73423"><ele>1878.0</ele></trkpt>
    <trkpt lat="33.81207" lon="-116.73429"><ele>1878.0</ele></trkpt>
    <trkpt lat="33.81202" lon="-116.73434"><ele>1878.0</ele></trkpt>
    <trkpt lat="33.81195" lon="-116.73437"><ele>1878.0</ele></trkpt>
    <trkpt lat="33.81186" lon="-116.73440"><ele>1878.0</ele></trkpt>
    <trkpt lat="33.81171" lon="-116.73446"><ele>1878.0</ele></trkpt>
    <trkpt lat="33.81163" lon="-116.73449"><ele>1892.0</ele></trkpt>
    <trkpt lat="33.81151" lon="-116.73452"><ele>1892.0</ele></trkpt>
    <trkpt lat="33.81145" lon="-116.73453"><ele>1892.0</ele></trkpt>
    <trkpt lat="33.81125" lon="-116.73456"><ele>1892.0</ele></trkpt>
    <trkpt lat="33.81119" lon="-116.73456"><ele>1892.0</ele></trkpt>
    <trkpt lat="33.81112" lon="-116.73460"><ele>1892.0</ele></trkpt>
    <trkpt lat="33.81106" lon="-116.73466"><ele>1892.0</ele></trkpt>
    <trkpt lat="33.81102" lon="-116.73471"><ele>1892.0</ele></trkpt>
    <trkpt lat="33.81100" lon="-116.73477"><ele>1892.0</ele></trkpt>
    <trkpt lat="33.81100" lon="-116.73483"><ele>1892.0</ele></trkpt>
    <trkpt lat="33.81100" lon="-116.73490"><ele>1887.0</ele></trkpt>
    <trkpt lat="33.81101" lon="-116.73496"><ele>1887.0</ele></trkpt>
    <trkpt lat="33.81104" lon="-116.73502"><ele>1887.0</ele></trkpt>
    <trkpt lat="33.81108" lon="-116.73507"><ele>1887.0</ele></trkpt>
    <trkpt lat="33.81110" lon="-116.73515"><ele>1887.0</ele></trkpt>
    <trkpt lat="33.81114" lon="-116.73524"><ele>1887.0</ele></trkpt>
    <trkpt lat="33.81115" lon="-116.73534"><ele>1887.0</ele></trkpt>
    <trkpt lat="33.81116" lon="-116.73542"><ele>1887.0</ele></trkpt>
    <trkpt lat="33.81115" lon="-116.73551"><ele>1887.0</ele></trkpt>
    <trkpt lat="33.81112" lon="-116.73562"><ele>1888.0</ele></trkpt>
    <trkpt lat="33.81108" lon="-116.73575"><ele>1888.0</ele></trkpt>
    <trkpt lat="33.81105" lon="-116.73583"><ele>1888.0</ele></trkpt>
    <trkpt lat="33.81102" lon="-116.73589"><ele>1888.0</ele></trkpt>
    <trkpt lat="33.81101" lon="-116.73593"><ele>1888.0</ele></trkpt>
    <trkpt lat="33.81101" lon="-116.73599"><ele>1888.0</ele></trkpt>
    <trkpt lat="33.81099" lon="-116.73606"><ele>1888.0</ele></trkpt>
    <trkpt lat="33.81098" lon="-116.73614"><ele>1888.0</ele></trkpt>
    <trkpt lat="33.81095" lon="-116.73623"><ele>1888.0</ele></trkpt>
    <trkpt lat="33.81089" lon="-116.73628"><ele>1888.0</ele></trkpt>
    <trkpt lat="33.81082" lon="-116.73630"><ele>1896.0</ele></trkpt>
    <trkpt lat="33.81076" lon="-116.73631"><ele>1896.0</ele></trkpt>
    <trkpt lat="33.81069" lon="-116.73628"><ele>1896.0</ele></trkpt>
    <trkpt lat="33.81065" lon="-116.73623"><ele>1896.0</ele></trkpt>
    <trkpt lat="33.81061" lon="-116.73615"><ele>1896.0</ele></trkpt>
    <trkpt lat="33.81060" lon="-116.73606"><ele>1896.0</ele></trkpt>
    <trkpt lat="33.81060" lon="-116.73598"><ele>1896.0</ele></trkpt>
    <trkpt lat="33.81062" lon="-116.73585"><ele>1896.0</ele></trkpt>
    <trkpt lat="33.81064" lon="-116.73569"><ele>1896.0</ele></trkpt>
    <trkpt lat="33.81063" lon="-116.73561"><ele>1903.0</ele></trkpt>
    <trkpt lat="33.81063" lon="-116.73554"><ele>1903.0</ele></trkpt>
    <trkpt lat="33.81061" lon="-116.73547"><ele>1903.0</ele></trkpt>
    <trkpt lat="33.81058" lon="-116.73542"><ele>1903.0</ele></trkpt>
    <trkpt lat="33.81054" lon="-116.73537"><ele>1903.0</ele></trkpt>
    <trkpt lat="33.81050" lon="-116.73531"><ele>1903.0</ele></trkpt>
    <trkpt lat="33.81046" lon="-116.73524"><ele>1903.0</ele></trkpt>
    <trkpt lat="33.81042" lon="-116.73517"><ele>1903.0</ele></trkpt>
    <trkpt lat="33.81041" lon="-116.73512"><ele>1903.0</ele></trkpt>
    <trkpt lat="33.81039" lon="-116.73505"><ele>1903.0</ele></trkpt>
    <trkpt lat="33.81036" lon="-116.73495"><ele>1920.0</ele></trkpt>
    <trkpt lat="33.81031" lon="-116.73485"><ele>1920.0</ele></trkpt>
    <trkpt lat="33.81023" lon="-116.73473"><ele>1920.0</ele></trkpt>
    <trkpt lat="33.81014" lon="-116.73464"><ele>1920.0</ele></trkpt>
    <trkpt lat="33.81005" lon="-116.73456"><ele>1920.0</ele></trkpt>
    <trkpt lat="33.80995" lon="-116.73448"><ele>1920.0</ele></trkpt>
    <trkpt lat="33.80989" lon="-116.73441"><ele>1920.0</ele></trkpt>
    <trkpt lat="33.80982" lon="-116.73433"><ele>1920.0</ele></trkpt>
    <trkpt lat="33.80972" lon="-116.73425"><ele>1920.0</ele></trkpt>
    <trkpt lat="33.80966" lon="-116.73420"><ele>1922.0</ele></trkpt>
    <trkpt lat="33.80961" lon="-116.73416"><ele>1922.0</ele></trkpt>
    <trkpt lat="33.80959" lon="-116.73415"><ele>1922.0</ele></trkpt>
    <trkpt lat="33.80955" lon="-116.73414"><ele>1922.0</ele></trkpt>
    <trkpt lat="33.80955" lon="-116.73414"><ele>1922.0</ele></trkpt>
    <trkpt lat="33.80954" lon="-116.73413"><ele>1922.0</ele></trkpt>
    <trkpt lat="33.80949" lon="-116.73413"><ele>1922.0</ele></trkpt>
    <trkpt lat="33.80944" lon="-116.73408"><ele>1922.0</ele></trkpt>
    <trkpt lat="33.80941" lon="-116.73403"><ele>1922.0</ele></trkpt>
    <trkpt lat="33.80939" lon="-116.73397"><ele>1922.0</ele></trkpt>
    <trkpt lat="33.80937" lon="-116.73388"><ele>1917.0</ele></trkpt>
    <trkpt lat="33.80935" lon="-116.73383"><ele>1917.0</ele></trkpt>
    <trkpt lat="33.80930" lon="-116.73372"><ele>1917.0</ele></trkpt>
    <trkpt lat="33.80927" lon="-116.73362"><ele>1917.0</ele></trkpt>
    <trkpt lat="33.80924" lon="-116.73353"><ele>1917.0</ele></trkpt>
    <trkpt lat="33.80923" lon="-116.73347"><ele>1917.0</ele></trkpt>
    <trkpt lat="33.80923" lon="-116.73338"><ele>1917.0</ele></trkpt>
    <trkpt lat="33.80923" lon="-116.73324"><ele>1917.0</ele></trkpt>
    <trkpt lat="33.80925" lon="-116.73305"><ele>1917.0</ele></trkpt>
    <trkpt lat="33.80927" lon="-116.73289"><ele>1921.0</ele></trkpt>
    <trkpt lat="33.80929" lon="-116.73266"><ele>1921.0</ele></trkpt>
    <trkpt lat="33.80931" lon="-116.73254"><ele>1921.0</ele></trkpt>
    <trkpt lat="33.80936" lon="-116.73232"><ele>1921.0</ele></trkpt>
    <trkpt lat="33.80942" lon="-116.73205"><ele>1921.0</ele></trkpt>
    <trkpt lat="33.80945" lon="-116.73191"><ele>1921.0</ele></trkpt>
    <trkpt lat="33.80947" lon="-116.73184"><ele>1921.0</ele></trkpt>
    <trkpt lat="33.80946" lon="-116.73177"><ele>1921.0</ele></trkpt>
    <trkpt lat="33.80944" lon="-116.73168"><ele>1921.0</ele></trkpt>
    <trkpt lat="33.80942" lon="-116.73160"><ele>1921.0</ele></trkpt>
    <trkpt lat="33.80938" lon="-116.73149"><ele>1917.0</ele></trkpt>
    <trkpt lat="33.80937" lon="-116.73143"><ele>1917.0</ele></trkpt>
    <trkpt lat="33.80937" lon="-116.73135"><ele>1917.0</ele></trkpt>
    <trkpt lat="33.80939" lon="-116.73130"><ele>1917.0</ele></trkpt>
    <trkpt lat="33.80942" lon="-116.73123"><ele>1917.0</ele></trkpt>
    <trkpt lat="33.80952" lon="-116.73107"><ele>1917.0</ele></trkpt>
    <trkpt lat="33.80962" lon="-116.73087"><ele>1917.0</ele></trkpt>
    <trkpt lat="33.80970" lon="-116.73072"><ele>1917.0</ele></trkpt>
    <trkpt lat="33.80976" lon="-116.73065"><ele>1917.0</ele></trkpt>
    <trkpt lat="33.80979" lon="-116.73057"><ele>1917.0</ele></trkpt>
    <trkpt lat="33.80979" lon="-116.73053"><ele>1920.0</ele></trkpt>
    <trkpt lat="33.80977" lon="-116.73045"><ele>1920.0</ele></trkpt>
    <trkpt lat="33.80973" lon="-116.73038"><ele>1920.0</ele></trkpt>
    <trkpt lat="33.80969" lon="-116.73033"><ele>1920.0</ele></trkpt>
    <trkpt lat="33.80962" lon="-116.73026"><ele>1920.0</ele></trkpt>
    <trkpt lat="33.80959" lon="-116.73022"><ele>1920.0</ele></trkpt>
    <trkpt lat="33.80956" lon="-116.73015"><ele>1920.0</ele></trkpt>
    <trkpt lat="33.80951" lon="-116.73008"><ele>1920.0</ele></trkpt>
    <trkpt lat="33.80944" lon="-116.73004"><ele>1920.0</ele></trkpt>
    <trkpt lat="33.80938" lon="-116.73002"><ele>1913.0</ele></trkpt>
    <trkpt lat="33.80933" lon="-116.73002"><ele>1913.0</ele></trkpt>
    <trkpt lat="33.80928" lon="-116.73000"><ele>1913.0</ele></trkpt>
    <trkpt lat="33.80924" lon="-116.72997"><ele>1913.0</ele></trkpt>
    <trkpt lat="33.80921" lon="-116.72993"><ele>1913.0</ele></trkpt>
    <trkpt lat="33.80918" lon="-116.72985"><ele>1913.0</ele></trkpt>
    <trkpt lat="33.80915" lon="-116.72977"><ele>1913.0</ele></trkpt>
    <trkpt lat="33.80913" lon="-116.72971"><ele>1913.0</ele></trkpt>
    <trkpt lat="33.80909" lon="-116.72968"><ele>1913.0</ele></trkpt>
    <trkpt lat="33.80905" lon="-116.72967"><ele>1913.0</ele></trkpt>
    <trkpt lat="33.80901" lon="-116.72970"><ele>1908.0</ele></trkpt>
    <trkpt lat="33.80898" lon="-116.72975"><ele>1908.0</ele></trkpt>
    <trkpt lat="33.80896" lon="-116.72984"><ele>1908.0</ele></trkpt>
    <trkpt lat="33.80895" lon="-116.72994"><ele>1908.0</ele></trkpt>
    <trkpt lat="33.80895" lon="-116.73002"><ele>1908.0</ele></trkpt>
    <trkpt lat="33.80896" lon="-116.73009"><ele>1908.0</ele></trkpt>
    <trkpt lat="33.80899" lon="-116.73016"><ele>1908.0</ele></trkpt>
    <trkpt lat="33.80901" lon="-116.73023"><ele>1908.0</ele></trkpt>
    <trkpt lat="33.80906" lon="-116.73027"><ele>1908.0</ele></trkpt>
    <trkpt lat="33.80914" lon="-116.73033"><ele>1911.0</ele></trkpt>
    <trkpt lat="33.80919" lon="-116.73040"><ele>1911.0</ele></trkpt>
    <trkpt lat="33.80923" lon="-116.73050"><ele>1911.0</ele></trkpt>
    <trkpt lat="33.80925" lon="-116.73054"><ele>1911.0</ele></trkpt>
    <trkpt lat="33.80926" lon="-116.73064"><ele>1911.0</ele></trkpt>
    <trkpt lat="33.80926" lon="-116.73071"><ele>1911.0</ele></trkpt>
    <trkpt lat="33.80924" lon="-116.73077"><ele>1911.0</ele></trkpt>
    <trkpt lat="33.80919" lon="-116.73082"><ele>1911.0</ele></trkpt>
    <trkpt lat="33.80910" lon="-116.73088"><ele>1911.0</ele></trkpt>
    <trkpt lat="33.80899" lon="-116.73096"><ele>1911.0</ele></trkpt>
    <trkpt lat="33.80887" lon="-116.73102"><ele>1898.0</ele></trkpt>
    <trkpt lat="33.80876" lon="-116.73105"><ele>1898.0</ele></trkpt>
    <trkpt lat="33.80870" lon="-116.73106"><ele>1898.0</ele></trkpt>
    <trkpt lat="33.80858" lon="-116.73105"><ele>1898.0</ele></trkpt>
    <trkpt lat="33.80845" lon="-116.73107"><ele>1898.0</ele></trkpt>
    <trkpt lat="33.80831" lon="-116.73113"><ele>1898.0</ele></trkpt>
    <trkpt lat="33.80819" lon="-116.73118"><ele>1898.0</ele></trkpt>
    <trkpt lat="33.80807" lon="-116.73125"><ele>1898.0</ele></trkpt>
    <trkpt lat="33.80797" lon="-116.73131"><ele>1898.0</ele></trkpt>
    <trkpt lat="33.80790" lon="-116.73138"><ele>1883.0</ele></trkpt>
    <trkpt lat="33.80785" lon="-116.73144"><ele>1883.0</ele></trkpt>
    <trkpt lat="33.80783" lon="-116.73151"><ele>1883.0</ele></trkpt>
    <trkpt lat="33.80780" lon="-116.73163"><ele>1883.0</ele></trkpt>
    <trkpt lat="33.80779" lon="-116.73174"><ele>1883.0</ele></trkpt>
    <trkpt lat="33.80776" lon="-116.73189"><ele>1883.0</ele></trkpt>
    <trkpt lat="33.80772" lon="-116.73212"><ele>1883.0</ele></trkpt>
    <trkpt lat="33.80771" lon="-116.73232"><ele>1883.0</ele></trkpt>
    <trkpt lat="33.80771" lon="-116.73241"><ele>1883.0</ele></trkpt>
    <trkpt lat="33.80773" lon="-116.73250"><ele>1883.0</ele></trkpt>
    <trkpt lat="33.80777" lon="-116.73260"><ele>1885.0</ele></trkpt>
    <trkpt lat="33.80781" lon="-116.73263"><ele>1885.0</ele></trkpt>
    <trkpt lat="33.80787" lon="-116.73269"><ele>1885.0</ele></trkpt>
    <trkpt lat="33.80792" lon="-116.73274"><ele>1885.0</ele></trkpt>
    <trkpt lat="33.80798" lon="-116.73277"><ele>1885.0</ele></trkpt>
    <trkpt lat="33.80800" lon="-116.73284"><ele>1885.0</ele></trkpt>
    <trkpt lat="33.80801" lon="-116.73292"><ele>1885.0</ele></trkpt>
    <trkpt lat="33.80801" lon="-116.73303"><ele>1885.0</ele></trkpt>
    <trkpt lat="33.80800" lon="-116.73317"><ele>1885.0</ele></trkpt>
    <trkpt lat="33.80797" lon="-116.73330"><ele>1883.0</ele></trkpt>
    <trkpt lat="33.80790" lon="-116.73343"><ele>1883.0</ele></trkpt>
    <trkpt lat="33.80785" lon="-116.73350"><ele>1883.0</ele></trkpt>
    <trkpt lat="33.80778" lon="-116.73355"><ele>1883.0</ele></trkpt>
    <trkpt lat="33.80768" lon="-116.73359"><ele>1883.0</ele></trkpt>
    <trkpt lat="33.80762" lon="-116.73360"><ele>1883.0</ele></trkpt>
    <trkpt lat="33.80755" lon="-116.73359"><ele>1883.0</ele></trkpt>
    <trkpt lat="33.80749" lon="-116.73357"><ele>1883.0</ele></trkpt>
    <trkpt lat="33.80740" lon="-116.73356"><ele>1883.0</ele></trkpt>
    <trkpt lat="33.80733" lon="-116.73356"><ele>1883.0</ele></trkpt>
    <trkpt lat="33.80726" lon="-116.73358"><ele>1872.0</ele></trkpt>
    <trkpt lat="33.80718" lon="-116.73362"><ele>1872.0</ele></trkpt>
    <trkpt lat="33.80711" lon="-116.73367"><ele>1872.0</ele></trkpt>
    <trkpt lat="33.80705" lon="-116.73375"><ele>1872.0</ele></trkpt>
    <trkpt lat="33.80702" lon="-116.73383"><ele>1872.0</ele></trkpt>
    <trkpt lat="33.80700" lon="-116.73388"><ele>1872.0</ele></trkpt>
    <trkpt lat="33.80698" lon="-116.73398"><ele>1872.0</ele></trkpt>
    <trkpt lat="33.80694" lon="-116.73404"><ele>1872.0</ele></trkpt>
    <trkpt lat="33.80688" lon="-116.73410"><ele>1872.0</ele></trkpt>
    <trkpt lat="33.80681" lon="-116.73412"><ele>1871.0</ele></trkpt>
    <trkpt lat="33.80674" lon="-116.73414"><ele>1871.0</ele></trkpt>
    <trkpt lat="33.80668" lon="-116.73418"><ele>1871.0</ele></trkpt>
    <trkpt lat="33.80662" lon="-116.73421"><ele>1871.0</ele></trkpt>
    <trkpt lat="33.80654" lon="-116.73428"><ele>1871.0</ele></trkpt>
    <trkpt lat="33.80649" lon="-116.73435"><ele>1871.0</ele></trkpt>
    <trkpt lat="33.80643" lon="-116.73442"><ele>1871.0</ele></trkpt>
    <trkpt lat="33.80638" lon="-116.73448"><ele>1871.0</ele></trkpt>
    <trkpt lat="33.80633" lon="-116.73452"><ele>1871.0</ele></trkpt>
    <trkpt lat="33.80627" lon="-116.73454"><ele>1871.0</ele></trkpt>
    <trkpt lat="33.80622" lon="-116.73454"><ele>1862.0</ele></trkpt>
    <trkpt lat="33.80616" lon="-116.73454"><ele>1862.0</ele></trkpt>
    <trkpt lat="33.80606" lon="-116.73451"><ele>1862.0</ele></trkpt>
    <trkpt lat="33.80594" lon="-116.73448"><ele>1862.0</ele></trkpt>
    <trkpt lat="33.80583" lon="-116.73442"><ele>1862.0</ele></trkpt>
    <trkpt lat="33.80565" lon="-116.73435"><ele>1862.0</ele></trkpt>
    <trkpt lat="33.80552" lon="-116.73432"><ele>1862.0</ele></trkpt>
    <trkpt lat="33.80543" lon="-116.73434"><ele>1862.0</ele></trkpt>
    <trkpt lat="33.80534" lon="-116.73440"><ele>1862.0</ele></trkpt>
    <trkpt lat="33.80524" lon="-116.73448"><ele>1853.0</ele></trkpt>
    <trkpt lat="33.80517" lon="-116.73454"><ele>1853.0</ele></trkpt>
    <trkpt lat="33.80513" lon="-116.73460"><ele>1853.0</ele></trkpt>
    <trkpt lat="33.80509" lon="-116.73468"><ele>1853.0</ele></trkpt>
    <trkpt lat="33.80507" lon="-116.73477"><ele>1853.0</ele></trkpt>
    <trkpt lat="33.80505" lon="-116.73483"><ele>1853.0</ele></trkpt>
    <trkpt lat="33.80499" lon="-116.73489"><ele>1853.0</ele></trkpt>
    <trkpt lat="33.80495" lon="-116.73491"><ele>1853.0</ele></trkpt>
    <trkpt lat="33.80488" lon="-116.73492"><ele>1853.0</ele></trkpt>
    <trkpt lat="33.80480" lon="-116.73494"><ele>1853.0</ele></trkpt>
    <trkpt lat="33.80474" lon="-116.73498"><ele>1850.0</ele></trkpt>
    <trkpt lat="33.80470" lon="-116.73502"><ele>1850.0</ele></trkpt>
    <trkpt lat="33.80465" lon="-116.73509"><ele>1850.0</ele></trkpt>
    <trkpt lat="33.80459" lon="-116.73516"><ele>1850.0</ele></trkpt>
    <trkpt lat="33.80453" lon="-116.73522"><ele>1850.0</ele></trkpt>
    <trkpt lat="33.80445" lon="-116.73532"><ele>1850.0</ele></trkpt>
    <trkpt lat="33.80440" lon="-116.73539"><ele>1850.0</ele></trkpt>
    <trkpt lat="33.80437" lon="-116.73548"><ele>1850.0</ele></trkpt>
    <trkpt lat="33.80434" lon="-116.73553"><ele>1850.0</ele></trkpt>
    <trkpt lat="33.80429" lon="-116.73558"><ele>1850.0</ele></trkpt>
    <trkpt lat="33.80425" lon="-116.73559"><ele>1850.0</ele></trkpt>
    <trkpt lat="33.80421" lon="-116.73559"><ele>1850.0</ele></trkpt>
    <trkpt lat="33.80414" lon="-116.73559"><ele>1850.0</ele></trkpt>
    <trkpt lat="33.80404" lon="-116.73559"><ele>1850.0</ele></trkpt>
    <trkpt lat="33.80397" lon="-116.73561"><ele>1850.0</ele></trkpt>
    <trkpt lat="33.80390" lon="-116.73564"><ele>1850.0</ele></trkpt>
    <trkpt lat="33.80379" lon="-116.73569"><ele>1850.0</ele></trkpt>
    <trkpt lat="33.80371" lon="-116.73573"><ele>1850.0</ele></trkpt>
    <trkpt lat="33.80362" lon="-116.73575"><ele>1850.0</ele></trkpt>
    <trkpt lat="33.80356" lon="-116.73579"><ele>1845.0</ele></trkpt>
    <trkpt lat="33.80349" lon="-116.73583"><ele>1845.0</ele></trkpt>
    <trkpt lat="33.80339" lon="-116.73590"><ele>1845.0</ele></trkpt>
    <trkpt lat="33.80333" lon="-116.73592"><ele>1845.0</ele></trkpt>
    <trkpt lat="33.80328" lon="-116.73593"><ele>1845.0</ele></trkpt>
    <trkpt lat="33.80322" lon="-116.73589"><ele>1845.0</ele></trkpt>
    <trkpt lat="33.80318" lon="-116.73584"><ele>1845.0</ele></trkpt>
    <trkpt lat="33.80316" lon="-116.73576"><ele>1845.0</ele></trkpt>
    <trkpt lat="33.80317" lon="-116.73568"><ele>1845.0</ele></trkpt>
    <trkpt lat="33.80321" lon="-116.73558"><ele>1835.0</ele></trkpt>
    <trkpt lat="33.80327" lon="-116.73553"><ele>1835.0</ele></trkpt>
    <trkpt lat="33.80332" lon="-116.73546"><ele>1835.0</ele></trkpt>
    <trkpt lat="33.80339" lon="-116.73542"><ele>1835.0</ele></trkpt>
    <trkpt lat="33.80347" lon="-116.73540"><ele>1835.0</ele></trkpt>
    <trkpt lat="33.80358" lon="-116.73538"><ele>1835.0</ele></trkpt>
    <trkpt lat="33.80371" lon="-116.73536"><ele>1835.0</ele></trkpt>
    <trkpt lat="33.80378" lon="-116.73533"><ele>1835.0</ele></trkpt>
    <trkpt lat="33.80383" lon="-116.73531"><ele>1835.0</ele></trkpt>
    <trkpt lat="33.80386" lon="-116.73527"><ele>1835.0</ele></trkpt>
    <trkpt lat="33.80389" lon="-116.73526"><ele>1839.0</ele></trkpt>
    <trkpt lat="33.80393" lon="-116.73524"><ele>1839.0</ele></trkpt>
    <trkpt lat="33.80398" lon="-116.73524"><ele>1839.0</ele></trkpt>
    <trkpt lat="33.80403" lon="-116.73522"><ele>1839.0</ele></trkpt>
    <trkpt lat="33.80408" lon="-116.73520"><ele>1839.0</ele></trkpt>
    <trkpt lat="33.80411" lon="-116.73515"><ele>1839.0</ele></trkpt>
    <trkpt lat="33.80415" lon="-116.73508"><ele>1839.0</ele></trkpt>
    <trkpt lat="33.80420" lon="-116.73497"><ele>1839.0</ele></trkpt>
    <trkpt lat="33.80427" lon="-116.73485"><ele>1839.0</ele></trkpt>
    <trkpt lat="33.80436" lon="-116.73474"><ele>1832.0</ele></trkpt>
    <trkpt lat="33.80441" lon="-116.73470"><ele>1832.0</ele></trkpt>
    <trkpt lat="33.80448" lon="-116.73464"><ele>1832.0</ele></trkpt>
    <trkpt lat="33.80451" lon="-116.73457"><ele>1832.0</ele></trkpt>
    <trkpt lat="33.80454" lon="-116.73450"><ele>1832.0</ele></trkpt>
    <trkpt lat="33.80454" lon="-116.73446"><ele>1832.0</ele></trkpt>
    <trkpt lat="33.80454" lon="-116.73436"><ele>1832.0</ele></trkpt>
    <trkpt lat="33.80454" lon="-116.73425"><ele>1832.0</ele></trkpt>
    <trkpt lat="33.80455" lon="-116.73417"><ele>1832.0</ele></trkpt>
    <trkpt lat="33.80457" lon="-116.73407"><ele>1832.0</ele></trkpt>
    <trkpt lat="33.80461" lon="-116.73398"><ele>1822.0</ele></trkpt>
    <trkpt lat="33.80465" lon="-116.73390"><ele>1822.0</ele></trkpt>
    <trkpt lat="33.80469" lon="-116.73384"><ele>1822.0</ele></trkpt>
    <trkpt lat="33.80474" lon="-116.73380"><ele>1822.0</ele></trkpt>
    <trkpt lat="33.80481" lon="-116.73373"><ele>1822.0</ele></trkpt>
    <trkpt lat="33.80489" lon="-116.73367"><ele>1822.0</ele></trkpt>
    <trkpt lat="33.80495" lon="-116.73361"><ele>1822.0</ele></trkpt>
    <trkpt lat="33.80509" lon="-116.73348"><ele>1822.0</ele></trkpt>
    <trkpt lat="33.80522" lon="-116.73338"><ele>1822.0</ele></trkpt>
    <trkpt lat="33.80531" lon="-116.73331"><ele>1822.0</ele></trkpt>
    <trkpt lat="33.80539" lon="-116.73325"><ele>1822.0</ele></trkpt>
    <trkpt lat="33.80546" lon="-116.73321"><ele>1822.0</ele></trkpt>
    <trkpt lat="33.80553" lon="-116.73316"><ele>1822.0</ele></trkpt>
    <trkpt lat="33.80558" lon="-116.73311"><ele>1822.0</ele></trkpt>
    <trkpt lat="33.80562" lon="-116.73305"><ele>1822.0</ele></trkpt>
    <trkpt lat="33.80563" lon="-116.73301"><ele>1822.0</ele></trkpt>
    <trkpt lat="33.80563" lon="-116.73295"><ele>1822.0</ele></trkpt>
    <trkpt lat="33.80561" lon="-116.73290"><ele>1822.0</ele></trkpt>
    <trkpt lat="33.80557" lon="-116.73284"><ele>1822.0</ele></trkpt>
    <trkpt lat="33.80551" lon="-116.73283"><ele>1817.0</ele></trkpt>
    <trkpt lat="33.80546" lon="-116.73284"><ele>1817.0</ele></trkpt>
    <trkpt lat="33.80541" lon="-116.73290"><ele>1817.0</ele></trkpt>
    <trkpt lat="33.80537" lon="-116.73298"><ele>1817.0</ele></trkpt>
    <trkpt lat="33.80534" lon="-116.73306"><ele>1817.0</ele></trkpt>
    <trkpt lat="33.80531" lon="-116.73312"><ele>1817.0</ele></trkpt>
    <trkpt lat="33.80528" lon="-116.73316"><ele>1817.0</ele></trkpt>
    <trkpt lat="33.80524" lon="-116.73319"><ele>1817.0</ele></trkpt>
    <trkpt lat="33.80516" lon="-116.73324"><ele>1817.0</ele></trkpt>
    <trkpt lat="33.80508" lon="-116.73328"><ele>1817.0</ele></trkpt>
    <trkpt lat="33.80500" lon="-116.73332"><ele>1813.0</ele></trkpt>
    <trkpt lat="33.80493" lon="-116.73336"><ele>1813.0</ele></trkpt>
    <trkpt lat="33.80483" lon="-116.73344"><ele>1813.0</ele></trkpt>
    <trkpt lat="33.80475" lon="-116.73350"><ele>1813.0</ele></trkpt>
    <trkpt lat="33.80460" lon="-116.73360"><ele>1813.0</ele></trkpt>
    <trkpt lat="33.80452" lon="-116.73365"><ele>1813.0</ele></trkpt>
    <trkpt lat="33.80444" lon="-116.73372"><ele>1813.0</ele></trkpt>
    <trkpt lat="33.80437" lon="-116.73377"><ele>1813.0</ele></trkpt>
    <trkpt lat="33.80432" lon="-116.73382"><ele>1813.0</ele></trkpt>
    <trkpt lat="33.80426" lon="-116.73389"><ele>1812.0</ele></trkpt>
    <trkpt lat="33.80420" lon="-116.73398"><ele>1812.0</ele></trkpt>
    <trkpt lat="33.80417" lon="-116.73406"><ele>1812.0</ele></trkpt>
    <trkpt lat="33.80414" lon="-116.73414"><ele>1812.0</ele></trkpt>
    <trkpt lat="33.80410" lon="-116.73417"><ele>1812.0</ele></trkpt>
    <trkpt lat="33.80401" lon="-116.73421"><ele>1812.0</ele></trkpt>
    <trkpt lat="33.80393" lon="-116.73425"><ele>1812.0</ele></trkpt>
    <trkpt lat="33.80385" lon="-116.73429"><ele>1812.0</ele></trkpt>
    <trkpt lat="33.80379" lon="-116.73432"><ele>1812.0</ele></trkpt>
    <trkpt lat="33.80377" lon="-116.73431"><ele>1812.0</ele></trkpt>
    <trkpt lat="33.80370" lon="-116.73431"><ele>1803.0</ele></trkpt>
    <trkpt lat="33.80360" lon="-116.73429"><ele>1803.0</ele></trkpt>
    <trkpt lat="33.80348" lon="-116.73425"><ele>1803.0</ele></trkpt>
    <trkpt lat="33.80336" lon="-116.73423"><ele>1803.0</ele></trkpt>
    <trkpt lat="33.80329" lon="-116.73424"><ele>1803.0</ele></trkpt>
    <trkpt lat="33.80320" lon="-116.73424"><ele>1803.0</ele></trkpt>
    <trkpt lat="33.80309" lon="-116.73424"><ele>1803.0</ele></trkpt>
    <trkpt lat="33.80299" lon="-116.73425"><ele>1803.0</ele></trkpt>
    <trkpt lat="33.80289" lon="-116.73426"><ele>1803.0</ele></trkpt>
    <trkpt lat="33.80284" lon="-116.73427"><ele>1789.0</ele></trkpt>
    <trkpt lat="33.80277" lon="-116.73427"><ele>1789.0</ele></trkpt>
    <trkpt lat="33.80274" lon="-116.73426"><ele>1789.0</ele></trkpt>
    <trkpt lat="33.80269" lon="-116.73421"><ele>1789.0</ele></trkpt>
    <trkpt lat="33.80267" lon="-116.73413"><ele>1789.0</ele></trkpt>
    <trkpt lat="33.80267" lon="-116.73407"><ele>1789.0</ele></trkpt>
    <trkpt lat="33.80270" lon="-116.73397"><ele>1789.0</ele></trkpt>
    <trkpt lat="33.80273" lon="-116.73392"><ele>1789.0</ele></trkpt>
    <trkpt lat="33.80278" lon="-116.73391"><ele>1789.0</ele></trkpt>
    <trkpt lat="33.80288" lon="-116.73389"><ele>1789.0</ele></trkpt>
    <trkpt lat="33.80299" lon="-116.73389"><ele>1799.0</ele></trkpt>
    <trkpt lat="33.80310" lon="-116.73391"><ele>1799.0</ele></trkpt>
    <trkpt lat="33.80319" lon="-116.73392"><ele>1799.0</ele></trkpt>
    <trkpt lat="33.80331" lon="-116.73393"><ele>1799.0</ele></trkpt>
    <trkpt lat="33.80345" lon="-116.73394"><ele>1799.0</ele></trkpt>
    <trkpt lat="33.80351" lon="-116.73394"><ele>1799.0</ele></trkpt>
    <trkpt lat="33.80358" lon="-116.73394"><ele>1799.0</ele></trkpt>
    <trkpt lat="33.80365" lon="-116.73394"><ele>1799.0</ele></trkpt>
    <trkpt lat="33.80370" lon="-116.73392"><ele>1799.0</ele></trkpt>
    <trkpt lat="33.80375" lon="-116.73387"><ele>1796.0</ele></trkpt>
    <trkpt lat="33.80377" lon="-116.73379"><ele>1796.0</ele></trkpt>
    <trkpt lat="33.80378" lon="-116.73369"><ele>1796.0</ele></trkpt>
    <trkpt lat="33.80380" lon="-116.73361"><ele>1796.0</ele></trkpt>
    <trkpt lat="33.80383" lon="-116.73354"><ele>1796.0</ele></trkpt>
    <trkpt lat="33.80391" lon="-116.73344"><ele>1796.0</ele></trkpt>
    <trkpt lat="33.80398" lon="-116.73336"><ele>1796.0</ele></trkpt>
    <trkpt lat="33.80402" lon="-116.73329"><ele>1796.0</ele></trkpt>
    <trkpt lat="33.80406" lon="-116.73323"><ele>1796.0</ele></trkpt>
    <trkpt lat="33.80413" lon="-116.73319"><ele>1796.0</ele></trkpt>
    <trkpt lat="33.80419" lon="-116.73315"><ele>1795.0</ele></trkpt>
    <trkpt lat="33.80423" lon="-116.73310"><ele>1795.0</ele></trkpt>
    <trkpt lat="33.80424" lon="-116.73305"><ele>1795.0</ele></trkpt>
    <trkpt lat="33.80424" lon="-116.73299"><ele>1795.0</ele></trkpt>
    <trkpt lat="33.80422" lon="-116.73292"><ele>1795.0</ele></trkpt>
    <trkpt lat="33.80416" lon="-116.73286"><ele>1795.0</ele></trkpt>
    <trkpt lat="33.80410" lon="-116.73284"><ele>1795.0</ele></trkpt>
    <trkpt lat="33.80406" lon="-116.73283"><ele>1795.0</ele></trkpt>
    <trkpt lat="33.80406" lon="-116.73283"><ele>1795.0</ele></trkpt>
    <trkpt lat="33.80401" lon="-116.73282"><ele>1786.0</ele></trkpt>
    <trkpt lat="33.80395" lon="-116.73276"><ele>1786.0</ele></trkpt>
    <trkpt lat="33.80388" lon="-116.73269"><ele>1786.0</ele></trkpt>
    <trkpt lat="33.80383" lon="-116.73261"><ele>1786.0</ele></trkpt>
    <trkpt lat="33.80374" lon="-116.73250"><ele>1786.0</ele></trkpt>
    <trkpt lat="33.80363" lon="-116.73243"><ele>1786.0</ele></trkpt>
    <trkpt lat="33.80350" lon="-116.73242"><ele>1786.0</ele></trkpt>
    <trkpt lat="33.80346" lon="-116.73243"><ele>1786.0</ele></trkpt>
    <trkpt lat="33.80342" lon="-116.73244"><ele>1786.0</ele></trkpt>
    <trkpt lat="33.80335" lon="-116.73247"><ele>1786.0</ele></trkpt>
    <trkpt lat="33.80323" lon="-116.73254"><ele>1775.0</ele></trkpt>
    <trkpt lat="33.80311" lon="-116.73259"><ele>1775.0</ele></trkpt>
    <trkpt lat="33.80304" lon="-116.73261"><ele>1775.0</ele></trkpt>
    <trkpt lat="33.80295" lon="-116.73259"><ele>1775.0</ele></trkpt>
    <trkpt lat="33.80285" lon="-116.73257"><ele>1775.0</ele></trkpt>
    <trkpt lat="33.80277" lon="-116.73253"><ele>1775.0</ele></trkpt>
    <trkpt lat="33.80269" lon="-116.73248"><ele>1775.0</ele></trkpt>
    <trkpt lat="33.80262" lon="-116.73243"><ele>1775.0</ele></trkpt>
    <trkpt lat="33.80253" lon="-116.73239"><ele>1775.0</ele></trkpt>
    <trkpt lat="33.80237" lon="-116.73238"><ele>1779.0</ele></trkpt>
    <trkpt lat="33.80227" lon="-116.73241"><ele>1779.0</ele></trkpt>
    <trkpt lat="33.80215" lon="-116.73248"><ele>1779.0</ele></trkpt>
    <trkpt lat="33.80205" lon="-116.73254"><ele>1779.0</ele></trkpt>
    <trkpt lat="33.80200" lon="-116.73261"><ele>1779.0</ele></trkpt>
    <trkpt lat="33.80197" lon="-116.73270"><ele>1779.0</ele></trkpt>
    <trkpt lat="33.80191" lon="-116.73283"><ele>1779.0</ele></trkpt>
    <trkpt lat="33.80187" lon="-116.73294"><ele>1779.0</ele></trkpt>
    <trkpt lat="33.80176" lon="-116.73303"><ele>1779.0</ele></trkpt>
    <trkpt lat="33.80171" lon="-116.73308"><ele>1779.0</ele></trkpt>
    <trkpt lat="33.80156" lon="-116.73318"><ele>1772.0</ele></trkpt>
    <trkpt lat="33.80144" lon="-116.73325"><ele>1772.0</ele></trkpt>
    <trkpt lat="33.80137" lon="-116.73329"><ele>1772.0</ele></trkpt>
    <trkpt lat="33.80129" lon="-116.73336"><ele>1772.0</ele></trkpt>
    <trkpt lat="33.80120" lon="-116.73347"><ele>1772.0</ele></trkpt>
    <trkpt lat="33.80112" lon="-116.73358"><ele>1772.0</ele></trkpt>
    <trkpt lat="33.80104" lon="-116.73367"><ele>1772.0</ele></trkpt>
    <trkpt lat="33.80092" lon="-116.73373"><ele>1772.0</ele></trkpt>
    <trkpt lat="33.80082" lon="-116.73377"><ele>1772.0</ele></trkpt>
    <trkpt lat="33.80066" lon="-116.73377"><ele>1760.0</ele></trkpt>
    <trkpt lat="33.80055" lon="-116.73375"><ele>1760.0</ele></trkpt>
    <trkpt lat="33.80046" lon="-116.73373"><ele>1760.0</ele></trkpt>
    <trkpt lat="33.80038" lon="-116.73369"><ele>1760.0</ele></trkpt>
    <trkpt lat="33.80030" lon="-116.73364"><ele>1760.0</ele></trkpt>
    <trkpt lat="33.80022" lon="-116.73356"><ele>1760.0</ele></trkpt>
    <trkpt lat="33.80015" lon="-116.73348"><ele>1760.0</ele></trkpt>
    <trkpt lat="33.80011" lon="-116.73338"><ele>1760.0</ele></trkpt>
    <trkpt lat="33.80011" lon="-116.73330"><ele>1760.0</ele></trkpt>
    <trkpt lat="33.80011" lon="-116.73323"><ele>1760.0</ele></trkpt>
    <trkpt lat="33.80012" lon="-116.73313"><ele>1768.0</ele></trkpt>
    <trkpt lat="33.80011" lon="-116.73298"><ele>1768.0</ele></trkpt>
    <trkpt lat="33.80010" lon="-116.73289"><ele>1768.0</ele></trkpt>
    <trkpt lat="33.80004" lon="-116.73275"><ele>1768.0</ele></trkpt>
    <trkpt lat="33.80000" lon="-116.73261"><ele>1768.0</ele></trkpt>
    <trkpt lat="33.79996" lon="-116.73250"><ele>1768.0</ele></trkpt>
    <trkpt lat="33.79990" lon="-116.73243"><ele>1768.0</ele></trkpt>
    <trkpt lat="33.79983" lon="-116.73236"><ele>1768.0</ele></trkpt>
    <trkpt lat="33.79977" lon="-116.73232"><ele>1768.0</ele></trkpt>
    <trkpt lat="33.79966" lon="-116.73233"><ele>1771.0</ele></trkpt>
    <trkpt lat="33.79955" lon="-116.73240"><ele>1771.0</ele></trkpt>
    <trkpt lat="33.79945" lon="-116.73252"><ele>1771.0</ele></trkpt>
    <trkpt lat="33.79930" lon="-116.73267"><ele>1771.0</ele></trkpt>
    <trkpt lat="33.79925" lon="-116.73274"><ele>1771.0</ele></trkpt>
    <trkpt lat="33.79922" lon="-116.73290"><ele>1771.0</ele></trkpt>
    <trkpt lat="33.79920" lon="-116.73299"><ele>1771.0</ele></trkpt>
    <trkpt lat="33.79917" lon="-116.73311"><ele>1771.0</ele></trkpt>
    <trkpt lat="33.79911" lon="-116.73321"><ele>1771.0</ele></trkpt>
    <trkpt lat="33.79907" lon="-116.73324"><ele>1771.0</ele></trkpt>
    <trkpt lat="33.79902" lon="-116.73325"><ele>1777.0</ele></trkpt>
    <trkpt lat="33.79896" lon="-116.73326"><ele>1777.0</ele></trkpt>
    <trkpt lat="33.79886" lon="-116.73326"><ele>1777.0</ele></trkpt>
    <trkpt lat="33.79876" lon="-116.73329"><ele>1777.0</ele></trkpt>
    <trkpt lat="33.79870" lon="-116.73332"><ele>1777.0</ele></trkpt>
    <trkpt lat="33.79866" lon="-116.73336"><ele>1777.0</ele></trkpt>
    <trkpt lat="33.79865" lon="-116.73342"><ele>1777.0</ele></trkpt>
    <trkpt lat="33.79864" lon="-116.73347"><ele>1777.0</ele></trkpt>
    <trkpt lat="33.79863" lon="-116.73355"><ele>1777.0</ele></trkpt>
    <trkpt lat="33.79861" lon="-116.73365"><ele>1777.0</ele></trkpt>
    <trkpt lat="33.79858" lon="-116.73371"><ele>1772.0</ele></trkpt>
    <trkpt lat="33.79854" lon="-116.73382"><ele>1772.0</ele></trkpt>
    <trkpt lat="33.79846" lon="-116.73393"><ele>1772.0</ele></trkpt>
    <trkpt lat="33.79834" lon="-116.73405"><ele>1772.0</ele></trkpt>
    <trkpt lat="33.79825" lon="-116.73413"><ele>1772.0</ele></trkpt>
    <trkpt lat="33.79817" lon="-116.73419"><ele>1772.0</ele></trkpt>
    <trkpt lat="33.79812" lon="-116.73423"><ele>1772.0</ele></trkpt>
    <trkpt lat="33.79798" lon="-116.73434"><ele>1772.0</ele></trkpt>
    <trkpt lat="33.79790" lon="-116.73440"><ele>1772.0</ele></trkpt>
    <trkpt lat="33.79780" lon="-116.73448"><ele>1792.0</ele></trkpt>
    <trkpt lat="33.79767" lon="-116.73458"><ele>1792.0</ele></trkpt>
    <trkpt lat="33.79760" lon="-116.73464"><ele>1792.0</ele></trkpt>
    <trkpt lat="33.79756" lon="-116.73472"><ele>1792.0</ele></trkpt>
    <trkpt lat="33.79754" lon="-116.73477"><ele>1792.0</ele></trkpt>
    <trkpt lat="33.79752" lon="-116.73484"><ele>1792.0</ele></trkpt>
    <trkpt lat="33.79750" lon="-116.73492"><ele>1792.0</ele></trkpt>
    <trkpt lat="33.79746" lon="-116.73500"><ele>1792.0</ele></trkpt>
    <trkpt lat="33.79742" lon="-116.73507"><ele>1792.0</ele></trkpt>
    <trkpt lat="33.79730" lon="-116.73519"><ele>1792.0</ele></trkpt>
    <trkpt lat="33.79719" lon="-116.73530"><ele>1791.0</ele></trkpt>
    <trkpt lat="33.79712" lon="-116.73535"><ele>1791.0</ele></trkpt>
    <trkpt lat="33.79705" lon="-116.73542"><ele>1791.0</ele></trkpt>
    <trkpt lat="33.79697" lon="-116.73549"><ele>1791.0</ele></trkpt>
    <trkpt lat="33.79691" lon="-116.73556"><ele>1791.0</ele></trkpt>
    <trkpt lat="33.79685" lon="-116.73566"><ele>1791.0</ele></trkpt>
    <trkpt lat="33.79679" lon="-116.73574"><ele>1791.0</ele></trkpt>
    <trkpt lat="33.79671" lon="-116.73582"><ele>1791.0</ele></trkpt>
    <trkpt lat="33.79659" lon="-116.73591"><ele>1791.0</ele></trkpt>
    <trkpt lat="33.79651" lon="-116.73597"><ele>1804.0</ele></trkpt>
    <trkpt lat="33.79642" lon="-116.73605"><ele>1804.0</ele></trkpt>
    <trkpt lat="33.79629" lon="-116.73614"><ele>1804.0</ele></trkpt>
    <trkpt lat="33.79617" lon="-116.73624"><ele>1804.0</ele></trkpt>
    <trkpt lat="33.79611" lon="-116.73630"><ele>1804.0</ele></trkpt>
    <trkpt lat="33.79607" lon="-116.73635"><ele>1804.0</ele></trkpt>
    <trkpt lat="33.79605" lon="-116.73641"><ele>1804.0</ele></trkpt>
    <trkpt lat="33.79603" lon="-116.73647"><ele>1804.0</ele></trkpt>
    <trkpt lat="33.79600" lon="-116.73654"><ele>1804.0</ele></trkpt>
    <trkpt lat="33.79596" lon="-116.73661"><ele>1804.0</ele></trkpt>
    <trkpt lat="33.79586" lon="-116.73669"><ele>1801.0</ele></trkpt>
    <trkpt lat="33.79572" lon="-116.73681"><ele>1801.0</ele></trkpt>
    <trkpt lat="33.79560" lon="-116.73691"><ele>1801.0</ele></trkpt>
    <trkpt lat="33.79547" lon="-116.73705"><ele>1801.0</ele></trkpt>
    <trkpt lat="33.79541" lon="-116.73708"><ele>1801.0</ele></trkpt>
    <trkpt lat="33.79536" lon="-116.73710"><ele>1801.0</ele></trkpt>
    <trkpt lat="33.79530" lon="-116.73711"><ele>1801.0</ele></trkpt>
    <trkpt lat="33.79524" lon="-116.73710"><ele>1801.0</ele></trkpt>
    <trkpt lat="33.79516" lon="-116.73708"><ele>1801.0</ele></trkpt>
    <trkpt lat="33.79508" lon="-116.73703"><ele>1812.0</ele></trkpt>
    <trkpt lat="33.79500" lon="-116.73701"><ele>1812.0</ele></trkpt>
    <trkpt lat="33.79493" lon="-116.73704"><ele>1812.0</ele></trkpt>
    <trkpt lat="33.79489" lon="-116.73707"><ele>1812.0</ele></trkpt>
    <trkpt lat="33.79487" lon="-116.73714"><ele>1812.0</ele></trkpt>
    <trkpt lat="33.79484" lon="-116.73726"><ele>1812.0</ele></trkpt>
    <trkpt lat="33.79480" lon="-116.73735"><ele>1812.0</ele></trkpt>
    <trkpt lat="33.79471" lon="-116.73741"><ele>1812.0</ele></trkpt>
    <trkpt lat="33.79462" lon="-116.73747"><ele>1812.0</ele></trkpt>
    <trkpt lat="33.79452" lon="-116.73750"><ele>1812.0</ele></trkpt>
    <trkpt lat="33.79444" lon="-116.73750"><ele>1820.0</ele></trkpt>
    <trkpt lat="33.79435" lon="-116.73750"><ele>1820.0</ele></trkpt>
    <trkpt lat="33.79425" lon="-116.73748"><ele>1820.0</ele></trkpt>
    <trkpt lat="33.79416" lon="-116.73752"><ele>1820.0</ele></trkpt>
    <trkpt lat="33.79410" lon="-116.73756"><ele>1820.0</ele></trkpt>
    <trkpt lat="33.79407" lon="-116.73761"><ele>1820.0</ele></trkpt>
    <trkpt lat="33.79405" lon="-116.73770"><ele>1820.0</ele></trkpt>
    <trkpt lat="33.79404" lon="-116.73781"><ele>1820.0</ele></trkpt>
    <trkpt lat="33.79401" lon="-116.73792"><ele>1820.0</ele></trkpt>
    <trkpt lat="33.79397" lon="-116.73804"><ele>1817.0</ele></trkpt>
    <trkpt lat="33.79394" lon="-116.73813"><ele>1817.0</ele></trkpt>
    <trkpt lat="33.79391" lon="-116.73820"><ele>1817.0</ele></trkpt>
    <trkpt lat="33.79389" lon="-116.73829"><ele>1817.0</ele></trkpt>
    <trkpt lat="33.79387" lon="-116.73836"><ele>1817.0</ele></trkpt>
    <trkpt lat="33.79384" lon="-116.73842"><ele>1817.0</ele></trkpt>
    <trkpt lat="33.79382" lon="-116.73848"><ele>1817.0</ele></trkpt>
    <trkpt lat="33.79382" lon="-116.73855"><ele>1817.0</ele></trkpt>
    <trkpt lat="33.79382" lon="-116.73862"><ele>1817.0</ele></trkpt>
    <trkpt lat="33.79381" lon="-116.73869"><ele>1817.0</ele></trkpt>
    <trkpt lat="33.79379" lon="-116.73874"><ele>1813.0</ele></trkpt>
    <trkpt lat="33.79373" lon="-116.73882"><ele>1813.0</ele></trkpt>
    <trkpt lat="33.79366" lon="-116.73888"><ele>1813.0</ele></trkpt>
    <trkpt lat="33.79360" lon="-116.73894"><ele>1813.0</ele></trkpt>
    <trkpt lat="33.79350" lon="-116.73903"><ele>1813.0</ele></trkpt>
    <trkpt lat="33.79333" lon="-116.73915"><ele>1813.0</ele></trkpt>
    <trkpt lat="33.79319" lon="-116.73922"><ele>1813.0</ele></trkpt>
    <trkpt lat="33.79311" lon="-116.73925"><ele>1813.0</ele></trkpt>
    <trkpt lat="33.79296" lon="-116.73928"><ele>1813.0</ele></trkpt>
    <trkpt lat="33.79278" lon="-116.73933"><ele>1826.0</ele></trkpt>
    <trkpt lat="33.79261" lon="-116.73938"><ele>1826.0</ele></trkpt>
    <trkpt lat="33.79245" lon="-116.73945"><ele>1826.0</ele></trkpt>
    <trkpt lat="33.79234" lon="-116.73951"><ele>1826.0</ele></trkpt>
    <trkpt lat="33.79222" lon="-116.73960"><ele>1826.0</ele></trkpt>
    <trkpt lat="33.79219" lon="-116.73965"><ele>1826.0</ele></trkpt>
    <trkpt lat="33.79215" lon="-116.73971"><ele>1826.0</ele></trkpt>
    <trkpt lat="33.79213" lon="-116.73977"><ele>1826.0</ele></trkpt>
    <trkpt lat="33.79211" lon="-116.73984"><ele>1826.0</ele></trkpt>
    <trkpt lat="33.79207" lon="-116.73992"><ele>1826.0</ele></trkpt>
    <trkpt lat="33.79202" lon="-116.74002"><ele>1812.0</ele></trkpt>
    <trkpt lat="33.79197" lon="-116.74012"><ele>1812.0</ele></trkpt>
    <trkpt lat="33.79193" lon="-116.74021"><ele>1812.0</ele></trkpt>
    <trkpt lat="33.79188" lon="-116.74029"><ele>1812.0</ele></trkpt>
    <trkpt lat="33.79182" lon="-116.74035"><ele>1812.0</ele></trkpt>
    <trkpt lat="33.79175" lon="-116.74037"><ele>1812.0</ele></trkpt>
    <trkpt lat="33.79172" lon="-116.74037"><ele>1812.0</ele></trkpt>
    <trkpt lat="33.79164" lon="-116.74035"><ele>1812.0</ele></trkpt>
    <trkpt lat="33.79156" lon="-116.74032"><ele>1812.0</ele></trkpt>
    <trkpt lat="33.79146" lon="-116.74032"><ele>1829.0</ele></trkpt>
    <trkpt lat="33.79133" lon="-116.74036"><ele>1829.0</ele></trkpt>
    <trkpt lat="33.79126" lon="-116.74040"><ele>1829.0</ele></trkpt>
    <trkpt lat="33.79120" lon="-116.74046"><ele>1829.0</ele></trkpt>
    <trkpt lat="33.79117" lon="-116.74051"><ele>1829.0</ele></trkpt>
    <trkpt lat="33.79115" lon="-116.74054"><ele>1829.0</ele></trkpt>
    <trkpt lat="33.79112" lon="-116.74061"><ele>1829.0</ele></trkpt>
    <trkpt lat="33.79112" lon="-116.74068"><ele>1829.0</ele></trkpt>
    <trkpt lat="33.79109" lon="-116.74078"><ele>1829.0</ele></trkpt>
    <trkpt lat="33.79105" lon="-116.74090"><ele>1829.0</ele></trkpt>
    <trkpt lat="33.79100" lon="-116.74099"><ele>1822.0</ele></trkpt>
    <trkpt lat="33.79094" lon="-116.74108"><ele>1822.0</ele></trkpt>
    <trkpt lat="33.79087" lon="-116.74118"><ele>1822.0</ele></trkpt>
    <trkpt lat="33.79082" lon="-116.74123"><ele>1822.0</ele></trkpt>
    <trkpt lat="33.79077" lon="-116.74126"><ele>1822.0</ele></trkpt>
    <trkpt lat="33.79071" lon="-116.74127"><ele>1822.0</ele></trkpt>
    <trkpt lat="33.79065" lon="-116.74127"><ele>1822.0</ele></trkpt>
    <trkpt lat="33.79059" lon="-116.74125"><ele>1822.0</ele></trkpt>
    <trkpt lat="33.79052" lon="-116.74123"><ele>1822.0</ele></trkpt>
    <trkpt lat="33.79043" lon="-116.74122"><ele>1835.0</ele></trkpt>
    <trkpt lat="33.79036" lon="-116.74124"><ele>1835.0</ele></trkpt>
    <trkpt lat="33.79030" lon="-116.74126"><ele>1835.0</ele></trkpt>
    <trkpt lat="33.79024" lon="-116.74128"><ele>1835.0</ele></trkpt>
    <trkpt lat="33.79020" lon="-116.74127"><ele>1835.0</ele></trkpt>
    <trkpt lat="33.79014" lon="-116.74125"><ele>1835.0</ele></trkpt>
    <trkpt lat="33.79002" lon="-116.74123"><ele>1835.0</ele></trkpt>
    <trkpt lat="33.78995" lon="-116.74123"><ele>1835.0</ele></trkpt>
    <trkpt lat="33.78989" lon="-116.74124"><ele>1835.0</ele></trkpt>
    <trkpt lat="33.78986" lon="-116.74127"><ele>1835.0</ele></trkpt>
    <trkpt lat="33.78982" lon="-116.74132"><ele>1839.0</ele></trkpt>
    <trkpt lat="33.78979" lon="-116.74140"><ele>1839.0</ele></trkpt>
    <trkpt lat="33.78975" lon="-116.74147"><ele>1839.0</ele></trkpt>
    <trkpt lat="33.78964" lon="-116.74157"><ele>1839.0</ele></trkpt>
    <trkpt lat="33.78950" lon="-116.74166"><ele>1839.0</ele></trkpt>
    <trkpt lat="33.78935" lon="-116.74175"><ele>1839.0</ele></trkpt>
    <trkpt lat="33.78916" lon="-116.74184"><ele>1839.0</ele></trkpt>
    <trkpt lat="33.78899" lon="-116.74190"><ele>1839.0</ele></trkpt>
    <trkpt lat="33.78888" lon="-116.74191"><ele>1839.0</ele></trkpt>
    <trkpt lat="33.78878" lon="-116.74188"><ele>1852.0</ele></trkpt>
    <trkpt lat="33.78871" lon="-116.74183"><ele>1852.0</ele></trkpt>
    <trkpt lat="33.78865" lon="-116.74176"><ele>1852.0</ele></trkpt>
    <trkpt lat="33.78862" lon="-116.74169"><ele>1852.0</ele></trkpt>
    <trkpt lat="33.78859" lon="-116.74156"><ele>1852.0</ele></trkpt>
    <trkpt lat="33.78857" lon="-116.74145"><ele>1852.0</ele></trkpt>
    <trkpt lat="33.78857" lon="-116.74134"><ele>1852.0</ele></trkpt>
    <trkpt lat="33.78859" lon="-116.74127"><ele>1852.0</ele></trkpt>
    <trkpt lat="33.78861" lon="-116.74116"><ele>1852.0</ele></trkpt>
    <trkpt lat="33.78864" lon="-116.74108"><ele>1852.0</ele></trkpt>
    <trkpt lat="33.78867" lon="-116.74099"><ele>1867.0</ele></trkpt>
    <trkpt lat="33.78867" lon="-116.74091"><ele>1867.0</ele></trkpt>
    <trkpt lat="33.78866" lon="-116.74082"><ele>1867.0</ele></trkpt>
    <trkpt lat="33.78863" lon="-116.74076"><ele>1867.0</ele></trkpt>
    <trkpt lat="33.78859" lon="-116.74072"><ele>1867.0</ele></trkpt>
    <trkpt lat="33.78852" lon="-116.74073"><ele>1867.0</ele></trkpt>
    <trkpt lat="33.78845" lon="-116.74076"><ele>1867.0</ele></trkpt>
    <trkpt lat="33.78836" lon="-116.74084"><ele>1867.0</ele></trkpt>
    <trkpt lat="33.78825" lon="-116.74094"><ele>1867.0</ele></trkpt>
    <trkpt lat="33.78819" lon="-116.74100"><ele>1865.0</ele></trkpt>
    <trkpt lat="33.78812" lon="-116.74104"><ele>1865.0</ele></trkpt>
    <trkpt lat="33.78805" lon="-116.74106"><ele>1865.0</ele></trkpt>
    <trkpt lat="33.78798" lon="-116.74109"><ele>1865.0</ele></trkpt>
    <trkpt lat="33.78787" lon="-116.74110"><ele>1865.0</ele></trkpt>
    <trkpt lat="33.78780" lon="-116.74109"><ele>1865.0</ele></trkpt>
    <trkpt lat="33.78772" lon="-116.74110"><ele>1865.0</ele></trkpt>
    <trkpt lat="33.78761" lon="-116.74116"><ele>1865.0</ele></trkpt>
    <trkpt lat="33.78752" lon="-116.74121"><ele>1865.0</ele></trkpt>
    <trkpt lat="33.78743" lon="-116.74128"><ele>1865.0</ele></trkpt>
    <trkpt lat="33.78737" lon="-116.74132"><ele>1861.0</ele></trkpt>
    <trkpt lat="33.78729" lon="-116.74134"><ele>1861.0</ele></trkpt>
    <trkpt lat="33.78719" lon="-116.74136"><ele>1861.0</ele></trkpt>
    <trkpt lat="33.78712" lon="-116.74139"><ele>1861.0</ele></trkpt>
    <trkpt lat="33.78707" lon="-116.74140"><ele>1861.0</ele></trkpt>
    <trkpt lat="33.78702" lon="-116.74140"><ele>1861.0</ele></trkpt>
    <trkpt lat="33.78698" lon="-116.74138"><ele>1861.0</ele></trkpt>
    <trkpt lat="33.78694" lon="-116.74134"><ele>1861.0</ele></trkpt>
    <trkpt lat="33.78690" lon="-116.74129"><ele>1861.0</ele></trkpt>
    <trkpt lat="33.78686" lon="-116.74122"><ele>1861.0</ele></trkpt>
    <trkpt lat="33.78678" lon="-116.74113"><ele>1863.0</ele></trkpt>
    <trkpt lat="33.78672" lon="-116.74107"><ele>1863.0</ele></trkpt>
    <trkpt lat="33.78671" lon="-116.74106"><ele>1863.0</ele></trkpt>
    <trkpt lat="33.78671" lon="-116.74106"><ele>1863.0</ele></trkpt>
    <trkpt lat="33.78668" lon="-116.74102"><ele>1863.0</ele></trkpt>
    <trkpt lat="33.78666" lon="-116.74100"><ele>1863.0</ele></trkpt>
    <trkpt lat="33.78662" lon="-116.74105"><ele>1863.0</ele></trkpt>
    <trkpt lat="33.78661" lon="-116.74106"><ele>1863.0</ele></trkpt>
    <trkpt lat="33.78652" lon="-116.74113"><ele>1863.0</ele></trkpt>
    <trkpt lat="33.78644" lon="-116.74125"><ele>1848.0</ele></trkpt>
    <trkpt lat="33.78636" lon="-116.74145"><ele>1848.0</ele></trkpt>
    <trkpt lat="33.78629" lon="-116.74159"><ele>1848.0</ele></trkpt>
    <trkpt lat="33.78613" lon="-116.74187"><ele>1848.0</ele></trkpt>
    <trkpt lat="33.78585" lon="-116.74230"><ele>1848.0</ele></trkpt>
    <trkpt lat="33.78566" lon="-116.74255"><ele>1848.0</ele></trkpt>
    <trkpt lat="33.78558" lon="-116.74270"><ele>1848.0</ele></trkpt>
    <trkpt lat="33.78556" lon="-116.74286"><ele>1848.0</ele></trkpt>
    <trkpt lat="33.78557" lon="-116.74302"><ele>1848.0</ele></trkpt>
    <trkpt lat="33.78561" lon="-116.74319"><ele>1848.0</ele></trkpt>
    <trkpt lat="33.78564" lon="-116.74322"><ele>1840.0</ele></trkpt>
    <trkpt lat="33.78569" lon="-116.74324"><ele>1840.0</ele></trkpt>
    <trkpt lat="33.78576" lon="-116.74325"><ele>1840.0</ele></trkpt>
    <trkpt lat="33.78579" lon="-116.74323"><ele>1840.0</ele></trkpt>
    <trkpt lat="33.78583" lon="-116.74320"><ele>1840.0</ele></trkpt>
    <trkpt lat="33.78589" lon="-116.74318"><ele>1840.0</ele></trkpt>
    <trkpt lat="33.78594" lon="-116.74317"><ele>1840.0</ele></trkpt>
    <trkpt lat="33.78598" lon="-116.74316"><ele>1840.0</ele></trkpt>
    <trkpt lat="33.78602" lon="-116.74318"><ele>1840.0</ele></trkpt>
    <trkpt lat="33.78607" lon="-116.74321"><ele>1837.0</ele></trkpt>
    <trkpt lat="33.78613" lon="-116.74325"><ele>1837.0</ele></trkpt>
    <trkpt lat="33.78620" lon="-116.74330"><ele>1837.0</ele></trkpt>
    <trkpt lat="33.78625" lon="-116.74331"><ele>1837.0</ele></trkpt>
    <trkpt lat="33.78632" lon="-116.74331"><ele>1837.0</ele></trkpt>
    <trkpt lat="33.78650" lon="-116.74329"><ele>1837.0</ele></trkpt>
    <trkpt lat="33.78656" lon="-116.74327"><ele>1837.0</ele></trkpt>
    <trkpt lat="33.78662" lon="-116.74326"><ele>1837.0</ele></trkpt>
    <trkpt lat="33.78668" lon="-116.74329"><ele>1837.0</ele></trkpt>
    <trkpt lat="33.78671" lon="-116.74333"><ele>1837.0</ele></trkpt>
    <trkpt lat="33.78671" lon="-116.74338"><ele>1834.0</ele></trkpt>
    <trkpt lat="33.78671" lon="-116.74346"><ele>1834.0</ele></trkpt>
    <trkpt lat="33.78668" lon="-116.74351"><ele>1834.0</ele></trkpt>
    <trkpt lat="33.78663" lon="-116.74356"><ele>1834.0</ele></trkpt>
    <trkpt lat="33.78658" lon="-116.74361"><ele>1834.0</ele></trkpt>
    <trkpt lat="33.78656" lon="-116.74366"><ele>1834.0</ele></trkpt>
    <trkpt lat="33.78655" lon="-116.74373"><ele>1834.0</ele></trkpt>
    <trkpt lat="33.78655" lon="-116.74379"><ele>1834.0</ele></trkpt>
    <trkpt lat="33.78658" lon="-116.74386"><ele>1834.0</ele></trkpt>
    <trkpt lat="33.78663" lon="-116.74396"><ele>1829.0</ele></trkpt>
    <trkpt lat="33.78667" lon="-116.74405"><ele>1829.0</ele></trkpt>
    <trkpt lat="33.78670" lon="-116.74411"><ele>1829.0</ele></trkpt>
    <trkpt lat="33.78670" lon="-116.74418"><ele>1829.0</ele></trkpt>
    <trkpt lat="33.78670" lon="-116.74427"><ele>1829.0</ele></trkpt>
    <trkpt lat="33.78670" lon="-116.74434"><ele>1829.0</ele></trkpt>
    <trkpt lat="33.78669" lon="-116.74440"><ele>1829.0</ele></trkpt>
    <trkpt lat="33.78669" lon="-116.74446"><ele>1829.0</ele></trkpt>
    <trkpt lat="33.78673" lon="-116.74450"><ele>1829.0</ele></trkpt>
    <trkpt lat="33.78677" lon="-116.74452"><ele>1829.0</ele></trkpt>
    <trkpt lat="33.78681" lon="-116.74452"><ele>1822.0</ele></trkpt>
    <trkpt lat="33.78687" lon="-116.74450"><ele>1822.0</ele></trkpt>
    <trkpt lat="33.78694" lon="-116.74450"><ele>1822.0</ele></trkpt>
    <trkpt lat="33.78700" lon="-116.74450"><ele>1822.0</ele></trkpt>
    <trkpt lat="33.78705" lon="-116.74454"><ele>1822.0</ele></trkpt>
    <trkpt lat="33.78709" lon="-116.74461"><ele>1822.0</ele></trkpt>
    <trkpt lat="33.78711" lon="-116.74465"><ele>1822.0</ele></trkpt>
    <trkpt lat="33.78716" lon="-116.74475"><ele>1822.0</ele></trkpt>
    <trkpt lat="33.78720" lon="-116.74487"><ele>1822.0</ele></trkpt>
    <trkpt lat="33.78722" lon="-116.74494"><ele>1816.0</ele></trkpt>
    <trkpt lat="33.78723" lon="-116.74503"><ele>1816.0</ele></trkpt>
    <trkpt lat="33.78724" lon="-116.74510"><ele>1816.0</ele></trkpt>
    <trkpt lat="33.78723" lon="-116.74517"><ele>1816.0</ele></trkpt>
    <trkpt lat="33.78722" lon="-116.74526"><ele>1816.0</ele></trkpt>
    <trkpt lat="33.78718" lon="-116.74534"><ele>1816.0</ele></trkpt>
    <trkpt lat="33.78713" lon="-116.74543"><ele>1816.0</ele></trkpt>
    <trkpt lat="33.78697" lon="-116.74564"><ele>1816.0</ele></trkpt>
    <trkpt lat="33.78693" lon="-116.74574"><ele>1816.0</ele></trkpt>
    <trkpt lat="33.78689" lon="-116.74582"><ele>1816.0</ele></trkpt>
    <trkpt lat="33.78687" lon="-116.74591"><ele>1813.0</ele></trkpt>
    <trkpt lat="33.78686" lon="-116.74599"><ele>1813.0</ele></trkpt>
    <trkpt lat="33.78686" lon="-116.74608"><ele>1813.0</ele></trkpt>
    <trkpt lat="33.78687" lon="-116.74619"><ele>1813.0</ele></trkpt>
    <trkpt lat="33.78687" lon="-116.74623"><ele>1813.0</ele></trkpt>
    <trkpt lat="33.78687" lon="-116.74629"><ele>1813.0</ele></trkpt>
    <trkpt lat="33.78685" lon="-116.74641"><ele>1813.0</ele></trkpt>
    <trkpt lat="33.78680" lon="-116.74655"><ele>1813.0</ele></trkpt>
    <trkpt lat="33.78673" lon="-116.74672"><ele>1813.0</ele></trkpt>
    <trkpt lat="33.78669" lon="-116.74684"><ele>1802.0</ele></trkpt>
    <trkpt lat="33.78667" lon="-116.74693"><ele>1802.0</ele></trkpt>
    <trkpt lat="33.78666" lon="-116.74701"><ele>1802.0</ele></trkpt>
    <trkpt lat="33.78666" lon="-116.74719"><ele>1802.0</ele></trkpt>
    <trkpt lat="33.78665" lon="-116.74732"><ele>1802.0</ele></trkpt>
    <trkpt lat="33.78665" lon="-116.74738"><ele>1802.0</ele></trkpt>
    <trkpt lat="33.78664" lon="-116.74754"><ele>1802.0</ele></trkpt>
    <trkpt lat="33.78664" lon="-116.74764"><ele>1802.0</ele></trkpt>
    <trkpt lat="33.78665" lon="-116.74772"><ele>1802.0</ele></trkpt>
    <trkpt lat="33.78666" lon="-116.74785"><ele>1802.0</ele></trkpt>
    <trkpt lat="33.78668" lon="-116.74792"><ele>1796.0</ele></trkpt>
    <trkpt lat="33.78668" lon="-116.74801"><ele>1796.0</ele></trkpt>
    <trkpt lat="33.78668" lon="-116.74808"><ele>1796.0</ele></trkpt>
    <trkpt lat="33.78666" lon="-116.74817"><ele>1796.0</ele></trkpt>
    <trkpt lat="33.78663" lon="-116.74823"><ele>1796.0</ele></trkpt>
    <trkpt lat="33.78659" lon="-116.74830"><ele>1796.0</ele></trkpt>
    <trkpt lat="33.78637" lon="-116.74858"><ele>1796.0</ele></trkpt>
    <trkpt lat="33.78629" lon="-116.74869"><ele>1796.0</ele></trkpt>
    <trkpt lat="33.78612" lon="-116.74889"><ele>1796.0</ele></trkpt>
    <trkpt lat="33.78606" lon="-116.74895"><ele>1789.0</ele></trkpt>
    <trkpt lat="33.78602" lon="-116.74899"><ele>1789.0</ele></trkpt>
    <trkpt lat="33.78597" lon="-116.74902"><ele>1789.0</ele></trkpt>
    <trkpt lat="33.78590" lon="-116.74904"><ele>1789.0</ele></trkpt>
    <trkpt lat="33.78582" lon="-116.74904"><ele>1789.0</ele></trkpt>
    <trkpt lat="33.78571" lon="-116.74903"><ele>1789.0</ele></trkpt>
    <trkpt lat="33.78563" lon="-116.74903"><ele>1789.0</ele></trkpt>
    <trkpt lat="33.78559" lon="-116.74906"><ele>1789.0</ele></trkpt>
    <trkpt lat="33.78552" lon="-116.74912"><ele>1789.0</ele></trkpt>
    <trkpt lat="33.78543" lon="-116.74920"><ele>1789.0</ele></trkpt>
    <trkpt lat="33.78534" lon="-116.74928"><ele>1787.0</ele></trkpt>
    <trkpt lat="33.78527" lon="-116.74934"><ele>1787.0</ele></trkpt>
    <trkpt lat="33.78520" lon="-116.74937"><ele>1787.0</ele></trkpt>
    <trkpt lat="33.78512" lon="-116.74942"><ele>1787.0</ele></trkpt>
    <trkpt lat="33.78507" lon="-116.74945"><ele>1787.0</ele></trkpt>
    <trkpt lat="33.78504" lon="-116.74948"><ele>1787.0</ele></trkpt>
    <trkpt lat="33.78499" lon="-116.74953"><ele>1787.0</ele></trkpt>
    <trkpt lat="33.78496" lon="-116.74960"><ele>1787.0</ele></trkpt>
    <trkpt lat="33.78491" lon="-116.74967"><ele>1787.0</ele></trkpt>
    <trkpt lat="33.78486" lon="-116.74975"><ele>1785.0</ele></trkpt>
    <trkpt lat="33.78479" lon="-116.74981"><ele>1785.0</ele></trkpt>
    <trkpt lat="33.78472" lon="-116.74986"><ele>1785.0</ele></trkpt>
    <trkpt lat="33.78467" lon="-116.74989"><ele>1785.0</ele></trkpt>
    <trkpt lat="33.78461" lon="-116.74991"><ele>1785.0</ele></trkpt>
    <trkpt lat="33.78457" lon="-116.74991"><ele>1785.0</ele></trkpt>
    <trkpt lat="33.78452" lon="-116.74989"><ele>1785.0</ele></trkpt>
    <trkpt lat="33.78447" lon="-116.74987"><ele>1785.0</ele></trkpt>
    <trkpt lat="33.78442" lon="-116.74983"><ele>1785.0</ele></trkpt>
    <trkpt lat="33.78438" lon="-116.74977"><ele>1785.0</ele></trkpt>
    <trkpt lat="33.78433" lon="-116.74972"><ele>1789.0</ele></trkpt>
    <trkpt lat="33.78426" lon="-116.74966"><ele>1789.0</ele></trkpt>
    <trkpt lat="33.78421" lon="-116.74963"><ele>1789.0</ele></trkpt>
    <trkpt lat="33.78415" lon="-116.74962"><ele>1789.0</ele></trkpt>
    <trkpt lat="33.78410" lon="-116.74964"><ele>1789.0</ele></trkpt>
    <trkpt lat="33.78406" lon="-116.74967"><ele>1789.0</ele></trkpt>
    <trkpt lat="33.78398" lon="-116.74974"><ele>1789.0</ele></trkpt>
    <trkpt lat="33.78389" lon="-116.74982"><ele>1789.0</ele></trkpt>
    <trkpt lat="33.78382" lon="-116.74986"><ele>1789.0</ele></trkpt>
    <trkpt lat="33.78374" lon="-116.74988"><ele>1783.0</ele></trkpt>
    <trkpt lat="33.78365" lon="-116.74989"><ele>1783.0</ele></trkpt>
    <trkpt lat="33.78356" lon="-116.74990"><ele>1783.0</ele></trkpt>
    <trkpt lat="33.78347" lon="-116.74994"><ele>1783.0</ele></trkpt>
    <trkpt lat="33.78339" lon="-116.74999"><ele>1783.0</ele></trkpt>
    <trkpt lat="33.78332" lon="-116.75006"><ele>1783.0</ele></trkpt>
    <trkpt lat="33.78327" lon="-116.75011"><ele>1783.0</ele></trkpt>
    <trkpt lat="33.78322" lon="-116.75022"><ele>1783.0</ele></trkpt>
    <trkpt lat="33.78319" lon="-116.75030"><ele>1783.0</ele></trkpt>
    <trkpt lat="33.78317" lon="-116.75038"><ele>1783.0</ele></trkpt>
    <trkpt lat="33.78314" lon="-116.75045"><ele>1782.0</ele></trkpt>
    <trkpt lat="33.78311" lon="-116.75053"><ele>1782.0</ele></trkpt>
    <trkpt lat="33.78305" lon="-116.75059"><ele>1782.0</ele></trkpt>
    <trkpt lat="33.78297" lon="-116.75064"><ele>1782.0</ele></trkpt>
    <trkpt lat="33.78288" lon="-116.75067"><ele>1782.0</ele></trkpt>
  </trkseg></trk>
</gpx>
