<?xml version="1.0" encoding="UTF-8"?>
<gpx version="1.1" creator="dirt-bikes build-area-routes (MVUM geometry + SRTM elevation)" xmlns="http://www.topografix.com/GPX/1/1">
  <trk><name>Deep Creek OHV Singletrack</name><trkseg>
    <trkpt lat="34.32504" lon="-117.12130"><ele>1441.0</ele></trkpt>
    <trkpt lat="34.32504" lon="-117.12128"><ele>1441.0</ele></trkpt>
    <trkpt lat="34.32504" lon="-117.12119"><ele>1441.0</ele></trkpt>
    <trkpt lat="34.32504" lon="-117.12087"><ele>1441.0</ele></trkpt>
    <trkpt lat="34.32504" lon="-117.12081"><ele>1441.0</ele></trkpt>
    <trkpt lat="34.32501" lon="-117.12074"><ele>1442.0</ele></trkpt>
    <trkpt lat="34.32494" lon="-117.12065"><ele>1442.0</ele></trkpt>
    <trkpt lat="34.32490" lon="-117.12062"><ele>1442.0</ele></trkpt>
    <trkpt lat="34.32487" lon="-117.12061"><ele>1442.0</ele></trkpt>
    <trkpt lat="34.32484" lon="-117.12060"><ele>1442.0</ele></trkpt>
    <trkpt lat="34.32482" lon="-117.12060"><ele>1442.0</ele></trkpt>
    <trkpt lat="34.32479" lon="-117.12059"><ele>1442.0</ele></trkpt>
    <trkpt lat="34.32474" lon="-117.12057"><ele>1443.0</ele></trkpt>
    <trkpt lat="34.32470" lon="-117.12054"><ele>1443.0</ele></trkpt>
    <trkpt lat="34.32464" lon="-117.12048"><ele>1443.0</ele></trkpt>
    <trkpt lat="34.32461" lon="-117.12047"><ele>1443.0</ele></trkpt>
    <trkpt lat="34.32456" lon="-117.12045"><ele>1443.0</ele></trkpt>
    <trkpt lat="34.32451" lon="-117.12044"><ele>1443.0</ele></trkpt>
    <trkpt lat="34.32447" lon="-117.12042"><ele>1443.0</ele></trkpt>
    <trkpt lat="34.32445" lon="-117.12044"><ele>1443.0</ele></trkpt>
    <trkpt lat="34.32441" lon="-117.12046"><ele>1444.0</ele></trkpt>
    <trkpt lat="34.32436" lon="-117.12046"><ele>1444.0</ele></trkpt>
    <trkpt lat="34.32432" lon="-117.12046"><ele>1444.0</ele></trkpt>
    <trkpt lat="34.32429" lon="-117.12044"><ele>1444.0</ele></trkpt>
    <trkpt lat="34.32425" lon="-117.12043"><ele>1444.0</ele></trkpt>
    <trkpt lat="34.32420" lon="-117.12040"><ele>1444.0</ele></trkpt>
    <trkpt lat="34.32416" lon="-117.12037"><ele>1444.0</ele></trkpt>
    <trkpt lat="34.32412" lon="-117.12033"><ele>1444.0</ele></trkpt>
    <trkpt lat="34.32408" lon="-117.12032"><ele>1446.0</ele></trkpt>
    <trkpt lat="34.32404" lon="-117.12035"><ele>1446.0</ele></trkpt>
    <trkpt lat="34.32401" lon="-117.12041"><ele>1446.0</ele></trkpt>
    <trkpt lat="34.32399" lon="-117.12050"><ele>1446.0</ele></trkpt>
    <trkpt lat="34.32396" lon="-117.12058"><ele>1446.0</ele></trkpt>
    <trkpt lat="34.32394" lon="-117.12064"><ele>1446.0</ele></trkpt>
    <trkpt lat="34.32393" lon="-117.12070"><ele>1446.0</ele></trkpt>
    <trkpt lat="34.32390" lon="-117.12077"><ele>1446.0</ele></trkpt>
    <trkpt lat="34.32387" lon="-117.12081"><ele>1449.0</ele></trkpt>
    <trkpt lat="34.32381" lon="-117.12089"><ele>1449.0</ele></trkpt>
    <trkpt lat="34.32378" lon="-117.12094"><ele>1449.0</ele></trkpt>
    <trkpt lat="34.32377" lon="-117.12096"><ele>1449.0</ele></trkpt>
    <trkpt lat="34.32372" lon="-117.12103"><ele>1449.0</ele></trkpt>
    <trkpt lat="34.32365" lon="-117.12114"><ele>1449.0</ele></trkpt>
    <trkpt lat="34.32361" lon="-117.12119"><ele>1449.0</ele></trkpt>
    <trkpt lat="34.32356" lon="-117.12122"><ele>1453.0</ele></trkpt>
    <trkpt lat="34.32349" lon="-117.12125"><ele>1453.0</ele></trkpt>
    <trkpt lat="34.32344" lon="-117.12129"><ele>1453.0</ele></trkpt>
    <trkpt lat="34.32339" lon="-117.12131"><ele>1453.0</ele></trkpt>
    <trkpt lat="34.32339" lon="-117.12131"><ele>1453.0</ele></trkpt>
    <trkpt lat="34.32334" lon="-117.12130"><ele>1453.0</ele></trkpt>
    <trkpt lat="34.32329" lon="-117.12127"><ele>1453.0</ele></trkpt>
    <trkpt lat="34.32324" lon="-117.12122"><ele>1453.0</ele></trkpt>
    <trkpt lat="34.32317" lon="-117.12117"><ele>1458.0</ele></trkpt>
    <trkpt lat="34.32314" lon="-117.12113"><ele>1458.0</ele></trkpt>
    <trkpt lat="34.32309" lon="-117.12111"><ele>1458.0</ele></trkpt>
    <trkpt lat="34.32302" lon="-117.12110"><ele>1458.0</ele></trkpt>
    <trkpt lat="34.32293" lon="-117.12109"><ele>1458.0</ele></trkpt>
    <trkpt lat="34.32288" lon="-117.12111"><ele>1458.0</ele></trkpt>
    <trkpt lat="34.32281" lon="-117.12116"><ele>1458.0</ele></trkpt>
    <trkpt lat="34.32276" lon="-117.12120"><ele>1458.0</ele></trkpt>
    <trkpt lat="34.32270" lon="-117.12124"><ele>1463.0</ele></trkpt>
    <trkpt lat="34.32264" lon="-117.12126"><ele>1463.0</ele></trkpt>
    <trkpt lat="34.32259" lon="-117.12130"><ele>1463.0</ele></trkpt>
    <trkpt lat="34.32253" lon="-117.12135"><ele>1463.0</ele></trkpt>
    <trkpt lat="34.32250" lon="-117.12138"><ele>1463.0</ele></trkpt>
    <trkpt lat="34.32250" lon="-117.12138"><ele>1463.0</ele></trkpt>
    <trkpt lat="34.32246" lon="-117.12139"><ele>1463.0</ele></trkpt>
    <trkpt lat="34.32240" lon="-117.12140"><ele>1465.0</ele></trkpt>
    <trkpt lat="34.32232" lon="-117.12139"><ele>1465.0</ele></trkpt>
    <trkpt lat="34.32226" lon="-117.12137"><ele>1465.0</ele></trkpt>
    <trkpt lat="34.32220" lon="-117.12132"><ele>1465.0</ele></trkpt>
    <trkpt lat="34.32219" lon="-117.12132"><ele>1465.0</ele></trkpt>
    <trkpt lat="34.32214" lon="-117.12129"><ele>1465.0</ele></trkpt>
    <trkpt lat="34.32207" lon="-117.12129"><ele>1465.0</ele></trkpt>
    <trkpt lat="34.32200" lon="-117.12131"><ele>1465.0</ele></trkpt>
    <trkpt lat="34.32190" lon="-117.12134"><ele>1468.0</ele></trkpt>
    <trkpt lat="34.32181" lon="-117.12137"><ele>1468.0</ele></trkpt>
    <trkpt lat="34.32177" lon="-117.12139"><ele>1468.0</ele></trkpt>
    <trkpt lat="34.32171" lon="-117.12141"><ele>1468.0</ele></trkpt>
    <trkpt lat="34.32163" lon="-117.12145"><ele>1468.0</ele></trkpt>
    <trkpt lat="34.32155" lon="-117.12147"><ele>1468.0</ele></trkpt>
    <trkpt lat="34.32146" lon="-117.12146"><ele>1468.0</ele></trkpt>
    <trkpt lat="34.32139" lon="-117.12145"><ele>1468.0</ele></trkpt>
    <trkpt lat="34.32132" lon="-117.12143"><ele>1473.0</ele></trkpt>
    <trkpt lat="34.32126" lon="-117.12141"><ele>1473.0</ele></trkpt>
    <trkpt lat="34.32123" lon="-117.12137"><ele>1473.0</ele></trkpt>
    <trkpt lat="34.32116" lon="-117.12131"><ele>1473.0</ele></trkpt>
    <trkpt lat="34.32111" lon="-117.12127"><ele>1473.0</ele></trkpt>
    <trkpt lat="34.32111" lon="-117.12127"><ele>1473.0</ele></trkpt>
    <trkpt lat="34.32104" lon="-117.12122"><ele>1473.0</ele></trkpt>
    <trkpt lat="34.32096" lon="-117.12119"><ele>1476.0</ele></trkpt>
    <trkpt lat="34.32087" lon="-117.12116"><ele>1476.0</ele></trkpt>
    <trkpt lat="34.32081" lon="-117.12115"><ele>1476.0</ele></trkpt>
    <trkpt lat="34.32081" lon="-117.12115"><ele>1476.0</ele></trkpt>
    <trkpt lat="34.32073" lon="-117.12115"><ele>1476.0</ele></trkpt>
    <trkpt lat="34.32065" lon="-117.12114"><ele>1476.0</ele></trkpt>
    <trkpt lat="34.32058" lon="-117.12116"><ele>1476.0</ele></trkpt>
    <trkpt lat="34.32053" lon="-117.12120"><ele>1476.0</ele></trkpt>
    <trkpt lat="34.32050" lon="-117.12126"><ele>1480.0</ele></trkpt>
    <trkpt lat="34.32047" lon="-117.12132"><ele>1480.0</ele></trkpt>
    <trkpt lat="34.32043" lon="-117.12134"><ele>1480.0</ele></trkpt>
    <trkpt lat="34.32038" lon="-117.12132"><ele>1480.0</ele></trkpt>
    <trkpt lat="34.32035" lon="-117.12130"><ele>1480.0</ele></trkpt>
    <trkpt lat="34.32030" lon="-117.12127"><ele>1480.0</ele></trkpt>
    <trkpt lat="34.32025" lon="-117.12125"><ele>1480.0</ele></trkpt>
    <trkpt lat="34.32022" lon="-117.12121"><ele>1480.0</ele></trkpt>
    <trkpt lat="34.32022" lon="-117.12121"><ele>1483.0</ele></trkpt>
    <trkpt lat="34.32018" lon="-117.12116"><ele>1483.0</ele></trkpt>
    <trkpt lat="34.32013" lon="-117.12113"><ele>1483.0</ele></trkpt>
    <trkpt lat="34.32007" lon="-117.12112"><ele>1483.0</ele></trkpt>
    <trkpt lat="34.32004" lon="-117.12112"><ele>1483.0</ele></trkpt>
    <trkpt lat="34.32001" lon="-117.12113"><ele>1483.0</ele></trkpt>
    <trkpt lat="34.31997" lon="-117.12111"><ele>1483.0</ele></trkpt>
    <trkpt lat="34.31994" lon="-117.12109"><ele>1483.0</ele></trkpt>
    <trkpt lat="34.31993" lon="-117.12109"><ele>1486.0</ele></trkpt>
    <trkpt lat="34.31989" lon="-117.12104"><ele>1486.0</ele></trkpt>
    <trkpt lat="34.31985" lon="-117.12101"><ele>1486.0</ele></trkpt>
    <trkpt lat="34.31981" lon="-117.12100"><ele>1486.0</ele></trkpt>
    <trkpt lat="34.31977" lon="-117.12097"><ele>1486.0</ele></trkpt>
    <trkpt lat="34.31974" lon="-117.12094"><ele>1486.0</ele></trkpt>
    <trkpt lat="34.31968" lon="-117.12093"><ele>1486.0</ele></trkpt>
    <trkpt lat="34.31964" lon="-117.12091"><ele>1489.0</ele></trkpt>
    <trkpt lat="34.31960" lon="-117.12087"><ele>1489.0</ele></trkpt>
    <trkpt lat="34.31955" lon="-117.12085"><ele>1489.0</ele></trkpt>
    <trkpt lat="34.31949" lon="-117.12086"><ele>1489.0</ele></trkpt>
    <trkpt lat="34.31942" lon="-117.12091"><ele>1489.0</ele></trkpt>
    <trkpt lat="34.31934" lon="-117.12097"><ele>1489.0</ele></trkpt>
    <trkpt lat="34.31927" lon="-117.12102"><ele>1489.0</ele></trkpt>
    <trkpt lat="34.31924" lon="-117.12106"><ele>1489.0</ele></trkpt>
    <trkpt lat="34.31924" lon="-117.12107"><ele>1492.0</ele></trkpt>
    <trkpt lat="34.31917" lon="-117.12109"><ele>1492.0</ele></trkpt>
    <trkpt lat="34.31908" lon="-117.12111"><ele>1492.0</ele></trkpt>
    <trkpt lat="34.31901" lon="-117.12110"><ele>1492.0</ele></trkpt>
    <trkpt lat="34.31895" lon="-117.12111"><ele>1492.0</ele></trkpt>
    <trkpt lat="34.31888" lon="-117.12113"><ele>1492.0</ele></trkpt>
    <trkpt lat="34.31880" lon="-117.12115"><ele>1492.0</ele></trkpt>
    <trkpt lat="34.31871" lon="-117.12117"><ele>1492.0</ele></trkpt>
    <trkpt lat="34.31862" lon="-117.12120"><ele>1495.0</ele></trkpt>
    <trkpt lat="34.31854" lon="-117.12121"><ele>1495.0</ele></trkpt>
    <trkpt lat="34.31845" lon="-117.12123"><ele>1495.0</ele></trkpt>
    <trkpt lat="34.31835" lon="-117.12124"><ele>1495.0</ele></trkpt>
    <trkpt lat="34.31829" lon="-117.12125"><ele>1495.0</ele></trkpt>
    <trkpt lat="34.31821" lon="-117.12125"><ele>1495.0</ele></trkpt>
    <trkpt lat="34.31815" lon="-117.12124"><ele>1495.0</ele></trkpt>
    <trkpt lat="34.31808" lon="-117.12119"><ele>1500.0</ele></trkpt>
    <trkpt lat="34.31801" lon="-117.12118"><ele>1500.0</ele></trkpt>
    <trkpt lat="34.31792" lon="-117.12117"><ele>1500.0</ele></trkpt>
    <trkpt lat="34.31783" lon="-117.12117"><ele>1500.0</ele></trkpt>
    <trkpt lat="34.31779" lon="-117.12119"><ele>1500.0</ele></trkpt>
    <trkpt lat="34.31773" lon="-117.12122"><ele>1500.0</ele></trkpt>
    <trkpt lat="34.31766" lon="-117.12121"><ele>1500.0</ele></trkpt>
    <trkpt lat="34.31760" lon="-117.12121"><ele>1500.0</ele></trkpt>
    <trkpt lat="34.31755" lon="-117.12118"><ele>1500.0</ele></trkpt>
    <trkpt lat="34.31750" lon="-117.12119"><ele>1500.0</ele></trkpt>
    <trkpt lat="34.31747" lon="-117.12124"><ele>1500.0</ele></trkpt>
    <trkpt lat="34.31742" lon="-117.12135"><ele>1500.0</ele></trkpt>
    <trkpt lat="34.31737" lon="-117.12148"><ele>1500.0</ele></trkpt>
    <trkpt lat="34.31732" lon="-117.12155"><ele>1500.0</ele></trkpt>
    <trkpt lat="34.31726" lon="-117.12163"><ele>1500.0</ele></trkpt>
    <trkpt lat="34.31721" lon="-117.12172"><ele>1500.0</ele></trkpt>
    <trkpt lat="34.31716" lon="-117.12182"><ele>1496.0</ele></trkpt>
    <trkpt lat="34.31713" lon="-117.12190"><ele>1496.0</ele></trkpt>
    <trkpt lat="34.31707" lon="-117.12201"><ele>1496.0</ele></trkpt>
    <trkpt lat="34.31704" lon="-117.12208"><ele>1496.0</ele></trkpt>
    <trkpt lat="34.31697" lon="-117.12215"><ele>1496.0</ele></trkpt>
    <trkpt lat="34.31691" lon="-117.12223"><ele>1496.0</ele></trkpt>
    <trkpt lat="34.31686" lon="-117.12228"><ele>1496.0</ele></trkpt>
    <trkpt lat="34.31680" lon="-117.12234"><ele>1496.0</ele></trkpt>
    <trkpt lat="34.31675" lon="-117.12239"><ele>1497.0</ele></trkpt>
    <trkpt lat="34.31669" lon="-117.12242"><ele>1497.0</ele></trkpt>
    <trkpt lat="34.31663" lon="-117.12244"><ele>1497.0</ele></trkpt>
    <trkpt lat="34.31657" lon="-117.12246"><ele>1497.0</ele></trkpt>
    <trkpt lat="34.31651" lon="-117.12250"><ele>1497.0</ele></trkpt>
    <trkpt lat="34.31647" lon="-117.12255"><ele>1497.0</ele></trkpt>
    <trkpt lat="34.31643" lon="-117.12261"><ele>1497.0</ele></trkpt>
    <trkpt lat="34.31638" lon="-117.12267"><ele>1494.0</ele></trkpt>
    <trkpt lat="34.31632" lon="-117.12273"><ele>1494.0</ele></trkpt>
    <trkpt lat="34.31627" lon="-117.12278"><ele>1494.0</ele></trkpt>
    <trkpt lat="34.31621" lon="-117.12280"><ele>1494.0</ele></trkpt>
    <trkpt lat="34.31615" lon="-117.12281"><ele>1494.0</ele></trkpt>
    <trkpt lat="34.31609" lon="-117.12284"><ele>1494.0</ele></trkpt>
    <trkpt lat="34.31604" lon="-117.12289"><ele>1494.0</ele></trkpt>
    <trkpt lat="34.31599" lon="-117.12292"><ele>1494.0</ele></trkpt>
    <trkpt lat="34.31595" lon="-117.12298"><ele>1490.0</ele></trkpt>
    <trkpt lat="34.31594" lon="-117.12304"><ele>1490.0</ele></trkpt>
    <trkpt lat="34.31594" lon="-117.12312"><ele>1490.0</ele></trkpt>
    <trkpt lat="34.31596" lon="-117.12319"><ele>1490.0</ele></trkpt>
    <trkpt lat="34.31598" lon="-117.12325"><ele>1490.0</ele></trkpt>
    <trkpt lat="34.31598" lon="-117.12331"><ele>1490.0</ele></trkpt>
    <trkpt lat="34.31596" lon="-117.12337"><ele>1490.0</ele></trkpt>
    <trkpt lat="34.31592" lon="-117.12340"><ele>1490.0</ele></trkpt>
    <trkpt lat="34.31587" lon="-117.12342"><ele>1488.0</ele></trkpt>
    <trkpt lat="34.31583" lon="-117.12340"><ele>1488.0</ele></trkpt>
    <trkpt lat="34.31580" lon="-117.12335"><ele>1488.0</ele></trkpt>
    <trkpt lat="34.31576" lon="-117.12332"><ele>1488.0</ele></trkpt>
    <trkpt lat="34.31570" lon="-117.12331"><ele>1488.0</ele></trkpt>
    <trkpt lat="34.31566" lon="-117.12334"><ele>1488.0</ele></trkpt>
    <trkpt lat="34.31562" lon="-117.12337"><ele>1488.0</ele></trkpt>
    <trkpt lat="34.31558" lon="-117.12338"><ele>1484.0</ele></trkpt>
    <trkpt lat="34.31551" lon="-117.12340"><ele>1484.0</ele></trkpt>
    <trkpt lat="34.31547" lon="-117.12342"><ele>1484.0</ele></trkpt>
    <trkpt lat="34.31544" lon="-117.12348"><ele>1484.0</ele></trkpt>
    <trkpt lat="34.31542" lon="-117.12355"><ele>1484.0</ele></trkpt>
    <trkpt lat="34.31538" lon="-117.12358"><ele>1484.0</ele></trkpt>
    <trkpt lat="34.31532" lon="-117.12359"><ele>1484.0</ele></trkpt>
    <trkpt lat="34.31527" lon="-117.12361"><ele>1484.0</ele></trkpt>
    <trkpt lat="34.31526" lon="-117.12365"><ele>1481.0</ele></trkpt>
    <trkpt lat="34.31528" lon="-117.12371"><ele>1481.0</ele></trkpt>
    <trkpt lat="34.31530" lon="-117.12376"><ele>1481.0</ele></trkpt>
    <trkpt lat="34.31529" lon="-117.12382"><ele>1481.0</ele></trkpt>
    <trkpt lat="34.31526" lon="-117.12389"><ele>1481.0</ele></trkpt>
    <trkpt lat="34.31523" lon="-117.12394"><ele>1481.0</ele></trkpt>
    <trkpt lat="34.31521" lon="-117.12395"><ele>1481.0</ele></trkpt>
    <trkpt lat="34.31519" lon="-117.12396"><ele>1481.0</ele></trkpt>
    <trkpt lat="34.31513" lon="-117.12396"><ele>1478.0</ele></trkpt>
    <trkpt lat="34.31507" lon="-117.12396"><ele>1478.0</ele></trkpt>
    <trkpt lat="34.31503" lon="-117.12400"><ele>1478.0</ele></trkpt>
    <trkpt lat="34.31500" lon="-117.12404"><ele>1478.0</ele></trkpt>
    <trkpt lat="34.31500" lon="-117.12409"><ele>1478.0</ele></trkpt>
    <trkpt lat="34.31504" lon="-117.12414"><ele>1478.0</ele></trkpt>
    <trkpt lat="34.31507" lon="-117.12419"><ele>1478.0</ele></trkpt>
    <trkpt lat="34.31508" lon="-117.12421"><ele>1478.0</ele></trkpt>
    <trkpt lat="34.31509" lon="-117.12424"><ele>1476.0</ele></trkpt>
    <trkpt lat="34.31508" lon="-117.12429"><ele>1476.0</ele></trkpt>
    <trkpt lat="34.31504" lon="-117.12432"><ele>1476.0</ele></trkpt>
    <trkpt lat="34.31501" lon="-117.12437"><ele>1476.0</ele></trkpt>
    <trkpt lat="34.31500" lon="-117.12444"><ele>1476.0</ele></trkpt>
    <trkpt lat="34.31497" lon="-117.12454"><ele>1476.0</ele></trkpt>
    <trkpt lat="34.31495" lon="-117.12462"><ele>1476.0</ele></trkpt>
    <trkpt lat="34.31490" lon="-117.12469"><ele>1470.0</ele></trkpt>
    <trkpt lat="34.31488" lon="-117.12470"><ele>1470.0</ele></trkpt>
    <trkpt lat="34.31485" lon="-117.12472"><ele>1470.0</ele></trkpt>
    <trkpt lat="34.31480" lon="-117.12471"><ele>1470.0</ele></trkpt>
    <trkpt lat="34.31473" lon="-117.12471"><ele>1470.0</ele></trkpt>
    <trkpt lat="34.31468" lon="-117.12475"><ele>1470.0</ele></trkpt>
    <trkpt lat="34.31464" lon="-117.12481"><ele>1470.0</ele></trkpt>
    <trkpt lat="34.31462" lon="-117.12488"><ele>1470.0</ele></trkpt>
    <trkpt lat="34.31462" lon="-117.12493"><ele>1467.0</ele></trkpt>
    <trkpt lat="34.31464" lon="-117.12500"><ele>1467.0</ele></trkpt>
    <trkpt lat="34.31468" lon="-117.12506"><ele>1467.0</ele></trkpt>
    <trkpt lat="34.31471" lon="-117.12512"><ele>1467.0</ele></trkpt>
    <trkpt lat="34.31472" lon="-117.12514"><ele>1467.0</ele></trkpt>
    <trkpt lat="34.31475" lon="-117.12519"><ele>1467.0</ele></trkpt>
    <trkpt lat="34.31475" lon="-117.12526"><ele>1467.0</ele></trkpt>
    <trkpt lat="34.31476" lon="-117.12534"><ele>1467.0</ele></trkpt>
    <trkpt lat="34.31480" lon="-117.12540"><ele>1465.0</ele></trkpt>
    <trkpt lat="34.31482" lon="-117.12545"><ele>1465.0</ele></trkpt>
    <trkpt lat="34.31485" lon="-117.12551"><ele>1465.0</ele></trkpt>
    <trkpt lat="34.31489" lon="-117.12556"><ele>1465.0</ele></trkpt>
    <trkpt lat="34.31496" lon="-117.12558"><ele>1465.0</ele></trkpt>
    <trkpt lat="34.31499" lon="-117.12561"><ele>1465.0</ele></trkpt>
    <trkpt lat="34.31501" lon="-117.12567"><ele>1465.0</ele></trkpt>
    <trkpt lat="34.31501" lon="-117.12576"><ele>1463.0</ele></trkpt>
    <trkpt lat="34.31501" lon="-117.12583"><ele>1463.0</ele></trkpt>
    <trkpt lat="34.31498" lon="-117.12589"><ele>1463.0</ele></trkpt>
    <trkpt lat="34.31493" lon="-117.12593"><ele>1463.0</ele></trkpt>
    <trkpt lat="34.31488" lon="-117.12598"><ele>1463.0</ele></trkpt>
    <trkpt lat="34.31481" lon="-117.12606"><ele>1463.0</ele></trkpt>
    <trkpt lat="34.31475" lon="-117.12616"><ele>1463.0</ele></trkpt>
    <trkpt lat="34.31469" lon="-117.12624"><ele>1463.0</ele></trkpt>
    <trkpt lat="34.31466" lon="-117.12632"><ele>1459.0</ele></trkpt>
    <trkpt lat="34.31464" lon="-117.12641"><ele>1459.0</ele></trkpt>
    <trkpt lat="34.31460" lon="-117.12646"><ele>1459.0</ele></trkpt>
    <trkpt lat="34.31455" lon="-117.12648"><ele>1459.0</ele></trkpt>
    <trkpt lat="34.31451" lon="-117.12644"><ele>1459.0</ele></trkpt>
    <trkpt lat="34.31450" lon="-117.12637"><ele>1459.0</ele></trkpt>
    <trkpt lat="34.31450" lon="-117.12629"><ele>1459.0</ele></trkpt>
    <trkpt lat="34.31450" lon="-117.12620"><ele>1459.0</ele></trkpt>
    <trkpt lat="34.31449" lon="-117.12616"><ele>1458.0</ele></trkpt>
    <trkpt lat="34.31444" lon="-117.12610"><ele>1458.0</ele></trkpt>
    <trkpt lat="34.31440" lon="-117.12606"><ele>1458.0</ele></trkpt>
    <trkpt lat="34.31440" lon="-117.12602"><ele>1458.0</ele></trkpt>
    <trkpt lat="34.31442" lon="-117.12596"><ele>1458.0</ele></trkpt>
    <trkpt lat="34.31442" lon="-117.12593"><ele>1458.0</ele></trkpt>
    <trkpt lat="34.31439" lon="-117.12588"><ele>1458.0</ele></trkpt>
    <trkpt lat="34.31434" lon="-117.12584"><ele>1456.0</ele></trkpt>
    <trkpt lat="34.31429" lon="-117.12582"><ele>1456.0</ele></trkpt>
    <trkpt lat="34.31429" lon="-117.12582"><ele>1456.0</ele></trkpt>
    <trkpt lat="34.31424" lon="-117.12580"><ele>1456.0</ele></trkpt>
    <trkpt lat="34.31419" lon="-117.12576"><ele>1456.0</ele></trkpt>
    <trkpt lat="34.31417" lon="-117.12572"><ele>1456.0</ele></trkpt>
    <trkpt lat="34.31413" lon="-117.12566"><ele>1456.0</ele></trkpt>
    <trkpt lat="34.31411" lon="-117.12560"><ele>1456.0</ele></trkpt>
    <trkpt lat="34.31408" lon="-117.12556"><ele>1454.0</ele></trkpt>
    <trkpt lat="34.31403" lon="-117.12553"><ele>1454.0</ele></trkpt>
    <trkpt lat="34.31399" lon="-117.12549"><ele>1454.0</ele></trkpt>
    <trkpt lat="34.31394" lon="-117.12548"><ele>1454.0</ele></trkpt>
    <trkpt lat="34.31391" lon="-117.12545"><ele>1454.0</ele></trkpt>
    <trkpt lat="34.31388" lon="-117.12539"><ele>1454.0</ele></trkpt>
    <trkpt lat="34.31385" lon="-117.12532"><ele>1454.0</ele></trkpt>
    <trkpt lat="34.31383" lon="-117.12528"><ele>1454.0</ele></trkpt>
    <trkpt lat="34.31379" lon="-117.12525"><ele>1450.0</ele></trkpt>
    <trkpt lat="34.31374" lon="-117.12521"><ele>1450.0</ele></trkpt>
    <trkpt lat="34.31372" lon="-117.12518"><ele>1450.0</ele></trkpt>
    <trkpt lat="34.31370" lon="-117.12514"><ele>1450.0</ele></trkpt>
    <trkpt lat="34.31369" lon="-117.12504"><ele>1450.0</ele></trkpt>
    <trkpt lat="34.31366" lon="-117.12502"><ele>1450.0</ele></trkpt>
    <trkpt lat="34.31364" lon="-117.12496"><ele>1450.0</ele></trkpt>
    <trkpt lat="34.31363" lon="-117.12490"><ele>1450.0</ele></trkpt>
    <trkpt lat="34.31362" lon="-117.12485"><ele>1447.0</ele></trkpt>
    <trkpt lat="34.31360" lon="-117.12481"><ele>1447.0</ele></trkpt>
    <trkpt lat="34.31358" lon="-117.12476"><ele>1447.0</ele></trkpt>
    <trkpt lat="34.31355" lon="-117.12469"><ele>1447.0</ele></trkpt>
    <trkpt lat="34.31356" lon="-117.12461"><ele>1447.0</ele></trkpt>
    <trkpt lat="34.31357" lon="-117.12456"><ele>1447.0</ele></trkpt>
    <trkpt lat="34.31356" lon="-117.12452"><ele>1447.0</ele></trkpt>
    <trkpt lat="34.31353" lon="-117.12449"><ele>1441.0</ele></trkpt>
    <trkpt lat="34.31345" lon="-117.12450"><ele>1441.0</ele></trkpt>
    <trkpt lat="34.31336" lon="-117.12450"><ele>1441.0</ele></trkpt>
    <trkpt lat="34.31333" lon="-117.12447"><ele>1441.0</ele></trkpt>
    <trkpt lat="34.31331" lon="-117.12442"><ele>1441.0</ele></trkpt>
    <trkpt lat="34.31328" lon="-117.12436"><ele>1441.0</ele></trkpt>
    <trkpt lat="34.31325" lon="-117.12429"><ele>1441.0</ele></trkpt>
    <trkpt lat="34.31320" lon="-117.12422"><ele>1441.0</ele></trkpt>
    <trkpt lat="34.31313" lon="-117.12418"><ele>1435.0</ele></trkpt>
    <trkpt lat="34.31308" lon="-117.12414"><ele>1435.0</ele></trkpt>
    <trkpt lat="34.31302" lon="-117.12413"><ele>1435.0</ele></trkpt>
    <trkpt lat="34.31295" lon="-117.12412"><ele>1435.0</ele></trkpt>
    <trkpt lat="34.31289" lon="-117.12411"><ele>1435.0</ele></trkpt>
    <trkpt lat="34.31285" lon="-117.12408"><ele>1435.0</ele></trkpt>
    <trkpt lat="34.31282" lon="-117.12401"><ele>1435.0</ele></trkpt>
    <trkpt lat="34.31282" lon="-117.12394"><ele>1435.0</ele></trkpt>
    <trkpt lat="34.31280" lon="-117.12389"><ele>1436.0</ele></trkpt>
    <trkpt lat="34.31277" lon="-117.12384"><ele>1436.0</ele></trkpt>
    <trkpt lat="34.31275" lon="-117.12378"><ele>1436.0</ele></trkpt>
    <trkpt lat="34.31275" lon="-117.12370"><ele>1436.0</ele></trkpt>
    <trkpt lat="34.31277" lon="-117.12363"><ele>1436.0</ele></trkpt>
    <trkpt lat="34.31278" lon="-117.12354"><ele>1436.0</ele></trkpt>
    <trkpt lat="34.31279" lon="-117.12345"><ele>1436.0</ele></trkpt>
    <trkpt lat="34.31279" lon="-117.12337"><ele>1439.0</ele></trkpt>
    <trkpt lat="34.31279" lon="-117.12332"><ele>1439.0</ele></trkpt>
    <trkpt lat="34.31276" lon="-117.12328"><ele>1439.0</ele></trkpt>
    <trkpt lat="34.31269" lon="-117.12325"><ele>1439.0</ele></trkpt>
    <trkpt lat="34.31263" lon="-117.12322"><ele>1439.0</ele></trkpt>
    <trkpt lat="34.31259" lon="-117.12318"><ele>1439.0</ele></trkpt>
    <trkpt lat="34.31254" lon="-117.12313"><ele>1439.0</ele></trkpt>
    <trkpt lat="34.31251" lon="-117.12307"><ele>1439.0</ele></trkpt>
    <trkpt lat="34.31252" lon="-117.12302"><ele>1440.0</ele></trkpt>
    <trkpt lat="34.31254" lon="-117.12294"><ele>1440.0</ele></trkpt>
    <trkpt lat="34.31255" lon="-117.12288"><ele>1440.0</ele></trkpt>
    <trkpt lat="34.31254" lon="-117.12284"><ele>1440.0</ele></trkpt>
    <trkpt lat="34.31251" lon="-117.12280"><ele>1440.0</ele></trkpt>
    <trkpt lat="34.31247" lon="-117.12275"><ele>1440.0</ele></trkpt>
    <trkpt lat="34.31244" lon="-117.12272"><ele>1440.0</ele></trkpt>
    <trkpt lat="34.31240" lon="-117.12273"><ele>1440.0</ele></trkpt>
    <trkpt lat="34.31234" lon="-117.12277"><ele>1441.0</ele></trkpt>
    <trkpt lat="34.31227" lon="-117.12281"><ele>1441.0</ele></trkpt>
    <trkpt lat="34.31220" lon="-117.12284"><ele>1441.0</ele></trkpt>
    <trkpt lat="34.31213" lon="-117.12283"><ele>1441.0</ele></trkpt>
    <trkpt lat="34.31206" lon="-117.12280"><ele>1441.0</ele></trkpt>
    <trkpt lat="34.31197" lon="-117.12279"><ele>1441.0</ele></trkpt>
    <trkpt lat="34.31191" lon="-117.12281"><ele>1441.0</ele></trkpt>
    <trkpt lat="34.31183" lon="-117.12286"><ele>1441.0</ele></trkpt>
    <trkpt lat="34.31179" lon="-117.12293"><ele>1441.0</ele></trkpt>
    <trkpt lat="34.31174" lon="-117.12301"><ele>1441.0</ele></trkpt>
    <trkpt lat="34.31169" lon="-117.12307"><ele>1441.0</ele></trkpt>
    <trkpt lat="34.31169" lon="-117.12307"><ele>1441.0</ele></trkpt>
    <trkpt lat="34.31161" lon="-117.12313"><ele>1441.0</ele></trkpt>
    <trkpt lat="34.31154" lon="-117.12318"><ele>1441.0</ele></trkpt>
    <trkpt lat="34.31146" lon="-117.12321"><ele>1441.0</ele></trkpt>
    <trkpt lat="34.31138" lon="-117.12322"><ele>1439.0</ele></trkpt>
    <trkpt lat="34.31130" lon="-117.12322"><ele>1439.0</ele></trkpt>
    <trkpt lat="34.31123" lon="-117.12319"><ele>1439.0</ele></trkpt>
    <trkpt lat="34.31117" lon="-117.12315"><ele>1439.0</ele></trkpt>
    <trkpt lat="34.31110" lon="-117.12312"><ele>1439.0</ele></trkpt>
    <trkpt lat="34.31101" lon="-117.12312"><ele>1439.0</ele></trkpt>
    <trkpt lat="34.31093" lon="-117.12312"><ele>1439.0</ele></trkpt>
    <trkpt lat="34.31087" lon="-117.12310"><ele>1439.0</ele></trkpt>
    <trkpt lat="34.31082" lon="-117.12306"><ele>1438.0</ele></trkpt>
    <trkpt lat="34.31078" lon="-117.12304"><ele>1438.0</ele></trkpt>
    <trkpt lat="34.31075" lon="-117.12301"><ele>1438.0</ele></trkpt>
    <trkpt lat="34.31069" lon="-117.12298"><ele>1438.0</ele></trkpt>
    <trkpt lat="34.31063" lon="-117.12299"><ele>1438.0</ele></trkpt>
    <trkpt lat="34.31059" lon="-117.12301"><ele>1438.0</ele></trkpt>
    <trkpt lat="34.31054" lon="-117.12307"><ele>1438.0</ele></trkpt>
    <trkpt lat="34.31048" lon="-117.12311"><ele>1438.0</ele></trkpt>
    <trkpt lat="34.31043" lon="-117.12318"><ele>1436.0</ele></trkpt>
    <trkpt lat="34.31038" lon="-117.12325"><ele>1436.0</ele></trkpt>
    <trkpt lat="34.31035" lon="-117.12330"><ele>1436.0</ele></trkpt>
    <trkpt lat="34.31034" lon="-117.12331"><ele>1436.0</ele></trkpt>
    <trkpt lat="34.31030" lon="-117.12334"><ele>1436.0</ele></trkpt>
    <trkpt lat="34.31025" lon="-117.12335"><ele>1436.0</ele></trkpt>
    <trkpt lat="34.31021" lon="-117.12334"><ele>1436.0</ele></trkpt>
    <trkpt lat="34.31016" lon="-117.12328"><ele>1436.0</ele></trkpt>
    <trkpt lat="34.31013" lon="-117.12323"><ele>1436.0</ele></trkpt>
    <trkpt lat="34.31009" lon="-117.12316"><ele>1436.0</ele></trkpt>
    <trkpt lat="34.31004" lon="-117.12310"><ele>1436.0</ele></trkpt>
    <trkpt lat="34.30998" lon="-117.12306"><ele>1436.0</ele></trkpt>
    <trkpt lat="34.30993" lon="-117.12308"><ele>1436.0</ele></trkpt>
    <trkpt lat="34.30988" lon="-117.12310"><ele>1436.0</ele></trkpt>
    <trkpt lat="34.30984" lon="-117.12309"><ele>1436.0</ele></trkpt>
    <trkpt lat="34.30981" lon="-117.12301"><ele>1433.0</ele></trkpt>
    <trkpt lat="34.30980" lon="-117.12294"><ele>1433.0</ele></trkpt>
    <trkpt lat="34.30979" lon="-117.12290"><ele>1433.0</ele></trkpt>
    <trkpt lat="34.30976" lon="-117.12285"><ele>1433.0</ele></trkpt>
    <trkpt lat="34.30972" lon="-117.12283"><ele>1433.0</ele></trkpt>
    <trkpt lat="34.30965" lon="-117.12284"><ele>1433.0</ele></trkpt>
    <trkpt lat="34.30960" lon="-117.12285"><ele>1433.0</ele></trkpt>
    <trkpt lat="34.30954" lon="-117.12291"><ele>1433.0</ele></trkpt>
    <trkpt lat="34.30951" lon="-117.12299"><ele>1429.0</ele></trkpt>
    <trkpt lat="34.30948" lon="-117.12305"><ele>1429.0</ele></trkpt>
    <trkpt lat="34.30944" lon="-117.12309"><ele>1429.0</ele></trkpt>
    <trkpt lat="34.30941" lon="-117.12316"><ele>1429.0</ele></trkpt>
    <trkpt lat="34.30939" lon="-117.12323"><ele>1429.0</ele></trkpt>
    <trkpt lat="34.30937" lon="-117.12329"><ele>1429.0</ele></trkpt>
    <trkpt lat="34.30936" lon="-117.12335"><ele>1429.0</ele></trkpt>
    <trkpt lat="34.30932" lon="-117.12337"><ele>1429.0</ele></trkpt>
    <trkpt lat="34.30928" lon="-117.12337"><ele>1425.0</ele></trkpt>
    <trkpt lat="34.30923" lon="-117.12332"><ele>1425.0</ele></trkpt>
    <trkpt lat="34.30918" lon="-117.12330"><ele>1425.0</ele></trkpt>
    <trkpt lat="34.30915" lon="-117.12327"><ele>1425.0</ele></trkpt>
    <trkpt lat="34.30909" lon="-117.12326"><ele>1425.0</ele></trkpt>
    <trkpt lat="34.30904" lon="-117.12326"><ele>1425.0</ele></trkpt>
    <trkpt lat="34.30899" lon="-117.12324"><ele>1425.0</ele></trkpt>
    <trkpt lat="34.30891" lon="-117.12321"><ele>1412.0</ele></trkpt>
    <trkpt lat="34.30884" lon="-117.12319"><ele>1412.0</ele></trkpt>
    <trkpt lat="34.30877" lon="-117.12317"><ele>1412.0</ele></trkpt>
    <trkpt lat="34.30873" lon="-117.12315"><ele>1412.0</ele></trkpt>
    <trkpt lat="34.30869" lon="-117.12309"><ele>1412.0</ele></trkpt>
    <trkpt lat="34.30866" lon="-117.12304"><ele>1412.0</ele></trkpt>
    <trkpt lat="34.30861" lon="-117.12294"><ele>1412.0</ele></trkpt>
    <trkpt lat="34.30857" lon="-117.12284"><ele>1412.0</ele></trkpt>
    <trkpt lat="34.30854" lon="-117.12275"><ele>1412.0</ele></trkpt>
    <trkpt lat="34.30850" lon="-117.12266"><ele>1412.0</ele></trkpt>
    <trkpt lat="34.30848" lon="-117.12254"><ele>1412.0</ele></trkpt>
    <trkpt lat="34.30845" lon="-117.12240"><ele>1412.0</ele></trkpt>
    <trkpt lat="34.30844" lon="-117.12233"><ele>1412.0</ele></trkpt>
    <trkpt lat="34.30842" lon="-117.12224"><ele>1412.0</ele></trkpt>
    <trkpt lat="34.30840" lon="-117.12218"><ele>1412.0</ele></trkpt>
    <trkpt lat="34.30838" lon="-117.12213"><ele>1412.0</ele></trkpt>
    <trkpt lat="34.30834" lon="-117.12205"><ele>1414.0</ele></trkpt>
    <trkpt lat="34.30834" lon="-117.12205"><ele>1414.0</ele></trkpt>
    <trkpt lat="34.30833" lon="-117.12199"><ele>1414.0</ele></trkpt>
    <trkpt lat="34.30832" lon="-117.12193"><ele>1414.0</ele></trkpt>
    <trkpt lat="34.30829" lon="-117.12190"><ele>1414.0</ele></trkpt>
    <trkpt lat="34.30825" lon="-117.12190"><ele>1414.0</ele></trkpt>
    <trkpt lat="34.30820" lon="-117.12193"><ele>1414.0</ele></trkpt>
    <trkpt lat="34.30817" lon="-117.12197"><ele>1416.0</ele></trkpt>
    <trkpt lat="34.30816" lon="-117.12203"><ele>1416.0</ele></trkpt>
    <trkpt lat="34.30816" lon="-117.12209"><ele>1416.0</ele></trkpt>
    <trkpt lat="34.30816" lon="-117.12217"><ele>1416.0</ele></trkpt>
    <trkpt lat="34.30816" lon="-117.12225"><ele>1416.0</ele></trkpt>
    <trkpt lat="34.30818" lon="-117.12232"><ele>1416.0</ele></trkpt>
    <trkpt lat="34.30817" lon="-117.12238"><ele>1416.0</ele></trkpt>
    <trkpt lat="34.30815" lon="-117.12245"><ele>1416.0</ele></trkpt>
    <trkpt lat="34.30812" lon="-117.12251"><ele>1409.0</ele></trkpt>
    <trkpt lat="34.30810" lon="-117.12257"><ele>1409.0</ele></trkpt>
    <trkpt lat="34.30809" lon="-117.12265"><ele>1409.0</ele></trkpt>
    <trkpt lat="34.30809" lon="-117.12274"><ele>1409.0</ele></trkpt>
    <trkpt lat="34.30810" lon="-117.12281"><ele>1409.0</ele></trkpt>
    <trkpt lat="34.30811" lon="-117.12288"><ele>1409.0</ele></trkpt>
    <trkpt lat="34.30811" lon="-117.12297"><ele>1409.0</ele></trkpt>
    <trkpt lat="34.30810" lon="-117.12304"><ele>1409.0</ele></trkpt>
    <trkpt lat="34.30805" lon="-117.12310"><ele>1399.0</ele></trkpt>
    <trkpt lat="34.30801" lon="-117.12316"><ele>1399.0</ele></trkpt>
    <trkpt lat="34.30798" lon="-117.12321"><ele>1399.0</ele></trkpt>
    <trkpt lat="34.30792" lon="-117.12327"><ele>1399.0</ele></trkpt>
    <trkpt lat="34.30787" lon="-117.12330"><ele>1399.0</ele></trkpt>
    <trkpt lat="34.30783" lon="-117.12335"><ele>1399.0</ele></trkpt>
    <trkpt lat="34.30778" lon="-117.12341"><ele>1399.0</ele></trkpt>
    <trkpt lat="34.30774" lon="-117.12349"><ele>1394.0</ele></trkpt>
    <trkpt lat="34.30770" lon="-117.12355"><ele>1394.0</ele></trkpt>
    <trkpt lat="34.30767" lon="-117.12360"><ele>1394.0</ele></trkpt>
    <trkpt lat="34.30766" lon="-117.12362"><ele>1394.0</ele></trkpt>
    <trkpt lat="34.30763" lon="-117.12365"><ele>1394.0</ele></trkpt>
    <trkpt lat="34.30757" lon="-117.12367"><ele>1394.0</ele></trkpt>
    <trkpt lat="34.30751" lon="-117.12368"><ele>1394.0</ele></trkpt>
    <trkpt lat="34.30746" lon="-117.12366"><ele>1394.0</ele></trkpt>
    <trkpt lat="34.30744" lon="-117.12366"><ele>1392.0</ele></trkpt>
    <trkpt lat="34.30741" lon="-117.12365"><ele>1392.0</ele></trkpt>
    <trkpt lat="34.30737" lon="-117.12365"><ele>1392.0</ele></trkpt>
    <trkpt lat="34.30736" lon="-117.12367"><ele>1392.0</ele></trkpt>
    <trkpt lat="34.30735" lon="-117.12371"><ele>1392.0</ele></trkpt>
    <trkpt lat="34.30735" lon="-117.12372"><ele>1392.0</ele></trkpt>
    <trkpt lat="34.30734" lon="-117.12377"><ele>1392.0</ele></trkpt>
    <trkpt lat="34.30732" lon="-117.12382"><ele>1392.0</ele></trkpt>
    <trkpt lat="34.30728" lon="-117.12385"><ele>1385.0</ele></trkpt>
    <trkpt lat="34.30723" lon="-117.12387"><ele>1385.0</ele></trkpt>
    <trkpt lat="34.30717" lon="-117.12389"><ele>1385.0</ele></trkpt>
    <trkpt lat="34.30710" lon="-117.12391"><ele>1385.0</ele></trkpt>
    <trkpt lat="34.30706" lon="-117.12393"><ele>1385.0</ele></trkpt>
    <trkpt lat="34.30703" lon="-117.12394"><ele>1385.0</ele></trkpt>
    <trkpt lat="34.30697" lon="-117.12399"><ele>1385.0</ele></trkpt>
    <trkpt lat="34.30695" lon="-117.12401"><ele>1385.0</ele></trkpt>
    <trkpt lat="34.30691" lon="-117.12406"><ele>1374.0</ele></trkpt>
    <trkpt lat="34.30686" lon="-117.12412"><ele>1374.0</ele></trkpt>
    <trkpt lat="34.30680" lon="-117.12418"><ele>1374.0</ele></trkpt>
    <trkpt lat="34.30676" lon="-117.12419"><ele>1374.0</ele></trkpt>
    <trkpt lat="34.30675" lon="-117.12419"><ele>1374.0</ele></trkpt>
    <trkpt lat="34.30670" lon="-117.12422"><ele>1374.0</ele></trkpt>
    <trkpt lat="34.30664" lon="-117.12424"><ele>1374.0</ele></trkpt>
    <trkpt lat="34.30663" lon="-117.12425"><ele>1368.0</ele></trkpt>
    <trkpt lat="34.30658" lon="-117.12427"><ele>1368.0</ele></trkpt>
    <trkpt lat="34.30652" lon="-117.12428"><ele>1368.0</ele></trkpt>
    <trkpt lat="34.30644" lon="-117.12430"><ele>1368.0</ele></trkpt>
    <trkpt lat="34.30639" lon="-117.12431"><ele>1368.0</ele></trkpt>
    <trkpt lat="34.30632" lon="-117.12428"><ele>1368.0</ele></trkpt>
    <trkpt lat="34.30628" lon="-117.12421"><ele>1368.0</ele></trkpt>
    <trkpt lat="34.30625" lon="-117.12410"><ele>1368.0</ele></trkpt>
    <trkpt lat="34.30624" lon="-117.12403"><ele>1371.0</ele></trkpt>
    <trkpt lat="34.30624" lon="-117.12396"><ele>1371.0</ele></trkpt>
    <trkpt lat="34.30624" lon="-117.12395"><ele>1371.0</ele></trkpt>
    <trkpt lat="34.30623" lon="-117.12389"><ele>1371.0</ele></trkpt>
    <trkpt lat="34.30623" lon="-117.12387"><ele>1371.0</ele></trkpt>
    <trkpt lat="34.30622" lon="-117.12384"><ele>1371.0</ele></trkpt>
    <trkpt lat="34.30618" lon="-117.12379"><ele>1371.0</ele></trkpt>
    <trkpt lat="34.30614" lon="-117.12373"><ele>1371.0</ele></trkpt>
    <trkpt lat="34.30612" lon="-117.12364"><ele>1372.0</ele></trkpt>
    <trkpt lat="34.30610" lon="-117.12358"><ele>1372.0</ele></trkpt>
    <trkpt lat="34.30607" lon="-117.12358"><ele>1372.0</ele></trkpt>
    <trkpt lat="34.30599" lon="-117.12357"><ele>1372.0</ele></trkpt>
    <trkpt lat="34.30594" lon="-117.12357"><ele>1372.0</ele></trkpt>
    <trkpt lat="34.30589" lon="-117.12353"><ele>1372.0</ele></trkpt>
    <trkpt lat="34.30584" lon="-117.12346"><ele>1372.0</ele></trkpt>
    <trkpt lat="34.30582" lon="-117.12339"><ele>1375.0</ele></trkpt>
    <trkpt lat="34.30581" lon="-117.12335"><ele>1375.0</ele></trkpt>
    <trkpt lat="34.30581" lon="-117.12332"><ele>1375.0</ele></trkpt>
    <trkpt lat="34.30579" lon="-117.12327"><ele>1375.0</ele></trkpt>
    <trkpt lat="34.30576" lon="-117.12328"><ele>1375.0</ele></trkpt>
    <trkpt lat="34.30571" lon="-117.12329"><ele>1375.0</ele></trkpt>
    <trkpt lat="34.30567" lon="-117.12334"><ele>1375.0</ele></trkpt>
    <trkpt lat="34.30563" lon="-117.12338"><ele>1375.0</ele></trkpt>
    <trkpt lat="34.30560" lon="-117.12344"><ele>1369.0</ele></trkpt>
    <trkpt lat="34.30558" lon="-117.12351"><ele>1369.0</ele></trkpt>
    <trkpt lat="34.30557" lon="-117.12358"><ele>1369.0</ele></trkpt>
    <trkpt lat="34.30557" lon="-117.12368"><ele>1369.0</ele></trkpt>
    <trkpt lat="34.30557" lon="-117.12375"><ele>1369.0</ele></trkpt>
    <trkpt lat="34.30560" lon="-117.12383"><ele>1369.0</ele></trkpt>
    <trkpt lat="34.30561" lon="-117.12389"><ele>1369.0</ele></trkpt>
    <trkpt lat="34.30565" lon="-117.12395"><ele>1369.0</ele></trkpt>
    <trkpt lat="34.30570" lon="-117.12398"><ele>1358.0</ele></trkpt>
    <trkpt lat="34.30573" lon="-117.12403"><ele>1358.0</ele></trkpt>
    <trkpt lat="34.30574" lon="-117.12407"><ele>1358.0</ele></trkpt>
    <trkpt lat="34.30572" lon="-117.12412"><ele>1358.0</ele></trkpt>
    <trkpt lat="34.30572" lon="-117.12412"><ele>1358.0</ele></trkpt>
    <trkpt lat="34.30567" lon="-117.12414"><ele>1358.0</ele></trkpt>
    <trkpt lat="34.30560" lon="-117.12416"><ele>1358.0</ele></trkpt>
    <trkpt lat="34.30553" lon="-117.12418"><ele>1358.0</ele></trkpt>
    <trkpt lat="34.30546" lon="-117.12421"><ele>1357.0</ele></trkpt>
    <trkpt lat="34.30543" lon="-117.12423"><ele>1357.0</ele></trkpt>
    <trkpt lat="34.30539" lon="-117.12426"><ele>1357.0</ele></trkpt>
    <trkpt lat="34.30538" lon="-117.12427"><ele>1357.0</ele></trkpt>
    <trkpt lat="34.30537" lon="-117.12427"><ele>1357.0</ele></trkpt>
    <trkpt lat="34.30532" lon="-117.12431"><ele>1357.0</ele></trkpt>
    <trkpt lat="34.30527" lon="-117.12435"><ele>1357.0</ele></trkpt>
    <trkpt lat="34.30518" lon="-117.12443"><ele>1353.0</ele></trkpt>
    <trkpt lat="34.30516" lon="-117.12443"><ele>1353.0</ele></trkpt>
    <trkpt lat="34.30512" lon="-117.12447"><ele>1353.0</ele></trkpt>
    <trkpt lat="34.30505" lon="-117.12450"><ele>1353.0</ele></trkpt>
    <trkpt lat="34.30500" lon="-117.12451"><ele>1353.0</ele></trkpt>
    <trkpt lat="34.30493" lon="-117.12451"><ele>1353.0</ele></trkpt>
    <trkpt lat="34.30486" lon="-117.12450"><ele>1353.0</ele></trkpt>
    <trkpt lat="34.30479" lon="-117.12447"><ele>1353.0</ele></trkpt>
    <trkpt lat="34.30475" lon="-117.12445"><ele>1361.0</ele></trkpt>
    <trkpt lat="34.30472" lon="-117.12445"><ele>1361.0</ele></trkpt>
    <trkpt lat="34.30468" lon="-117.12445"><ele>1361.0</ele></trkpt>
    <trkpt lat="34.30466" lon="-117.12450"><ele>1361.0</ele></trkpt>
    <trkpt lat="34.30462" lon="-117.12457"><ele>1361.0</ele></trkpt>
    <trkpt lat="34.30456" lon="-117.12461"><ele>1361.0</ele></trkpt>
    <trkpt lat="34.30452" lon="-117.12464"><ele>1361.0</ele></trkpt>
    <trkpt lat="34.30451" lon="-117.12472"><ele>1361.0</ele></trkpt>
    <trkpt lat="34.30451" lon="-117.12483"><ele>1349.0</ele></trkpt>
    <trkpt lat="34.30450" lon="-117.12495"><ele>1349.0</ele></trkpt>
    <trkpt lat="34.30448" lon="-117.12506"><ele>1349.0</ele></trkpt>
    <trkpt lat="34.30447" lon="-117.12520"><ele>1349.0</ele></trkpt>
    <trkpt lat="34.30448" lon="-117.12531"><ele>1349.0</ele></trkpt>
    <trkpt lat="34.30449" lon="-117.12538"><ele>1349.0</ele></trkpt>
    <trkpt lat="34.30449" lon="-117.12541"><ele>1349.0</ele></trkpt>
    <trkpt lat="34.30448" lon="-117.12549"><ele>1343.0</ele></trkpt>
    <trkpt lat="34.30446" lon="-117.12556"><ele>1343.0</ele></trkpt>
    <trkpt lat="34.30442" lon="-117.12562"><ele>1343.0</ele></trkpt>
    <trkpt lat="34.30437" lon="-117.12566"><ele>1343.0</ele></trkpt>
    <trkpt lat="34.30432" lon="-117.12571"><ele>1343.0</ele></trkpt>
    <trkpt lat="34.30427" lon="-117.12578"><ele>1343.0</ele></trkpt>
    <trkpt lat="34.30423" lon="-117.12587"><ele>1343.0</ele></trkpt>
    <trkpt lat="34.30421" lon="-117.12591"><ele>1343.0</ele></trkpt>
    <trkpt lat="34.30419" lon="-117.12596"><ele>1341.0</ele></trkpt>
    <trkpt lat="34.30415" lon="-117.12600"><ele>1341.0</ele></trkpt>
    <trkpt lat="34.30414" lon="-117.12602"><ele>1341.0</ele></trkpt>
    <trkpt lat="34.30411" lon="-117.12604"><ele>1341.0</ele></trkpt>
    <trkpt lat="34.30409" lon="-117.12608"><ele>1341.0</ele></trkpt>
    <trkpt lat="34.30410" lon="-117.12613"><ele>1341.0</ele></trkpt>
    <trkpt lat="34.30412" lon="-117.12617"><ele>1341.0</ele></trkpt>
    <trkpt lat="34.30416" lon="-117.12622"><ele>1341.0</ele></trkpt>
    <trkpt lat="34.30418" lon="-117.12627"><ele>1332.0</ele></trkpt>
    <trkpt lat="34.30418" lon="-117.12628"><ele>1332.0</ele></trkpt>
    <trkpt lat="34.30420" lon="-117.12634"><ele>1332.0</ele></trkpt>
    <trkpt lat="34.30420" lon="-117.12640"><ele>1332.0</ele></trkpt>
    <trkpt lat="34.30418" lon="-117.12647"><ele>1332.0</ele></trkpt>
    <trkpt lat="34.30414" lon="-117.12653"><ele>1332.0</ele></trkpt>
    <trkpt lat="34.30410" lon="-117.12657"><ele>1332.0</ele></trkpt>
    <trkpt lat="34.30407" lon="-117.12662"><ele>1332.0</ele></trkpt>
    <trkpt lat="34.30407" lon="-117.12668"><ele>1325.0</ele></trkpt>
    <trkpt lat="34.30407" lon="-117.12672"><ele>1325.0</ele></trkpt>
    <trkpt lat="34.30410" lon="-117.12677"><ele>1325.0</ele></trkpt>
    <trkpt lat="34.30415" lon="-117.12684"><ele>1325.0</ele></trkpt>
    <trkpt lat="34.30419" lon="-117.12689"><ele>1325.0</ele></trkpt>
    <trkpt lat="34.30420" lon="-117.12694"><ele>1325.0</ele></trkpt>
    <trkpt lat="34.30419" lon="-117.12700"><ele>1325.0</ele></trkpt>
    <trkpt lat="34.30417" lon="-117.12704"><ele>1319.0</ele></trkpt>
    <trkpt lat="34.30416" lon="-117.12705"><ele>1319.0</ele></trkpt>
    <trkpt lat="34.30413" lon="-117.12712"><ele>1319.0</ele></trkpt>
    <trkpt lat="34.30411" lon="-117.12719"><ele>1319.0</ele></trkpt>
    <trkpt lat="34.30408" lon="-117.12726"><ele>1319.0</ele></trkpt>
    <trkpt lat="34.30408" lon="-117.12727"><ele>1319.0</ele></trkpt>
    <trkpt lat="34.30404" lon="-117.12733"><ele>1319.0</ele></trkpt>
    <trkpt lat="34.30403" lon="-117.12735"><ele>1319.0</ele></trkpt>
    <trkpt lat="34.30399" lon="-117.12740"><ele>1313.0</ele></trkpt>
    <trkpt lat="34.30395" lon="-117.12746"><ele>1313.0</ele></trkpt>
    <trkpt lat="34.30392" lon="-117.12753"><ele>1313.0</ele></trkpt>
    <trkpt lat="34.30389" lon="-117.12759"><ele>1313.0</ele></trkpt>
    <trkpt lat="34.30386" lon="-117.12764"><ele>1313.0</ele></trkpt>
    <trkpt lat="34.30381" lon="-117.12769"><ele>1313.0</ele></trkpt>
    <trkpt lat="34.30374" lon="-117.12777"><ele>1313.0</ele></trkpt>
    <trkpt lat="34.30370" lon="-117.12782"><ele>1313.0</ele></trkpt>
    <trkpt lat="34.30365" lon="-117.12785"><ele>1309.0</ele></trkpt>
    <trkpt lat="34.30359" lon="-117.12783"><ele>1309.0</ele></trkpt>
    <trkpt lat="34.30353" lon="-117.12779"><ele>1309.0</ele></trkpt>
    <trkpt lat="34.30349" lon="-117.12773"><ele>1309.0</ele></trkpt>
    <trkpt lat="34.30345" lon="-117.12768"><ele>1309.0</ele></trkpt>
    <trkpt lat="34.30340" lon="-117.12764"><ele>1309.0</ele></trkpt>
    <trkpt lat="34.30334" lon="-117.12758"><ele>1309.0</ele></trkpt>
    <trkpt lat="34.30329" lon="-117.12753"><ele>1319.0</ele></trkpt>
    <trkpt lat="34.30325" lon="-117.12747"><ele>1319.0</ele></trkpt>
    <trkpt lat="34.30322" lon="-117.12739"><ele>1319.0</ele></trkpt>
    <trkpt lat="34.30319" lon="-117.12729"><ele>1319.0</ele></trkpt>
    <trkpt lat="34.30319" lon="-117.12722"><ele>1319.0</ele></trkpt>
    <trkpt lat="34.30314" lon="-117.12716"><ele>1319.0</ele></trkpt>
    <trkpt lat="34.30309" lon="-117.12714"><ele>1319.0</ele></trkpt>
    <trkpt lat="34.30305" lon="-117.12719"><ele>1319.0</ele></trkpt>
    <trkpt lat="34.30301" lon="-117.12724"><ele>1306.0</ele></trkpt>
    <trkpt lat="34.30297" lon="-117.12731"><ele>1306.0</ele></trkpt>
    <trkpt lat="34.30292" lon="-117.12738"><ele>1306.0</ele></trkpt>
    <trkpt lat="34.30283" lon="-117.12753"><ele>1306.0</ele></trkpt>
    <trkpt lat="34.30278" lon="-117.12759"><ele>1306.0</ele></trkpt>
    <trkpt lat="34.30272" lon="-117.12762"><ele>1306.0</ele></trkpt>
    <trkpt lat="34.30271" lon="-117.12762"><ele>1306.0</ele></trkpt>
    <trkpt lat="34.30266" lon="-117.12762"><ele>1306.0</ele></trkpt>
    <trkpt lat="34.30260" lon="-117.12762"><ele>1298.0</ele></trkpt>
    <trkpt lat="34.30252" lon="-117.12763"><ele>1298.0</ele></trkpt>
    <trkpt lat="34.30249" lon="-117.12763"><ele>1298.0</ele></trkpt>
    <trkpt lat="34.30245" lon="-117.12763"><ele>1298.0</ele></trkpt>
    <trkpt lat="34.30237" lon="-117.12762"><ele>1298.0</ele></trkpt>
    <trkpt lat="34.30232" lon="-117.12760"><ele>1298.0</ele></trkpt>
    <trkpt lat="34.30228" lon="-117.12758"><ele>1298.0</ele></trkpt>
    <trkpt lat="34.30223" lon="-117.12758"><ele>1294.0</ele></trkpt>
    <trkpt lat="34.30219" lon="-117.12759"><ele>1294.0</ele></trkpt>
    <trkpt lat="34.30213" lon="-117.12760"><ele>1294.0</ele></trkpt>
    <trkpt lat="34.30209" lon="-117.12760"><ele>1294.0</ele></trkpt>
    <trkpt lat="34.30206" lon="-117.12758"><ele>1294.0</ele></trkpt>
    <trkpt lat="34.30203" lon="-117.12755"><ele>1294.0</ele></trkpt>
    <trkpt lat="34.30201" lon="-117.12750"><ele>1294.0</ele></trkpt>
    <trkpt lat="34.30201" lon="-117.12746"><ele>1294.0</ele></trkpt>
    <trkpt lat="34.30200" lon="-117.12741"><ele>1293.0</ele></trkpt>
    <trkpt lat="34.30198" lon="-117.12740"><ele>1293.0</ele></trkpt>
    <trkpt lat="34.30195" lon="-117.12742"><ele>1293.0</ele></trkpt>
    <trkpt lat="34.30191" lon="-117.12745"><ele>1293.0</ele></trkpt>
    <trkpt lat="34.30187" lon="-117.12748"><ele>1293.0</ele></trkpt>
    <trkpt lat="34.30186" lon="-117.12750"><ele>1293.0</ele></trkpt>
    <trkpt lat="34.30185" lon="-117.12753"><ele>1293.0</ele></trkpt>
    <trkpt lat="34.30184" lon="-117.12761"><ele>1293.0</ele></trkpt>
    <trkpt lat="34.30184" lon="-117.12770"><ele>1290.0</ele></trkpt>
    <trkpt lat="34.30183" lon="-117.12776"><ele>1290.0</ele></trkpt>
    <trkpt lat="34.30181" lon="-117.12783"><ele>1290.0</ele></trkpt>
    <trkpt lat="34.30181" lon="-117.12783"><ele>1290.0</ele></trkpt>
    <trkpt lat="34.30182" lon="-117.12789"><ele>1290.0</ele></trkpt>
    <trkpt lat="34.30185" lon="-117.12796"><ele>1290.0</ele></trkpt>
    <trkpt lat="34.30189" lon="-117.12802"><ele>1290.0</ele></trkpt>
    <trkpt lat="34.30193" lon="-117.12810"><ele>1290.0</ele></trkpt>
    <trkpt lat="34.30193" lon="-117.12819"><ele>1289.0</ele></trkpt>
    <trkpt lat="34.30191" lon="-117.12823"><ele>1289.0</ele></trkpt>
    <trkpt lat="34.30188" lon="-117.12823"><ele>1289.0</ele></trkpt>
    <trkpt lat="34.30183" lon="-117.12823"><ele>1289.0</ele></trkpt>
    <trkpt lat="34.30171" lon="-117.12826"><ele>1289.0</ele></trkpt>
    <trkpt lat="34.30162" lon="-117.12827"><ele>1289.0</ele></trkpt>
    <trkpt lat="34.30155" lon="-117.12831"><ele>1289.0</ele></trkpt>
    <trkpt lat="34.30149" lon="-117.12838"><ele>1301.0</ele></trkpt>
    <trkpt lat="34.30144" lon="-117.12845"><ele>1301.0</ele></trkpt>
    <trkpt lat="34.30139" lon="-117.12854"><ele>1301.0</ele></trkpt>
    <trkpt lat="34.30133" lon="-117.12860"><ele>1301.0</ele></trkpt>
    <trkpt lat="34.30127" lon="-117.12863"><ele>1301.0</ele></trkpt>
    <trkpt lat="34.30121" lon="-117.12865"><ele>1301.0</ele></trkpt>
    <trkpt lat="34.30120" lon="-117.12865"><ele>1301.0</ele></trkpt>
    <trkpt lat="34.30114" lon="-117.12864"><ele>1301.0</ele></trkpt>
    <trkpt lat="34.30104" lon="-117.12856"><ele>1310.0</ele></trkpt>
    <trkpt lat="34.30103" lon="-117.12855"><ele>1310.0</ele></trkpt>
    <trkpt lat="34.30078" lon="-117.12830"><ele>1310.0</ele></trkpt>
    <trkpt lat="34.30063" lon="-117.12813"><ele>1310.0</ele></trkpt>
  </trkseg></trk>
</gpx>
