<?xml version="1.0" encoding="UTF-8"?>
<gpx version="1.1" creator="dirt-bikes build-area-routes (MVUM geometry + SRTM elevation)" xmlns="http://www.topografix.com/GPX/1/1">
  <trk><name>East Camino Cielo (OHV segment)</name><trkseg>
    <trkpt lat="34.47963" lon="-119.43876"><ele>1385.0</ele></trkpt>
    <trkpt lat="34.47946" lon="-119.43912"><ele>1385.0</ele></trkpt>
    <trkpt lat="34.47917" lon="-119.43990"><ele>1385.0</ele></trkpt>
    <trkpt lat="34.47905" lon="-119.44031"><ele>1385.0</ele></trkpt>
    <trkpt lat="34.47889" lon="-119.44102"><ele>1385.0</ele></trkpt>
    <trkpt lat="34.47871" lon="-119.44159"><ele>1369.0</ele></trkpt>
    <trkpt lat="34.47859" lon="-119.44185"><ele>1369.0</ele></trkpt>
    <trkpt lat="34.47844" lon="-119.44206"><ele>1369.0</ele></trkpt>
    <trkpt lat="34.47827" lon="-119.44220"><ele>1369.0</ele></trkpt>
    <trkpt lat="34.47819" lon="-119.44228"><ele>1369.0</ele></trkpt>
    <trkpt lat="34.47807" lon="-119.44239"><ele>1369.0</ele></trkpt>
    <trkpt lat="34.47796" lon="-119.44256"><ele>1369.0</ele></trkpt>
    <trkpt lat="34.47788" lon="-119.44282"><ele>1401.0</ele></trkpt>
    <trkpt lat="34.47772" lon="-119.44328"><ele>1401.0</ele></trkpt>
    <trkpt lat="34.47762" lon="-119.44347"><ele>1401.0</ele></trkpt>
    <trkpt lat="34.47751" lon="-119.44368"><ele>1401.0</ele></trkpt>
    <trkpt lat="34.47741" lon="-119.44392"><ele>1401.0</ele></trkpt>
    <trkpt lat="34.47737" lon="-119.44434"><ele>1401.0</ele></trkpt>
    <trkpt lat="34.47735" lon="-119.44472"><ele>1401.0</ele></trkpt>
    <trkpt lat="34.47730" lon="-119.44490"><ele>1401.0</ele></trkpt>
    <trkpt lat="34.47715" lon="-119.44504"><ele>1403.0</ele></trkpt>
    <trkpt lat="34.47656" lon="-119.44514"><ele>1403.0</ele></trkpt>
    <trkpt lat="34.47620" lon="-119.44524"><ele>1403.0</ele></trkpt>
    <trkpt lat="34.47605" lon="-119.44530"><ele>1403.0</ele></trkpt>
    <trkpt lat="34.47593" lon="-119.44559"><ele>1403.0</ele></trkpt>
    <trkpt lat="34.47583" lon="-119.44603"><ele>1403.0</ele></trkpt>
    <trkpt lat="34.47581" lon="-119.44618"><ele>1403.0</ele></trkpt>
    <trkpt lat="34.47572" lon="-119.44652"><ele>1403.0</ele></trkpt>
    <trkpt lat="34.47565" lon="-119.44683"><ele>1387.0</ele></trkpt>
    <trkpt lat="34.47563" lon="-119.44701"><ele>1387.0</ele></trkpt>
    <trkpt lat="34.47560" lon="-119.44725"><ele>1387.0</ele></trkpt>
    <trkpt lat="34.47569" lon="-119.44761"><ele>1387.0</ele></trkpt>
    <trkpt lat="34.47592" lon="-119.44816"><ele>1387.0</ele></trkpt>
    <trkpt lat="34.47622" lon="-119.44898"><ele>1387.0</ele></trkpt>
    <trkpt lat="34.47632" lon="-119.44947"><ele>1387.0</ele></trkpt>
    <trkpt lat="34.47630" lon="-119.44981"><ele>1356.0</ele></trkpt>
    <trkpt lat="34.47623" lon="-119.45009"><ele>1356.0</ele></trkpt>
    <trkpt lat="34.47617" lon="-119.45048"><ele>1356.0</ele></trkpt>
    <trkpt lat="34.47621" lon="-119.45099"><ele>1356.0</ele></trkpt>
    <trkpt lat="34.47639" lon="-119.45238"><ele>1356.0</ele></trkpt>
    <trkpt lat="34.47658" lon="-119.45353"><ele>1356.0</ele></trkpt>
    <trkpt lat="34.47681" lon="-119.45469"><ele>1356.0</ele></trkpt>
    <trkpt lat="34.47688" lon="-119.45479"><ele>1356.0</ele></trkpt>
    <trkpt lat="34.47696" lon="-119.45490"><ele>1326.0</ele></trkpt>
    <trkpt lat="34.47706" lon="-119.45500"><ele>1326.0</ele></trkpt>
    <trkpt lat="34.47716" lon="-119.45509"><ele>1326.0</ele></trkpt>
    <trkpt lat="34.47720" lon="-119.45520"><ele>1326.0</ele></trkpt>
    <trkpt lat="34.47716" lon="-119.45526"><ele>1326.0</ele></trkpt>
    <trkpt lat="34.47705" lon="-119.45534"><ele>1326.0</ele></trkpt>
    <trkpt lat="34.47694" lon="-119.45537"><ele>1326.0</ele></trkpt>
    <trkpt lat="34.47680" lon="-119.45536"><ele>1326.0</ele></trkpt>
    <trkpt lat="34.47645" lon="-119.45506"><ele>1311.0</ele></trkpt>
    <trkpt lat="34.47637" lon="-119.45507"><ele>1311.0</ele></trkpt>
    <trkpt lat="34.47634" lon="-119.45511"><ele>1311.0</ele></trkpt>
    <trkpt lat="34.47633" lon="-119.45521"><ele>1311.0</ele></trkpt>
    <trkpt lat="34.47637" lon="-119.45546"><ele>1311.0</ele></trkpt>
    <trkpt lat="34.47649" lon="-119.45595"><ele>1311.0</ele></trkpt>
    <trkpt lat="34.47673" lon="-119.45678"><ele>1311.0</ele></trkpt>
    <trkpt lat="34.47680" lon="-119.45722"><ele>1267.0</ele></trkpt>
    <trkpt lat="34.47684" lon="-119.45776"><ele>1267.0</ele></trkpt>
    <trkpt lat="34.47675" lon="-119.45827"><ele>1267.0</ele></trkpt>
    <trkpt lat="34.47654" lon="-119.45908"><ele>1267.0</ele></trkpt>
    <trkpt lat="34.47627" lon="-119.45976"><ele>1267.0</ele></trkpt>
    <trkpt lat="34.47595" lon="-119.46037"><ele>1267.0</ele></trkpt>
    <trkpt lat="34.47582" lon="-119.46073"><ele>1267.0</ele></trkpt>
    <trkpt lat="34.47571" lon="-119.46121"><ele>1267.0</ele></trkpt>
    <trkpt lat="34.47556" lon="-119.46178"><ele>1284.0</ele></trkpt>
    <trkpt lat="34.47546" lon="-119.46215"><ele>1284.0</ele></trkpt>
    <trkpt lat="34.47544" lon="-119.46238"><ele>1284.0</ele></trkpt>
    <trkpt lat="34.47547" lon="-119.46272"><ele>1284.0</ele></trkpt>
    <trkpt lat="34.47544" lon="-119.46344"><ele>1284.0</ele></trkpt>
    <trkpt lat="34.47539" lon="-119.46395"><ele>1284.0</ele></trkpt>
    <trkpt lat="34.47524" lon="-119.46451"><ele>1284.0</ele></trkpt>
    <trkpt lat="34.47496" lon="-119.46525"><ele>1284.0</ele></trkpt>
    <trkpt lat="34.47475" lon="-119.46612"><ele>1247.0</ele></trkpt>
    <trkpt lat="34.47462" lon="-119.46663"><ele>1247.0</ele></trkpt>
    <trkpt lat="34.47447" lon="-119.46716"><ele>1247.0</ele></trkpt>
    <trkpt lat="34.47440" lon="-119.46767"><ele>1247.0</ele></trkpt>
    <trkpt lat="34.47429" lon="-119.46810"><ele>1247.0</ele></trkpt>
    <trkpt lat="34.47420" lon="-119.46832"><ele>1247.0</ele></trkpt>
    <trkpt lat="34.47410" lon="-119.46853"><ele>1247.0</ele></trkpt>
    <trkpt lat="34.47404" lon="-119.46876"><ele>1253.0</ele></trkpt>
    <trkpt lat="34.47396" lon="-119.46901"><ele>1253.0</ele></trkpt>
    <trkpt lat="34.47394" lon="-119.46957"><ele>1253.0</ele></trkpt>
    <trkpt lat="34.47389" lon="-119.47025"><ele>1253.0</ele></trkpt>
    <trkpt lat="34.47374" lon="-119.47087"><ele>1253.0</ele></trkpt>
    <trkpt lat="34.47351" lon="-119.47157"><ele>1253.0</ele></trkpt>
    <trkpt lat="34.47341" lon="-119.47170"><ele>1253.0</ele></trkpt>
    <trkpt lat="34.47331" lon="-119.47180"><ele>1253.0</ele></trkpt>
    <trkpt lat="34.47319" lon="-119.47189"><ele>1253.0</ele></trkpt>
    <trkpt lat="34.47298" lon="-119.47199"><ele>1253.0</ele></trkpt>
    <trkpt lat="34.47266" lon="-119.47223"><ele>1253.0</ele></trkpt>
    <trkpt lat="34.47222" lon="-119.47253"><ele>1253.0</ele></trkpt>
    <trkpt lat="34.47182" lon="-119.47267"><ele>1253.0</ele></trkpt>
    <trkpt lat="34.47145" lon="-119.47276"><ele>1253.0</ele></trkpt>
    <trkpt lat="34.47112" lon="-119.47286"><ele>1253.0</ele></trkpt>
    <trkpt lat="34.47097" lon="-119.47296"><ele>1253.0</ele></trkpt>
    <trkpt lat="34.47083" lon="-119.47309"><ele>1217.0</ele></trkpt>
    <trkpt lat="34.47058" lon="-119.47332"><ele>1217.0</ele></trkpt>
    <trkpt lat="34.47042" lon="-119.47343"><ele>1217.0</ele></trkpt>
    <trkpt lat="34.47024" lon="-119.47348"><ele>1217.0</ele></trkpt>
    <trkpt lat="34.46999" lon="-119.47360"><ele>1217.0</ele></trkpt>
    <trkpt lat="34.46975" lon="-119.47385"><ele>1217.0</ele></trkpt>
    <trkpt lat="34.46954" lon="-119.47427"><ele>1217.0</ele></trkpt>
    <trkpt lat="34.46944" lon="-119.47450"><ele>1209.0</ele></trkpt>
    <trkpt lat="34.46944" lon="-119.47470"><ele>1209.0</ele></trkpt>
    <trkpt lat="34.46948" lon="-119.47493"><ele>1209.0</ele></trkpt>
    <trkpt lat="34.46953" lon="-119.47512"><ele>1209.0</ele></trkpt>
    <trkpt lat="34.46966" lon="-119.47532"><ele>1209.0</ele></trkpt>
    <trkpt lat="34.46988" lon="-119.47548"><ele>1209.0</ele></trkpt>
    <trkpt lat="34.47004" lon="-119.47565"><ele>1209.0</ele></trkpt>
    <trkpt lat="34.47022" lon="-119.47606"><ele>1209.0</ele></trkpt>
    <trkpt lat="34.47047" lon="-119.47681"><ele>1177.0</ele></trkpt>
    <trkpt lat="34.47055" lon="-119.47715"><ele>1177.0</ele></trkpt>
    <trkpt lat="34.47072" lon="-119.47737"><ele>1177.0</ele></trkpt>
    <trkpt lat="34.47089" lon="-119.47766"><ele>1177.0</ele></trkpt>
    <trkpt lat="34.47109" lon="-119.47821"><ele>1177.0</ele></trkpt>
    <trkpt lat="34.47145" lon="-119.47888"><ele>1177.0</ele></trkpt>
    <trkpt lat="34.47168" lon="-119.47954"><ele>1177.0</ele></trkpt>
    <trkpt lat="34.47167" lon="-119.47985"><ele>1177.0</ele></trkpt>
    <trkpt lat="34.47158" lon="-119.48030"><ele>1140.0</ele></trkpt>
    <trkpt lat="34.47158" lon="-119.48056"><ele>1140.0</ele></trkpt>
    <trkpt lat="34.47161" lon="-119.48108"><ele>1140.0</ele></trkpt>
    <trkpt lat="34.47169" lon="-119.48183"><ele>1140.0</ele></trkpt>
    <trkpt lat="34.47162" lon="-119.48208"><ele>1140.0</ele></trkpt>
    <trkpt lat="34.47158" lon="-119.48226"><ele>1140.0</ele></trkpt>
    <trkpt lat="34.47154" lon="-119.48254"><ele>1140.0</ele></trkpt>
    <trkpt lat="34.47148" lon="-119.48267"><ele>1131.0</ele></trkpt>
    <trkpt lat="34.47134" lon="-119.48278"><ele>1131.0</ele></trkpt>
    <trkpt lat="34.47108" lon="-119.48296"><ele>1131.0</ele></trkpt>
    <trkpt lat="34.47088" lon="-119.48322"><ele>1131.0</ele></trkpt>
    <trkpt lat="34.47071" lon="-119.48361"><ele>1131.0</ele></trkpt>
    <trkpt lat="34.47065" lon="-119.48372"><ele>1131.0</ele></trkpt>
    <trkpt lat="34.47059" lon="-119.48377"><ele>1131.0</ele></trkpt>
    <trkpt lat="34.47024" lon="-119.48391"><ele>1131.0</ele></trkpt>
    <trkpt lat="34.47001" lon="-119.48413"><ele>1109.0</ele></trkpt>
    <trkpt lat="34.46990" lon="-119.48435"><ele>1109.0</ele></trkpt>
    <trkpt lat="34.46978" lon="-119.48449"><ele>1109.0</ele></trkpt>
    <trkpt lat="34.46965" lon="-119.48457"><ele>1109.0</ele></trkpt>
    <trkpt lat="34.46927" lon="-119.48464"><ele>1109.0</ele></trkpt>
    <trkpt lat="34.46913" lon="-119.48476"><ele>1109.0</ele></trkpt>
    <trkpt lat="34.46906" lon="-119.48492"><ele>1109.0</ele></trkpt>
    <trkpt lat="34.46892" lon="-119.48543"><ele>1109.0</ele></trkpt>
    <trkpt lat="34.46889" lon="-119.48546"><ele>1081.0</ele></trkpt>
    <trkpt lat="34.46879" lon="-119.48547"><ele>1081.0</ele></trkpt>
    <trkpt lat="34.46871" lon="-119.48531"><ele>1081.0</ele></trkpt>
    <trkpt lat="34.46848" lon="-119.48513"><ele>1081.0</ele></trkpt>
    <trkpt lat="34.46788" lon="-119.48498"><ele>1081.0</ele></trkpt>
    <trkpt lat="34.46734" lon="-119.48491"><ele>1081.0</ele></trkpt>
    <trkpt lat="34.46696" lon="-119.48493"><ele>1081.0</ele></trkpt>
    <trkpt lat="34.46685" lon="-119.48496"><ele>1089.0</ele></trkpt>
    <trkpt lat="34.46679" lon="-119.48505"><ele>1089.0</ele></trkpt>
    <trkpt lat="34.46673" lon="-119.48528"><ele>1089.0</ele></trkpt>
    <trkpt lat="34.46668" lon="-119.48534"><ele>1089.0</ele></trkpt>
    <trkpt lat="34.46656" lon="-119.48541"><ele>1089.0</ele></trkpt>
    <trkpt lat="34.46649" lon="-119.48558"><ele>1089.0</ele></trkpt>
    <trkpt lat="34.46641" lon="-119.48603"><ele>1089.0</ele></trkpt>
    <trkpt lat="34.46624" lon="-119.48693"><ele>1089.0</ele></trkpt>
    <trkpt lat="34.46611" lon="-119.48725"><ele>1096.0</ele></trkpt>
    <trkpt lat="34.46604" lon="-119.48746"><ele>1096.0</ele></trkpt>
    <trkpt lat="34.46592" lon="-119.48766"><ele>1096.0</ele></trkpt>
    <trkpt lat="34.46592" lon="-119.48784"><ele>1096.0</ele></trkpt>
    <trkpt lat="34.46610" lon="-119.48864"><ele>1096.0</ele></trkpt>
    <trkpt lat="34.46615" lon="-119.48872"><ele>1096.0</ele></trkpt>
    <trkpt lat="34.46627" lon="-119.48881"><ele>1096.0</ele></trkpt>
    <trkpt lat="34.46669" lon="-119.48900"><ele>1096.0</ele></trkpt>
    <trkpt lat="34.46675" lon="-119.48910"><ele>1081.0</ele></trkpt>
    <trkpt lat="34.46676" lon="-119.48931"><ele>1081.0</ele></trkpt>
    <trkpt lat="34.46666" lon="-119.48980"><ele>1081.0</ele></trkpt>
    <trkpt lat="34.46644" lon="-119.49051"><ele>1081.0</ele></trkpt>
    <trkpt lat="34.46636" lon="-119.49101"><ele>1081.0</ele></trkpt>
    <trkpt lat="34.46631" lon="-119.49118"><ele>1081.0</ele></trkpt>
    <trkpt lat="34.46634" lon="-119.49150"><ele>1081.0</ele></trkpt>
    <trkpt lat="34.46649" lon="-119.49211"><ele>1081.0</ele></trkpt>
    <trkpt lat="34.46648" lon="-119.49231"><ele>1111.0</ele></trkpt>
    <trkpt lat="34.46632" lon="-119.49286"><ele>1111.0</ele></trkpt>
    <trkpt lat="34.46615" lon="-119.49315"><ele>1111.0</ele></trkpt>
    <trkpt lat="34.46606" lon="-119.49320"><ele>1111.0</ele></trkpt>
    <trkpt lat="34.46597" lon="-119.49322"><ele>1111.0</ele></trkpt>
    <trkpt lat="34.46589" lon="-119.49324"><ele>1111.0</ele></trkpt>
    <trkpt lat="34.46586" lon="-119.49337"><ele>1111.0</ele></trkpt>
    <trkpt lat="34.46581" lon="-119.49365"><ele>1121.0</ele></trkpt>
    <trkpt lat="34.46579" lon="-119.49420"><ele>1121.0</ele></trkpt>
    <trkpt lat="34.46576" lon="-119.49430"><ele>1121.0</ele></trkpt>
    <trkpt lat="34.46563" lon="-119.49445"><ele>1121.0</ele></trkpt>
    <trkpt lat="34.46559" lon="-119.49456"><ele>1121.0</ele></trkpt>
    <trkpt lat="34.46558" lon="-119.49468"><ele>1121.0</ele></trkpt>
    <trkpt lat="34.46555" lon="-119.49512"><ele>1121.0</ele></trkpt>
    <trkpt lat="34.46546" lon="-119.49593"><ele>1121.0</ele></trkpt>
    <trkpt lat="34.46545" lon="-119.49628"><ele>1141.0</ele></trkpt>
    <trkpt lat="34.46553" lon="-119.49652"><ele>1141.0</ele></trkpt>
    <trkpt lat="34.46558" lon="-119.49664"><ele>1141.0</ele></trkpt>
    <trkpt lat="34.46567" lon="-119.49676"><ele>1141.0</ele></trkpt>
    <trkpt lat="34.46574" lon="-119.49690"><ele>1141.0</ele></trkpt>
    <trkpt lat="34.46574" lon="-119.49703"><ele>1141.0</ele></trkpt>
    <trkpt lat="34.46571" lon="-119.49717"><ele>1141.0</ele></trkpt>
    <trkpt lat="34.46562" lon="-119.49751"><ele>1141.0</ele></trkpt>
    <trkpt lat="34.46556" lon="-119.49839"><ele>1151.0</ele></trkpt>
    <trkpt lat="34.46552" lon="-119.49853"><ele>1151.0</ele></trkpt>
    <trkpt lat="34.46537" lon="-119.49905"><ele>1151.0</ele></trkpt>
    <trkpt lat="34.46528" lon="-119.49929"><ele>1151.0</ele></trkpt>
    <trkpt lat="34.46516" lon="-119.49962"><ele>1151.0</ele></trkpt>
    <trkpt lat="34.46514" lon="-119.50002"><ele>1151.0</ele></trkpt>
    <trkpt lat="34.46521" lon="-119.50034"><ele>1151.0</ele></trkpt>
    <trkpt lat="34.46527" lon="-119.50049"><ele>1137.0</ele></trkpt>
    <trkpt lat="34.46538" lon="-119.50057"><ele>1137.0</ele></trkpt>
    <trkpt lat="34.46553" lon="-119.50065"><ele>1137.0</ele></trkpt>
    <trkpt lat="34.46576" lon="-119.50075"><ele>1137.0</ele></trkpt>
    <trkpt lat="34.46580" lon="-119.50079"><ele>1137.0</ele></trkpt>
    <trkpt lat="34.46595" lon="-119.50098"><ele>1137.0</ele></trkpt>
    <trkpt lat="34.46607" lon="-119.50119"><ele>1137.0</ele></trkpt>
    <trkpt lat="34.46624" lon="-119.50150"><ele>1137.0</ele></trkpt>
    <trkpt lat="34.46633" lon="-119.50169"><ele>1126.0</ele></trkpt>
    <trkpt lat="34.46642" lon="-119.50197"><ele>1126.0</ele></trkpt>
    <trkpt lat="34.46644" lon="-119.50212"><ele>1126.0</ele></trkpt>
    <trkpt lat="34.46644" lon="-119.50219"><ele>1126.0</ele></trkpt>
    <trkpt lat="34.46644" lon="-119.50234"><ele>1126.0</ele></trkpt>
    <trkpt lat="34.46644" lon="-119.50265"><ele>1126.0</ele></trkpt>
    <trkpt lat="34.46641" lon="-119.50295"><ele>1126.0</ele></trkpt>
    <trkpt lat="34.46648" lon="-119.50328"><ele>1126.0</ele></trkpt>
    <trkpt lat="34.46666" lon="-119.50374"><ele>1161.0</ele></trkpt>
    <trkpt lat="34.46681" lon="-119.50414"><ele>1161.0</ele></trkpt>
    <trkpt lat="34.46688" lon="-119.50451"><ele>1161.0</ele></trkpt>
    <trkpt lat="34.46695" lon="-119.50491"><ele>1161.0</ele></trkpt>
    <trkpt lat="34.46705" lon="-119.50525"><ele>1161.0</ele></trkpt>
    <trkpt lat="34.46723" lon="-119.50555"><ele>1161.0</ele></trkpt>
    <trkpt lat="34.46743" lon="-119.50574"><ele>1161.0</ele></trkpt>
    <trkpt lat="34.46757" lon="-119.50595"><ele>1157.0</ele></trkpt>
    <trkpt lat="34.46768" lon="-119.50617"><ele>1157.0</ele></trkpt>
    <trkpt lat="34.46780" lon="-119.50641"><ele>1157.0</ele></trkpt>
    <trkpt lat="34.46797" lon="-119.50660"><ele>1157.0</ele></trkpt>
    <trkpt lat="34.46817" lon="-119.50678"><ele>1157.0</ele></trkpt>
    <trkpt lat="34.46830" lon="-119.50676"><ele>1157.0</ele></trkpt>
    <trkpt lat="34.46845" lon="-119.50670"><ele>1157.0</ele></trkpt>
    <trkpt lat="34.46858" lon="-119.50662"><ele>1157.0</ele></trkpt>
    <trkpt lat="34.46875" lon="-119.50659"><ele>1159.0</ele></trkpt>
    <trkpt lat="34.46890" lon="-119.50665"><ele>1159.0</ele></trkpt>
    <trkpt lat="34.46902" lon="-119.50679"><ele>1159.0</ele></trkpt>
    <trkpt lat="34.46907" lon="-119.50694"><ele>1159.0</ele></trkpt>
    <trkpt lat="34.46912" lon="-119.50719"><ele>1159.0</ele></trkpt>
    <trkpt lat="34.46921" lon="-119.50741"><ele>1159.0</ele></trkpt>
    <trkpt lat="34.46934" lon="-119.50758"><ele>1159.0</ele></trkpt>
    <trkpt lat="34.46941" lon="-119.50771"><ele>1159.0</ele></trkpt>
    <trkpt lat="34.46945" lon="-119.50801"><ele>1159.0</ele></trkpt>
    <trkpt lat="34.46944" lon="-119.50834"><ele>1159.0</ele></trkpt>
    <trkpt lat="34.46940" lon="-119.50866"><ele>1159.0</ele></trkpt>
    <trkpt lat="34.46933" lon="-119.50898"><ele>1159.0</ele></trkpt>
    <trkpt lat="34.46929" lon="-119.50941"><ele>1159.0</ele></trkpt>
    <trkpt lat="34.46927" lon="-119.50979"><ele>1159.0</ele></trkpt>
    <trkpt lat="34.46918" lon="-119.51022"><ele>1159.0</ele></trkpt>
    <trkpt lat="34.46910" lon="-119.51067"><ele>1173.0</ele></trkpt>
    <trkpt lat="34.46901" lon="-119.51107"><ele>1173.0</ele></trkpt>
    <trkpt lat="34.46889" lon="-119.51135"><ele>1173.0</ele></trkpt>
    <trkpt lat="34.46879" lon="-119.51167"><ele>1173.0</ele></trkpt>
    <trkpt lat="34.46871" lon="-119.51200"><ele>1173.0</ele></trkpt>
    <trkpt lat="34.46862" lon="-119.51227"><ele>1173.0</ele></trkpt>
    <trkpt lat="34.46850" lon="-119.51254"><ele>1173.0</ele></trkpt>
    <trkpt lat="34.46848" lon="-119.51276"><ele>1173.0</ele></trkpt>
    <trkpt lat="34.46855" lon="-119.51297"><ele>1164.0</ele></trkpt>
    <trkpt lat="34.46865" lon="-119.51324"><ele>1164.0</ele></trkpt>
    <trkpt lat="34.46876" lon="-119.51354"><ele>1164.0</ele></trkpt>
    <trkpt lat="34.46894" lon="-119.51387"><ele>1164.0</ele></trkpt>
    <trkpt lat="34.46911" lon="-119.51417"><ele>1164.0</ele></trkpt>
    <trkpt lat="34.46928" lon="-119.51446"><ele>1164.0</ele></trkpt>
    <trkpt lat="34.46934" lon="-119.51477"><ele>1164.0</ele></trkpt>
    <trkpt lat="34.46943" lon="-119.51505"><ele>1164.0</ele></trkpt>
    <trkpt lat="34.46954" lon="-119.51522"><ele>1169.0</ele></trkpt>
    <trkpt lat="34.46978" lon="-119.51540"><ele>1169.0</ele></trkpt>
    <trkpt lat="34.47000" lon="-119.51558"><ele>1169.0</ele></trkpt>
    <trkpt lat="34.47007" lon="-119.51579"><ele>1169.0</ele></trkpt>
    <trkpt lat="34.47007" lon="-119.51603"><ele>1169.0</ele></trkpt>
    <trkpt lat="34.47004" lon="-119.51636"><ele>1169.0</ele></trkpt>
    <trkpt lat="34.47004" lon="-119.51674"><ele>1169.0</ele></trkpt>
    <trkpt lat="34.47006" lon="-119.51722"><ele>1137.0</ele></trkpt>
    <trkpt lat="34.47007" lon="-119.51767"><ele>1137.0</ele></trkpt>
    <trkpt lat="34.47009" lon="-119.51805"><ele>1137.0</ele></trkpt>
    <trkpt lat="34.47005" lon="-119.51828"><ele>1137.0</ele></trkpt>
    <trkpt lat="34.46998" lon="-119.51839"><ele>1137.0</ele></trkpt>
    <trkpt lat="34.46992" lon="-119.51816"><ele>1137.0</ele></trkpt>
    <trkpt lat="34.46985" lon="-119.51794"><ele>1137.0</ele></trkpt>
    <trkpt lat="34.46975" lon="-119.51776"><ele>1137.0</ele></trkpt>
    <trkpt lat="34.46969" lon="-119.51756"><ele>1131.0</ele></trkpt>
    <trkpt lat="34.46968" lon="-119.51737"><ele>1131.0</ele></trkpt>
    <trkpt lat="34.46964" lon="-119.51724"><ele>1131.0</ele></trkpt>
    <trkpt lat="34.46952" lon="-119.51723"><ele>1131.0</ele></trkpt>
    <trkpt lat="34.46944" lon="-119.51725"><ele>1131.0</ele></trkpt>
    <trkpt lat="34.46937" lon="-119.51737"><ele>1131.0</ele></trkpt>
    <trkpt lat="34.46930" lon="-119.51752"><ele>1131.0</ele></trkpt>
    <trkpt lat="34.46911" lon="-119.51780"><ele>1131.0</ele></trkpt>
    <trkpt lat="34.46884" lon="-119.51821"><ele>1087.0</ele></trkpt>
    <trkpt lat="34.46865" lon="-119.51856"><ele>1087.0</ele></trkpt>
    <trkpt lat="34.46852" lon="-119.51892"><ele>1087.0</ele></trkpt>
    <trkpt lat="34.46847" lon="-119.51934"><ele>1087.0</ele></trkpt>
    <trkpt lat="34.46839" lon="-119.51974"><ele>1087.0</ele></trkpt>
    <trkpt lat="34.46833" lon="-119.52024"><ele>1087.0</ele></trkpt>
    <trkpt lat="34.46837" lon="-119.52069"><ele>1087.0</ele></trkpt>
    <trkpt lat="34.46834" lon="-119.52109"><ele>1095.0</ele></trkpt>
    <trkpt lat="34.46827" lon="-119.52142"><ele>1095.0</ele></trkpt>
    <trkpt lat="34.46825" lon="-119.52168"><ele>1095.0</ele></trkpt>
    <trkpt lat="34.46819" lon="-119.52197"><ele>1095.0</ele></trkpt>
    <trkpt lat="34.46809" lon="-119.52212"><ele>1095.0</ele></trkpt>
    <trkpt lat="34.46793" lon="-119.52228"><ele>1095.0</ele></trkpt>
    <trkpt lat="34.46764" lon="-119.52244"><ele>1095.0</ele></trkpt>
    <trkpt lat="34.46720" lon="-119.52272"><ele>1095.0</ele></trkpt>
    <trkpt lat="34.46670" lon="-119.52310"><ele>1058.0</ele></trkpt>
    <trkpt lat="34.46639" lon="-119.52334"><ele>1058.0</ele></trkpt>
    <trkpt lat="34.46605" lon="-119.52366"><ele>1058.0</ele></trkpt>
    <trkpt lat="34.46584" lon="-119.52391"><ele>1058.0</ele></trkpt>
    <trkpt lat="34.46570" lon="-119.52417"><ele>1058.0</ele></trkpt>
    <trkpt lat="34.46566" lon="-119.52445"><ele>1058.0</ele></trkpt>
    <trkpt lat="34.46566" lon="-119.52471"><ele>1058.0</ele></trkpt>
    <trkpt lat="34.46573" lon="-119.52501"><ele>1058.0</ele></trkpt>
    <trkpt lat="34.46585" lon="-119.52523"><ele>1061.0</ele></trkpt>
    <trkpt lat="34.46607" lon="-119.52545"><ele>1061.0</ele></trkpt>
    <trkpt lat="34.46620" lon="-119.52567"><ele>1061.0</ele></trkpt>
    <trkpt lat="34.46627" lon="-119.52598"><ele>1061.0</ele></trkpt>
    <trkpt lat="34.46626" lon="-119.52626"><ele>1061.0</ele></trkpt>
    <trkpt lat="34.46621" lon="-119.52655"><ele>1061.0</ele></trkpt>
    <trkpt lat="34.46625" lon="-119.52674"><ele>1061.0</ele></trkpt>
    <trkpt lat="34.46634" lon="-119.52692"><ele>1069.0</ele></trkpt>
    <trkpt lat="34.46646" lon="-119.52701"><ele>1069.0</ele></trkpt>
    <trkpt lat="34.46667" lon="-119.52705"><ele>1069.0</ele></trkpt>
    <trkpt lat="34.46690" lon="-119.52712"><ele>1069.0</ele></trkpt>
    <trkpt lat="34.46721" lon="-119.52729"><ele>1069.0</ele></trkpt>
    <trkpt lat="34.46738" lon="-119.52747"><ele>1069.0</ele></trkpt>
    <trkpt lat="34.46739" lon="-119.52766"><ele>1069.0</ele></trkpt>
    <trkpt lat="34.46736" lon="-119.52791"><ele>1069.0</ele></trkpt>
    <trkpt lat="34.46740" lon="-119.52809"><ele>1078.0</ele></trkpt>
    <trkpt lat="34.46742" lon="-119.52833"><ele>1078.0</ele></trkpt>
    <trkpt lat="34.46736" lon="-119.52857"><ele>1078.0</ele></trkpt>
    <trkpt lat="34.46725" lon="-119.52893"><ele>1078.0</ele></trkpt>
    <trkpt lat="34.46723" lon="-119.52920"><ele>1078.0</ele></trkpt>
    <trkpt lat="34.46730" lon="-119.52943"><ele>1078.0</ele></trkpt>
    <trkpt lat="34.46745" lon="-119.52972"><ele>1078.0</ele></trkpt>
    <trkpt lat="34.46758" lon="-119.53006"><ele>1078.0</ele></trkpt>
    <trkpt lat="34.46769" lon="-119.53045"><ele>1139.0</ele></trkpt>
    <trkpt lat="34.46782" lon="-119.53093"><ele>1139.0</ele></trkpt>
    <trkpt lat="34.46796" lon="-119.53118"><ele>1139.0</ele></trkpt>
    <trkpt lat="34.46812" lon="-119.53139"><ele>1139.0</ele></trkpt>
    <trkpt lat="34.46814" lon="-119.53169"><ele>1139.0</ele></trkpt>
    <trkpt lat="34.46808" lon="-119.53186"><ele>1139.0</ele></trkpt>
    <trkpt lat="34.46793" lon="-119.53215"><ele>1139.0</ele></trkpt>
    <trkpt lat="34.46789" lon="-119.53255"><ele>1154.0</ele></trkpt>
    <trkpt lat="34.46790" lon="-119.53293"><ele>1154.0</ele></trkpt>
    <trkpt lat="34.46799" lon="-119.53330"><ele>1154.0</ele></trkpt>
    <trkpt lat="34.46811" lon="-119.53361"><ele>1154.0</ele></trkpt>
    <trkpt lat="34.46834" lon="-119.53397"><ele>1154.0</ele></trkpt>
    <trkpt lat="34.46850" lon="-119.53422"><ele>1154.0</ele></trkpt>
    <trkpt lat="34.46858" lon="-119.53461"><ele>1154.0</ele></trkpt>
    <trkpt lat="34.46862" lon="-119.53513"><ele>1154.0</ele></trkpt>
    <trkpt lat="34.46865" lon="-119.53553"><ele>1152.0</ele></trkpt>
    <trkpt lat="34.46861" lon="-119.53594"><ele>1152.0</ele></trkpt>
    <trkpt lat="34.46855" lon="-119.53639"><ele>1152.0</ele></trkpt>
    <trkpt lat="34.46853" lon="-119.53668"><ele>1152.0</ele></trkpt>
    <trkpt lat="34.46860" lon="-119.53697"><ele>1152.0</ele></trkpt>
    <trkpt lat="34.46875" lon="-119.53725"><ele>1152.0</ele></trkpt>
    <trkpt lat="34.46896" lon="-119.53753"><ele>1152.0</ele></trkpt>
    <trkpt lat="34.46920" lon="-119.53780"><ele>1152.0</ele></trkpt>
    <trkpt lat="34.46950" lon="-119.53815"><ele>1169.0</ele></trkpt>
    <trkpt lat="34.46977" lon="-119.53857"><ele>1169.0</ele></trkpt>
    <trkpt lat="34.46997" lon="-119.53898"><ele>1169.0</ele></trkpt>
    <trkpt lat="34.47009" lon="-119.53936"><ele>1169.0</ele></trkpt>
    <trkpt lat="34.47010" lon="-119.53987"><ele>1169.0</ele></trkpt>
    <trkpt lat="34.47006" lon="-119.54027"><ele>1169.0</ele></trkpt>
    <trkpt lat="34.47013" lon="-119.54061"><ele>1169.0</ele></trkpt>
    <trkpt lat="34.47020" lon="-119.54077"><ele>1188.0</ele></trkpt>
    <trkpt lat="34.47019" lon="-119.54087"><ele>1188.0</ele></trkpt>
    <trkpt lat="34.47014" lon="-119.54105"><ele>1188.0</ele></trkpt>
    <trkpt lat="34.47002" lon="-119.54130"><ele>1188.0</ele></trkpt>
    <trkpt lat="34.46984" lon="-119.54162"><ele>1188.0</ele></trkpt>
    <trkpt lat="34.46977" lon="-119.54190"><ele>1188.0</ele></trkpt>
    <trkpt lat="34.46969" lon="-119.54233"><ele>1188.0</ele></trkpt>
    <trkpt lat="34.46963" lon="-119.54277"><ele>1188.0</ele></trkpt>
    <trkpt lat="34.46948" lon="-119.54332"><ele>1169.0</ele></trkpt>
    <trkpt lat="34.46942" lon="-119.54371"><ele>1169.0</ele></trkpt>
    <trkpt lat="34.46939" lon="-119.54419"><ele>1169.0</ele></trkpt>
    <trkpt lat="34.46939" lon="-119.54459"><ele>1169.0</ele></trkpt>
    <trkpt lat="34.46936" lon="-119.54497"><ele>1169.0</ele></trkpt>
    <trkpt lat="34.46930" lon="-119.54543"><ele>1169.0</ele></trkpt>
    <trkpt lat="34.46927" lon="-119.54583"><ele>1169.0</ele></trkpt>
    <trkpt lat="34.46920" lon="-119.54620"><ele>1169.0</ele></trkpt>
    <trkpt lat="34.46905" lon="-119.54641"><ele>1161.0</ele></trkpt>
    <trkpt lat="34.46887" lon="-119.54664"><ele>1161.0</ele></trkpt>
    <trkpt lat="34.46867" lon="-119.54684"><ele>1161.0</ele></trkpt>
    <trkpt lat="34.46853" lon="-119.54704"><ele>1161.0</ele></trkpt>
    <trkpt lat="34.46845" lon="-119.54731"><ele>1161.0</ele></trkpt>
    <trkpt lat="34.46840" lon="-119.54763"><ele>1161.0</ele></trkpt>
    <trkpt lat="34.46838" lon="-119.54806"><ele>1161.0</ele></trkpt>
    <trkpt lat="34.46832" lon="-119.54839"><ele>1151.0</ele></trkpt>
    <trkpt lat="34.46823" lon="-119.54871"><ele>1151.0</ele></trkpt>
    <trkpt lat="34.46825" lon="-119.54892"><ele>1151.0</ele></trkpt>
    <trkpt lat="34.46830" lon="-119.54917"><ele>1151.0</ele></trkpt>
    <trkpt lat="34.46823" lon="-119.54941"><ele>1151.0</ele></trkpt>
    <trkpt lat="34.46814" lon="-119.54967"><ele>1151.0</ele></trkpt>
    <trkpt lat="34.46811" lon="-119.54997"><ele>1151.0</ele></trkpt>
    <trkpt lat="34.46811" lon="-119.55040"><ele>1151.0</ele></trkpt>
    <trkpt lat="34.46815" lon="-119.55104"><ele>1113.0</ele></trkpt>
    <trkpt lat="34.46814" lon="-119.55151"><ele>1113.0</ele></trkpt>
    <trkpt lat="34.46813" lon="-119.55191"><ele>1113.0</ele></trkpt>
    <trkpt lat="34.46823" lon="-119.55210"><ele>1113.0</ele></trkpt>
    <trkpt lat="34.46826" lon="-119.55230"><ele>1113.0</ele></trkpt>
    <trkpt lat="34.46826" lon="-119.55258"><ele>1113.0</ele></trkpt>
    <trkpt lat="34.46833" lon="-119.55266"><ele>1113.0</ele></trkpt>
    <trkpt lat="34.46839" lon="-119.55279"><ele>1113.0</ele></trkpt>
    <trkpt lat="34.46841" lon="-119.55294"><ele>1102.0</ele></trkpt>
    <trkpt lat="34.46835" lon="-119.55310"><ele>1102.0</ele></trkpt>
    <trkpt lat="34.46830" lon="-119.55328"><ele>1102.0</ele></trkpt>
    <trkpt lat="34.46831" lon="-119.55353"><ele>1102.0</ele></trkpt>
    <trkpt lat="34.46836" lon="-119.55370"><ele>1102.0</ele></trkpt>
    <trkpt lat="34.46845" lon="-119.55400"><ele>1102.0</ele></trkpt>
    <trkpt lat="34.46856" lon="-119.55420"><ele>1102.0</ele></trkpt>
    <trkpt lat="34.46862" lon="-119.55433"><ele>1074.0</ele></trkpt>
    <trkpt lat="34.46859" lon="-119.55446"><ele>1074.0</ele></trkpt>
    <trkpt lat="34.46854" lon="-119.55470"><ele>1074.0</ele></trkpt>
    <trkpt lat="34.46854" lon="-119.55506"><ele>1074.0</ele></trkpt>
    <trkpt lat="34.46858" lon="-119.55554"><ele>1074.0</ele></trkpt>
    <trkpt lat="34.46864" lon="-119.55594"><ele>1074.0</ele></trkpt>
    <trkpt lat="34.46874" lon="-119.55611"><ele>1074.0</ele></trkpt>
    <trkpt lat="34.46892" lon="-119.55621"><ele>1074.0</ele></trkpt>
    <trkpt lat="34.46905" lon="-119.55633"><ele>1063.0</ele></trkpt>
    <trkpt lat="34.46910" lon="-119.55658"><ele>1063.0</ele></trkpt>
    <trkpt lat="34.46905" lon="-119.55678"><ele>1063.0</ele></trkpt>
    <trkpt lat="34.46895" lon="-119.55689"><ele>1063.0</ele></trkpt>
    <trkpt lat="34.46874" lon="-119.55704"><ele>1063.0</ele></trkpt>
    <trkpt lat="34.46859" lon="-119.55709"><ele>1063.0</ele></trkpt>
    <trkpt lat="34.46846" lon="-119.55699"><ele>1063.0</ele></trkpt>
    <trkpt lat="34.46834" lon="-119.55672"><ele>1063.0</ele></trkpt>
    <trkpt lat="34.46826" lon="-119.55638"><ele>1057.0</ele></trkpt>
    <trkpt lat="34.46818" lon="-119.55601"><ele>1057.0</ele></trkpt>
    <trkpt lat="34.46813" lon="-119.55554"><ele>1057.0</ele></trkpt>
    <trkpt lat="34.46810" lon="-119.55539"><ele>1057.0</ele></trkpt>
    <trkpt lat="34.46806" lon="-119.55531"><ele>1057.0</ele></trkpt>
    <trkpt lat="34.46794" lon="-119.55512"><ele>1057.0</ele></trkpt>
    <trkpt lat="34.46775" lon="-119.55495"><ele>1057.0</ele></trkpt>
    <trkpt lat="34.46764" lon="-119.55485"><ele>1060.0</ele></trkpt>
    <trkpt lat="34.46748" lon="-119.55472"><ele>1060.0</ele></trkpt>
    <trkpt lat="34.46733" lon="-119.55428"><ele>1060.0</ele></trkpt>
    <trkpt lat="34.46729" lon="-119.55390"><ele>1060.0</ele></trkpt>
    <trkpt lat="34.46735" lon="-119.55359"><ele>1060.0</ele></trkpt>
    <trkpt lat="34.46742" lon="-119.55324"><ele>1060.0</ele></trkpt>
    <trkpt lat="34.46741" lon="-119.55312"><ele>1060.0</ele></trkpt>
    <trkpt lat="34.46726" lon="-119.55304"><ele>1060.0</ele></trkpt>
    <trkpt lat="34.46713" lon="-119.55301"><ele>1047.0</ele></trkpt>
    <trkpt lat="34.46692" lon="-119.55288"><ele>1047.0</ele></trkpt>
    <trkpt lat="34.46683" lon="-119.55270"><ele>1047.0</ele></trkpt>
    <trkpt lat="34.46681" lon="-119.55248"><ele>1047.0</ele></trkpt>
    <trkpt lat="34.46686" lon="-119.55218"><ele>1047.0</ele></trkpt>
    <trkpt lat="34.46691" lon="-119.55186"><ele>1047.0</ele></trkpt>
    <trkpt lat="34.46693" lon="-119.55161"><ele>1047.0</ele></trkpt>
    <trkpt lat="34.46683" lon="-119.55143"><ele>1047.0</ele></trkpt>
    <trkpt lat="34.46665" lon="-119.55131"><ele>1033.0</ele></trkpt>
    <trkpt lat="34.46639" lon="-119.55123"><ele>1033.0</ele></trkpt>
    <trkpt lat="34.46627" lon="-119.55114"><ele>1033.0</ele></trkpt>
    <trkpt lat="34.46621" lon="-119.55099"><ele>1033.0</ele></trkpt>
    <trkpt lat="34.46623" lon="-119.55080"><ele>1033.0</ele></trkpt>
    <trkpt lat="34.46623" lon="-119.55065"><ele>1033.0</ele></trkpt>
    <trkpt lat="34.46614" lon="-119.55050"><ele>1033.0</ele></trkpt>
    <trkpt lat="34.46596" lon="-119.55038"><ele>1018.0</ele></trkpt>
    <trkpt lat="34.46568" lon="-119.55024"><ele>1018.0</ele></trkpt>
    <trkpt lat="34.46545" lon="-119.55007"><ele>1018.0</ele></trkpt>
    <trkpt lat="34.46539" lon="-119.54998"><ele>1018.0</ele></trkpt>
    <trkpt lat="34.46534" lon="-119.54991"><ele>1018.0</ele></trkpt>
    <trkpt lat="34.46532" lon="-119.54992"><ele>1018.0</ele></trkpt>
    <trkpt lat="34.46521" lon="-119.54984"><ele>1018.0</ele></trkpt>
    <trkpt lat="34.46508" lon="-119.54977"><ele>1018.0</ele></trkpt>
    <trkpt lat="34.46488" lon="-119.54972"><ele>1015.0</ele></trkpt>
    <trkpt lat="34.46473" lon="-119.54970"><ele>1015.0</ele></trkpt>
    <trkpt lat="34.46462" lon="-119.54972"><ele>1015.0</ele></trkpt>
    <trkpt lat="34.46452" lon="-119.54978"><ele>1015.0</ele></trkpt>
    <trkpt lat="34.46443" lon="-119.54992"><ele>1015.0</ele></trkpt>
    <trkpt lat="34.46439" lon="-119.55005"><ele>1015.0</ele></trkpt>
    <trkpt lat="34.46432" lon="-119.55028"><ele>1015.0</ele></trkpt>
    <trkpt lat="34.46429" lon="-119.55048"><ele>1015.0</ele></trkpt>
    <trkpt lat="34.46434" lon="-119.55064"><ele>1008.0</ele></trkpt>
    <trkpt lat="34.46435" lon="-119.55087"><ele>1008.0</ele></trkpt>
    <trkpt lat="34.46432" lon="-119.55114"><ele>1008.0</ele></trkpt>
    <trkpt lat="34.46422" lon="-119.55140"><ele>1008.0</ele></trkpt>
    <trkpt lat="34.46416" lon="-119.55160"><ele>1008.0</ele></trkpt>
    <trkpt lat="34.46417" lon="-119.55178"><ele>1008.0</ele></trkpt>
    <trkpt lat="34.46420" lon="-119.55203"><ele>1008.0</ele></trkpt>
    <trkpt lat="34.46421" lon="-119.55225"><ele>988.0</ele></trkpt>
    <trkpt lat="34.46418" lon="-119.55244"><ele>988.0</ele></trkpt>
    <trkpt lat="34.46411" lon="-119.55266"><ele>988.0</ele></trkpt>
    <trkpt lat="34.46406" lon="-119.55294"><ele>988.0</ele></trkpt>
    <trkpt lat="34.46403" lon="-119.55320"><ele>988.0</ele></trkpt>
    <trkpt lat="34.46402" lon="-119.55348"><ele>988.0</ele></trkpt>
    <trkpt lat="34.46397" lon="-119.55378"><ele>988.0</ele></trkpt>
    <trkpt lat="34.46397" lon="-119.55410"><ele>988.0</ele></trkpt>
    <trkpt lat="34.46400" lon="-119.55451"><ele>952.0</ele></trkpt>
    <trkpt lat="34.46407" lon="-119.55496"><ele>952.0</ele></trkpt>
    <trkpt lat="34.46410" lon="-119.55533"><ele>952.0</ele></trkpt>
    <trkpt lat="34.46412" lon="-119.55578"><ele>952.0</ele></trkpt>
    <trkpt lat="34.46415" lon="-119.55620"><ele>952.0</ele></trkpt>
    <trkpt lat="34.46415" lon="-119.55655"><ele>952.0</ele></trkpt>
    <trkpt lat="34.46417" lon="-119.55715"><ele>952.0</ele></trkpt>
    <trkpt lat="34.46418" lon="-119.55741"><ele>952.0</ele></trkpt>
    <trkpt lat="34.46418" lon="-119.55790"><ele>919.0</ele></trkpt>
    <trkpt lat="34.46417" lon="-119.55824"><ele>919.0</ele></trkpt>
    <trkpt lat="34.46412" lon="-119.55854"><ele>919.0</ele></trkpt>
    <trkpt lat="34.46412" lon="-119.55869"><ele>919.0</ele></trkpt>
    <trkpt lat="34.46410" lon="-119.55881"><ele>919.0</ele></trkpt>
    <trkpt lat="34.46416" lon="-119.55902"><ele>919.0</ele></trkpt>
    <trkpt lat="34.46425" lon="-119.55933"><ele>919.0</ele></trkpt>
    <trkpt lat="34.46436" lon="-119.55969"><ele>925.0</ele></trkpt>
    <trkpt lat="34.46443" lon="-119.55994"><ele>925.0</ele></trkpt>
    <trkpt lat="34.46445" lon="-119.56014"><ele>925.0</ele></trkpt>
    <trkpt lat="34.46443" lon="-119.56034"><ele>925.0</ele></trkpt>
    <trkpt lat="34.46450" lon="-119.56050"><ele>925.0</ele></trkpt>
    <trkpt lat="34.46459" lon="-119.56063"><ele>925.0</ele></trkpt>
    <trkpt lat="34.46468" lon="-119.56081"><ele>925.0</ele></trkpt>
    <trkpt lat="34.46473" lon="-119.56093"><ele>925.0</ele></trkpt>
    <trkpt lat="34.46475" lon="-119.56114"><ele>921.0</ele></trkpt>
    <trkpt lat="34.46473" lon="-119.56129"><ele>921.0</ele></trkpt>
    <trkpt lat="34.46475" lon="-119.56146"><ele>921.0</ele></trkpt>
    <trkpt lat="34.46479" lon="-119.56156"><ele>921.0</ele></trkpt>
    <trkpt lat="34.46485" lon="-119.56173"><ele>921.0</ele></trkpt>
    <trkpt lat="34.46488" lon="-119.56191"><ele>921.0</ele></trkpt>
    <trkpt lat="34.46488" lon="-119.56215"><ele>921.0</ele></trkpt>
    <trkpt lat="34.46491" lon="-119.56232"><ele>921.0</ele></trkpt>
    <trkpt lat="34.46498" lon="-119.56242"><ele>927.0</ele></trkpt>
    <trkpt lat="34.46513" lon="-119.56254"><ele>927.0</ele></trkpt>
    <trkpt lat="34.46521" lon="-119.56269"><ele>927.0</ele></trkpt>
    <trkpt lat="34.46530" lon="-119.56304"><ele>927.0</ele></trkpt>
    <trkpt lat="34.46534" lon="-119.56329"><ele>927.0</ele></trkpt>
    <trkpt lat="34.46544" lon="-119.56340"><ele>927.0</ele></trkpt>
    <trkpt lat="34.46558" lon="-119.56343"><ele>927.0</ele></trkpt>
    <trkpt lat="34.46575" lon="-119.56346"><ele>927.0</ele></trkpt>
    <trkpt lat="34.46584" lon="-119.56350"><ele>927.0</ele></trkpt>
    <trkpt lat="34.46591" lon="-119.56359"><ele>927.0</ele></trkpt>
    <trkpt lat="34.46597" lon="-119.56370"><ele>927.0</ele></trkpt>
    <trkpt lat="34.46606" lon="-119.56384"><ele>927.0</ele></trkpt>
    <trkpt lat="34.46618" lon="-119.56397"><ele>927.0</ele></trkpt>
    <trkpt lat="34.46627" lon="-119.56405"><ele>927.0</ele></trkpt>
    <trkpt lat="34.46636" lon="-119.56421"><ele>927.0</ele></trkpt>
    <trkpt lat="34.46649" lon="-119.56439"><ele>928.0</ele></trkpt>
    <trkpt lat="34.46671" lon="-119.56456"><ele>928.0</ele></trkpt>
    <trkpt lat="34.46680" lon="-119.56469"><ele>928.0</ele></trkpt>
    <trkpt lat="34.46681" lon="-119.56489"><ele>928.0</ele></trkpt>
    <trkpt lat="34.46677" lon="-119.56514"><ele>928.0</ele></trkpt>
    <trkpt lat="34.46677" lon="-119.56531"><ele>928.0</ele></trkpt>
    <trkpt lat="34.46677" lon="-119.56549"><ele>928.0</ele></trkpt>
    <trkpt lat="34.46671" lon="-119.56569"><ele>928.0</ele></trkpt>
    <trkpt lat="34.46669" lon="-119.56588"><ele>929.0</ele></trkpt>
    <trkpt lat="34.46672" lon="-119.56599"><ele>929.0</ele></trkpt>
    <trkpt lat="34.46683" lon="-119.56606"><ele>929.0</ele></trkpt>
    <trkpt lat="34.46694" lon="-119.56615"><ele>929.0</ele></trkpt>
    <trkpt lat="34.46706" lon="-119.56626"><ele>929.0</ele></trkpt>
    <trkpt lat="34.46720" lon="-119.56648"><ele>929.0</ele></trkpt>
    <trkpt lat="34.46726" lon="-119.56663"><ele>929.0</ele></trkpt>
    <trkpt lat="34.46722" lon="-119.56677"><ele>929.0</ele></trkpt>
    <trkpt lat="34.46721" lon="-119.56697"><ele>921.0</ele></trkpt>
    <trkpt lat="34.46727" lon="-119.56713"><ele>921.0</ele></trkpt>
    <trkpt lat="34.46730" lon="-119.56731"><ele>921.0</ele></trkpt>
    <trkpt lat="34.46727" lon="-119.56747"><ele>921.0</ele></trkpt>
    <trkpt lat="34.46721" lon="-119.56761"><ele>921.0</ele></trkpt>
    <trkpt lat="34.46713" lon="-119.56777"><ele>921.0</ele></trkpt>
    <trkpt lat="34.46715" lon="-119.56789"><ele>921.0</ele></trkpt>
    <trkpt lat="34.46726" lon="-119.56805"><ele>913.0</ele></trkpt>
    <trkpt lat="34.46742" lon="-119.56824"><ele>913.0</ele></trkpt>
    <trkpt lat="34.46742" lon="-119.56837"><ele>913.0</ele></trkpt>
    <trkpt lat="34.46742" lon="-119.56854"><ele>913.0</ele></trkpt>
    <trkpt lat="34.46744" lon="-119.56874"><ele>913.0</ele></trkpt>
    <trkpt lat="34.46739" lon="-119.56886"><ele>913.0</ele></trkpt>
    <trkpt lat="34.46730" lon="-119.56895"><ele>913.0</ele></trkpt>
    <trkpt lat="34.46722" lon="-119.56907"><ele>913.0</ele></trkpt>
    <trkpt lat="34.46727" lon="-119.56918"><ele>899.0</ele></trkpt>
    <trkpt lat="34.46735" lon="-119.56925"><ele>899.0</ele></trkpt>
    <trkpt lat="34.46751" lon="-119.56929"><ele>899.0</ele></trkpt>
    <trkpt lat="34.46789" lon="-119.56935"><ele>899.0</ele></trkpt>
    <trkpt lat="34.46818" lon="-119.56939"><ele>899.0</ele></trkpt>
    <trkpt lat="34.46851" lon="-119.56948"><ele>899.0</ele></trkpt>
    <trkpt lat="34.46864" lon="-119.56958"><ele>899.0</ele></trkpt>
    <trkpt lat="34.46863" lon="-119.56971"><ele>899.0</ele></trkpt>
    <trkpt lat="34.46852" lon="-119.56985"><ele>893.0</ele></trkpt>
    <trkpt lat="34.46841" lon="-119.57003"><ele>893.0</ele></trkpt>
    <trkpt lat="34.46840" lon="-119.57015"><ele>893.0</ele></trkpt>
    <trkpt lat="34.46848" lon="-119.57020"><ele>893.0</ele></trkpt>
    <trkpt lat="34.46863" lon="-119.57021"><ele>893.0</ele></trkpt>
    <trkpt lat="34.46885" lon="-119.57025"><ele>893.0</ele></trkpt>
    <trkpt lat="34.46897" lon="-119.57030"><ele>893.0</ele></trkpt>
    <trkpt lat="34.46907" lon="-119.57052"><ele>893.0</ele></trkpt>
    <trkpt lat="34.46923" lon="-119.57082"><ele>893.0</ele></trkpt>
    <trkpt lat="34.46938" lon="-119.57110"><ele>893.0</ele></trkpt>
    <trkpt lat="34.46948" lon="-119.57114"><ele>893.0</ele></trkpt>
    <trkpt lat="34.46953" lon="-119.57108"><ele>893.0</ele></trkpt>
    <trkpt lat="34.46953" lon="-119.57090"><ele>893.0</ele></trkpt>
    <trkpt lat="34.46951" lon="-119.57074"><ele>893.0</ele></trkpt>
    <trkpt lat="34.46948" lon="-119.57049"><ele>893.0</ele></trkpt>
    <trkpt lat="34.46949" lon="-119.57013"><ele>884.0</ele></trkpt>
    <trkpt lat="34.46951" lon="-119.56977"><ele>884.0</ele></trkpt>
    <trkpt lat="34.46951" lon="-119.56940"><ele>884.0</ele></trkpt>
    <trkpt lat="34.46948" lon="-119.56912"><ele>884.0</ele></trkpt>
    <trkpt lat="34.46949" lon="-119.56889"><ele>884.0</ele></trkpt>
    <trkpt lat="34.46954" lon="-119.56871"><ele>884.0</ele></trkpt>
    <trkpt lat="34.46963" lon="-119.56850"><ele>884.0</ele></trkpt>
    <trkpt lat="34.46972" lon="-119.56826"><ele>884.0</ele></trkpt>
    <trkpt lat="34.46975" lon="-119.56802"><ele>881.0</ele></trkpt>
    <trkpt lat="34.46980" lon="-119.56768"><ele>881.0</ele></trkpt>
    <trkpt lat="34.46989" lon="-119.56735"><ele>881.0</ele></trkpt>
    <trkpt lat="34.47007" lon="-119.56706"><ele>881.0</ele></trkpt>
    <trkpt lat="34.47016" lon="-119.56697"><ele>881.0</ele></trkpt>
    <trkpt lat="34.47031" lon="-119.56698"><ele>881.0</ele></trkpt>
    <trkpt lat="34.47040" lon="-119.56707"><ele>881.0</ele></trkpt>
    <trkpt lat="34.47050" lon="-119.56735"><ele>924.0</ele></trkpt>
    <trkpt lat="34.47070" lon="-119.56821"><ele>924.0</ele></trkpt>
    <trkpt lat="34.47087" lon="-119.56889"><ele>924.0</ele></trkpt>
    <trkpt lat="34.47091" lon="-119.56918"><ele>924.0</ele></trkpt>
    <trkpt lat="34.47104" lon="-119.56961"><ele>924.0</ele></trkpt>
    <trkpt lat="34.47119" lon="-119.56978"><ele>924.0</ele></trkpt>
    <trkpt lat="34.47121" lon="-119.56979"><ele>924.0</ele></trkpt>
    <trkpt lat="34.47134" lon="-119.56982"><ele>924.0</ele></trkpt>
    <trkpt lat="34.47160" lon="-119.56983"><ele>922.0</ele></trkpt>
    <trkpt lat="34.47171" lon="-119.56988"><ele>922.0</ele></trkpt>
    <trkpt lat="34.47180" lon="-119.57006"><ele>922.0</ele></trkpt>
    <trkpt lat="34.47191" lon="-119.57036"><ele>922.0</ele></trkpt>
    <trkpt lat="34.47205" lon="-119.57066"><ele>922.0</ele></trkpt>
    <trkpt lat="34.47219" lon="-119.57076"><ele>922.0</ele></trkpt>
    <trkpt lat="34.47242" lon="-119.57089"><ele>922.0</ele></trkpt>
    <trkpt lat="34.47281" lon="-119.57113"><ele>922.0</ele></trkpt>
    <trkpt lat="34.47301" lon="-119.57121"><ele>918.0</ele></trkpt>
    <trkpt lat="34.47323" lon="-119.57122"><ele>918.0</ele></trkpt>
    <trkpt lat="34.47336" lon="-119.57130"><ele>918.0</ele></trkpt>
    <trkpt lat="34.47341" lon="-119.57143"><ele>918.0</ele></trkpt>
    <trkpt lat="34.47343" lon="-119.57175"><ele>918.0</ele></trkpt>
    <trkpt lat="34.47356" lon="-119.57191"><ele>918.0</ele></trkpt>
    <trkpt lat="34.47381" lon="-119.57198"><ele>918.0</ele></trkpt>
    <trkpt lat="34.47412" lon="-119.57205"><ele>919.0</ele></trkpt>
    <trkpt lat="34.47443" lon="-119.57212"><ele>919.0</ele></trkpt>
    <trkpt lat="34.47456" lon="-119.57225"><ele>919.0</ele></trkpt>
    <trkpt lat="34.47453" lon="-119.57247"><ele>919.0</ele></trkpt>
    <trkpt lat="34.47454" lon="-119.57266"><ele>919.0</ele></trkpt>
    <trkpt lat="34.47454" lon="-119.57290"><ele>919.0</ele></trkpt>
    <trkpt lat="34.47445" lon="-119.57311"><ele>919.0</ele></trkpt>
    <trkpt lat="34.47429" lon="-119.57337"><ele>919.0</ele></trkpt>
    <trkpt lat="34.47421" lon="-119.57361"><ele>916.0</ele></trkpt>
    <trkpt lat="34.47424" lon="-119.57376"><ele>916.0</ele></trkpt>
    <trkpt lat="34.47425" lon="-119.57397"><ele>916.0</ele></trkpt>
    <trkpt lat="34.47423" lon="-119.57417"><ele>916.0</ele></trkpt>
    <trkpt lat="34.47427" lon="-119.57427"><ele>916.0</ele></trkpt>
    <trkpt lat="34.47431" lon="-119.57430"><ele>916.0</ele></trkpt>
    <trkpt lat="34.47453" lon="-119.57448"><ele>916.0</ele></trkpt>
    <trkpt lat="34.47472" lon="-119.57463"><ele>916.0</ele></trkpt>
    <trkpt lat="34.47479" lon="-119.57476"><ele>910.0</ele></trkpt>
    <trkpt lat="34.47480" lon="-119.57495"><ele>910.0</ele></trkpt>
    <trkpt lat="34.47475" lon="-119.57517"><ele>910.0</ele></trkpt>
    <trkpt lat="34.47479" lon="-119.57536"><ele>910.0</ele></trkpt>
    <trkpt lat="34.47491" lon="-119.57545"><ele>910.0</ele></trkpt>
    <trkpt lat="34.47510" lon="-119.57556"><ele>910.0</ele></trkpt>
    <trkpt lat="34.47532" lon="-119.57572"><ele>910.0</ele></trkpt>
    <trkpt lat="34.47551" lon="-119.57599"><ele>904.0</ele></trkpt>
    <trkpt lat="34.47561" lon="-119.57606"><ele>904.0</ele></trkpt>
    <trkpt lat="34.47573" lon="-119.57595"><ele>904.0</ele></trkpt>
    <trkpt lat="34.47575" lon="-119.57578"><ele>904.0</ele></trkpt>
    <trkpt lat="34.47573" lon="-119.57559"><ele>904.0</ele></trkpt>
    <trkpt lat="34.47574" lon="-119.57534"><ele>904.0</ele></trkpt>
    <trkpt lat="34.47581" lon="-119.57514"><ele>904.0</ele></trkpt>
    <trkpt lat="34.47594" lon="-119.57478"><ele>904.0</ele></trkpt>
    <trkpt lat="34.47608" lon="-119.57438"><ele>880.0</ele></trkpt>
    <trkpt lat="34.47621" lon="-119.57409"><ele>880.0</ele></trkpt>
    <trkpt lat="34.47644" lon="-119.57396"><ele>880.0</ele></trkpt>
    <trkpt lat="34.47672" lon="-119.57385"><ele>880.0</ele></trkpt>
    <trkpt lat="34.47691" lon="-119.57371"><ele>880.0</ele></trkpt>
    <trkpt lat="34.47709" lon="-119.57354"><ele>880.0</ele></trkpt>
    <trkpt lat="34.47724" lon="-119.57352"><ele>880.0</ele></trkpt>
    <trkpt lat="34.47748" lon="-119.57361"><ele>880.0</ele></trkpt>
    <trkpt lat="34.47771" lon="-119.57372"><ele>863.0</ele></trkpt>
    <trkpt lat="34.47809" lon="-119.57386"><ele>863.0</ele></trkpt>
    <trkpt lat="34.47837" lon="-119.57402"><ele>863.0</ele></trkpt>
    <trkpt lat="34.47846" lon="-119.57412"><ele>863.0</ele></trkpt>
    <trkpt lat="34.47862" lon="-119.57443"><ele>863.0</ele></trkpt>
    <trkpt lat="34.47882" lon="-119.57477"><ele>863.0</ele></trkpt>
    <trkpt lat="34.47894" lon="-119.57493"><ele>863.0</ele></trkpt>
    <trkpt lat="34.47917" lon="-119.57498"><ele>855.0</ele></trkpt>
    <trkpt lat="34.47939" lon="-119.57499"><ele>855.0</ele></trkpt>
    <trkpt lat="34.47959" lon="-119.57505"><ele>855.0</ele></trkpt>
    <trkpt lat="34.47973" lon="-119.57523"><ele>855.0</ele></trkpt>
    <trkpt lat="34.47985" lon="-119.57553"><ele>855.0</ele></trkpt>
    <trkpt lat="34.47995" lon="-119.57593"><ele>855.0</ele></trkpt>
    <trkpt lat="34.48014" lon="-119.57640"><ele>855.0</ele></trkpt>
    <trkpt lat="34.48028" lon="-119.57685"><ele>855.0</ele></trkpt>
    <trkpt lat="34.48036" lon="-119.57727"><ele>841.0</ele></trkpt>
    <trkpt lat="34.48048" lon="-119.57749"><ele>841.0</ele></trkpt>
    <trkpt lat="34.48077" lon="-119.57792"><ele>841.0</ele></trkpt>
    <trkpt lat="34.48097" lon="-119.57821"><ele>841.0</ele></trkpt>
  </trkseg></trk>
</gpx>
