<?xml version="1.0" encoding="UTF-8"?>
<gpx version="1.1" creator="dirt-bikes build-blm-routes (BLM GTLF geometry + SRTM elevation)" xmlns="http://www.topografix.com/GPX/1/1">
  <trk><name>Willis Well Road</name>
    <trkseg>
      <trkpt lat="35.38980" lon="-117.77267"><ele>668.0</ele></trkpt>
      <trkpt lat="35.38956" lon="-117.77263"><ele>668.0</ele></trkpt>
      <trkpt lat="35.38948" lon="-117.77264"><ele>668.0</ele></trkpt>
      <trkpt lat="35.38912" lon="-117.77262"><ele>668.0</ele></trkpt>
      <trkpt lat="35.38897" lon="-117.77266"><ele>668.0</ele></trkpt>
      <trkpt lat="35.38862" lon="-117.77264"><ele>671.0</ele></trkpt>
      <trkpt lat="35.38808" lon="-117.77265"><ele>671.0</ele></trkpt>
      <trkpt lat="35.38758" lon="-117.77265"><ele>671.0</ele></trkpt>
      <trkpt lat="35.38708" lon="-117.77264"><ele>671.0</ele></trkpt>
      <trkpt lat="35.38661" lon="-117.77263"><ele>671.0</ele></trkpt>
      <trkpt lat="35.38642" lon="-117.77263"><ele>671.0</ele></trkpt>
      <trkpt lat="35.38640" lon="-117.77262"><ele>671.0</ele></trkpt>
      <trkpt lat="35.38613" lon="-117.77263"><ele>668.0</ele></trkpt>
      <trkpt lat="35.38568" lon="-117.77264"><ele>668.0</ele></trkpt>
      <trkpt lat="35.38511" lon="-117.77263"><ele>668.0</ele></trkpt>
      <trkpt lat="35.38487" lon="-117.77263"><ele>668.0</ele></trkpt>
      <trkpt lat="35.38418" lon="-117.77264"><ele>668.0</ele></trkpt>
      <trkpt lat="35.38334" lon="-117.77264"><ele>668.0</ele></trkpt>
      <trkpt lat="35.38300" lon="-117.77265"><ele>668.0</ele></trkpt>
      <trkpt lat="35.38284" lon="-117.77265"><ele>668.0</ele></trkpt>
      <trkpt lat="35.38213" lon="-117.77265"><ele>665.0</ele></trkpt>
      <trkpt lat="35.38179" lon="-117.77264"><ele>665.0</ele></trkpt>
      <trkpt lat="35.38140" lon="-117.77265"><ele>665.0</ele></trkpt>
      <trkpt lat="35.38101" lon="-117.77264"><ele>665.0</ele></trkpt>
      <trkpt lat="35.38050" lon="-117.77265"><ele>665.0</ele></trkpt>
      <trkpt lat="35.37988" lon="-117.77266"><ele>665.0</ele></trkpt>
      <trkpt lat="35.37955" lon="-117.77266"><ele>665.0</ele></trkpt>
      <trkpt lat="35.37905" lon="-117.77267"><ele>663.0</ele></trkpt>
      <trkpt lat="35.37866" lon="-117.77267"><ele>663.0</ele></trkpt>
      <trkpt lat="35.37812" lon="-117.77266"><ele>663.0</ele></trkpt>
      <trkpt lat="35.37773" lon="-117.77267"><ele>663.0</ele></trkpt>
      <trkpt lat="35.37740" lon="-117.77267"><ele>663.0</ele></trkpt>
      <trkpt lat="35.37700" lon="-117.77264"><ele>663.0</ele></trkpt>
      <trkpt lat="35.37666" lon="-117.77263"><ele>663.0</ele></trkpt>
      <trkpt lat="35.37630" lon="-117.77262"><ele>663.0</ele></trkpt>
      <trkpt lat="35.37612" lon="-117.77262"><ele>664.0</ele></trkpt>
      <trkpt lat="35.37565" lon="-117.77264"><ele>664.0</ele></trkpt>
      <trkpt lat="35.37546" lon="-117.77263"><ele>664.0</ele></trkpt>
      <trkpt lat="35.37512" lon="-117.77262"><ele>664.0</ele></trkpt>
      <trkpt lat="35.37493" lon="-117.77262"><ele>664.0</ele></trkpt>
      <trkpt lat="35.37481" lon="-117.77261"><ele>664.0</ele></trkpt>
      <trkpt lat="35.37458" lon="-117.77259"><ele>664.0</ele></trkpt>
      <trkpt lat="35.37407" lon="-117.77260"><ele>665.0</ele></trkpt>
      <trkpt lat="35.37390" lon="-117.77259"><ele>665.0</ele></trkpt>
      <trkpt lat="35.37377" lon="-117.77260"><ele>665.0</ele></trkpt>
      <trkpt lat="35.37350" lon="-117.77259"><ele>665.0</ele></trkpt>
      <trkpt lat="35.37350" lon="-117.77259"><ele>665.0</ele></trkpt>
      <trkpt lat="35.37336" lon="-117.77258"><ele>665.0</ele></trkpt>
      <trkpt lat="35.37321" lon="-117.77259"><ele>665.0</ele></trkpt>
      <trkpt lat="35.37321" lon="-117.77259"><ele>665.0</ele></trkpt>
      <trkpt lat="35.37307" lon="-117.77259"><ele>668.0</ele></trkpt>
      <trkpt lat="35.37286" lon="-117.77260"><ele>668.0</ele></trkpt>
      <trkpt lat="35.37268" lon="-117.77259"><ele>668.0</ele></trkpt>
      <trkpt lat="35.37268" lon="-117.77259"><ele>668.0</ele></trkpt>
      <trkpt lat="35.37261" lon="-117.77258"><ele>668.0</ele></trkpt>
      <trkpt lat="35.37226" lon="-117.77259"><ele>668.0</ele></trkpt>
      <trkpt lat="35.37226" lon="-117.77259"><ele>668.0</ele></trkpt>
      <trkpt lat="35.37221" lon="-117.77259"><ele>670.0</ele></trkpt>
      <trkpt lat="35.37198" lon="-117.77259"><ele>670.0</ele></trkpt>
      <trkpt lat="35.37198" lon="-117.77259"><ele>670.0</ele></trkpt>
      <trkpt lat="35.37183" lon="-117.77259"><ele>670.0</ele></trkpt>
      <trkpt lat="35.37148" lon="-117.77258"><ele>670.0</ele></trkpt>
      <trkpt lat="35.37112" lon="-117.77259"><ele>670.0</ele></trkpt>
      <trkpt lat="35.37087" lon="-117.77259"><ele>670.0</ele></trkpt>
      <trkpt lat="35.37087" lon="-117.77259"><ele>670.0</ele></trkpt>
      <trkpt lat="35.37055" lon="-117.77260"><ele>670.0</ele></trkpt>
      <trkpt lat="35.37022" lon="-117.77260"><ele>670.0</ele></trkpt>
      <trkpt lat="35.37012" lon="-117.77259"><ele>670.0</ele></trkpt>
      <trkpt lat="35.37012" lon="-117.77259"><ele>670.0</ele></trkpt>
      <trkpt lat="35.36941" lon="-117.77258"><ele>670.0</ele></trkpt>
      <trkpt lat="35.36890" lon="-117.77257"><ele>670.0</ele></trkpt>
      <trkpt lat="35.36864" lon="-117.77258"><ele>670.0</ele></trkpt>
      <trkpt lat="35.36835" lon="-117.77258"><ele>670.0</ele></trkpt>
      <trkpt lat="35.36799" lon="-117.77257"><ele>675.0</ele></trkpt>
      <trkpt lat="35.36772" lon="-117.77256"><ele>675.0</ele></trkpt>
      <trkpt lat="35.36732" lon="-117.77256"><ele>675.0</ele></trkpt>
      <trkpt lat="35.36715" lon="-117.77257"><ele>675.0</ele></trkpt>
      <trkpt lat="35.36693" lon="-117.77256"><ele>675.0</ele></trkpt>
      <trkpt lat="35.36635" lon="-117.77256"><ele>675.0</ele></trkpt>
      <trkpt lat="35.36598" lon="-117.77258"><ele>675.0</ele></trkpt>
      <trkpt lat="35.36573" lon="-117.77258"><ele>679.0</ele></trkpt>
      <trkpt lat="35.36551" lon="-117.77257"><ele>679.0</ele></trkpt>
      <trkpt lat="35.36522" lon="-117.77257"><ele>679.0</ele></trkpt>
      <trkpt lat="35.36506" lon="-117.77257"><ele>679.0</ele></trkpt>
      <trkpt lat="35.36478" lon="-117.77259"><ele>679.0</ele></trkpt>
      <trkpt lat="35.36458" lon="-117.77258"><ele>679.0</ele></trkpt>
      <trkpt lat="35.36434" lon="-117.77257"><ele>679.0</ele></trkpt>
      <trkpt lat="35.36389" lon="-117.77258"><ele>679.0</ele></trkpt>
      <trkpt lat="35.36367" lon="-117.77260"><ele>682.0</ele></trkpt>
      <trkpt lat="35.36329" lon="-117.77258"><ele>682.0</ele></trkpt>
      <trkpt lat="35.36298" lon="-117.77259"><ele>682.0</ele></trkpt>
      <trkpt lat="35.36261" lon="-117.77259"><ele>682.0</ele></trkpt>
      <trkpt lat="35.36212" lon="-117.77261"><ele>682.0</ele></trkpt>
      <trkpt lat="35.36169" lon="-117.77260"><ele>682.0</ele></trkpt>
      <trkpt lat="35.36145" lon="-117.77259"><ele>682.0</ele></trkpt>
      <trkpt lat="35.36105" lon="-117.77258"><ele>689.0</ele></trkpt>
      <trkpt lat="35.36083" lon="-117.77253"><ele>689.0</ele></trkpt>
      <trkpt lat="35.36060" lon="-117.77249"><ele>689.0</ele></trkpt>
      <trkpt lat="35.36033" lon="-117.77240"><ele>689.0</ele></trkpt>
      <trkpt lat="35.36006" lon="-117.77228"><ele>689.0</ele></trkpt>
      <trkpt lat="35.35950" lon="-117.77201"><ele>689.0</ele></trkpt>
      <trkpt lat="35.35866" lon="-117.77157"><ele>689.0</ele></trkpt>
      <trkpt lat="35.35844" lon="-117.77145"><ele>689.0</ele></trkpt>
      <trkpt lat="35.35808" lon="-117.77127"><ele>699.0</ele></trkpt>
      <trkpt lat="35.35788" lon="-117.77116"><ele>699.0</ele></trkpt>
      <trkpt lat="35.35762" lon="-117.77101"><ele>699.0</ele></trkpt>
      <trkpt lat="35.35751" lon="-117.77095"><ele>699.0</ele></trkpt>
      <trkpt lat="35.35721" lon="-117.77081"><ele>699.0</ele></trkpt>
      <trkpt lat="35.35681" lon="-117.77059"><ele>699.0</ele></trkpt>
      <trkpt lat="35.35626" lon="-117.77028"><ele>699.0</ele></trkpt>
      <trkpt lat="35.35613" lon="-117.77022"><ele>707.0</ele></trkpt>
      <trkpt lat="35.35577" lon="-117.77003"><ele>707.0</ele></trkpt>
      <trkpt lat="35.35550" lon="-117.76990"><ele>707.0</ele></trkpt>
      <trkpt lat="35.35533" lon="-117.76981"><ele>707.0</ele></trkpt>
      <trkpt lat="35.35515" lon="-117.76972"><ele>707.0</ele></trkpt>
      <trkpt lat="35.35469" lon="-117.76947"><ele>707.0</ele></trkpt>
      <trkpt lat="35.35453" lon="-117.76939"><ele>707.0</ele></trkpt>
      <trkpt lat="35.35434" lon="-117.76929"><ele>707.0</ele></trkpt>
      <trkpt lat="35.35398" lon="-117.76911"><ele>716.0</ele></trkpt>
      <trkpt lat="35.35360" lon="-117.76891"><ele>716.0</ele></trkpt>
      <trkpt lat="35.35321" lon="-117.76870"><ele>716.0</ele></trkpt>
      <trkpt lat="35.35280" lon="-117.76849"><ele>716.0</ele></trkpt>
      <trkpt lat="35.35259" lon="-117.76837"><ele>716.0</ele></trkpt>
      <trkpt lat="35.35238" lon="-117.76828"><ele>716.0</ele></trkpt>
      <trkpt lat="35.35224" lon="-117.76819"><ele>716.0</ele></trkpt>
      <trkpt lat="35.35202" lon="-117.76810"><ele>722.0</ele></trkpt>
      <trkpt lat="35.35180" lon="-117.76796"><ele>722.0</ele></trkpt>
      <trkpt lat="35.35171" lon="-117.76791"><ele>722.0</ele></trkpt>
      <trkpt lat="35.35158" lon="-117.76784"><ele>722.0</ele></trkpt>
      <trkpt lat="35.35133" lon="-117.76770"><ele>722.0</ele></trkpt>
      <trkpt lat="35.35096" lon="-117.76751"><ele>722.0</ele></trkpt>
      <trkpt lat="35.35072" lon="-117.76738"><ele>722.0</ele></trkpt>
      <trkpt lat="35.35048" lon="-117.76725"><ele>722.0</ele></trkpt>
      <trkpt lat="35.35006" lon="-117.76701"><ele>734.0</ele></trkpt>
      <trkpt lat="35.34977" lon="-117.76684"><ele>734.0</ele></trkpt>
      <trkpt lat="35.34952" lon="-117.76672"><ele>734.0</ele></trkpt>
      <trkpt lat="35.34925" lon="-117.76658"><ele>734.0</ele></trkpt>
      <trkpt lat="35.34881" lon="-117.76634"><ele>734.0</ele></trkpt>
      <trkpt lat="35.34824" lon="-117.76603"><ele>734.0</ele></trkpt>
      <trkpt lat="35.34771" lon="-117.76574"><ele>734.0</ele></trkpt>
      <trkpt lat="35.34751" lon="-117.76564"><ele>746.0</ele></trkpt>
      <trkpt lat="35.34732" lon="-117.76553"><ele>746.0</ele></trkpt>
      <trkpt lat="35.34696" lon="-117.76534"><ele>746.0</ele></trkpt>
      <trkpt lat="35.34672" lon="-117.76522"><ele>746.0</ele></trkpt>
      <trkpt lat="35.34660" lon="-117.76514"><ele>746.0</ele></trkpt>
      <trkpt lat="35.34653" lon="-117.76511"><ele>746.0</ele></trkpt>
      <trkpt lat="35.34636" lon="-117.76502"><ele>746.0</ele></trkpt>
      <trkpt lat="35.34627" lon="-117.76498"><ele>746.0</ele></trkpt>
      <trkpt lat="35.34610" lon="-117.76488"><ele>753.0</ele></trkpt>
      <trkpt lat="35.34593" lon="-117.76479"><ele>753.0</ele></trkpt>
      <trkpt lat="35.34572" lon="-117.76467"><ele>753.0</ele></trkpt>
      <trkpt lat="35.34552" lon="-117.76457"><ele>753.0</ele></trkpt>
      <trkpt lat="35.34522" lon="-117.76442"><ele>753.0</ele></trkpt>
      <trkpt lat="35.34482" lon="-117.76419"><ele>753.0</ele></trkpt>
      <trkpt lat="35.34454" lon="-117.76404"><ele>753.0</ele></trkpt>
      <trkpt lat="35.34445" lon="-117.76399"><ele>753.0</ele></trkpt>
      <trkpt lat="35.34427" lon="-117.76389"><ele>761.0</ele></trkpt>
      <trkpt lat="35.34410" lon="-117.76380"><ele>761.0</ele></trkpt>
      <trkpt lat="35.34399" lon="-117.76373"><ele>761.0</ele></trkpt>
      <trkpt lat="35.34387" lon="-117.76368"><ele>761.0</ele></trkpt>
      <trkpt lat="35.34365" lon="-117.76357"><ele>761.0</ele></trkpt>
      <trkpt lat="35.34340" lon="-117.76343"><ele>761.0</ele></trkpt>
      <trkpt lat="35.34278" lon="-117.76309"><ele>761.0</ele></trkpt>
      <trkpt lat="35.34254" lon="-117.76297"><ele>772.0</ele></trkpt>
      <trkpt lat="35.34220" lon="-117.76279"><ele>772.0</ele></trkpt>
      <trkpt lat="35.34210" lon="-117.76273"><ele>772.0</ele></trkpt>
      <trkpt lat="35.34177" lon="-117.76256"><ele>772.0</ele></trkpt>
      <trkpt lat="35.34171" lon="-117.76252"><ele>772.0</ele></trkpt>
      <trkpt lat="35.34136" lon="-117.76235"><ele>772.0</ele></trkpt>
      <trkpt lat="35.34116" lon="-117.76224"><ele>772.0</ele></trkpt>
      <trkpt lat="35.34107" lon="-117.76218"><ele>772.0</ele></trkpt>
      <trkpt lat="35.34083" lon="-117.76204"><ele>781.0</ele></trkpt>
      <trkpt lat="35.34047" lon="-117.76185"><ele>781.0</ele></trkpt>
      <trkpt lat="35.34028" lon="-117.76176"><ele>781.0</ele></trkpt>
      <trkpt lat="35.34001" lon="-117.76162"><ele>781.0</ele></trkpt>
      <trkpt lat="35.33985" lon="-117.76152"><ele>781.0</ele></trkpt>
      <trkpt lat="35.33954" lon="-117.76137"><ele>781.0</ele></trkpt>
      <trkpt lat="35.33918" lon="-117.76116"><ele>781.0</ele></trkpt>
      <trkpt lat="35.33889" lon="-117.76098"><ele>792.0</ele></trkpt>
      <trkpt lat="35.33870" lon="-117.76086"><ele>792.0</ele></trkpt>
      <trkpt lat="35.33840" lon="-117.76070"><ele>792.0</ele></trkpt>
      <trkpt lat="35.33827" lon="-117.76062"><ele>792.0</ele></trkpt>
      <trkpt lat="35.33820" lon="-117.76057"><ele>792.0</ele></trkpt>
      <trkpt lat="35.33800" lon="-117.76045"><ele>792.0</ele></trkpt>
      <trkpt lat="35.33790" lon="-117.76039"><ele>792.0</ele></trkpt>
      <trkpt lat="35.33762" lon="-117.76020"><ele>792.0</ele></trkpt>
      <trkpt lat="35.33741" lon="-117.76008"><ele>800.0</ele></trkpt>
      <trkpt lat="35.33718" lon="-117.75992"><ele>800.0</ele></trkpt>
      <trkpt lat="35.33687" lon="-117.75972"><ele>800.0</ele></trkpt>
      <trkpt lat="35.33667" lon="-117.75959"><ele>800.0</ele></trkpt>
      <trkpt lat="35.33644" lon="-117.75943"><ele>800.0</ele></trkpt>
      <trkpt lat="35.33625" lon="-117.75932"><ele>800.0</ele></trkpt>
      <trkpt lat="35.33603" lon="-117.75916"><ele>800.0</ele></trkpt>
      <trkpt lat="35.33577" lon="-117.75899"><ele>809.0</ele></trkpt>
      <trkpt lat="35.33555" lon="-117.75886"><ele>809.0</ele></trkpt>
      <trkpt lat="35.33539" lon="-117.75874"><ele>809.0</ele></trkpt>
      <trkpt lat="35.33521" lon="-117.75857"><ele>809.0</ele></trkpt>
      <trkpt lat="35.33498" lon="-117.75834"><ele>809.0</ele></trkpt>
      <trkpt lat="35.33472" lon="-117.75804"><ele>809.0</ele></trkpt>
      <trkpt lat="35.33448" lon="-117.75774"><ele>809.0</ele></trkpt>
      <trkpt lat="35.33434" lon="-117.75761"><ele>809.0</ele></trkpt>
      <trkpt lat="35.33414" lon="-117.75739"><ele>819.0</ele></trkpt>
      <trkpt lat="35.33403" lon="-117.75723"><ele>819.0</ele></trkpt>
      <trkpt lat="35.33397" lon="-117.75713"><ele>819.0</ele></trkpt>
      <trkpt lat="35.33388" lon="-117.75697"><ele>819.0</ele></trkpt>
      <trkpt lat="35.33375" lon="-117.75681"><ele>819.0</ele></trkpt>
      <trkpt lat="35.33350" lon="-117.75655"><ele>819.0</ele></trkpt>
      <trkpt lat="35.33327" lon="-117.75631"><ele>819.0</ele></trkpt>
      <trkpt lat="35.33305" lon="-117.75608"><ele>827.0</ele></trkpt>
      <trkpt lat="35.33296" lon="-117.75603"><ele>827.0</ele></trkpt>
      <trkpt lat="35.33286" lon="-117.75598"><ele>827.0</ele></trkpt>
      <trkpt lat="35.33261" lon="-117.75585"><ele>827.0</ele></trkpt>
      <trkpt lat="35.33246" lon="-117.75575"><ele>827.0</ele></trkpt>
      <trkpt lat="35.33222" lon="-117.75561"><ele>827.0</ele></trkpt>
      <trkpt lat="35.33191" lon="-117.75541"><ele>827.0</ele></trkpt>
      <trkpt lat="35.33176" lon="-117.75535"><ele>827.0</ele></trkpt>
      <trkpt lat="35.33162" lon="-117.75531"><ele>836.0</ele></trkpt>
      <trkpt lat="35.33148" lon="-117.75532"><ele>836.0</ele></trkpt>
      <trkpt lat="35.33139" lon="-117.75531"><ele>836.0</ele></trkpt>
      <trkpt lat="35.33129" lon="-117.75526"><ele>836.0</ele></trkpt>
      <trkpt lat="35.33120" lon="-117.75521"><ele>836.0</ele></trkpt>
      <trkpt lat="35.33107" lon="-117.75515"><ele>836.0</ele></trkpt>
      <trkpt lat="35.33083" lon="-117.75501"><ele>836.0</ele></trkpt>
      <trkpt lat="35.33064" lon="-117.75489"><ele>836.0</ele></trkpt>
      <trkpt lat="35.33054" lon="-117.75485"><ele>842.0</ele></trkpt>
      <trkpt lat="35.33045" lon="-117.75482"><ele>842.0</ele></trkpt>
      <trkpt lat="35.33034" lon="-117.75480"><ele>842.0</ele></trkpt>
      <trkpt lat="35.33018" lon="-117.75479"><ele>842.0</ele></trkpt>
      <trkpt lat="35.33008" lon="-117.75481"><ele>842.0</ele></trkpt>
      <trkpt lat="35.32976" lon="-117.75489"><ele>842.0</ele></trkpt>
      <trkpt lat="35.32948" lon="-117.75498"><ele>842.0</ele></trkpt>
      <trkpt lat="35.32930" lon="-117.75502"><ele>856.0</ele></trkpt>
      <trkpt lat="35.32878" lon="-117.75506"><ele>856.0</ele></trkpt>
      <trkpt lat="35.32843" lon="-117.75507"><ele>856.0</ele></trkpt>
      <trkpt lat="35.32801" lon="-117.75512"><ele>856.0</ele></trkpt>
      <trkpt lat="35.32757" lon="-117.75520"><ele>856.0</ele></trkpt>
      <trkpt lat="35.32730" lon="-117.75525"><ele>856.0</ele></trkpt>
      <trkpt lat="35.32694" lon="-117.75526"><ele>856.0</ele></trkpt>
      <trkpt lat="35.32667" lon="-117.75528"><ele>856.0</ele></trkpt>
      <trkpt lat="35.32644" lon="-117.75529"><ele>872.0</ele></trkpt>
      <trkpt lat="35.32631" lon="-117.75527"><ele>872.0</ele></trkpt>
      <trkpt lat="35.32610" lon="-117.75520"><ele>872.0</ele></trkpt>
      <trkpt lat="35.32586" lon="-117.75516"><ele>872.0</ele></trkpt>
      <trkpt lat="35.32569" lon="-117.75512"><ele>872.0</ele></trkpt>
      <trkpt lat="35.32551" lon="-117.75507"><ele>872.0</ele></trkpt>
      <trkpt lat="35.32540" lon="-117.75511"><ele>872.0</ele></trkpt>
      <trkpt lat="35.32523" lon="-117.75517"><ele>878.0</ele></trkpt>
      <trkpt lat="35.32503" lon="-117.75512"><ele>878.0</ele></trkpt>
      <trkpt lat="35.32477" lon="-117.75501"><ele>878.0</ele></trkpt>
      <trkpt lat="35.32457" lon="-117.75491"><ele>878.0</ele></trkpt>
      <trkpt lat="35.32425" lon="-117.75480"><ele>878.0</ele></trkpt>
      <trkpt lat="35.32402" lon="-117.75470"><ele>878.0</ele></trkpt>
      <trkpt lat="35.32362" lon="-117.75449"><ele>878.0</ele></trkpt>
      <trkpt lat="35.32351" lon="-117.75445"><ele>878.0</ele></trkpt>
      <trkpt lat="35.32347" lon="-117.75443"><ele>883.0</ele></trkpt>
      <trkpt lat="35.32341" lon="-117.75440"><ele>883.0</ele></trkpt>
      <trkpt lat="35.32335" lon="-117.75438"><ele>883.0</ele></trkpt>
      <trkpt lat="35.32313" lon="-117.75428"><ele>883.0</ele></trkpt>
      <trkpt lat="35.32294" lon="-117.75418"><ele>883.0</ele></trkpt>
      <trkpt lat="35.32276" lon="-117.75408"><ele>883.0</ele></trkpt>
      <trkpt lat="35.32258" lon="-117.75397"><ele>883.0</ele></trkpt>
      <trkpt lat="35.32243" lon="-117.75388"><ele>891.0</ele></trkpt>
      <trkpt lat="35.32216" lon="-117.75371"><ele>891.0</ele></trkpt>
      <trkpt lat="35.32201" lon="-117.75356"><ele>891.0</ele></trkpt>
      <trkpt lat="35.32189" lon="-117.75340"><ele>891.0</ele></trkpt>
      <trkpt lat="35.32166" lon="-117.75312"><ele>891.0</ele></trkpt>
      <trkpt lat="35.32147" lon="-117.75289"><ele>891.0</ele></trkpt>
      <trkpt lat="35.32125" lon="-117.75265"><ele>891.0</ele></trkpt>
      <trkpt lat="35.32107" lon="-117.75244"><ele>891.0</ele></trkpt>
      <trkpt lat="35.32083" lon="-117.75221"><ele>909.0</ele></trkpt>
      <trkpt lat="35.32069" lon="-117.75210"><ele>909.0</ele></trkpt>
      <trkpt lat="35.32060" lon="-117.75204"><ele>909.0</ele></trkpt>
      <trkpt lat="35.32036" lon="-117.75193"><ele>909.0</ele></trkpt>
      <trkpt lat="35.32023" lon="-117.75187"><ele>909.0</ele></trkpt>
      <trkpt lat="35.32005" lon="-117.75179"><ele>909.0</ele></trkpt>
      <trkpt lat="35.31981" lon="-117.75170"><ele>909.0</ele></trkpt>
      <trkpt lat="35.31963" lon="-117.75162"><ele>910.0</ele></trkpt>
      <trkpt lat="35.31937" lon="-117.75155"><ele>910.0</ele></trkpt>
      <trkpt lat="35.31925" lon="-117.75154"><ele>910.0</ele></trkpt>
      <trkpt lat="35.31913" lon="-117.75155"><ele>910.0</ele></trkpt>
      <trkpt lat="35.31899" lon="-117.75157"><ele>910.0</ele></trkpt>
      <trkpt lat="35.31870" lon="-117.75169"><ele>910.0</ele></trkpt>
      <trkpt lat="35.31841" lon="-117.75179"><ele>910.0</ele></trkpt>
      <trkpt lat="35.31823" lon="-117.75184"><ele>910.0</ele></trkpt>
      <trkpt lat="35.31797" lon="-117.75191"><ele>927.0</ele></trkpt>
      <trkpt lat="35.31764" lon="-117.75201"><ele>927.0</ele></trkpt>
      <trkpt lat="35.31742" lon="-117.75204"><ele>927.0</ele></trkpt>
      <trkpt lat="35.31728" lon="-117.75205"><ele>927.0</ele></trkpt>
      <trkpt lat="35.31702" lon="-117.75203"><ele>927.0</ele></trkpt>
      <trkpt lat="35.31689" lon="-117.75205"><ele>927.0</ele></trkpt>
      <trkpt lat="35.31678" lon="-117.75209"><ele>927.0</ele></trkpt>
      <trkpt lat="35.31658" lon="-117.75218"><ele>930.0</ele></trkpt>
      <trkpt lat="35.31647" lon="-117.75227"><ele>930.0</ele></trkpt>
      <trkpt lat="35.31640" lon="-117.75234"><ele>930.0</ele></trkpt>
      <trkpt lat="35.31635" lon="-117.75238"><ele>930.0</ele></trkpt>
      <trkpt lat="35.31629" lon="-117.75242"><ele>930.0</ele></trkpt>
      <trkpt lat="35.31612" lon="-117.75251"><ele>930.0</ele></trkpt>
      <trkpt lat="35.31593" lon="-117.75260"><ele>930.0</ele></trkpt>
      <trkpt lat="35.31581" lon="-117.75266"><ele>930.0</ele></trkpt>
      <trkpt lat="35.31567" lon="-117.75268"><ele>938.0</ele></trkpt>
      <trkpt lat="35.31543" lon="-117.75266"><ele>938.0</ele></trkpt>
      <trkpt lat="35.31522" lon="-117.75264"><ele>938.0</ele></trkpt>
      <trkpt lat="35.31496" lon="-117.75259"><ele>938.0</ele></trkpt>
      <trkpt lat="35.31478" lon="-117.75253"><ele>938.0</ele></trkpt>
      <trkpt lat="35.31456" lon="-117.75244"><ele>938.0</ele></trkpt>
      <trkpt lat="35.31432" lon="-117.75229"><ele>938.0</ele></trkpt>
      <trkpt lat="35.31416" lon="-117.75216"><ele>938.0</ele></trkpt>
      <trkpt lat="35.31407" lon="-117.75208"><ele>951.0</ele></trkpt>
      <trkpt lat="35.31393" lon="-117.75192"><ele>951.0</ele></trkpt>
      <trkpt lat="35.31364" lon="-117.75168"><ele>951.0</ele></trkpt>
      <trkpt lat="35.31357" lon="-117.75156"><ele>951.0</ele></trkpt>
      <trkpt lat="35.31340" lon="-117.75123"><ele>951.0</ele></trkpt>
      <trkpt lat="35.31327" lon="-117.75101"><ele>951.0</ele></trkpt>
      <trkpt lat="35.31304" lon="-117.75072"><ele>951.0</ele></trkpt>
      <trkpt lat="35.31293" lon="-117.75055"><ele>963.0</ele></trkpt>
      <trkpt lat="35.31287" lon="-117.75044"><ele>963.0</ele></trkpt>
      <trkpt lat="35.31271" lon="-117.75022"><ele>963.0</ele></trkpt>
      <trkpt lat="35.31262" lon="-117.75010"><ele>963.0</ele></trkpt>
      <trkpt lat="35.31255" lon="-117.74995"><ele>963.0</ele></trkpt>
      <trkpt lat="35.31250" lon="-117.74981"><ele>963.0</ele></trkpt>
      <trkpt lat="35.31244" lon="-117.74960"><ele>963.0</ele></trkpt>
      <trkpt lat="35.31234" lon="-117.74938"><ele>963.0</ele></trkpt>
      <trkpt lat="35.31218" lon="-117.74909"><ele>976.0</ele></trkpt>
      <trkpt lat="35.31210" lon="-117.74888"><ele>976.0</ele></trkpt>
      <trkpt lat="35.31202" lon="-117.74866"><ele>976.0</ele></trkpt>
      <trkpt lat="35.31200" lon="-117.74850"><ele>976.0</ele></trkpt>
      <trkpt lat="35.31199" lon="-117.74839"><ele>976.0</ele></trkpt>
      <trkpt lat="35.31197" lon="-117.74801"><ele>976.0</ele></trkpt>
      <trkpt lat="35.31195" lon="-117.74773"><ele>976.0</ele></trkpt>
      <trkpt lat="35.31195" lon="-117.74713"><ele>989.0</ele></trkpt>
      <trkpt lat="35.31194" lon="-117.74673"><ele>989.0</ele></trkpt>
      <trkpt lat="35.31194" lon="-117.74651"><ele>989.0</ele></trkpt>
      <trkpt lat="35.31191" lon="-117.74608"><ele>989.0</ele></trkpt>
      <trkpt lat="35.31188" lon="-117.74550"><ele>989.0</ele></trkpt>
      <trkpt lat="35.31190" lon="-117.74510"><ele>989.0</ele></trkpt>
      <trkpt lat="35.31191" lon="-117.74491"><ele>989.0</ele></trkpt>
      <trkpt lat="35.31204" lon="-117.74436"><ele>989.0</ele></trkpt>
      <trkpt lat="35.31206" lon="-117.74408"><ele>1016.0</ele></trkpt>
      <trkpt lat="35.31213" lon="-117.74363"><ele>1016.0</ele></trkpt>
      <trkpt lat="35.31221" lon="-117.74329"><ele>1016.0</ele></trkpt>
      <trkpt lat="35.31226" lon="-117.74301"><ele>1016.0</ele></trkpt>
      <trkpt lat="35.31231" lon="-117.74269"><ele>1016.0</ele></trkpt>
      <trkpt lat="35.31233" lon="-117.74250"><ele>1016.0</ele></trkpt>
      <trkpt lat="35.31229" lon="-117.74236"><ele>1016.0</ele></trkpt>
      <trkpt lat="35.31224" lon="-117.74233"><ele>1020.0</ele></trkpt>
      <trkpt lat="35.31219" lon="-117.74227"><ele>1020.0</ele></trkpt>
      <trkpt lat="35.31211" lon="-117.74228"><ele>1020.0</ele></trkpt>
      <trkpt lat="35.31198" lon="-117.74231"><ele>1020.0</ele></trkpt>
      <trkpt lat="35.31176" lon="-117.74238"><ele>1020.0</ele></trkpt>
      <trkpt lat="35.31170" lon="-117.74238"><ele>1020.0</ele></trkpt>
      <trkpt lat="35.31158" lon="-117.74238"><ele>1020.0</ele></trkpt>
      <trkpt lat="35.31141" lon="-117.74236"><ele>1020.0</ele></trkpt>
      <trkpt lat="35.31121" lon="-117.74232"><ele>1032.0</ele></trkpt>
      <trkpt lat="35.31096" lon="-117.74227"><ele>1032.0</ele></trkpt>
      <trkpt lat="35.31068" lon="-117.74219"><ele>1032.0</ele></trkpt>
      <trkpt lat="35.31051" lon="-117.74214"><ele>1032.0</ele></trkpt>
      <trkpt lat="35.31028" lon="-117.74206"><ele>1032.0</ele></trkpt>
      <trkpt lat="35.31015" lon="-117.74197"><ele>1032.0</ele></trkpt>
      <trkpt lat="35.31000" lon="-117.74185"><ele>1032.0</ele></trkpt>
      <trkpt lat="35.30982" lon="-117.74162"><ele>1039.0</ele></trkpt>
      <trkpt lat="35.30970" lon="-117.74151"><ele>1039.0</ele></trkpt>
      <trkpt lat="35.30961" lon="-117.74145"><ele>1039.0</ele></trkpt>
      <trkpt lat="35.30953" lon="-117.74144"><ele>1039.0</ele></trkpt>
      <trkpt lat="35.30947" lon="-117.74145"><ele>1039.0</ele></trkpt>
      <trkpt lat="35.30944" lon="-117.74149"><ele>1039.0</ele></trkpt>
      <trkpt lat="35.30939" lon="-117.74157"><ele>1039.0</ele></trkpt>
      <trkpt lat="35.30934" lon="-117.74176"><ele>1039.0</ele></trkpt>
      <trkpt lat="35.30928" lon="-117.74195"><ele>1050.0</ele></trkpt>
      <trkpt lat="35.30919" lon="-117.74219"><ele>1050.0</ele></trkpt>
      <trkpt lat="35.30911" lon="-117.74239"><ele>1050.0</ele></trkpt>
      <trkpt lat="35.30903" lon="-117.74260"><ele>1050.0</ele></trkpt>
      <trkpt lat="35.30895" lon="-117.74271"><ele>1050.0</ele></trkpt>
      <trkpt lat="35.30887" lon="-117.74277"><ele>1050.0</ele></trkpt>
      <trkpt lat="35.30879" lon="-117.74277"><ele>1050.0</ele></trkpt>
      <trkpt lat="35.30870" lon="-117.74277"><ele>1050.0</ele></trkpt>
      <trkpt lat="35.30856" lon="-117.74275"><ele>1057.0</ele></trkpt>
      <trkpt lat="35.30847" lon="-117.74276"><ele>1057.0</ele></trkpt>
      <trkpt lat="35.30838" lon="-117.74280"><ele>1057.0</ele></trkpt>
      <trkpt lat="35.30829" lon="-117.74290"><ele>1057.0</ele></trkpt>
      <trkpt lat="35.30820" lon="-117.74303"><ele>1057.0</ele></trkpt>
      <trkpt lat="35.30810" lon="-117.74316"><ele>1057.0</ele></trkpt>
      <trkpt lat="35.30799" lon="-117.74325"><ele>1057.0</ele></trkpt>
      <trkpt lat="35.30786" lon="-117.74328"><ele>1067.0</ele></trkpt>
      <trkpt lat="35.30778" lon="-117.74333"><ele>1067.0</ele></trkpt>
      <trkpt lat="35.30769" lon="-117.74342"><ele>1067.0</ele></trkpt>
      <trkpt lat="35.30760" lon="-117.74349"><ele>1067.0</ele></trkpt>
      <trkpt lat="35.30752" lon="-117.74351"><ele>1067.0</ele></trkpt>
      <trkpt lat="35.30747" lon="-117.74350"><ele>1067.0</ele></trkpt>
      <trkpt lat="35.30739" lon="-117.74347"><ele>1067.0</ele></trkpt>
      <trkpt lat="35.30725" lon="-117.74340"><ele>1067.0</ele></trkpt>
      <trkpt lat="35.30714" lon="-117.74336"><ele>1076.0</ele></trkpt>
      <trkpt lat="35.30704" lon="-117.74336"><ele>1076.0</ele></trkpt>
      <trkpt lat="35.30693" lon="-117.74340"><ele>1076.0</ele></trkpt>
      <trkpt lat="35.30680" lon="-117.74346"><ele>1076.0</ele></trkpt>
      <trkpt lat="35.30672" lon="-117.74348"><ele>1076.0</ele></trkpt>
      <trkpt lat="35.30662" lon="-117.74348"><ele>1076.0</ele></trkpt>
      <trkpt lat="35.30654" lon="-117.74345"><ele>1076.0</ele></trkpt>
      <trkpt lat="35.30634" lon="-117.74332"><ele>1090.0</ele></trkpt>
      <trkpt lat="35.30625" lon="-117.74323"><ele>1090.0</ele></trkpt>
      <trkpt lat="35.30611" lon="-117.74309"><ele>1090.0</ele></trkpt>
      <trkpt lat="35.30605" lon="-117.74305"><ele>1090.0</ele></trkpt>
      <trkpt lat="35.30598" lon="-117.74305"><ele>1090.0</ele></trkpt>
      <trkpt lat="35.30593" lon="-117.74305"><ele>1090.0</ele></trkpt>
      <trkpt lat="35.30583" lon="-117.74312"><ele>1090.0</ele></trkpt>
      <trkpt lat="35.30576" lon="-117.74320"><ele>1090.0</ele></trkpt>
      <trkpt lat="35.30565" lon="-117.74332"><ele>1092.0</ele></trkpt>
      <trkpt lat="35.30551" lon="-117.74337"><ele>1092.0</ele></trkpt>
      <trkpt lat="35.30543" lon="-117.74338"><ele>1092.0</ele></trkpt>
      <trkpt lat="35.30529" lon="-117.74338"><ele>1092.0</ele></trkpt>
      <trkpt lat="35.30521" lon="-117.74334"><ele>1092.0</ele></trkpt>
      <trkpt lat="35.30500" lon="-117.74325"><ele>1092.0</ele></trkpt>
      <trkpt lat="35.30490" lon="-117.74325"><ele>1092.0</ele></trkpt>
      <trkpt lat="35.30480" lon="-117.74326"><ele>1103.0</ele></trkpt>
      <trkpt lat="35.30466" lon="-117.74331"><ele>1103.0</ele></trkpt>
      <trkpt lat="35.30451" lon="-117.74339"><ele>1103.0</ele></trkpt>
      <trkpt lat="35.30439" lon="-117.74342"><ele>1103.0</ele></trkpt>
      <trkpt lat="35.30428" lon="-117.74343"><ele>1103.0</ele></trkpt>
      <trkpt lat="35.30415" lon="-117.74342"><ele>1103.0</ele></trkpt>
      <trkpt lat="35.30391" lon="-117.74338"><ele>1103.0</ele></trkpt>
      <trkpt lat="35.30377" lon="-117.74336"><ele>1103.0</ele></trkpt>
      <trkpt lat="35.30364" lon="-117.74336"><ele>1114.0</ele></trkpt>
      <trkpt lat="35.30354" lon="-117.74340"><ele>1114.0</ele></trkpt>
      <trkpt lat="35.30346" lon="-117.74345"><ele>1114.0</ele></trkpt>
      <trkpt lat="35.30337" lon="-117.74351"><ele>1114.0</ele></trkpt>
      <trkpt lat="35.30318" lon="-117.74365"><ele>1114.0</ele></trkpt>
      <trkpt lat="35.30306" lon="-117.74373"><ele>1114.0</ele></trkpt>
      <trkpt lat="35.30292" lon="-117.74387"><ele>1114.0</ele></trkpt>
      <trkpt lat="35.30281" lon="-117.74398"><ele>1124.0</ele></trkpt>
      <trkpt lat="35.30267" lon="-117.74411"><ele>1124.0</ele></trkpt>
      <trkpt lat="35.30246" lon="-117.74414"><ele>1124.0</ele></trkpt>
      <trkpt lat="35.30230" lon="-117.74414"><ele>1124.0</ele></trkpt>
      <trkpt lat="35.30217" lon="-117.74417"><ele>1124.0</ele></trkpt>
      <trkpt lat="35.30189" lon="-117.74431"><ele>1124.0</ele></trkpt>
      <trkpt lat="35.30180" lon="-117.74434"><ele>1124.0</ele></trkpt>
      <trkpt lat="35.30180" lon="-117.74434"><ele>1124.0</ele></trkpt>
      <trkpt lat="35.30173" lon="-117.74449"><ele>1141.0</ele></trkpt>
      <trkpt lat="35.30173" lon="-117.74467"><ele>1141.0</ele></trkpt>
      <trkpt lat="35.30169" lon="-117.74486"><ele>1141.0</ele></trkpt>
      <trkpt lat="35.30155" lon="-117.74502"><ele>1141.0</ele></trkpt>
      <trkpt lat="35.30148" lon="-117.74513"><ele>1141.0</ele></trkpt>
      <trkpt lat="35.30141" lon="-117.74524"><ele>1141.0</ele></trkpt>
      <trkpt lat="35.30140" lon="-117.74549"><ele>1141.0</ele></trkpt>
      <trkpt lat="35.30134" lon="-117.74569"><ele>1158.0</ele></trkpt>
      <trkpt lat="35.30127" lon="-117.74584"><ele>1158.0</ele></trkpt>
      <trkpt lat="35.30117" lon="-117.74603"><ele>1158.0</ele></trkpt>
      <trkpt lat="35.30105" lon="-117.74617"><ele>1158.0</ele></trkpt>
      <trkpt lat="35.30095" lon="-117.74618"><ele>1158.0</ele></trkpt>
      <trkpt lat="35.30070" lon="-117.74622"><ele>1158.0</ele></trkpt>
      <trkpt lat="35.30054" lon="-117.74628"><ele>1158.0</ele></trkpt>
      <trkpt lat="35.30039" lon="-117.74642"><ele>1158.0</ele></trkpt>
      <trkpt lat="35.30025" lon="-117.74650"><ele>1168.0</ele></trkpt>
      <trkpt lat="35.30008" lon="-117.74660"><ele>1168.0</ele></trkpt>
      <trkpt lat="35.29995" lon="-117.74670"><ele>1168.0</ele></trkpt>
      <trkpt lat="35.29981" lon="-117.74691"><ele>1168.0</ele></trkpt>
      <trkpt lat="35.29973" lon="-117.74701"><ele>1168.0</ele></trkpt>
      <trkpt lat="35.29966" lon="-117.74709"><ele>1168.0</ele></trkpt>
      <trkpt lat="35.29951" lon="-117.74720"><ele>1168.0</ele></trkpt>
      <trkpt lat="35.29938" lon="-117.74731"><ele>1168.0</ele></trkpt>
      <trkpt lat="35.29922" lon="-117.74750"><ele>1175.0</ele></trkpt>
      <trkpt lat="35.29914" lon="-117.74757"><ele>1175.0</ele></trkpt>
      <trkpt lat="35.29905" lon="-117.74755"><ele>1175.0</ele></trkpt>
      <trkpt lat="35.29894" lon="-117.74748"><ele>1175.0</ele></trkpt>
      <trkpt lat="35.29886" lon="-117.74739"><ele>1175.0</ele></trkpt>
      <trkpt lat="35.29877" lon="-117.74730"><ele>1175.0</ele></trkpt>
      <trkpt lat="35.29869" lon="-117.74721"><ele>1175.0</ele></trkpt>
      <trkpt lat="35.29866" lon="-117.74707"><ele>1182.0</ele></trkpt>
      <trkpt lat="35.29864" lon="-117.74691"><ele>1182.0</ele></trkpt>
      <trkpt lat="35.29859" lon="-117.74650"><ele>1182.0</ele></trkpt>
      <trkpt lat="35.29857" lon="-117.74631"><ele>1182.0</ele></trkpt>
      <trkpt lat="35.29856" lon="-117.74622"><ele>1182.0</ele></trkpt>
      <trkpt lat="35.29849" lon="-117.74609"><ele>1182.0</ele></trkpt>
      <trkpt lat="35.29838" lon="-117.74596"><ele>1182.0</ele></trkpt>
      <trkpt lat="35.29814" lon="-117.74573"><ele>1182.0</ele></trkpt>
      <trkpt lat="35.29794" lon="-117.74553"><ele>1196.0</ele></trkpt>
      <trkpt lat="35.29766" lon="-117.74529"><ele>1196.0</ele></trkpt>
      <trkpt lat="35.29742" lon="-117.74506"><ele>1196.0</ele></trkpt>
      <trkpt lat="35.29724" lon="-117.74492"><ele>1196.0</ele></trkpt>
      <trkpt lat="35.29705" lon="-117.74478"><ele>1196.0</ele></trkpt>
      <trkpt lat="35.29687" lon="-117.74463"><ele>1196.0</ele></trkpt>
      <trkpt lat="35.29679" lon="-117.74458"><ele>1196.0</ele></trkpt>
    </trkseg>
    <trkseg>
      <trkpt lat="35.30811" lon="-117.71150"><ele>1239.0</ele></trkpt>
      <trkpt lat="35.30793" lon="-117.71154"><ele>1239.0</ele></trkpt>
      <trkpt lat="35.30768" lon="-117.71166"><ele>1239.0</ele></trkpt>
      <trkpt lat="35.30749" lon="-117.71181"><ele>1239.0</ele></trkpt>
      <trkpt lat="35.30728" lon="-117.71196"><ele>1239.0</ele></trkpt>
      <trkpt lat="35.30713" lon="-117.71211"><ele>1239.0</ele></trkpt>
      <trkpt lat="35.30693" lon="-117.71226"><ele>1239.0</ele></trkpt>
      <trkpt lat="35.30671" lon="-117.71238"><ele>1239.0</ele></trkpt>
      <trkpt lat="35.30659" lon="-117.71248"><ele>1237.0</ele></trkpt>
      <trkpt lat="35.30653" lon="-117.71254"><ele>1237.0</ele></trkpt>
      <trkpt lat="35.30652" lon="-117.71270"><ele>1237.0</ele></trkpt>
      <trkpt lat="35.30648" lon="-117.71286"><ele>1237.0</ele></trkpt>
      <trkpt lat="35.30642" lon="-117.71309"><ele>1237.0</ele></trkpt>
      <trkpt lat="35.30633" lon="-117.71325"><ele>1237.0</ele></trkpt>
      <trkpt lat="35.30624" lon="-117.71336"><ele>1237.0</ele></trkpt>
      <trkpt lat="35.30614" lon="-117.71347"><ele>1244.0</ele></trkpt>
      <trkpt lat="35.30607" lon="-117.71362"><ele>1244.0</ele></trkpt>
      <trkpt lat="35.30600" lon="-117.71376"><ele>1244.0</ele></trkpt>
      <trkpt lat="35.30593" lon="-117.71391"><ele>1244.0</ele></trkpt>
      <trkpt lat="35.30587" lon="-117.71400"><ele>1244.0</ele></trkpt>
      <trkpt lat="35.30573" lon="-117.71405"><ele>1244.0</ele></trkpt>
      <trkpt lat="35.30560" lon="-117.71408"><ele>1244.0</ele></trkpt>
      <trkpt lat="35.30549" lon="-117.71416"><ele>1244.0</ele></trkpt>
      <trkpt lat="35.30538" lon="-117.71425"><ele>1237.0</ele></trkpt>
      <trkpt lat="35.30525" lon="-117.71432"><ele>1237.0</ele></trkpt>
      <trkpt lat="35.30508" lon="-117.71442"><ele>1237.0</ele></trkpt>
      <trkpt lat="35.30489" lon="-117.71456"><ele>1237.0</ele></trkpt>
      <trkpt lat="35.30478" lon="-117.71466"><ele>1237.0</ele></trkpt>
      <trkpt lat="35.30466" lon="-117.71477"><ele>1237.0</ele></trkpt>
      <trkpt lat="35.30450" lon="-117.71487"><ele>1237.0</ele></trkpt>
      <trkpt lat="35.30431" lon="-117.71493"><ele>1237.0</ele></trkpt>
      <trkpt lat="35.30415" lon="-117.71496"><ele>1237.0</ele></trkpt>
      <trkpt lat="35.30402" lon="-117.71498"><ele>1237.0</ele></trkpt>
      <trkpt lat="35.30390" lon="-117.71508"><ele>1237.0</ele></trkpt>
      <trkpt lat="35.30378" lon="-117.71522"><ele>1237.0</ele></trkpt>
      <trkpt lat="35.30368" lon="-117.71538"><ele>1237.0</ele></trkpt>
      <trkpt lat="35.30360" lon="-117.71551"><ele>1237.0</ele></trkpt>
      <trkpt lat="35.30353" lon="-117.71564"><ele>1237.0</ele></trkpt>
      <trkpt lat="35.30348" lon="-117.71574"><ele>1246.0</ele></trkpt>
      <trkpt lat="35.30346" lon="-117.71596"><ele>1246.0</ele></trkpt>
      <trkpt lat="35.30342" lon="-117.71625"><ele>1246.0</ele></trkpt>
      <trkpt lat="35.30338" lon="-117.71664"><ele>1246.0</ele></trkpt>
      <trkpt lat="35.30335" lon="-117.71687"><ele>1246.0</ele></trkpt>
      <trkpt lat="35.30331" lon="-117.71726"><ele>1246.0</ele></trkpt>
      <trkpt lat="35.30326" lon="-117.71761"><ele>1246.0</ele></trkpt>
      <trkpt lat="35.30321" lon="-117.71805"><ele>1246.0</ele></trkpt>
      <trkpt lat="35.30318" lon="-117.71837"><ele>1252.0</ele></trkpt>
      <trkpt lat="35.30316" lon="-117.71869"><ele>1252.0</ele></trkpt>
      <trkpt lat="35.30313" lon="-117.71903"><ele>1252.0</ele></trkpt>
      <trkpt lat="35.30309" lon="-117.71915"><ele>1252.0</ele></trkpt>
      <trkpt lat="35.30306" lon="-117.71919"><ele>1252.0</ele></trkpt>
      <trkpt lat="35.30303" lon="-117.71926"><ele>1252.0</ele></trkpt>
      <trkpt lat="35.30294" lon="-117.71937"><ele>1252.0</ele></trkpt>
      <trkpt lat="35.30281" lon="-117.71954"><ele>1246.0</ele></trkpt>
      <trkpt lat="35.30273" lon="-117.71965"><ele>1246.0</ele></trkpt>
      <trkpt lat="35.30267" lon="-117.71982"><ele>1246.0</ele></trkpt>
      <trkpt lat="35.30260" lon="-117.72000"><ele>1246.0</ele></trkpt>
      <trkpt lat="35.30257" lon="-117.72013"><ele>1246.0</ele></trkpt>
      <trkpt lat="35.30247" lon="-117.72034"><ele>1246.0</ele></trkpt>
      <trkpt lat="35.30234" lon="-117.72063"><ele>1246.0</ele></trkpt>
      <trkpt lat="35.30230" lon="-117.72073"><ele>1246.0</ele></trkpt>
      <trkpt lat="35.30229" lon="-117.72081"><ele>1239.0</ele></trkpt>
      <trkpt lat="35.30224" lon="-117.72091"><ele>1239.0</ele></trkpt>
      <trkpt lat="35.30219" lon="-117.72100"><ele>1239.0</ele></trkpt>
      <trkpt lat="35.30217" lon="-117.72109"><ele>1239.0</ele></trkpt>
      <trkpt lat="35.30214" lon="-117.72124"><ele>1239.0</ele></trkpt>
      <trkpt lat="35.30210" lon="-117.72146"><ele>1239.0</ele></trkpt>
      <trkpt lat="35.30203" lon="-117.72165"><ele>1239.0</ele></trkpt>
      <trkpt lat="35.30196" lon="-117.72185"><ele>1235.0</ele></trkpt>
      <trkpt lat="35.30189" lon="-117.72197"><ele>1235.0</ele></trkpt>
      <trkpt lat="35.30183" lon="-117.72212"><ele>1235.0</ele></trkpt>
      <trkpt lat="35.30172" lon="-117.72240"><ele>1235.0</ele></trkpt>
      <trkpt lat="35.30159" lon="-117.72267"><ele>1235.0</ele></trkpt>
      <trkpt lat="35.30153" lon="-117.72284"><ele>1235.0</ele></trkpt>
      <trkpt lat="35.30150" lon="-117.72297"><ele>1235.0</ele></trkpt>
      <trkpt lat="35.30142" lon="-117.72312"><ele>1235.0</ele></trkpt>
      <trkpt lat="35.30133" lon="-117.72326"><ele>1233.0</ele></trkpt>
      <trkpt lat="35.30121" lon="-117.72347"><ele>1233.0</ele></trkpt>
      <trkpt lat="35.30114" lon="-117.72359"><ele>1233.0</ele></trkpt>
      <trkpt lat="35.30107" lon="-117.72384"><ele>1233.0</ele></trkpt>
      <trkpt lat="35.30101" lon="-117.72398"><ele>1233.0</ele></trkpt>
      <trkpt lat="35.30098" lon="-117.72411"><ele>1233.0</ele></trkpt>
      <trkpt lat="35.30096" lon="-117.72418"><ele>1233.0</ele></trkpt>
      <trkpt lat="35.30096" lon="-117.72427"><ele>1231.0</ele></trkpt>
      <trkpt lat="35.30093" lon="-117.72435"><ele>1231.0</ele></trkpt>
      <trkpt lat="35.30087" lon="-117.72464"><ele>1231.0</ele></trkpt>
      <trkpt lat="35.30080" lon="-117.72509"><ele>1231.0</ele></trkpt>
      <trkpt lat="35.30075" lon="-117.72535"><ele>1231.0</ele></trkpt>
      <trkpt lat="35.30075" lon="-117.72551"><ele>1231.0</ele></trkpt>
      <trkpt lat="35.30074" lon="-117.72557"><ele>1231.0</ele></trkpt>
      <trkpt lat="35.30073" lon="-117.72563"><ele>1231.0</ele></trkpt>
      <trkpt lat="35.30072" lon="-117.72572"><ele>1231.0</ele></trkpt>
      <trkpt lat="35.30067" lon="-117.72591"><ele>1231.0</ele></trkpt>
      <trkpt lat="35.30064" lon="-117.72606"><ele>1231.0</ele></trkpt>
      <trkpt lat="35.30060" lon="-117.72632"><ele>1231.0</ele></trkpt>
      <trkpt lat="35.30060" lon="-117.72651"><ele>1231.0</ele></trkpt>
      <trkpt lat="35.30056" lon="-117.72674"><ele>1231.0</ele></trkpt>
      <trkpt lat="35.30054" lon="-117.72683"><ele>1231.0</ele></trkpt>
      <trkpt lat="35.30045" lon="-117.72689"><ele>1233.0</ele></trkpt>
      <trkpt lat="35.30035" lon="-117.72688"><ele>1233.0</ele></trkpt>
      <trkpt lat="35.30021" lon="-117.72686"><ele>1233.0</ele></trkpt>
      <trkpt lat="35.30011" lon="-117.72688"><ele>1233.0</ele></trkpt>
      <trkpt lat="35.29999" lon="-117.72687"><ele>1233.0</ele></trkpt>
      <trkpt lat="35.29989" lon="-117.72686"><ele>1233.0</ele></trkpt>
      <trkpt lat="35.29974" lon="-117.72687"><ele>1233.0</ele></trkpt>
      <trkpt lat="35.29954" lon="-117.72695"><ele>1233.0</ele></trkpt>
      <trkpt lat="35.29936" lon="-117.72698"><ele>1231.0</ele></trkpt>
      <trkpt lat="35.29930" lon="-117.72713"><ele>1231.0</ele></trkpt>
      <trkpt lat="35.29925" lon="-117.72724"><ele>1231.0</ele></trkpt>
      <trkpt lat="35.29919" lon="-117.72737"><ele>1231.0</ele></trkpt>
      <trkpt lat="35.29915" lon="-117.72756"><ele>1231.0</ele></trkpt>
      <trkpt lat="35.29910" lon="-117.72768"><ele>1231.0</ele></trkpt>
      <trkpt lat="35.29903" lon="-117.72781"><ele>1231.0</ele></trkpt>
      <trkpt lat="35.29899" lon="-117.72797"><ele>1230.0</ele></trkpt>
      <trkpt lat="35.29897" lon="-117.72815"><ele>1230.0</ele></trkpt>
      <trkpt lat="35.29894" lon="-117.72824"><ele>1230.0</ele></trkpt>
      <trkpt lat="35.29887" lon="-117.72841"><ele>1230.0</ele></trkpt>
      <trkpt lat="35.29877" lon="-117.72861"><ele>1230.0</ele></trkpt>
      <trkpt lat="35.29871" lon="-117.72872"><ele>1230.0</ele></trkpt>
      <trkpt lat="35.29868" lon="-117.72882"><ele>1230.0</ele></trkpt>
      <trkpt lat="35.29866" lon="-117.72903"><ele>1230.0</ele></trkpt>
      <trkpt lat="35.29865" lon="-117.72917"><ele>1232.0</ele></trkpt>
      <trkpt lat="35.29861" lon="-117.72931"><ele>1232.0</ele></trkpt>
      <trkpt lat="35.29856" lon="-117.72946"><ele>1232.0</ele></trkpt>
      <trkpt lat="35.29852" lon="-117.72963"><ele>1232.0</ele></trkpt>
      <trkpt lat="35.29849" lon="-117.72975"><ele>1232.0</ele></trkpt>
      <trkpt lat="35.29846" lon="-117.72987"><ele>1232.0</ele></trkpt>
      <trkpt lat="35.29841" lon="-117.72999"><ele>1232.0</ele></trkpt>
      <trkpt lat="35.29835" lon="-117.73011"><ele>1232.0</ele></trkpt>
      <trkpt lat="35.29831" lon="-117.73023"><ele>1234.0</ele></trkpt>
      <trkpt lat="35.29829" lon="-117.73033"><ele>1234.0</ele></trkpt>
      <trkpt lat="35.29825" lon="-117.73050"><ele>1234.0</ele></trkpt>
      <trkpt lat="35.29823" lon="-117.73065"><ele>1234.0</ele></trkpt>
      <trkpt lat="35.29820" lon="-117.73081"><ele>1234.0</ele></trkpt>
      <trkpt lat="35.29815" lon="-117.73107"><ele>1234.0</ele></trkpt>
      <trkpt lat="35.29810" lon="-117.73128"><ele>1234.0</ele></trkpt>
      <trkpt lat="35.29804" lon="-117.73143"><ele>1235.0</ele></trkpt>
      <trkpt lat="35.29796" lon="-117.73156"><ele>1235.0</ele></trkpt>
      <trkpt lat="35.29780" lon="-117.73174"><ele>1235.0</ele></trkpt>
      <trkpt lat="35.29743" lon="-117.73211"><ele>1235.0</ele></trkpt>
      <trkpt lat="35.29709" lon="-117.73245"><ele>1235.0</ele></trkpt>
      <trkpt lat="35.29693" lon="-117.73257"><ele>1235.0</ele></trkpt>
      <trkpt lat="35.29683" lon="-117.73267"><ele>1235.0</ele></trkpt>
      <trkpt lat="35.29676" lon="-117.73275"><ele>1235.0</ele></trkpt>
      <trkpt lat="35.29674" lon="-117.73279"><ele>1234.0</ele></trkpt>
      <trkpt lat="35.29669" lon="-117.73291"><ele>1234.0</ele></trkpt>
      <trkpt lat="35.29663" lon="-117.73303"><ele>1234.0</ele></trkpt>
      <trkpt lat="35.29652" lon="-117.73316"><ele>1234.0</ele></trkpt>
      <trkpt lat="35.29631" lon="-117.73339"><ele>1234.0</ele></trkpt>
      <trkpt lat="35.29611" lon="-117.73361"><ele>1234.0</ele></trkpt>
      <trkpt lat="35.29594" lon="-117.73376"><ele>1234.0</ele></trkpt>
      <trkpt lat="35.29583" lon="-117.73389"><ele>1232.0</ele></trkpt>
      <trkpt lat="35.29574" lon="-117.73401"><ele>1232.0</ele></trkpt>
      <trkpt lat="35.29565" lon="-117.73416"><ele>1232.0</ele></trkpt>
      <trkpt lat="35.29554" lon="-117.73436"><ele>1232.0</ele></trkpt>
      <trkpt lat="35.29541" lon="-117.73453"><ele>1232.0</ele></trkpt>
      <trkpt lat="35.29520" lon="-117.73472"><ele>1232.0</ele></trkpt>
      <trkpt lat="35.29505" lon="-117.73485"><ele>1232.0</ele></trkpt>
      <trkpt lat="35.29487" lon="-117.73506"><ele>1232.0</ele></trkpt>
      <trkpt lat="35.29472" lon="-117.73519"><ele>1228.0</ele></trkpt>
      <trkpt lat="35.29459" lon="-117.73534"><ele>1228.0</ele></trkpt>
      <trkpt lat="35.29445" lon="-117.73550"><ele>1228.0</ele></trkpt>
      <trkpt lat="35.29437" lon="-117.73564"><ele>1228.0</ele></trkpt>
      <trkpt lat="35.29429" lon="-117.73579"><ele>1228.0</ele></trkpt>
      <trkpt lat="35.29426" lon="-117.73587"><ele>1228.0</ele></trkpt>
      <trkpt lat="35.29422" lon="-117.73595"><ele>1228.0</ele></trkpt>
      <trkpt lat="35.29416" lon="-117.73614"><ele>1226.0</ele></trkpt>
      <trkpt lat="35.29412" lon="-117.73625"><ele>1226.0</ele></trkpt>
      <trkpt lat="35.29405" lon="-117.73638"><ele>1226.0</ele></trkpt>
      <trkpt lat="35.29399" lon="-117.73650"><ele>1226.0</ele></trkpt>
      <trkpt lat="35.29387" lon="-117.73667"><ele>1226.0</ele></trkpt>
      <trkpt lat="35.29376" lon="-117.73677"><ele>1226.0</ele></trkpt>
      <trkpt lat="35.29358" lon="-117.73691"><ele>1226.0</ele></trkpt>
      <trkpt lat="35.29346" lon="-117.73702"><ele>1226.0</ele></trkpt>
      <trkpt lat="35.29334" lon="-117.73708"><ele>1217.0</ele></trkpt>
      <trkpt lat="35.29323" lon="-117.73721"><ele>1217.0</ele></trkpt>
      <trkpt lat="35.29313" lon="-117.73736"><ele>1217.0</ele></trkpt>
      <trkpt lat="35.29305" lon="-117.73751"><ele>1217.0</ele></trkpt>
      <trkpt lat="35.29298" lon="-117.73770"><ele>1217.0</ele></trkpt>
      <trkpt lat="35.29282" lon="-117.73770"><ele>1217.0</ele></trkpt>
      <trkpt lat="35.29280" lon="-117.73783"><ele>1217.0</ele></trkpt>
      <trkpt lat="35.29280" lon="-117.73790"><ele>1218.0</ele></trkpt>
      <trkpt lat="35.29272" lon="-117.73839"><ele>1218.0</ele></trkpt>
      <trkpt lat="35.29268" lon="-117.73856"><ele>1218.0</ele></trkpt>
      <trkpt lat="35.29263" lon="-117.73884"><ele>1218.0</ele></trkpt>
      <trkpt lat="35.29259" lon="-117.73912"><ele>1218.0</ele></trkpt>
      <trkpt lat="35.29251" lon="-117.73955"><ele>1218.0</ele></trkpt>
      <trkpt lat="35.29242" lon="-117.73988"><ele>1218.0</ele></trkpt>
      <trkpt lat="35.29236" lon="-117.74030"><ele>1218.0</ele></trkpt>
      <trkpt lat="35.29234" lon="-117.74047"><ele>1224.0</ele></trkpt>
      <trkpt lat="35.29231" lon="-117.74066"><ele>1224.0</ele></trkpt>
      <trkpt lat="35.29230" lon="-117.74077"><ele>1224.0</ele></trkpt>
      <trkpt lat="35.29228" lon="-117.74089"><ele>1224.0</ele></trkpt>
    </trkseg>
  </trk>
</gpx>
