<?xml version="1.0" encoding="UTF-8"?>
<gpx version="1.1" creator="dirt-bikes build-blm-routes (BLM GTLF geometry + SRTM elevation)" xmlns="http://www.topografix.com/GPX/1/1">
  <trk><name>Black Mountain Road</name>
    <trkseg>
      <trkpt lat="35.50088" lon="-117.94894"><ele>945.0</ele></trkpt>
      <trkpt lat="35.50058" lon="-117.94860"><ele>945.0</ele></trkpt>
      <trkpt lat="35.50046" lon="-117.94847"><ele>945.0</ele></trkpt>
      <trkpt lat="35.50029" lon="-117.94844"><ele>945.0</ele></trkpt>
      <trkpt lat="35.50016" lon="-117.94832"><ele>945.0</ele></trkpt>
      <trkpt lat="35.50002" lon="-117.94821"><ele>945.0</ele></trkpt>
      <trkpt lat="35.49989" lon="-117.94808"><ele>945.0</ele></trkpt>
      <trkpt lat="35.49976" lon="-117.94795"><ele>945.0</ele></trkpt>
      <trkpt lat="35.49961" lon="-117.94781"><ele>945.0</ele></trkpt>
      <trkpt lat="35.49945" lon="-117.94767"><ele>945.0</ele></trkpt>
      <trkpt lat="35.49931" lon="-117.94756"><ele>943.0</ele></trkpt>
      <trkpt lat="35.49916" lon="-117.94746"><ele>943.0</ele></trkpt>
      <trkpt lat="35.49903" lon="-117.94731"><ele>943.0</ele></trkpt>
      <trkpt lat="35.49890" lon="-117.94720"><ele>943.0</ele></trkpt>
      <trkpt lat="35.49875" lon="-117.94707"><ele>943.0</ele></trkpt>
      <trkpt lat="35.49859" lon="-117.94693"><ele>943.0</ele></trkpt>
      <trkpt lat="35.49848" lon="-117.94683"><ele>943.0</ele></trkpt>
      <trkpt lat="35.49835" lon="-117.94672"><ele>943.0</ele></trkpt>
      <trkpt lat="35.49822" lon="-117.94661"><ele>943.0</ele></trkpt>
      <trkpt lat="35.49809" lon="-117.94649"><ele>943.0</ele></trkpt>
      <trkpt lat="35.49796" lon="-117.94637"><ele>943.0</ele></trkpt>
      <trkpt lat="35.49784" lon="-117.94627"><ele>943.0</ele></trkpt>
      <trkpt lat="35.49769" lon="-117.94616"><ele>943.0</ele></trkpt>
      <trkpt lat="35.49756" lon="-117.94610"><ele>943.0</ele></trkpt>
      <trkpt lat="35.49743" lon="-117.94602"><ele>943.0</ele></trkpt>
      <trkpt lat="35.49733" lon="-117.94589"><ele>943.0</ele></trkpt>
      <trkpt lat="35.49721" lon="-117.94580"><ele>943.0</ele></trkpt>
      <trkpt lat="35.49711" lon="-117.94568"><ele>940.0</ele></trkpt>
      <trkpt lat="35.49702" lon="-117.94554"><ele>940.0</ele></trkpt>
      <trkpt lat="35.49689" lon="-117.94539"><ele>940.0</ele></trkpt>
      <trkpt lat="35.49678" lon="-117.94528"><ele>940.0</ele></trkpt>
      <trkpt lat="35.49664" lon="-117.94516"><ele>940.0</ele></trkpt>
      <trkpt lat="35.49650" lon="-117.94503"><ele>940.0</ele></trkpt>
      <trkpt lat="35.49637" lon="-117.94490"><ele>940.0</ele></trkpt>
      <trkpt lat="35.49624" lon="-117.94478"><ele>940.0</ele></trkpt>
      <trkpt lat="35.49609" lon="-117.94463"><ele>940.0</ele></trkpt>
      <trkpt lat="35.49591" lon="-117.94452"><ele>940.0</ele></trkpt>
      <trkpt lat="35.49579" lon="-117.94443"><ele>940.0</ele></trkpt>
      <trkpt lat="35.49566" lon="-117.94435"><ele>940.0</ele></trkpt>
      <trkpt lat="35.49551" lon="-117.94419"><ele>942.0</ele></trkpt>
      <trkpt lat="35.49539" lon="-117.94406"><ele>942.0</ele></trkpt>
      <trkpt lat="35.49524" lon="-117.94393"><ele>942.0</ele></trkpt>
      <trkpt lat="35.49507" lon="-117.94378"><ele>942.0</ele></trkpt>
      <trkpt lat="35.49489" lon="-117.94363"><ele>942.0</ele></trkpt>
      <trkpt lat="35.49470" lon="-117.94347"><ele>942.0</ele></trkpt>
      <trkpt lat="35.49452" lon="-117.94332"><ele>942.0</ele></trkpt>
      <trkpt lat="35.49436" lon="-117.94319"><ele>942.0</ele></trkpt>
      <trkpt lat="35.49424" lon="-117.94307"><ele>942.0</ele></trkpt>
      <trkpt lat="35.49413" lon="-117.94295"><ele>942.0</ele></trkpt>
      <trkpt lat="35.49398" lon="-117.94284"><ele>942.0</ele></trkpt>
      <trkpt lat="35.49382" lon="-117.94277"><ele>942.0</ele></trkpt>
      <trkpt lat="35.49369" lon="-117.94269"><ele>942.0</ele></trkpt>
      <trkpt lat="35.49358" lon="-117.94255"><ele>942.0</ele></trkpt>
      <trkpt lat="35.49347" lon="-117.94241"><ele>942.0</ele></trkpt>
      <trkpt lat="35.49334" lon="-117.94230"><ele>942.0</ele></trkpt>
      <trkpt lat="35.49319" lon="-117.94218"><ele>942.0</ele></trkpt>
      <trkpt lat="35.49303" lon="-117.94204"><ele>939.0</ele></trkpt>
      <trkpt lat="35.49285" lon="-117.94190"><ele>939.0</ele></trkpt>
      <trkpt lat="35.49267" lon="-117.94175"><ele>939.0</ele></trkpt>
      <trkpt lat="35.49249" lon="-117.94160"><ele>939.0</ele></trkpt>
      <trkpt lat="35.49231" lon="-117.94145"><ele>939.0</ele></trkpt>
      <trkpt lat="35.49215" lon="-117.94133"><ele>939.0</ele></trkpt>
      <trkpt lat="35.49203" lon="-117.94125"><ele>940.0</ele></trkpt>
      <trkpt lat="35.49189" lon="-117.94117"><ele>940.0</ele></trkpt>
      <trkpt lat="35.49172" lon="-117.94109"><ele>940.0</ele></trkpt>
      <trkpt lat="35.49160" lon="-117.94100"><ele>940.0</ele></trkpt>
      <trkpt lat="35.49148" lon="-117.94089"><ele>940.0</ele></trkpt>
      <trkpt lat="35.49135" lon="-117.94078"><ele>940.0</ele></trkpt>
      <trkpt lat="35.49122" lon="-117.94066"><ele>940.0</ele></trkpt>
      <trkpt lat="35.49109" lon="-117.94054"><ele>940.0</ele></trkpt>
      <trkpt lat="35.49095" lon="-117.94042"><ele>940.0</ele></trkpt>
      <trkpt lat="35.49081" lon="-117.94028"><ele>940.0</ele></trkpt>
      <trkpt lat="35.49067" lon="-117.94011"><ele>940.0</ele></trkpt>
      <trkpt lat="35.49053" lon="-117.93993"><ele>940.0</ele></trkpt>
      <trkpt lat="35.49042" lon="-117.93982"><ele>940.0</ele></trkpt>
      <trkpt lat="35.49025" lon="-117.93969"><ele>940.0</ele></trkpt>
      <trkpt lat="35.49013" lon="-117.93959"><ele>940.0</ele></trkpt>
      <trkpt lat="35.49001" lon="-117.93949"><ele>940.0</ele></trkpt>
      <trkpt lat="35.48988" lon="-117.93938"><ele>940.0</ele></trkpt>
      <trkpt lat="35.48975" lon="-117.93928"><ele>940.0</ele></trkpt>
      <trkpt lat="35.48962" lon="-117.93918"><ele>937.0</ele></trkpt>
      <trkpt lat="35.48946" lon="-117.93905"><ele>937.0</ele></trkpt>
      <trkpt lat="35.48931" lon="-117.93891"><ele>937.0</ele></trkpt>
      <trkpt lat="35.48916" lon="-117.93875"><ele>937.0</ele></trkpt>
      <trkpt lat="35.48900" lon="-117.93861"><ele>937.0</ele></trkpt>
      <trkpt lat="35.48886" lon="-117.93845"><ele>937.0</ele></trkpt>
      <trkpt lat="35.48877" lon="-117.93832"><ele>936.0</ele></trkpt>
      <trkpt lat="35.48865" lon="-117.93817"><ele>936.0</ele></trkpt>
      <trkpt lat="35.48849" lon="-117.93802"><ele>936.0</ele></trkpt>
      <trkpt lat="35.48832" lon="-117.93787"><ele>936.0</ele></trkpt>
      <trkpt lat="35.48815" lon="-117.93774"><ele>936.0</ele></trkpt>
      <trkpt lat="35.48800" lon="-117.93764"><ele>936.0</ele></trkpt>
      <trkpt lat="35.48782" lon="-117.93759"><ele>936.0</ele></trkpt>
      <trkpt lat="35.48761" lon="-117.93754"><ele>936.0</ele></trkpt>
      <trkpt lat="35.48740" lon="-117.93745"><ele>936.0</ele></trkpt>
      <trkpt lat="35.48719" lon="-117.93730"><ele>936.0</ele></trkpt>
      <trkpt lat="35.48702" lon="-117.93713"><ele>936.0</ele></trkpt>
      <trkpt lat="35.48685" lon="-117.93694"><ele>939.0</ele></trkpt>
      <trkpt lat="35.48668" lon="-117.93675"><ele>939.0</ele></trkpt>
      <trkpt lat="35.48651" lon="-117.93656"><ele>939.0</ele></trkpt>
      <trkpt lat="35.48633" lon="-117.93638"><ele>939.0</ele></trkpt>
      <trkpt lat="35.48614" lon="-117.93620"><ele>939.0</ele></trkpt>
      <trkpt lat="35.48594" lon="-117.93602"><ele>939.0</ele></trkpt>
      <trkpt lat="35.48574" lon="-117.93583"><ele>940.0</ele></trkpt>
      <trkpt lat="35.48552" lon="-117.93565"><ele>940.0</ele></trkpt>
      <trkpt lat="35.48532" lon="-117.93547"><ele>940.0</ele></trkpt>
      <trkpt lat="35.48516" lon="-117.93533"><ele>940.0</ele></trkpt>
      <trkpt lat="35.48502" lon="-117.93520"><ele>940.0</ele></trkpt>
      <trkpt lat="35.48486" lon="-117.93506"><ele>940.0</ele></trkpt>
      <trkpt lat="35.48468" lon="-117.93492"><ele>939.0</ele></trkpt>
      <trkpt lat="35.48450" lon="-117.93476"><ele>939.0</ele></trkpt>
      <trkpt lat="35.48435" lon="-117.93464"><ele>939.0</ele></trkpt>
      <trkpt lat="35.48420" lon="-117.93454"><ele>939.0</ele></trkpt>
      <trkpt lat="35.48407" lon="-117.93444"><ele>939.0</ele></trkpt>
      <trkpt lat="35.48393" lon="-117.93430"><ele>939.0</ele></trkpt>
      <trkpt lat="35.48377" lon="-117.93414"><ele>939.0</ele></trkpt>
      <trkpt lat="35.48366" lon="-117.93404"><ele>939.0</ele></trkpt>
      <trkpt lat="35.48353" lon="-117.93394"><ele>939.0</ele></trkpt>
      <trkpt lat="35.48337" lon="-117.93381"><ele>939.0</ele></trkpt>
      <trkpt lat="35.48320" lon="-117.93367"><ele>939.0</ele></trkpt>
      <trkpt lat="35.48302" lon="-117.93352"><ele>939.0</ele></trkpt>
      <trkpt lat="35.48284" lon="-117.93338"><ele>939.0</ele></trkpt>
      <trkpt lat="35.48266" lon="-117.93324"><ele>939.0</ele></trkpt>
      <trkpt lat="35.48248" lon="-117.93310"><ele>939.0</ele></trkpt>
      <trkpt lat="35.48231" lon="-117.93297"><ele>939.0</ele></trkpt>
      <trkpt lat="35.48216" lon="-117.93284"><ele>939.0</ele></trkpt>
      <trkpt lat="35.48203" lon="-117.93273"><ele>939.0</ele></trkpt>
      <trkpt lat="35.48190" lon="-117.93264"><ele>938.0</ele></trkpt>
      <trkpt lat="35.48173" lon="-117.93254"><ele>938.0</ele></trkpt>
      <trkpt lat="35.48157" lon="-117.93242"><ele>938.0</ele></trkpt>
      <trkpt lat="35.48145" lon="-117.93232"><ele>938.0</ele></trkpt>
      <trkpt lat="35.48134" lon="-117.93219"><ele>938.0</ele></trkpt>
      <trkpt lat="35.48122" lon="-117.93209"><ele>937.0</ele></trkpt>
      <trkpt lat="35.48107" lon="-117.93197"><ele>937.0</ele></trkpt>
      <trkpt lat="35.48090" lon="-117.93182"><ele>937.0</ele></trkpt>
      <trkpt lat="35.48075" lon="-117.93168"><ele>937.0</ele></trkpt>
      <trkpt lat="35.48067" lon="-117.93158"><ele>937.0</ele></trkpt>
      <trkpt lat="35.48054" lon="-117.93147"><ele>937.0</ele></trkpt>
      <trkpt lat="35.48037" lon="-117.93134"><ele>936.0</ele></trkpt>
      <trkpt lat="35.48021" lon="-117.93123"><ele>936.0</ele></trkpt>
      <trkpt lat="35.48005" lon="-117.93112"><ele>936.0</ele></trkpt>
      <trkpt lat="35.47988" lon="-117.93100"><ele>936.0</ele></trkpt>
      <trkpt lat="35.47972" lon="-117.93089"><ele>936.0</ele></trkpt>
      <trkpt lat="35.47956" lon="-117.93078"><ele>936.0</ele></trkpt>
      <trkpt lat="35.47941" lon="-117.93068"><ele>938.0</ele></trkpt>
      <trkpt lat="35.47940" lon="-117.93067"><ele>938.0</ele></trkpt>
      <trkpt lat="35.47924" lon="-117.93055"><ele>938.0</ele></trkpt>
      <trkpt lat="35.47908" lon="-117.93043"><ele>938.0</ele></trkpt>
      <trkpt lat="35.47891" lon="-117.93031"><ele>938.0</ele></trkpt>
      <trkpt lat="35.47876" lon="-117.93019"><ele>938.0</ele></trkpt>
      <trkpt lat="35.47859" lon="-117.93006"><ele>941.0</ele></trkpt>
      <trkpt lat="35.47842" lon="-117.92994"><ele>941.0</ele></trkpt>
      <trkpt lat="35.47825" lon="-117.92982"><ele>941.0</ele></trkpt>
      <trkpt lat="35.47809" lon="-117.92971"><ele>941.0</ele></trkpt>
      <trkpt lat="35.47794" lon="-117.92962"><ele>941.0</ele></trkpt>
      <trkpt lat="35.47777" lon="-117.92956"><ele>941.0</ele></trkpt>
      <trkpt lat="35.47763" lon="-117.92948"><ele>943.0</ele></trkpt>
      <trkpt lat="35.47751" lon="-117.92937"><ele>943.0</ele></trkpt>
      <trkpt lat="35.47736" lon="-117.92921"><ele>943.0</ele></trkpt>
      <trkpt lat="35.47726" lon="-117.92909"><ele>943.0</ele></trkpt>
      <trkpt lat="35.47714" lon="-117.92897"><ele>943.0</ele></trkpt>
      <trkpt lat="35.47702" lon="-117.92886"><ele>943.0</ele></trkpt>
      <trkpt lat="35.47688" lon="-117.92874"><ele>944.0</ele></trkpt>
      <trkpt lat="35.47676" lon="-117.92863"><ele>944.0</ele></trkpt>
      <trkpt lat="35.47662" lon="-117.92852"><ele>944.0</ele></trkpt>
      <trkpt lat="35.47649" lon="-117.92841"><ele>944.0</ele></trkpt>
      <trkpt lat="35.47636" lon="-117.92830"><ele>944.0</ele></trkpt>
      <trkpt lat="35.47625" lon="-117.92821"><ele>947.0</ele></trkpt>
      <trkpt lat="35.47612" lon="-117.92812"><ele>947.0</ele></trkpt>
      <trkpt lat="35.47599" lon="-117.92804"><ele>947.0</ele></trkpt>
      <trkpt lat="35.47583" lon="-117.92794"><ele>947.0</ele></trkpt>
      <trkpt lat="35.47569" lon="-117.92783"><ele>947.0</ele></trkpt>
      <trkpt lat="35.47557" lon="-117.92769"><ele>947.0</ele></trkpt>
      <trkpt lat="35.47546" lon="-117.92750"><ele>948.0</ele></trkpt>
      <trkpt lat="35.47536" lon="-117.92731"><ele>948.0</ele></trkpt>
      <trkpt lat="35.47523" lon="-117.92712"><ele>948.0</ele></trkpt>
      <trkpt lat="35.47512" lon="-117.92699"><ele>948.0</ele></trkpt>
      <trkpt lat="35.47498" lon="-117.92688"><ele>948.0</ele></trkpt>
      <trkpt lat="35.47484" lon="-117.92678"><ele>948.0</ele></trkpt>
      <trkpt lat="35.47468" lon="-117.92668"><ele>951.0</ele></trkpt>
      <trkpt lat="35.47452" lon="-117.92656"><ele>951.0</ele></trkpt>
      <trkpt lat="35.47440" lon="-117.92647"><ele>951.0</ele></trkpt>
      <trkpt lat="35.47427" lon="-117.92636"><ele>951.0</ele></trkpt>
      <trkpt lat="35.47412" lon="-117.92623"><ele>951.0</ele></trkpt>
      <trkpt lat="35.47396" lon="-117.92608"><ele>951.0</ele></trkpt>
      <trkpt lat="35.47378" lon="-117.92593"><ele>955.0</ele></trkpt>
      <trkpt lat="35.47360" lon="-117.92577"><ele>955.0</ele></trkpt>
      <trkpt lat="35.47341" lon="-117.92561"><ele>955.0</ele></trkpt>
      <trkpt lat="35.47321" lon="-117.92545"><ele>955.0</ele></trkpt>
      <trkpt lat="35.47300" lon="-117.92529"><ele>955.0</ele></trkpt>
      <trkpt lat="35.47278" lon="-117.92513"><ele>955.0</ele></trkpt>
      <trkpt lat="35.47255" lon="-117.92496"><ele>959.0</ele></trkpt>
      <trkpt lat="35.47233" lon="-117.92479"><ele>959.0</ele></trkpt>
      <trkpt lat="35.47211" lon="-117.92461"><ele>959.0</ele></trkpt>
      <trkpt lat="35.47189" lon="-117.92443"><ele>959.0</ele></trkpt>
      <trkpt lat="35.47167" lon="-117.92424"><ele>959.0</ele></trkpt>
      <trkpt lat="35.47146" lon="-117.92405"><ele>959.0</ele></trkpt>
      <trkpt lat="35.47124" lon="-117.92386"><ele>964.0</ele></trkpt>
      <trkpt lat="35.47103" lon="-117.92368"><ele>964.0</ele></trkpt>
      <trkpt lat="35.47083" lon="-117.92351"><ele>964.0</ele></trkpt>
      <trkpt lat="35.47067" lon="-117.92338"><ele>964.0</ele></trkpt>
      <trkpt lat="35.47055" lon="-117.92328"><ele>964.0</ele></trkpt>
      <trkpt lat="35.47041" lon="-117.92317"><ele>963.0</ele></trkpt>
      <trkpt lat="35.47028" lon="-117.92304"><ele>963.0</ele></trkpt>
      <trkpt lat="35.47016" lon="-117.92293"><ele>963.0</ele></trkpt>
      <trkpt lat="35.47002" lon="-117.92279"><ele>963.0</ele></trkpt>
      <trkpt lat="35.46986" lon="-117.92266"><ele>963.0</ele></trkpt>
      <trkpt lat="35.46969" lon="-117.92252"><ele>963.0</ele></trkpt>
      <trkpt lat="35.46951" lon="-117.92238"><ele>968.0</ele></trkpt>
      <trkpt lat="35.46934" lon="-117.92226"><ele>968.0</ele></trkpt>
      <trkpt lat="35.46916" lon="-117.92213"><ele>968.0</ele></trkpt>
      <trkpt lat="35.46897" lon="-117.92201"><ele>968.0</ele></trkpt>
      <trkpt lat="35.46879" lon="-117.92188"><ele>968.0</ele></trkpt>
      <trkpt lat="35.46860" lon="-117.92174"><ele>968.0</ele></trkpt>
      <trkpt lat="35.46842" lon="-117.92159"><ele>972.0</ele></trkpt>
      <trkpt lat="35.46822" lon="-117.92143"><ele>972.0</ele></trkpt>
      <trkpt lat="35.46802" lon="-117.92126"><ele>972.0</ele></trkpt>
      <trkpt lat="35.46782" lon="-117.92108"><ele>972.0</ele></trkpt>
      <trkpt lat="35.46759" lon="-117.92092"><ele>972.0</ele></trkpt>
      <trkpt lat="35.46739" lon="-117.92077"><ele>972.0</ele></trkpt>
      <trkpt lat="35.46725" lon="-117.92067"><ele>975.0</ele></trkpt>
      <trkpt lat="35.46710" lon="-117.92056"><ele>975.0</ele></trkpt>
      <trkpt lat="35.46697" lon="-117.92045"><ele>975.0</ele></trkpt>
      <trkpt lat="35.46683" lon="-117.92034"><ele>975.0</ele></trkpt>
      <trkpt lat="35.46668" lon="-117.92021"><ele>975.0</ele></trkpt>
      <trkpt lat="35.46657" lon="-117.92012"><ele>975.0</ele></trkpt>
      <trkpt lat="35.46649" lon="-117.92005"><ele>977.0</ele></trkpt>
      <trkpt lat="35.46646" lon="-117.92002"><ele>977.0</ele></trkpt>
      <trkpt lat="35.46631" lon="-117.91991"><ele>977.0</ele></trkpt>
      <trkpt lat="35.46619" lon="-117.91981"><ele>977.0</ele></trkpt>
      <trkpt lat="35.46608" lon="-117.91972"><ele>977.0</ele></trkpt>
      <trkpt lat="35.46595" lon="-117.91961"><ele>977.0</ele></trkpt>
      <trkpt lat="35.46583" lon="-117.91950"><ele>980.0</ele></trkpt>
      <trkpt lat="35.46570" lon="-117.91938"><ele>980.0</ele></trkpt>
      <trkpt lat="35.46557" lon="-117.91925"><ele>980.0</ele></trkpt>
      <trkpt lat="35.46543" lon="-117.91913"><ele>980.0</ele></trkpt>
      <trkpt lat="35.46529" lon="-117.91900"><ele>980.0</ele></trkpt>
      <trkpt lat="35.46514" lon="-117.91887"><ele>980.0</ele></trkpt>
      <trkpt lat="35.46499" lon="-117.91874"><ele>984.0</ele></trkpt>
      <trkpt lat="35.46484" lon="-117.91861"><ele>984.0</ele></trkpt>
      <trkpt lat="35.46470" lon="-117.91847"><ele>984.0</ele></trkpt>
      <trkpt lat="35.46454" lon="-117.91833"><ele>984.0</ele></trkpt>
      <trkpt lat="35.46439" lon="-117.91819"><ele>984.0</ele></trkpt>
      <trkpt lat="35.46424" lon="-117.91804"><ele>986.0</ele></trkpt>
      <trkpt lat="35.46408" lon="-117.91789"><ele>986.0</ele></trkpt>
      <trkpt lat="35.46392" lon="-117.91773"><ele>986.0</ele></trkpt>
      <trkpt lat="35.46375" lon="-117.91757"><ele>986.0</ele></trkpt>
      <trkpt lat="35.46359" lon="-117.91742"><ele>986.0</ele></trkpt>
      <trkpt lat="35.46344" lon="-117.91727"><ele>986.0</ele></trkpt>
      <trkpt lat="35.46332" lon="-117.91715"><ele>991.0</ele></trkpt>
      <trkpt lat="35.46317" lon="-117.91699"><ele>991.0</ele></trkpt>
      <trkpt lat="35.46305" lon="-117.91688"><ele>991.0</ele></trkpt>
      <trkpt lat="35.46292" lon="-117.91674"><ele>991.0</ele></trkpt>
      <trkpt lat="35.46278" lon="-117.91660"><ele>991.0</ele></trkpt>
      <trkpt lat="35.46262" lon="-117.91644"><ele>991.0</ele></trkpt>
      <trkpt lat="35.46247" lon="-117.91627"><ele>995.0</ele></trkpt>
      <trkpt lat="35.46233" lon="-117.91609"><ele>995.0</ele></trkpt>
      <trkpt lat="35.46217" lon="-117.91590"><ele>995.0</ele></trkpt>
      <trkpt lat="35.46201" lon="-117.91571"><ele>995.0</ele></trkpt>
      <trkpt lat="35.46185" lon="-117.91552"><ele>995.0</ele></trkpt>
      <trkpt lat="35.46168" lon="-117.91532"><ele>995.0</ele></trkpt>
      <trkpt lat="35.46150" lon="-117.91511"><ele>999.0</ele></trkpt>
      <trkpt lat="35.46131" lon="-117.91490"><ele>999.0</ele></trkpt>
      <trkpt lat="35.46112" lon="-117.91469"><ele>999.0</ele></trkpt>
      <trkpt lat="35.46093" lon="-117.91448"><ele>999.0</ele></trkpt>
      <trkpt lat="35.46073" lon="-117.91426"><ele>999.0</ele></trkpt>
      <trkpt lat="35.46052" lon="-117.91405"><ele>999.0</ele></trkpt>
      <trkpt lat="35.46031" lon="-117.91383"><ele>1003.0</ele></trkpt>
      <trkpt lat="35.46020" lon="-117.91372"><ele>1003.0</ele></trkpt>
      <trkpt lat="35.46010" lon="-117.91361"><ele>1003.0</ele></trkpt>
      <trkpt lat="35.45989" lon="-117.91338"><ele>1003.0</ele></trkpt>
      <trkpt lat="35.45970" lon="-117.91316"><ele>1003.0</ele></trkpt>
      <trkpt lat="35.45953" lon="-117.91298"><ele>1003.0</ele></trkpt>
      <trkpt lat="35.45937" lon="-117.91280"><ele>1008.0</ele></trkpt>
      <trkpt lat="35.45924" lon="-117.91266"><ele>1008.0</ele></trkpt>
      <trkpt lat="35.45914" lon="-117.91254"><ele>1008.0</ele></trkpt>
      <trkpt lat="35.45900" lon="-117.91238"><ele>1008.0</ele></trkpt>
      <trkpt lat="35.45888" lon="-117.91226"><ele>1008.0</ele></trkpt>
      <trkpt lat="35.45876" lon="-117.91212"><ele>1013.0</ele></trkpt>
      <trkpt lat="35.45864" lon="-117.91197"><ele>1013.0</ele></trkpt>
      <trkpt lat="35.45850" lon="-117.91182"><ele>1013.0</ele></trkpt>
      <trkpt lat="35.45837" lon="-117.91167"><ele>1013.0</ele></trkpt>
      <trkpt lat="35.45826" lon="-117.91156"><ele>1013.0</ele></trkpt>
      <trkpt lat="35.45818" lon="-117.91138"><ele>1013.0</ele></trkpt>
      <trkpt lat="35.45816" lon="-117.91120"><ele>1014.0</ele></trkpt>
      <trkpt lat="35.45818" lon="-117.91098"><ele>1014.0</ele></trkpt>
      <trkpt lat="35.45818" lon="-117.91077"><ele>1014.0</ele></trkpt>
      <trkpt lat="35.45813" lon="-117.91056"><ele>1014.0</ele></trkpt>
      <trkpt lat="35.45806" lon="-117.91034"><ele>1014.0</ele></trkpt>
      <trkpt lat="35.45795" lon="-117.91013"><ele>1014.0</ele></trkpt>
      <trkpt lat="35.45787" lon="-117.90999"><ele>1018.0</ele></trkpt>
      <trkpt lat="35.45778" lon="-117.90985"><ele>1018.0</ele></trkpt>
      <trkpt lat="35.45768" lon="-117.90971"><ele>1018.0</ele></trkpt>
      <trkpt lat="35.45758" lon="-117.90958"><ele>1018.0</ele></trkpt>
      <trkpt lat="35.45746" lon="-117.90945"><ele>1018.0</ele></trkpt>
      <trkpt lat="35.45734" lon="-117.90932"><ele>1018.0</ele></trkpt>
      <trkpt lat="35.45724" lon="-117.90920"><ele>1019.0</ele></trkpt>
      <trkpt lat="35.45711" lon="-117.90905"><ele>1019.0</ele></trkpt>
      <trkpt lat="35.45700" lon="-117.90890"><ele>1019.0</ele></trkpt>
      <trkpt lat="35.45689" lon="-117.90872"><ele>1019.0</ele></trkpt>
      <trkpt lat="35.45678" lon="-117.90854"><ele>1019.0</ele></trkpt>
      <trkpt lat="35.45668" lon="-117.90838"><ele>1019.0</ele></trkpt>
      <trkpt lat="35.45658" lon="-117.90821"><ele>1023.0</ele></trkpt>
      <trkpt lat="35.45649" lon="-117.90807"><ele>1023.0</ele></trkpt>
      <trkpt lat="35.45640" lon="-117.90791"><ele>1023.0</ele></trkpt>
      <trkpt lat="35.45630" lon="-117.90773"><ele>1023.0</ele></trkpt>
      <trkpt lat="35.45620" lon="-117.90753"><ele>1023.0</ele></trkpt>
      <trkpt lat="35.45611" lon="-117.90734"><ele>1023.0</ele></trkpt>
      <trkpt lat="35.45604" lon="-117.90714"><ele>1025.0</ele></trkpt>
      <trkpt lat="35.45598" lon="-117.90694"><ele>1025.0</ele></trkpt>
      <trkpt lat="35.45593" lon="-117.90674"><ele>1025.0</ele></trkpt>
      <trkpt lat="35.45586" lon="-117.90656"><ele>1025.0</ele></trkpt>
      <trkpt lat="35.45577" lon="-117.90641"><ele>1025.0</ele></trkpt>
      <trkpt lat="35.45566" lon="-117.90629"><ele>1025.0</ele></trkpt>
      <trkpt lat="35.45557" lon="-117.90615"><ele>1030.0</ele></trkpt>
      <trkpt lat="35.45556" lon="-117.90612"><ele>1030.0</ele></trkpt>
      <trkpt lat="35.45551" lon="-117.90598"><ele>1030.0</ele></trkpt>
      <trkpt lat="35.45545" lon="-117.90579"><ele>1030.0</ele></trkpt>
      <trkpt lat="35.45539" lon="-117.90558"><ele>1030.0</ele></trkpt>
      <trkpt lat="35.45533" lon="-117.90538"><ele>1030.0</ele></trkpt>
      <trkpt lat="35.45526" lon="-117.90520"><ele>1030.0</ele></trkpt>
      <trkpt lat="35.45517" lon="-117.90505"><ele>1030.0</ele></trkpt>
      <trkpt lat="35.45506" lon="-117.90492"><ele>1030.0</ele></trkpt>
      <trkpt lat="35.45496" lon="-117.90478"><ele>1030.0</ele></trkpt>
      <trkpt lat="35.45485" lon="-117.90464"><ele>1030.0</ele></trkpt>
      <trkpt lat="35.45474" lon="-117.90447"><ele>1033.0</ele></trkpt>
      <trkpt lat="35.45463" lon="-117.90429"><ele>1033.0</ele></trkpt>
      <trkpt lat="35.45453" lon="-117.90410"><ele>1033.0</ele></trkpt>
      <trkpt lat="35.45443" lon="-117.90391"><ele>1033.0</ele></trkpt>
      <trkpt lat="35.45435" lon="-117.90371"><ele>1033.0</ele></trkpt>
      <trkpt lat="35.45427" lon="-117.90351"><ele>1033.0</ele></trkpt>
      <trkpt lat="35.45418" lon="-117.90330"><ele>1036.0</ele></trkpt>
      <trkpt lat="35.45407" lon="-117.90310"><ele>1036.0</ele></trkpt>
      <trkpt lat="35.45397" lon="-117.90295"><ele>1036.0</ele></trkpt>
      <trkpt lat="35.45386" lon="-117.90280"><ele>1036.0</ele></trkpt>
      <trkpt lat="35.45375" lon="-117.90264"><ele>1036.0</ele></trkpt>
      <trkpt lat="35.45365" lon="-117.90251"><ele>1036.0</ele></trkpt>
      <trkpt lat="35.45354" lon="-117.90237"><ele>1039.0</ele></trkpt>
      <trkpt lat="35.45343" lon="-117.90223"><ele>1039.0</ele></trkpt>
      <trkpt lat="35.45331" lon="-117.90209"><ele>1039.0</ele></trkpt>
      <trkpt lat="35.45317" lon="-117.90196"><ele>1039.0</ele></trkpt>
      <trkpt lat="35.45303" lon="-117.90183"><ele>1039.0</ele></trkpt>
      <trkpt lat="35.45289" lon="-117.90170"><ele>1039.0</ele></trkpt>
      <trkpt lat="35.45274" lon="-117.90156"><ele>1041.0</ele></trkpt>
      <trkpt lat="35.45259" lon="-117.90143"><ele>1041.0</ele></trkpt>
      <trkpt lat="35.45243" lon="-117.90130"><ele>1041.0</ele></trkpt>
      <trkpt lat="35.45228" lon="-117.90117"><ele>1041.0</ele></trkpt>
      <trkpt lat="35.45211" lon="-117.90106"><ele>1041.0</ele></trkpt>
      <trkpt lat="35.45195" lon="-117.90094"><ele>1041.0</ele></trkpt>
      <trkpt lat="35.45179" lon="-117.90080"><ele>1046.0</ele></trkpt>
      <trkpt lat="35.45168" lon="-117.90066"><ele>1046.0</ele></trkpt>
      <trkpt lat="35.45157" lon="-117.90050"><ele>1046.0</ele></trkpt>
      <trkpt lat="35.45150" lon="-117.90034"><ele>1046.0</ele></trkpt>
      <trkpt lat="35.45144" lon="-117.90016"><ele>1046.0</ele></trkpt>
      <trkpt lat="35.45143" lon="-117.90002"><ele>1051.0</ele></trkpt>
      <trkpt lat="35.45141" lon="-117.89984"><ele>1051.0</ele></trkpt>
      <trkpt lat="35.45140" lon="-117.89966"><ele>1051.0</ele></trkpt>
      <trkpt lat="35.45140" lon="-117.89944"><ele>1051.0</ele></trkpt>
      <trkpt lat="35.45137" lon="-117.89923"><ele>1051.0</ele></trkpt>
      <trkpt lat="35.45131" lon="-117.89901"><ele>1051.0</ele></trkpt>
      <trkpt lat="35.45123" lon="-117.89878"><ele>1054.0</ele></trkpt>
      <trkpt lat="35.45120" lon="-117.89862"><ele>1054.0</ele></trkpt>
      <trkpt lat="35.45118" lon="-117.89845"><ele>1054.0</ele></trkpt>
      <trkpt lat="35.45119" lon="-117.89827"><ele>1054.0</ele></trkpt>
      <trkpt lat="35.45122" lon="-117.89807"><ele>1054.0</ele></trkpt>
      <trkpt lat="35.45128" lon="-117.89788"><ele>1054.0</ele></trkpt>
      <trkpt lat="35.45133" lon="-117.89770"><ele>1057.0</ele></trkpt>
      <trkpt lat="35.45134" lon="-117.89753"><ele>1057.0</ele></trkpt>
      <trkpt lat="35.45130" lon="-117.89730"><ele>1057.0</ele></trkpt>
      <trkpt lat="35.45122" lon="-117.89716"><ele>1057.0</ele></trkpt>
      <trkpt lat="35.45111" lon="-117.89704"><ele>1057.0</ele></trkpt>
      <trkpt lat="35.45099" lon="-117.89694"><ele>1057.0</ele></trkpt>
      <trkpt lat="35.45088" lon="-117.89683"><ele>1059.0</ele></trkpt>
      <trkpt lat="35.45073" lon="-117.89664"><ele>1059.0</ele></trkpt>
      <trkpt lat="35.45064" lon="-117.89650"><ele>1059.0</ele></trkpt>
      <trkpt lat="35.45054" lon="-117.89634"><ele>1059.0</ele></trkpt>
      <trkpt lat="35.45046" lon="-117.89616"><ele>1059.0</ele></trkpt>
      <trkpt lat="35.45039" lon="-117.89598"><ele>1059.0</ele></trkpt>
      <trkpt lat="35.45029" lon="-117.89581"><ele>1066.0</ele></trkpt>
      <trkpt lat="35.45019" lon="-117.89565"><ele>1066.0</ele></trkpt>
      <trkpt lat="35.45005" lon="-117.89546"><ele>1066.0</ele></trkpt>
      <trkpt lat="35.44992" lon="-117.89538"><ele>1066.0</ele></trkpt>
      <trkpt lat="35.44978" lon="-117.89535"><ele>1066.0</ele></trkpt>
      <trkpt lat="35.44961" lon="-117.89534"><ele>1066.0</ele></trkpt>
      <trkpt lat="35.44944" lon="-117.89529"><ele>1072.0</ele></trkpt>
      <trkpt lat="35.44928" lon="-117.89523"><ele>1072.0</ele></trkpt>
      <trkpt lat="35.44911" lon="-117.89526"><ele>1072.0</ele></trkpt>
      <trkpt lat="35.44889" lon="-117.89531"><ele>1072.0</ele></trkpt>
      <trkpt lat="35.44875" lon="-117.89535"><ele>1072.0</ele></trkpt>
      <trkpt lat="35.44866" lon="-117.89535"><ele>1071.0</ele></trkpt>
      <trkpt lat="35.44866" lon="-117.89535"><ele>1071.0</ele></trkpt>
      <trkpt lat="35.44834" lon="-117.89538"><ele>1071.0</ele></trkpt>
      <trkpt lat="35.44818" lon="-117.89537"><ele>1071.0</ele></trkpt>
      <trkpt lat="35.44802" lon="-117.89535"><ele>1071.0</ele></trkpt>
      <trkpt lat="35.44786" lon="-117.89533"><ele>1071.0</ele></trkpt>
      <trkpt lat="35.44770" lon="-117.89528"><ele>1062.0</ele></trkpt>
      <trkpt lat="35.44756" lon="-117.89521"><ele>1062.0</ele></trkpt>
      <trkpt lat="35.44742" lon="-117.89517"><ele>1062.0</ele></trkpt>
      <trkpt lat="35.44730" lon="-117.89507"><ele>1062.0</ele></trkpt>
      <trkpt lat="35.44720" lon="-117.89492"><ele>1062.0</ele></trkpt>
      <trkpt lat="35.44710" lon="-117.89476"><ele>1062.0</ele></trkpt>
      <trkpt lat="35.44701" lon="-117.89460"><ele>1053.0</ele></trkpt>
      <trkpt lat="35.44691" lon="-117.89444"><ele>1053.0</ele></trkpt>
      <trkpt lat="35.44680" lon="-117.89429"><ele>1053.0</ele></trkpt>
      <trkpt lat="35.44671" lon="-117.89418"><ele>1053.0</ele></trkpt>
      <trkpt lat="35.44659" lon="-117.89405"><ele>1053.0</ele></trkpt>
      <trkpt lat="35.44645" lon="-117.89392"><ele>1053.0</ele></trkpt>
      <trkpt lat="35.44631" lon="-117.89381"><ele>1045.0</ele></trkpt>
      <trkpt lat="35.44617" lon="-117.89366"><ele>1045.0</ele></trkpt>
      <trkpt lat="35.44603" lon="-117.89351"><ele>1045.0</ele></trkpt>
      <trkpt lat="35.44593" lon="-117.89340"><ele>1045.0</ele></trkpt>
      <trkpt lat="35.44577" lon="-117.89326"><ele>1045.0</ele></trkpt>
      <trkpt lat="35.44564" lon="-117.89312"><ele>1045.0</ele></trkpt>
      <trkpt lat="35.44548" lon="-117.89301"><ele>1037.0</ele></trkpt>
      <trkpt lat="35.44536" lon="-117.89294"><ele>1037.0</ele></trkpt>
      <trkpt lat="35.44521" lon="-117.89284"><ele>1037.0</ele></trkpt>
      <trkpt lat="35.44508" lon="-117.89276"><ele>1037.0</ele></trkpt>
      <trkpt lat="35.44493" lon="-117.89270"><ele>1037.0</ele></trkpt>
      <trkpt lat="35.44480" lon="-117.89266"><ele>1037.0</ele></trkpt>
      <trkpt lat="35.44465" lon="-117.89264"><ele>1031.0</ele></trkpt>
      <trkpt lat="35.44449" lon="-117.89263"><ele>1031.0</ele></trkpt>
      <trkpt lat="35.44432" lon="-117.89264"><ele>1031.0</ele></trkpt>
      <trkpt lat="35.44417" lon="-117.89269"><ele>1031.0</ele></trkpt>
      <trkpt lat="35.44403" lon="-117.89274"><ele>1031.0</ele></trkpt>
      <trkpt lat="35.44387" lon="-117.89281"><ele>1031.0</ele></trkpt>
      <trkpt lat="35.44371" lon="-117.89287"><ele>1029.0</ele></trkpt>
      <trkpt lat="35.44354" lon="-117.89293"><ele>1029.0</ele></trkpt>
      <trkpt lat="35.44337" lon="-117.89297"><ele>1029.0</ele></trkpt>
      <trkpt lat="35.44324" lon="-117.89300"><ele>1029.0</ele></trkpt>
      <trkpt lat="35.44307" lon="-117.89299"><ele>1029.0</ele></trkpt>
      <trkpt lat="35.44290" lon="-117.89296"><ele>1025.0</ele></trkpt>
      <trkpt lat="35.44277" lon="-117.89292"><ele>1025.0</ele></trkpt>
      <trkpt lat="35.44263" lon="-117.89286"><ele>1025.0</ele></trkpt>
      <trkpt lat="35.44247" lon="-117.89279"><ele>1025.0</ele></trkpt>
      <trkpt lat="35.44232" lon="-117.89274"><ele>1025.0</ele></trkpt>
      <trkpt lat="35.44219" lon="-117.89271"><ele>1025.0</ele></trkpt>
      <trkpt lat="35.44205" lon="-117.89271"><ele>1020.0</ele></trkpt>
      <trkpt lat="35.44190" lon="-117.89273"><ele>1020.0</ele></trkpt>
      <trkpt lat="35.44176" lon="-117.89279"><ele>1020.0</ele></trkpt>
      <trkpt lat="35.44162" lon="-117.89288"><ele>1020.0</ele></trkpt>
      <trkpt lat="35.44146" lon="-117.89299"><ele>1020.0</ele></trkpt>
      <trkpt lat="35.44133" lon="-117.89309"><ele>1020.0</ele></trkpt>
      <trkpt lat="35.44120" lon="-117.89320"><ele>1015.0</ele></trkpt>
      <trkpt lat="35.44106" lon="-117.89334"><ele>1015.0</ele></trkpt>
      <trkpt lat="35.44092" lon="-117.89344"><ele>1015.0</ele></trkpt>
      <trkpt lat="35.44076" lon="-117.89353"><ele>1015.0</ele></trkpt>
      <trkpt lat="35.44062" lon="-117.89359"><ele>1015.0</ele></trkpt>
      <trkpt lat="35.44049" lon="-117.89368"><ele>1015.0</ele></trkpt>
      <trkpt lat="35.44036" lon="-117.89378"><ele>1012.0</ele></trkpt>
      <trkpt lat="35.44022" lon="-117.89390"><ele>1012.0</ele></trkpt>
      <trkpt lat="35.44005" lon="-117.89404"><ele>1012.0</ele></trkpt>
      <trkpt lat="35.43993" lon="-117.89413"><ele>1012.0</ele></trkpt>
      <trkpt lat="35.43981" lon="-117.89423"><ele>1012.0</ele></trkpt>
      <trkpt lat="35.43969" lon="-117.89434"><ele>1012.0</ele></trkpt>
      <trkpt lat="35.43957" lon="-117.89446"><ele>1009.0</ele></trkpt>
      <trkpt lat="35.43942" lon="-117.89460"><ele>1009.0</ele></trkpt>
      <trkpt lat="35.43928" lon="-117.89473"><ele>1009.0</ele></trkpt>
      <trkpt lat="35.43915" lon="-117.89480"><ele>1009.0</ele></trkpt>
      <trkpt lat="35.43900" lon="-117.89483"><ele>1009.0</ele></trkpt>
      <trkpt lat="35.43887" lon="-117.89481"><ele>1009.0</ele></trkpt>
      <trkpt lat="35.43871" lon="-117.89478"><ele>1001.0</ele></trkpt>
      <trkpt lat="35.43857" lon="-117.89475"><ele>1001.0</ele></trkpt>
      <trkpt lat="35.43842" lon="-117.89470"><ele>1001.0</ele></trkpt>
      <trkpt lat="35.43826" lon="-117.89470"><ele>1001.0</ele></trkpt>
      <trkpt lat="35.43810" lon="-117.89475"><ele>1001.0</ele></trkpt>
      <trkpt lat="35.43796" lon="-117.89483"><ele>998.0</ele></trkpt>
      <trkpt lat="35.43784" lon="-117.89499"><ele>998.0</ele></trkpt>
      <trkpt lat="35.43779" lon="-117.89521"><ele>998.0</ele></trkpt>
      <trkpt lat="35.43774" lon="-117.89538"><ele>998.0</ele></trkpt>
      <trkpt lat="35.43770" lon="-117.89555"><ele>998.0</ele></trkpt>
      <trkpt lat="35.43763" lon="-117.89571"><ele>998.0</ele></trkpt>
      <trkpt lat="35.43750" lon="-117.89580"><ele>994.0</ele></trkpt>
      <trkpt lat="35.43738" lon="-117.89591"><ele>994.0</ele></trkpt>
      <trkpt lat="35.43729" lon="-117.89609"><ele>994.0</ele></trkpt>
      <trkpt lat="35.43720" lon="-117.89625"><ele>994.0</ele></trkpt>
      <trkpt lat="35.43713" lon="-117.89640"><ele>994.0</ele></trkpt>
      <trkpt lat="35.43703" lon="-117.89654"><ele>994.0</ele></trkpt>
      <trkpt lat="35.43690" lon="-117.89669"><ele>989.0</ele></trkpt>
      <trkpt lat="35.43679" lon="-117.89682"><ele>989.0</ele></trkpt>
      <trkpt lat="35.43669" lon="-117.89696"><ele>989.0</ele></trkpt>
      <trkpt lat="35.43659" lon="-117.89713"><ele>989.0</ele></trkpt>
      <trkpt lat="35.43653" lon="-117.89728"><ele>989.0</ele></trkpt>
      <trkpt lat="35.43648" lon="-117.89744"><ele>989.0</ele></trkpt>
      <trkpt lat="35.43645" lon="-117.89763"><ele>988.0</ele></trkpt>
      <trkpt lat="35.43642" lon="-117.89775"><ele>988.0</ele></trkpt>
      <trkpt lat="35.43640" lon="-117.89784"><ele>988.0</ele></trkpt>
      <trkpt lat="35.43631" lon="-117.89798"><ele>988.0</ele></trkpt>
      <trkpt lat="35.43618" lon="-117.89807"><ele>988.0</ele></trkpt>
      <trkpt lat="35.43608" lon="-117.89819"><ele>988.0</ele></trkpt>
      <trkpt lat="35.43602" lon="-117.89839"><ele>980.0</ele></trkpt>
      <trkpt lat="35.43601" lon="-117.89860"><ele>980.0</ele></trkpt>
      <trkpt lat="35.43597" lon="-117.89884"><ele>980.0</ele></trkpt>
      <trkpt lat="35.43593" lon="-117.89908"><ele>980.0</ele></trkpt>
      <trkpt lat="35.43589" lon="-117.89927"><ele>980.0</ele></trkpt>
      <trkpt lat="35.43586" lon="-117.89946"><ele>980.0</ele></trkpt>
      <trkpt lat="35.43587" lon="-117.89967"><ele>977.0</ele></trkpt>
      <trkpt lat="35.43594" lon="-117.89987"><ele>977.0</ele></trkpt>
      <trkpt lat="35.43602" lon="-117.90002"><ele>977.0</ele></trkpt>
      <trkpt lat="35.43615" lon="-117.90012"><ele>977.0</ele></trkpt>
      <trkpt lat="35.43629" lon="-117.90019"><ele>977.0</ele></trkpt>
      <trkpt lat="35.43644" lon="-117.90028"><ele>973.0</ele></trkpt>
      <trkpt lat="35.43655" lon="-117.90046"><ele>973.0</ele></trkpt>
      <trkpt lat="35.43664" lon="-117.90064"><ele>973.0</ele></trkpt>
      <trkpt lat="35.43672" lon="-117.90083"><ele>973.0</ele></trkpt>
      <trkpt lat="35.43679" lon="-117.90100"><ele>973.0</ele></trkpt>
      <trkpt lat="35.43689" lon="-117.90114"><ele>973.0</ele></trkpt>
      <trkpt lat="35.43701" lon="-117.90125"><ele>971.0</ele></trkpt>
      <trkpt lat="35.43713" lon="-117.90138"><ele>971.0</ele></trkpt>
      <trkpt lat="35.43723" lon="-117.90154"><ele>971.0</ele></trkpt>
      <trkpt lat="35.43728" lon="-117.90173"><ele>971.0</ele></trkpt>
      <trkpt lat="35.43727" lon="-117.90195"><ele>971.0</ele></trkpt>
      <trkpt lat="35.43725" lon="-117.90213"><ele>971.0</ele></trkpt>
      <trkpt lat="35.43723" lon="-117.90234"><ele>966.0</ele></trkpt>
      <trkpt lat="35.43721" lon="-117.90257"><ele>966.0</ele></trkpt>
      <trkpt lat="35.43720" lon="-117.90279"><ele>966.0</ele></trkpt>
      <trkpt lat="35.43722" lon="-117.90298"><ele>966.0</ele></trkpt>
      <trkpt lat="35.43727" lon="-117.90317"><ele>966.0</ele></trkpt>
      <trkpt lat="35.43730" lon="-117.90337"><ele>966.0</ele></trkpt>
      <trkpt lat="35.43724" lon="-117.90358"><ele>961.0</ele></trkpt>
      <trkpt lat="35.43715" lon="-117.90371"><ele>961.0</ele></trkpt>
      <trkpt lat="35.43704" lon="-117.90376"><ele>961.0</ele></trkpt>
    </trkseg>
  </trk>
</gpx>
