<?xml version="1.0" encoding="UTF-8"?>
<gpx version="1.1" creator="dirt-bikes build-blm-routes (BLM GTLF geometry + SRTM elevation)" xmlns="http://www.topografix.com/GPX/1/1">
  <trk><name>Iron Canyon</name>
    <trkseg>
      <trkpt lat="35.43022" lon="-117.67930"><ele>880.0</ele></trkpt>
      <trkpt lat="35.43025" lon="-117.67933"><ele>880.0</ele></trkpt>
      <trkpt lat="35.43029" lon="-117.67936"><ele>880.0</ele></trkpt>
      <trkpt lat="35.43032" lon="-117.67940"><ele>882.0</ele></trkpt>
      <trkpt lat="35.43036" lon="-117.67946"><ele>882.0</ele></trkpt>
      <trkpt lat="35.43041" lon="-117.67952"><ele>882.0</ele></trkpt>
      <trkpt lat="35.43046" lon="-117.67958"><ele>882.0</ele></trkpt>
      <trkpt lat="35.43053" lon="-117.67965"><ele>882.0</ele></trkpt>
      <trkpt lat="35.43060" lon="-117.67970"><ele>883.0</ele></trkpt>
      <trkpt lat="35.43065" lon="-117.67974"><ele>883.0</ele></trkpt>
      <trkpt lat="35.43070" lon="-117.67979"><ele>883.0</ele></trkpt>
      <trkpt lat="35.43072" lon="-117.67980"><ele>883.0</ele></trkpt>
      <trkpt lat="35.43073" lon="-117.67981"><ele>885.0</ele></trkpt>
      <trkpt lat="35.43076" lon="-117.67984"><ele>885.0</ele></trkpt>
      <trkpt lat="35.43080" lon="-117.67988"><ele>885.0</ele></trkpt>
      <trkpt lat="35.43087" lon="-117.67994"><ele>885.0</ele></trkpt>
      <trkpt lat="35.43092" lon="-117.67998"><ele>885.0</ele></trkpt>
      <trkpt lat="35.43095" lon="-117.68001"><ele>887.0</ele></trkpt>
      <trkpt lat="35.43102" lon="-117.68007"><ele>887.0</ele></trkpt>
      <trkpt lat="35.43110" lon="-117.68014"><ele>887.0</ele></trkpt>
      <trkpt lat="35.43119" lon="-117.68019"><ele>887.0</ele></trkpt>
      <trkpt lat="35.43129" lon="-117.68023"><ele>887.0</ele></trkpt>
      <trkpt lat="35.43140" lon="-117.68026"><ele>890.0</ele></trkpt>
      <trkpt lat="35.43151" lon="-117.68028"><ele>890.0</ele></trkpt>
      <trkpt lat="35.43162" lon="-117.68030"><ele>890.0</ele></trkpt>
      <trkpt lat="35.43172" lon="-117.68031"><ele>890.0</ele></trkpt>
      <trkpt lat="35.43183" lon="-117.68033"><ele>894.0</ele></trkpt>
      <trkpt lat="35.43193" lon="-117.68034"><ele>894.0</ele></trkpt>
      <trkpt lat="35.43202" lon="-117.68036"><ele>894.0</ele></trkpt>
      <trkpt lat="35.43210" lon="-117.68038"><ele>894.0</ele></trkpt>
      <trkpt lat="35.43214" lon="-117.68040"><ele>894.0</ele></trkpt>
      <trkpt lat="35.43219" lon="-117.68041"><ele>896.0</ele></trkpt>
      <trkpt lat="35.43229" lon="-117.68045"><ele>896.0</ele></trkpt>
      <trkpt lat="35.43240" lon="-117.68050"><ele>896.0</ele></trkpt>
      <trkpt lat="35.43251" lon="-117.68055"><ele>896.0</ele></trkpt>
      <trkpt lat="35.43261" lon="-117.68061"><ele>899.0</ele></trkpt>
      <trkpt lat="35.43271" lon="-117.68066"><ele>899.0</ele></trkpt>
      <trkpt lat="35.43280" lon="-117.68072"><ele>899.0</ele></trkpt>
      <trkpt lat="35.43289" lon="-117.68079"><ele>899.0</ele></trkpt>
      <trkpt lat="35.43297" lon="-117.68084"><ele>899.0</ele></trkpt>
      <trkpt lat="35.43305" lon="-117.68089"><ele>902.0</ele></trkpt>
      <trkpt lat="35.43310" lon="-117.68093"><ele>902.0</ele></trkpt>
      <trkpt lat="35.43316" lon="-117.68097"><ele>902.0</ele></trkpt>
      <trkpt lat="35.43322" lon="-117.68102"><ele>902.0</ele></trkpt>
      <trkpt lat="35.43328" lon="-117.68107"><ele>902.0</ele></trkpt>
      <trkpt lat="35.43335" lon="-117.68112"><ele>904.0</ele></trkpt>
      <trkpt lat="35.43341" lon="-117.68118"><ele>904.0</ele></trkpt>
      <trkpt lat="35.43349" lon="-117.68123"><ele>904.0</ele></trkpt>
      <trkpt lat="35.43356" lon="-117.68128"><ele>904.0</ele></trkpt>
      <trkpt lat="35.43363" lon="-117.68131"><ele>907.0</ele></trkpt>
      <trkpt lat="35.43371" lon="-117.68134"><ele>907.0</ele></trkpt>
      <trkpt lat="35.43379" lon="-117.68137"><ele>907.0</ele></trkpt>
      <trkpt lat="35.43388" lon="-117.68140"><ele>907.0</ele></trkpt>
      <trkpt lat="35.43397" lon="-117.68143"><ele>907.0</ele></trkpt>
      <trkpt lat="35.43406" lon="-117.68147"><ele>910.0</ele></trkpt>
      <trkpt lat="35.43416" lon="-117.68150"><ele>910.0</ele></trkpt>
      <trkpt lat="35.43425" lon="-117.68152"><ele>910.0</ele></trkpt>
      <trkpt lat="35.43435" lon="-117.68154"><ele>910.0</ele></trkpt>
      <trkpt lat="35.43445" lon="-117.68156"><ele>910.0</ele></trkpt>
      <trkpt lat="35.43454" lon="-117.68157"><ele>913.0</ele></trkpt>
      <trkpt lat="35.43464" lon="-117.68159"><ele>913.0</ele></trkpt>
      <trkpt lat="35.43473" lon="-117.68161"><ele>913.0</ele></trkpt>
      <trkpt lat="35.43482" lon="-117.68163"><ele>913.0</ele></trkpt>
      <trkpt lat="35.43491" lon="-117.68166"><ele>916.0</ele></trkpt>
      <trkpt lat="35.43501" lon="-117.68168"><ele>916.0</ele></trkpt>
      <trkpt lat="35.43511" lon="-117.68170"><ele>916.0</ele></trkpt>
      <trkpt lat="35.43522" lon="-117.68170"><ele>916.0</ele></trkpt>
      <trkpt lat="35.43531" lon="-117.68169"><ele>916.0</ele></trkpt>
      <trkpt lat="35.43537" lon="-117.68168"><ele>919.0</ele></trkpt>
      <trkpt lat="35.43543" lon="-117.68167"><ele>919.0</ele></trkpt>
      <trkpt lat="35.43549" lon="-117.68166"><ele>919.0</ele></trkpt>
      <trkpt lat="35.43556" lon="-117.68166"><ele>919.0</ele></trkpt>
      <trkpt lat="35.43563" lon="-117.68167"><ele>919.0</ele></trkpt>
      <trkpt lat="35.43569" lon="-117.68168"><ele>920.0</ele></trkpt>
      <trkpt lat="35.43576" lon="-117.68170"><ele>920.0</ele></trkpt>
      <trkpt lat="35.43581" lon="-117.68172"><ele>920.0</ele></trkpt>
      <trkpt lat="35.43587" lon="-117.68173"><ele>920.0</ele></trkpt>
      <trkpt lat="35.43593" lon="-117.68174"><ele>922.0</ele></trkpt>
      <trkpt lat="35.43595" lon="-117.68175"><ele>922.0</ele></trkpt>
      <trkpt lat="35.43602" lon="-117.68176"><ele>922.0</ele></trkpt>
      <trkpt lat="35.43604" lon="-117.68176"><ele>922.0</ele></trkpt>
      <trkpt lat="35.43608" lon="-117.68177"><ele>922.0</ele></trkpt>
      <trkpt lat="35.43612" lon="-117.68178"><ele>923.0</ele></trkpt>
      <trkpt lat="35.43616" lon="-117.68178"><ele>923.0</ele></trkpt>
      <trkpt lat="35.43621" lon="-117.68178"><ele>923.0</ele></trkpt>
      <trkpt lat="35.43627" lon="-117.68178"><ele>923.0</ele></trkpt>
      <trkpt lat="35.43632" lon="-117.68177"><ele>923.0</ele></trkpt>
      <trkpt lat="35.43637" lon="-117.68176"><ele>924.0</ele></trkpt>
      <trkpt lat="35.43642" lon="-117.68174"><ele>924.0</ele></trkpt>
      <trkpt lat="35.43647" lon="-117.68170"><ele>924.0</ele></trkpt>
      <trkpt lat="35.43652" lon="-117.68165"><ele>924.0</ele></trkpt>
      <trkpt lat="35.43654" lon="-117.68162"><ele>925.0</ele></trkpt>
      <trkpt lat="35.43655" lon="-117.68161"><ele>925.0</ele></trkpt>
      <trkpt lat="35.43657" lon="-117.68158"><ele>925.0</ele></trkpt>
      <trkpt lat="35.43661" lon="-117.68152"><ele>925.0</ele></trkpt>
      <trkpt lat="35.43666" lon="-117.68145"><ele>925.0</ele></trkpt>
      <trkpt lat="35.43670" lon="-117.68137"><ele>927.0</ele></trkpt>
      <trkpt lat="35.43671" lon="-117.68136"><ele>927.0</ele></trkpt>
      <trkpt lat="35.43675" lon="-117.68131"><ele>927.0</ele></trkpt>
      <trkpt lat="35.43678" lon="-117.68128"><ele>927.0</ele></trkpt>
      <trkpt lat="35.43681" lon="-117.68124"><ele>930.0</ele></trkpt>
      <trkpt lat="35.43685" lon="-117.68118"><ele>930.0</ele></trkpt>
      <trkpt lat="35.43688" lon="-117.68109"><ele>930.0</ele></trkpt>
      <trkpt lat="35.43690" lon="-117.68099"><ele>930.0</ele></trkpt>
      <trkpt lat="35.43692" lon="-117.68091"><ele>930.0</ele></trkpt>
      <trkpt lat="35.43694" lon="-117.68080"><ele>934.0</ele></trkpt>
      <trkpt lat="35.43697" lon="-117.68069"><ele>934.0</ele></trkpt>
      <trkpt lat="35.43700" lon="-117.68057"><ele>934.0</ele></trkpt>
      <trkpt lat="35.43703" lon="-117.68047"><ele>934.0</ele></trkpt>
      <trkpt lat="35.43708" lon="-117.68036"><ele>934.0</ele></trkpt>
      <trkpt lat="35.43712" lon="-117.68027"><ele>938.0</ele></trkpt>
      <trkpt lat="35.43718" lon="-117.68018"><ele>938.0</ele></trkpt>
      <trkpt lat="35.43724" lon="-117.68009"><ele>938.0</ele></trkpt>
      <trkpt lat="35.43724" lon="-117.68009"><ele>938.0</ele></trkpt>
      <trkpt lat="35.43730" lon="-117.68002"><ele>939.0</ele></trkpt>
      <trkpt lat="35.43736" lon="-117.67997"><ele>939.0</ele></trkpt>
      <trkpt lat="35.43739" lon="-117.67995"><ele>939.0</ele></trkpt>
      <trkpt lat="35.43740" lon="-117.67994"><ele>939.0</ele></trkpt>
      <trkpt lat="35.43743" lon="-117.67993"><ele>939.0</ele></trkpt>
      <trkpt lat="35.43750" lon="-117.67991"><ele>941.0</ele></trkpt>
      <trkpt lat="35.43758" lon="-117.67990"><ele>941.0</ele></trkpt>
      <trkpt lat="35.43768" lon="-117.67989"><ele>941.0</ele></trkpt>
      <trkpt lat="35.43779" lon="-117.67989"><ele>941.0</ele></trkpt>
      <trkpt lat="35.43790" lon="-117.67990"><ele>941.0</ele></trkpt>
      <trkpt lat="35.43800" lon="-117.67993"><ele>944.0</ele></trkpt>
      <trkpt lat="35.43809" lon="-117.67995"><ele>944.0</ele></trkpt>
      <trkpt lat="35.43818" lon="-117.67997"><ele>944.0</ele></trkpt>
      <trkpt lat="35.43827" lon="-117.67999"><ele>944.0</ele></trkpt>
      <trkpt lat="35.43839" lon="-117.68001"><ele>947.0</ele></trkpt>
      <trkpt lat="35.43845" lon="-117.68002"><ele>947.0</ele></trkpt>
      <trkpt lat="35.43851" lon="-117.68003"><ele>947.0</ele></trkpt>
      <trkpt lat="35.43862" lon="-117.68004"><ele>947.0</ele></trkpt>
      <trkpt lat="35.43873" lon="-117.68004"><ele>947.0</ele></trkpt>
      <trkpt lat="35.43883" lon="-117.68003"><ele>952.0</ele></trkpt>
      <trkpt lat="35.43894" lon="-117.68000"><ele>952.0</ele></trkpt>
      <trkpt lat="35.43904" lon="-117.67996"><ele>952.0</ele></trkpt>
      <trkpt lat="35.43913" lon="-117.67992"><ele>952.0</ele></trkpt>
      <trkpt lat="35.43923" lon="-117.67988"><ele>952.0</ele></trkpt>
      <trkpt lat="35.43934" lon="-117.67983"><ele>957.0</ele></trkpt>
      <trkpt lat="35.43946" lon="-117.67976"><ele>957.0</ele></trkpt>
      <trkpt lat="35.43957" lon="-117.67968"><ele>957.0</ele></trkpt>
      <trkpt lat="35.43968" lon="-117.67958"><ele>957.0</ele></trkpt>
      <trkpt lat="35.43978" lon="-117.67949"><ele>959.0</ele></trkpt>
      <trkpt lat="35.43988" lon="-117.67939"><ele>959.0</ele></trkpt>
      <trkpt lat="35.43998" lon="-117.67929"><ele>959.0</ele></trkpt>
      <trkpt lat="35.44008" lon="-117.67919"><ele>959.0</ele></trkpt>
      <trkpt lat="35.44018" lon="-117.67908"><ele>959.0</ele></trkpt>
      <trkpt lat="35.44028" lon="-117.67898"><ele>962.0</ele></trkpt>
      <trkpt lat="35.44036" lon="-117.67889"><ele>962.0</ele></trkpt>
      <trkpt lat="35.44042" lon="-117.67884"><ele>962.0</ele></trkpt>
      <trkpt lat="35.44046" lon="-117.67881"><ele>962.0</ele></trkpt>
      <trkpt lat="35.44052" lon="-117.67875"><ele>965.0</ele></trkpt>
      <trkpt lat="35.44060" lon="-117.67868"><ele>965.0</ele></trkpt>
      <trkpt lat="35.44069" lon="-117.67862"><ele>965.0</ele></trkpt>
      <trkpt lat="35.44077" lon="-117.67855"><ele>965.0</ele></trkpt>
      <trkpt lat="35.44086" lon="-117.67847"><ele>965.0</ele></trkpt>
      <trkpt lat="35.44094" lon="-117.67841"><ele>967.0</ele></trkpt>
      <trkpt lat="35.44100" lon="-117.67835"><ele>967.0</ele></trkpt>
      <trkpt lat="35.44107" lon="-117.67830"><ele>967.0</ele></trkpt>
      <trkpt lat="35.44112" lon="-117.67826"><ele>967.0</ele></trkpt>
      <trkpt lat="35.44118" lon="-117.67822"><ele>967.0</ele></trkpt>
      <trkpt lat="35.44125" lon="-117.67820"><ele>970.0</ele></trkpt>
      <trkpt lat="35.44132" lon="-117.67817"><ele>970.0</ele></trkpt>
      <trkpt lat="35.44140" lon="-117.67814"><ele>970.0</ele></trkpt>
      <trkpt lat="35.44148" lon="-117.67812"><ele>970.0</ele></trkpt>
      <trkpt lat="35.44156" lon="-117.67809"><ele>974.0</ele></trkpt>
      <trkpt lat="35.44165" lon="-117.67807"><ele>974.0</ele></trkpt>
      <trkpt lat="35.44172" lon="-117.67806"><ele>974.0</ele></trkpt>
      <trkpt lat="35.44182" lon="-117.67804"><ele>974.0</ele></trkpt>
      <trkpt lat="35.44193" lon="-117.67801"><ele>974.0</ele></trkpt>
      <trkpt lat="35.44203" lon="-117.67798"><ele>978.0</ele></trkpt>
      <trkpt lat="35.44212" lon="-117.67795"><ele>978.0</ele></trkpt>
      <trkpt lat="35.44218" lon="-117.67791"><ele>978.0</ele></trkpt>
      <trkpt lat="35.44225" lon="-117.67787"><ele>978.0</ele></trkpt>
      <trkpt lat="35.44234" lon="-117.67781"><ele>978.0</ele></trkpt>
      <trkpt lat="35.44243" lon="-117.67774"><ele>979.0</ele></trkpt>
      <trkpt lat="35.44251" lon="-117.67768"><ele>979.0</ele></trkpt>
      <trkpt lat="35.44259" lon="-117.67760"><ele>979.0</ele></trkpt>
      <trkpt lat="35.44267" lon="-117.67752"><ele>979.0</ele></trkpt>
      <trkpt lat="35.44275" lon="-117.67744"><ele>984.0</ele></trkpt>
      <trkpt lat="35.44284" lon="-117.67736"><ele>984.0</ele></trkpt>
      <trkpt lat="35.44292" lon="-117.67728"><ele>984.0</ele></trkpt>
      <trkpt lat="35.44300" lon="-117.67719"><ele>984.0</ele></trkpt>
      <trkpt lat="35.44307" lon="-117.67711"><ele>984.0</ele></trkpt>
      <trkpt lat="35.44314" lon="-117.67704"><ele>988.0</ele></trkpt>
      <trkpt lat="35.44320" lon="-117.67697"><ele>988.0</ele></trkpt>
      <trkpt lat="35.44326" lon="-117.67690"><ele>988.0</ele></trkpt>
      <trkpt lat="35.44333" lon="-117.67682"><ele>988.0</ele></trkpt>
      <trkpt lat="35.44340" lon="-117.67674"><ele>988.0</ele></trkpt>
      <trkpt lat="35.44347" lon="-117.67667"><ele>990.0</ele></trkpt>
      <trkpt lat="35.44355" lon="-117.67660"><ele>990.0</ele></trkpt>
      <trkpt lat="35.44363" lon="-117.67655"><ele>990.0</ele></trkpt>
      <trkpt lat="35.44371" lon="-117.67653"><ele>990.0</ele></trkpt>
      <trkpt lat="35.44381" lon="-117.67652"><ele>993.0</ele></trkpt>
      <trkpt lat="35.44388" lon="-117.67653"><ele>993.0</ele></trkpt>
      <trkpt lat="35.44394" lon="-117.67654"><ele>993.0</ele></trkpt>
      <trkpt lat="35.44401" lon="-117.67657"><ele>993.0</ele></trkpt>
      <trkpt lat="35.44406" lon="-117.67660"><ele>993.0</ele></trkpt>
      <trkpt lat="35.44411" lon="-117.67663"><ele>992.0</ele></trkpt>
      <trkpt lat="35.44414" lon="-117.67665"><ele>992.0</ele></trkpt>
      <trkpt lat="35.44417" lon="-117.67667"><ele>992.0</ele></trkpt>
      <trkpt lat="35.44419" lon="-117.67668"><ele>992.0</ele></trkpt>
      <trkpt lat="35.44421" lon="-117.67669"><ele>992.0</ele></trkpt>
      <trkpt lat="35.44425" lon="-117.67673"><ele>994.0</ele></trkpt>
      <trkpt lat="35.44429" lon="-117.67676"><ele>994.0</ele></trkpt>
      <trkpt lat="35.44433" lon="-117.67679"><ele>994.0</ele></trkpt>
      <trkpt lat="35.44438" lon="-117.67682"><ele>994.0</ele></trkpt>
      <trkpt lat="35.44443" lon="-117.67685"><ele>996.0</ele></trkpt>
      <trkpt lat="35.44448" lon="-117.67689"><ele>996.0</ele></trkpt>
      <trkpt lat="35.44452" lon="-117.67692"><ele>996.0</ele></trkpt>
      <trkpt lat="35.44456" lon="-117.67695"><ele>996.0</ele></trkpt>
      <trkpt lat="35.44459" lon="-117.67698"><ele>996.0</ele></trkpt>
      <trkpt lat="35.44463" lon="-117.67702"><ele>998.0</ele></trkpt>
      <trkpt lat="35.44467" lon="-117.67706"><ele>998.0</ele></trkpt>
      <trkpt lat="35.44470" lon="-117.67710"><ele>998.0</ele></trkpt>
      <trkpt lat="35.44474" lon="-117.67715"><ele>998.0</ele></trkpt>
      <trkpt lat="35.44477" lon="-117.67721"><ele>999.0</ele></trkpt>
      <trkpt lat="35.44480" lon="-117.67726"><ele>999.0</ele></trkpt>
      <trkpt lat="35.44481" lon="-117.67729"><ele>999.0</ele></trkpt>
      <trkpt lat="35.44483" lon="-117.67734"><ele>999.0</ele></trkpt>
      <trkpt lat="35.44485" lon="-117.67738"><ele>999.0</ele></trkpt>
      <trkpt lat="35.44487" lon="-117.67746"><ele>1000.0</ele></trkpt>
      <trkpt lat="35.44489" lon="-117.67756"><ele>1000.0</ele></trkpt>
      <trkpt lat="35.44490" lon="-117.67766"><ele>1000.0</ele></trkpt>
      <trkpt lat="35.44490" lon="-117.67775"><ele>1000.0</ele></trkpt>
      <trkpt lat="35.44490" lon="-117.67784"><ele>1000.0</ele></trkpt>
      <trkpt lat="35.44488" lon="-117.67793"><ele>1002.0</ele></trkpt>
      <trkpt lat="35.44487" lon="-117.67801"><ele>1002.0</ele></trkpt>
      <trkpt lat="35.44485" lon="-117.67807"><ele>1002.0</ele></trkpt>
      <trkpt lat="35.44485" lon="-117.67809"><ele>1002.0</ele></trkpt>
      <trkpt lat="35.44483" lon="-117.67815"><ele>1004.0</ele></trkpt>
      <trkpt lat="35.44482" lon="-117.67822"><ele>1004.0</ele></trkpt>
      <trkpt lat="35.44480" lon="-117.67830"><ele>1004.0</ele></trkpt>
      <trkpt lat="35.44478" lon="-117.67837"><ele>1004.0</ele></trkpt>
      <trkpt lat="35.44476" lon="-117.67845"><ele>1004.0</ele></trkpt>
      <trkpt lat="35.44475" lon="-117.67853"><ele>1006.0</ele></trkpt>
      <trkpt lat="35.44473" lon="-117.67862"><ele>1006.0</ele></trkpt>
      <trkpt lat="35.44472" lon="-117.67871"><ele>1006.0</ele></trkpt>
      <trkpt lat="35.44472" lon="-117.67880"><ele>1006.0</ele></trkpt>
      <trkpt lat="35.44471" lon="-117.67890"><ele>1006.0</ele></trkpt>
      <trkpt lat="35.44471" lon="-117.67900"><ele>1007.0</ele></trkpt>
      <trkpt lat="35.44471" lon="-117.67910"><ele>1007.0</ele></trkpt>
      <trkpt lat="35.44471" lon="-117.67920"><ele>1007.0</ele></trkpt>
      <trkpt lat="35.44470" lon="-117.67926"><ele>1007.0</ele></trkpt>
      <trkpt lat="35.44471" lon="-117.67931"><ele>1008.0</ele></trkpt>
      <trkpt lat="35.44471" lon="-117.67937"><ele>1008.0</ele></trkpt>
      <trkpt lat="35.44471" lon="-117.67942"><ele>1008.0</ele></trkpt>
      <trkpt lat="35.44472" lon="-117.67948"><ele>1008.0</ele></trkpt>
      <trkpt lat="35.44473" lon="-117.67954"><ele>1008.0</ele></trkpt>
      <trkpt lat="35.44479" lon="-117.67968"><ele>1009.0</ele></trkpt>
      <trkpt lat="35.44480" lon="-117.67969"><ele>1009.0</ele></trkpt>
      <trkpt lat="35.44482" lon="-117.67974"><ele>1009.0</ele></trkpt>
      <trkpt lat="35.44485" lon="-117.67979"><ele>1009.0</ele></trkpt>
      <trkpt lat="35.44489" lon="-117.67984"><ele>1009.0</ele></trkpt>
      <trkpt lat="35.44495" lon="-117.67989"><ele>1010.0</ele></trkpt>
      <trkpt lat="35.44502" lon="-117.67994"><ele>1010.0</ele></trkpt>
      <trkpt lat="35.44508" lon="-117.67998"><ele>1010.0</ele></trkpt>
      <trkpt lat="35.44515" lon="-117.68002"><ele>1010.0</ele></trkpt>
      <trkpt lat="35.44519" lon="-117.68005"><ele>1012.0</ele></trkpt>
      <trkpt lat="35.44522" lon="-117.68007"><ele>1012.0</ele></trkpt>
      <trkpt lat="35.44523" lon="-117.68008"><ele>1012.0</ele></trkpt>
      <trkpt lat="35.44528" lon="-117.68011"><ele>1012.0</ele></trkpt>
      <trkpt lat="35.44534" lon="-117.68016"><ele>1012.0</ele></trkpt>
      <trkpt lat="35.44541" lon="-117.68021"><ele>1015.0</ele></trkpt>
      <trkpt lat="35.44548" lon="-117.68027"><ele>1015.0</ele></trkpt>
      <trkpt lat="35.44554" lon="-117.68031"><ele>1015.0</ele></trkpt>
      <trkpt lat="35.44561" lon="-117.68034"><ele>1015.0</ele></trkpt>
      <trkpt lat="35.44568" lon="-117.68038"><ele>1015.0</ele></trkpt>
      <trkpt lat="35.44575" lon="-117.68043"><ele>1017.0</ele></trkpt>
      <trkpt lat="35.44582" lon="-117.68049"><ele>1017.0</ele></trkpt>
      <trkpt lat="35.44588" lon="-117.68055"><ele>1017.0</ele></trkpt>
      <trkpt lat="35.44595" lon="-117.68062"><ele>1017.0</ele></trkpt>
      <trkpt lat="35.44603" lon="-117.68070"><ele>1021.0</ele></trkpt>
      <trkpt lat="35.44610" lon="-117.68078"><ele>1021.0</ele></trkpt>
      <trkpt lat="35.44618" lon="-117.68087"><ele>1021.0</ele></trkpt>
      <trkpt lat="35.44626" lon="-117.68096"><ele>1021.0</ele></trkpt>
      <trkpt lat="35.44634" lon="-117.68105"><ele>1021.0</ele></trkpt>
      <trkpt lat="35.44642" lon="-117.68112"><ele>1027.0</ele></trkpt>
      <trkpt lat="35.44651" lon="-117.68119"><ele>1027.0</ele></trkpt>
      <trkpt lat="35.44660" lon="-117.68124"><ele>1027.0</ele></trkpt>
      <trkpt lat="35.44670" lon="-117.68130"><ele>1027.0</ele></trkpt>
      <trkpt lat="35.44680" lon="-117.68135"><ele>1031.0</ele></trkpt>
      <trkpt lat="35.44691" lon="-117.68140"><ele>1031.0</ele></trkpt>
      <trkpt lat="35.44702" lon="-117.68144"><ele>1031.0</ele></trkpt>
      <trkpt lat="35.44714" lon="-117.68148"><ele>1031.0</ele></trkpt>
      <trkpt lat="35.44725" lon="-117.68151"><ele>1031.0</ele></trkpt>
      <trkpt lat="35.44736" lon="-117.68155"><ele>1033.0</ele></trkpt>
      <trkpt lat="35.44747" lon="-117.68159"><ele>1033.0</ele></trkpt>
      <trkpt lat="35.44757" lon="-117.68162"><ele>1033.0</ele></trkpt>
      <trkpt lat="35.44765" lon="-117.68164"><ele>1033.0</ele></trkpt>
      <trkpt lat="35.44771" lon="-117.68167"><ele>1033.0</ele></trkpt>
      <trkpt lat="35.44779" lon="-117.68170"><ele>1035.0</ele></trkpt>
      <trkpt lat="35.44790" lon="-117.68170"><ele>1035.0</ele></trkpt>
      <trkpt lat="35.44800" lon="-117.68169"><ele>1035.0</ele></trkpt>
      <trkpt lat="35.44810" lon="-117.68167"><ele>1035.0</ele></trkpt>
      <trkpt lat="35.44820" lon="-117.68166"><ele>1039.0</ele></trkpt>
      <trkpt lat="35.44829" lon="-117.68164"><ele>1039.0</ele></trkpt>
      <trkpt lat="35.44840" lon="-117.68163"><ele>1039.0</ele></trkpt>
      <trkpt lat="35.44851" lon="-117.68163"><ele>1039.0</ele></trkpt>
      <trkpt lat="35.44861" lon="-117.68163"><ele>1039.0</ele></trkpt>
      <trkpt lat="35.44872" lon="-117.68164"><ele>1042.0</ele></trkpt>
      <trkpt lat="35.44882" lon="-117.68165"><ele>1042.0</ele></trkpt>
      <trkpt lat="35.44891" lon="-117.68166"><ele>1042.0</ele></trkpt>
      <trkpt lat="35.44901" lon="-117.68169"><ele>1042.0</ele></trkpt>
      <trkpt lat="35.44910" lon="-117.68173"><ele>1042.0</ele></trkpt>
      <trkpt lat="35.44918" lon="-117.68178"><ele>1047.0</ele></trkpt>
      <trkpt lat="35.44926" lon="-117.68183"><ele>1047.0</ele></trkpt>
      <trkpt lat="35.44933" lon="-117.68188"><ele>1047.0</ele></trkpt>
      <trkpt lat="35.44941" lon="-117.68193"><ele>1047.0</ele></trkpt>
      <trkpt lat="35.44950" lon="-117.68198"><ele>1053.0</ele></trkpt>
      <trkpt lat="35.44960" lon="-117.68204"><ele>1053.0</ele></trkpt>
      <trkpt lat="35.44969" lon="-117.68209"><ele>1053.0</ele></trkpt>
      <trkpt lat="35.44979" lon="-117.68215"><ele>1053.0</ele></trkpt>
      <trkpt lat="35.44988" lon="-117.68221"><ele>1053.0</ele></trkpt>
      <trkpt lat="35.44999" lon="-117.68227"><ele>1058.0</ele></trkpt>
      <trkpt lat="35.45010" lon="-117.68234"><ele>1058.0</ele></trkpt>
      <trkpt lat="35.45020" lon="-117.68240"><ele>1058.0</ele></trkpt>
      <trkpt lat="35.45031" lon="-117.68246"><ele>1058.0</ele></trkpt>
      <trkpt lat="35.45043" lon="-117.68253"><ele>1058.0</ele></trkpt>
      <trkpt lat="35.45055" lon="-117.68261"><ele>1063.0</ele></trkpt>
      <trkpt lat="35.45067" lon="-117.68268"><ele>1063.0</ele></trkpt>
      <trkpt lat="35.45080" lon="-117.68276"><ele>1063.0</ele></trkpt>
      <trkpt lat="35.45090" lon="-117.68284"><ele>1063.0</ele></trkpt>
      <trkpt lat="35.45099" lon="-117.68292"><ele>1067.0</ele></trkpt>
      <trkpt lat="35.45106" lon="-117.68297"><ele>1067.0</ele></trkpt>
      <trkpt lat="35.45110" lon="-117.68299"><ele>1067.0</ele></trkpt>
      <trkpt lat="35.45112" lon="-117.68301"><ele>1067.0</ele></trkpt>
      <trkpt lat="35.45117" lon="-117.68304"><ele>1067.0</ele></trkpt>
      <trkpt lat="35.45122" lon="-117.68308"><ele>1067.0</ele></trkpt>
      <trkpt lat="35.45127" lon="-117.68312"><ele>1067.0</ele></trkpt>
      <trkpt lat="35.45133" lon="-117.68318"><ele>1067.0</ele></trkpt>
      <trkpt lat="35.45140" lon="-117.68325"><ele>1067.0</ele></trkpt>
      <trkpt lat="35.45147" lon="-117.68333"><ele>1070.0</ele></trkpt>
      <trkpt lat="35.45154" lon="-117.68343"><ele>1070.0</ele></trkpt>
      <trkpt lat="35.45161" lon="-117.68353"><ele>1070.0</ele></trkpt>
      <trkpt lat="35.45168" lon="-117.68363"><ele>1070.0</ele></trkpt>
      <trkpt lat="35.45175" lon="-117.68375"><ele>1070.0</ele></trkpt>
      <trkpt lat="35.45182" lon="-117.68386"><ele>1075.0</ele></trkpt>
      <trkpt lat="35.45191" lon="-117.68397"><ele>1075.0</ele></trkpt>
      <trkpt lat="35.45200" lon="-117.68408"><ele>1075.0</ele></trkpt>
      <trkpt lat="35.45210" lon="-117.68418"><ele>1075.0</ele></trkpt>
      <trkpt lat="35.45219" lon="-117.68423"><ele>1075.0</ele></trkpt>
      <trkpt lat="35.45226" lon="-117.68428"><ele>1073.0</ele></trkpt>
      <trkpt lat="35.45235" lon="-117.68432"><ele>1073.0</ele></trkpt>
      <trkpt lat="35.45244" lon="-117.68437"><ele>1073.0</ele></trkpt>
      <trkpt lat="35.45252" lon="-117.68443"><ele>1073.0</ele></trkpt>
      <trkpt lat="35.45259" lon="-117.68448"><ele>1074.0</ele></trkpt>
      <trkpt lat="35.45266" lon="-117.68452"><ele>1074.0</ele></trkpt>
      <trkpt lat="35.45273" lon="-117.68456"><ele>1074.0</ele></trkpt>
      <trkpt lat="35.45279" lon="-117.68461"><ele>1074.0</ele></trkpt>
      <trkpt lat="35.45283" lon="-117.68463"><ele>1074.0</ele></trkpt>
      <trkpt lat="35.45286" lon="-117.68466"><ele>1075.0</ele></trkpt>
      <trkpt lat="35.45290" lon="-117.68468"><ele>1075.0</ele></trkpt>
      <trkpt lat="35.45295" lon="-117.68472"><ele>1075.0</ele></trkpt>
      <trkpt lat="35.45301" lon="-117.68477"><ele>1075.0</ele></trkpt>
      <trkpt lat="35.45303" lon="-117.68478"><ele>1075.0</ele></trkpt>
      <trkpt lat="35.45306" lon="-117.68480"><ele>1076.0</ele></trkpt>
      <trkpt lat="35.45309" lon="-117.68481"><ele>1076.0</ele></trkpt>
      <trkpt lat="35.45314" lon="-117.68485"><ele>1076.0</ele></trkpt>
      <trkpt lat="35.45322" lon="-117.68490"><ele>1076.0</ele></trkpt>
      <trkpt lat="35.45330" lon="-117.68495"><ele>1077.0</ele></trkpt>
      <trkpt lat="35.45339" lon="-117.68501"><ele>1077.0</ele></trkpt>
      <trkpt lat="35.45349" lon="-117.68506"><ele>1077.0</ele></trkpt>
      <trkpt lat="35.45359" lon="-117.68512"><ele>1077.0</ele></trkpt>
      <trkpt lat="35.45370" lon="-117.68516"><ele>1077.0</ele></trkpt>
      <trkpt lat="35.45380" lon="-117.68520"><ele>1085.0</ele></trkpt>
      <trkpt lat="35.45390" lon="-117.68523"><ele>1085.0</ele></trkpt>
      <trkpt lat="35.45400" lon="-117.68525"><ele>1085.0</ele></trkpt>
      <trkpt lat="35.45411" lon="-117.68528"><ele>1085.0</ele></trkpt>
      <trkpt lat="35.45422" lon="-117.68531"><ele>1085.0</ele></trkpt>
      <trkpt lat="35.45433" lon="-117.68535"><ele>1088.0</ele></trkpt>
      <trkpt lat="35.45442" lon="-117.68540"><ele>1088.0</ele></trkpt>
      <trkpt lat="35.45451" lon="-117.68548"><ele>1088.0</ele></trkpt>
      <trkpt lat="35.45459" lon="-117.68557"><ele>1088.0</ele></trkpt>
      <trkpt lat="35.45466" lon="-117.68567"><ele>1088.0</ele></trkpt>
      <trkpt lat="35.45474" lon="-117.68578"><ele>1088.0</ele></trkpt>
      <trkpt lat="35.45483" lon="-117.68590"><ele>1088.0</ele></trkpt>
      <trkpt lat="35.45492" lon="-117.68602"><ele>1088.0</ele></trkpt>
      <trkpt lat="35.45503" lon="-117.68612"><ele>1088.0</ele></trkpt>
      <trkpt lat="35.45513" lon="-117.68623"><ele>1095.0</ele></trkpt>
      <trkpt lat="35.45525" lon="-117.68631"><ele>1095.0</ele></trkpt>
      <trkpt lat="35.45535" lon="-117.68639"><ele>1095.0</ele></trkpt>
      <trkpt lat="35.45546" lon="-117.68646"><ele>1095.0</ele></trkpt>
      <trkpt lat="35.45557" lon="-117.68654"><ele>1095.0</ele></trkpt>
      <trkpt lat="35.45567" lon="-117.68662"><ele>1097.0</ele></trkpt>
      <trkpt lat="35.45578" lon="-117.68671"><ele>1097.0</ele></trkpt>
      <trkpt lat="35.45589" lon="-117.68680"><ele>1097.0</ele></trkpt>
      <trkpt lat="35.45599" lon="-117.68687"><ele>1097.0</ele></trkpt>
      <trkpt lat="35.45610" lon="-117.68694"><ele>1103.0</ele></trkpt>
      <trkpt lat="35.45621" lon="-117.68701"><ele>1103.0</ele></trkpt>
      <trkpt lat="35.45633" lon="-117.68707"><ele>1103.0</ele></trkpt>
      <trkpt lat="35.45644" lon="-117.68713"><ele>1103.0</ele></trkpt>
      <trkpt lat="35.45656" lon="-117.68718"><ele>1103.0</ele></trkpt>
      <trkpt lat="35.45668" lon="-117.68724"><ele>1105.0</ele></trkpt>
      <trkpt lat="35.45680" lon="-117.68729"><ele>1105.0</ele></trkpt>
      <trkpt lat="35.45692" lon="-117.68735"><ele>1105.0</ele></trkpt>
      <trkpt lat="35.45703" lon="-117.68742"><ele>1105.0</ele></trkpt>
      <trkpt lat="35.45714" lon="-117.68749"><ele>1108.0</ele></trkpt>
      <trkpt lat="35.45724" lon="-117.68757"><ele>1108.0</ele></trkpt>
      <trkpt lat="35.45734" lon="-117.68765"><ele>1108.0</ele></trkpt>
      <trkpt lat="35.45743" lon="-117.68772"><ele>1108.0</ele></trkpt>
      <trkpt lat="35.45751" lon="-117.68778"><ele>1108.0</ele></trkpt>
      <trkpt lat="35.45754" lon="-117.68780"><ele>1112.0</ele></trkpt>
      <trkpt lat="35.45766" lon="-117.68788"><ele>1112.0</ele></trkpt>
      <trkpt lat="35.45776" lon="-117.68803"><ele>1112.0</ele></trkpt>
      <trkpt lat="35.45778" lon="-117.68806"><ele>1112.0</ele></trkpt>
      <trkpt lat="35.45779" lon="-117.68808"><ele>1112.0</ele></trkpt>
      <trkpt lat="35.45781" lon="-117.68810"><ele>1112.0</ele></trkpt>
      <trkpt lat="35.45782" lon="-117.68812"><ele>1112.0</ele></trkpt>
      <trkpt lat="35.45784" lon="-117.68815"><ele>1112.0</ele></trkpt>
      <trkpt lat="35.45786" lon="-117.68818"><ele>1112.0</ele></trkpt>
      <trkpt lat="35.45791" lon="-117.68825"><ele>1112.0</ele></trkpt>
      <trkpt lat="35.45795" lon="-117.68831"><ele>1112.0</ele></trkpt>
      <trkpt lat="35.45798" lon="-117.68834"><ele>1112.0</ele></trkpt>
    </trkseg>
  </trk>
</gpx>
