<?xml version="1.0" encoding="UTF-8"?>
<gpx version="1.1" creator="dirt-bikes build-area-routes (MVUM geometry + SRTM elevation)" xmlns="http://www.topografix.com/GPX/1/1">
  <trk><name>Fernandez Road</name><trkseg>
    <trkpt lat="35.42903" lon="-120.34442"><ele>514.0</ele></trkpt>
    <trkpt lat="35.42899" lon="-120.34434"><ele>514.0</ele></trkpt>
    <trkpt lat="35.42895" lon="-120.34417"><ele>514.0</ele></trkpt>
    <trkpt lat="35.42896" lon="-120.34408"><ele>514.0</ele></trkpt>
    <trkpt lat="35.42900" lon="-120.34392"><ele>520.0</ele></trkpt>
    <trkpt lat="35.42907" lon="-120.34381"><ele>520.0</ele></trkpt>
    <trkpt lat="35.42916" lon="-120.34379"><ele>520.0</ele></trkpt>
    <trkpt lat="35.42936" lon="-120.34384"><ele>520.0</ele></trkpt>
    <trkpt lat="35.42945" lon="-120.34381"><ele>520.0</ele></trkpt>
    <trkpt lat="35.42956" lon="-120.34370"><ele>530.0</ele></trkpt>
    <trkpt lat="35.42967" lon="-120.34343"><ele>530.0</ele></trkpt>
    <trkpt lat="35.42990" lon="-120.34299"><ele>530.0</ele></trkpt>
    <trkpt lat="35.43011" lon="-120.34253"><ele>530.0</ele></trkpt>
    <trkpt lat="35.43018" lon="-120.34231"><ele>530.0</ele></trkpt>
    <trkpt lat="35.43014" lon="-120.34216"><ele>530.0</ele></trkpt>
    <trkpt lat="35.43011" lon="-120.34206"><ele>537.0</ele></trkpt>
    <trkpt lat="35.42992" lon="-120.34180"><ele>537.0</ele></trkpt>
    <trkpt lat="35.42984" lon="-120.34162"><ele>537.0</ele></trkpt>
    <trkpt lat="35.42968" lon="-120.34139"><ele>537.0</ele></trkpt>
    <trkpt lat="35.42964" lon="-120.34130"><ele>537.0</ele></trkpt>
    <trkpt lat="35.42958" lon="-120.34111"><ele>539.0</ele></trkpt>
    <trkpt lat="35.42954" lon="-120.34089"><ele>539.0</ele></trkpt>
    <trkpt lat="35.42945" lon="-120.34081"><ele>539.0</ele></trkpt>
    <trkpt lat="35.42936" lon="-120.34080"><ele>539.0</ele></trkpt>
    <trkpt lat="35.42930" lon="-120.34083"><ele>539.0</ele></trkpt>
    <trkpt lat="35.42922" lon="-120.34100"><ele>539.0</ele></trkpt>
    <trkpt lat="35.42912" lon="-120.34112"><ele>547.0</ele></trkpt>
    <trkpt lat="35.42906" lon="-120.34119"><ele>547.0</ele></trkpt>
    <trkpt lat="35.42892" lon="-120.34121"><ele>547.0</ele></trkpt>
    <trkpt lat="35.42884" lon="-120.34118"><ele>547.0</ele></trkpt>
    <trkpt lat="35.42877" lon="-120.34114"><ele>547.0</ele></trkpt>
    <trkpt lat="35.42857" lon="-120.34094"><ele>547.0</ele></trkpt>
    <trkpt lat="35.42850" lon="-120.34089"><ele>547.0</ele></trkpt>
    <trkpt lat="35.42841" lon="-120.34090"><ele>547.0</ele></trkpt>
    <trkpt lat="35.42831" lon="-120.34104"><ele>547.0</ele></trkpt>
    <trkpt lat="35.42825" lon="-120.34119"><ele>547.0</ele></trkpt>
    <trkpt lat="35.42821" lon="-120.34133"><ele>547.0</ele></trkpt>
    <trkpt lat="35.42807" lon="-120.34145"><ele>551.0</ele></trkpt>
    <trkpt lat="35.42793" lon="-120.34145"><ele>551.0</ele></trkpt>
    <trkpt lat="35.42776" lon="-120.34141"><ele>551.0</ele></trkpt>
    <trkpt lat="35.42754" lon="-120.34137"><ele>551.0</ele></trkpt>
    <trkpt lat="35.42740" lon="-120.34139"><ele>551.0</ele></trkpt>
    <trkpt lat="35.42734" lon="-120.34144"><ele>551.0</ele></trkpt>
    <trkpt lat="35.42722" lon="-120.34156"><ele>551.0</ele></trkpt>
    <trkpt lat="35.42716" lon="-120.34158"><ele>551.0</ele></trkpt>
    <trkpt lat="35.42688" lon="-120.34184"><ele>551.0</ele></trkpt>
    <trkpt lat="35.42674" lon="-120.34190"><ele>551.0</ele></trkpt>
    <trkpt lat="35.42659" lon="-120.34194"><ele>551.0</ele></trkpt>
    <trkpt lat="35.42631" lon="-120.34198"><ele>551.0</ele></trkpt>
    <trkpt lat="35.42599" lon="-120.34203"><ele>558.0</ele></trkpt>
    <trkpt lat="35.42569" lon="-120.34210"><ele>558.0</ele></trkpt>
    <trkpt lat="35.42558" lon="-120.34213"><ele>558.0</ele></trkpt>
    <trkpt lat="35.42535" lon="-120.34219"><ele>558.0</ele></trkpt>
    <trkpt lat="35.42527" lon="-120.34218"><ele>558.0</ele></trkpt>
    <trkpt lat="35.42511" lon="-120.34217"><ele>560.0</ele></trkpt>
    <trkpt lat="35.42485" lon="-120.34214"><ele>560.0</ele></trkpt>
    <trkpt lat="35.42469" lon="-120.34209"><ele>560.0</ele></trkpt>
    <trkpt lat="35.42446" lon="-120.34202"><ele>560.0</ele></trkpt>
    <trkpt lat="35.42439" lon="-120.34196"><ele>560.0</ele></trkpt>
    <trkpt lat="35.42433" lon="-120.34191"><ele>560.0</ele></trkpt>
    <trkpt lat="35.42425" lon="-120.34175"><ele>561.0</ele></trkpt>
    <trkpt lat="35.42418" lon="-120.34163"><ele>561.0</ele></trkpt>
    <trkpt lat="35.42407" lon="-120.34156"><ele>561.0</ele></trkpt>
    <trkpt lat="35.42397" lon="-120.34151"><ele>561.0</ele></trkpt>
    <trkpt lat="35.42376" lon="-120.34138"><ele>561.0</ele></trkpt>
    <trkpt lat="35.42366" lon="-120.34133"><ele>566.0</ele></trkpt>
    <trkpt lat="35.42359" lon="-120.34132"><ele>566.0</ele></trkpt>
    <trkpt lat="35.42333" lon="-120.34137"><ele>566.0</ele></trkpt>
    <trkpt lat="35.42322" lon="-120.34140"><ele>566.0</ele></trkpt>
    <trkpt lat="35.42303" lon="-120.34148"><ele>566.0</ele></trkpt>
    <trkpt lat="35.42295" lon="-120.34151"><ele>566.0</ele></trkpt>
    <trkpt lat="35.42276" lon="-120.34169"><ele>566.0</ele></trkpt>
    <trkpt lat="35.42263" lon="-120.34173"><ele>566.0</ele></trkpt>
    <trkpt lat="35.42250" lon="-120.34177"><ele>566.0</ele></trkpt>
    <trkpt lat="35.42237" lon="-120.34182"><ele>566.0</ele></trkpt>
    <trkpt lat="35.42227" lon="-120.34187"><ele>566.0</ele></trkpt>
    <trkpt lat="35.42207" lon="-120.34209"><ele>566.0</ele></trkpt>
    <trkpt lat="35.42198" lon="-120.34219"><ele>571.0</ele></trkpt>
    <trkpt lat="35.42194" lon="-120.34225"><ele>571.0</ele></trkpt>
    <trkpt lat="35.42174" lon="-120.34233"><ele>571.0</ele></trkpt>
    <trkpt lat="35.42162" lon="-120.34230"><ele>571.0</ele></trkpt>
    <trkpt lat="35.42141" lon="-120.34218"><ele>571.0</ele></trkpt>
    <trkpt lat="35.42124" lon="-120.34203"><ele>575.0</ele></trkpt>
    <trkpt lat="35.42115" lon="-120.34192"><ele>575.0</ele></trkpt>
    <trkpt lat="35.42106" lon="-120.34182"><ele>575.0</ele></trkpt>
    <trkpt lat="35.42080" lon="-120.34146"><ele>575.0</ele></trkpt>
    <trkpt lat="35.42063" lon="-120.34139"><ele>575.0</ele></trkpt>
    <trkpt lat="35.42048" lon="-120.34130"><ele>575.0</ele></trkpt>
    <trkpt lat="35.42033" lon="-120.34108"><ele>584.0</ele></trkpt>
    <trkpt lat="35.42020" lon="-120.34091"><ele>584.0</ele></trkpt>
    <trkpt lat="35.42014" lon="-120.34082"><ele>584.0</ele></trkpt>
    <trkpt lat="35.42003" lon="-120.34073"><ele>584.0</ele></trkpt>
    <trkpt lat="35.41984" lon="-120.34059"><ele>584.0</ele></trkpt>
    <trkpt lat="35.41962" lon="-120.34042"><ele>584.0</ele></trkpt>
    <trkpt lat="35.41953" lon="-120.34031"><ele>586.0</ele></trkpt>
    <trkpt lat="35.41932" lon="-120.34008"><ele>586.0</ele></trkpt>
    <trkpt lat="35.41905" lon="-120.33978"><ele>586.0</ele></trkpt>
    <trkpt lat="35.41893" lon="-120.33963"><ele>586.0</ele></trkpt>
    <trkpt lat="35.41869" lon="-120.33935"><ele>586.0</ele></trkpt>
    <trkpt lat="35.41841" lon="-120.33898"><ele>589.0</ele></trkpt>
    <trkpt lat="35.41816" lon="-120.33858"><ele>589.0</ele></trkpt>
    <trkpt lat="35.41800" lon="-120.33829"><ele>589.0</ele></trkpt>
    <trkpt lat="35.41779" lon="-120.33798"><ele>589.0</ele></trkpt>
    <trkpt lat="35.41759" lon="-120.33757"><ele>589.0</ele></trkpt>
    <trkpt lat="35.41743" lon="-120.33724"><ele>589.0</ele></trkpt>
    <trkpt lat="35.41725" lon="-120.33685"><ele>588.0</ele></trkpt>
    <trkpt lat="35.41705" lon="-120.33641"><ele>588.0</ele></trkpt>
    <trkpt lat="35.41693" lon="-120.33618"><ele>588.0</ele></trkpt>
    <trkpt lat="35.41680" lon="-120.33591"><ele>588.0</ele></trkpt>
    <trkpt lat="35.41657" lon="-120.33548"><ele>588.0</ele></trkpt>
    <trkpt lat="35.41638" lon="-120.33510"><ele>586.0</ele></trkpt>
    <trkpt lat="35.41624" lon="-120.33478"><ele>586.0</ele></trkpt>
    <trkpt lat="35.41605" lon="-120.33447"><ele>586.0</ele></trkpt>
    <trkpt lat="35.41589" lon="-120.33421"><ele>586.0</ele></trkpt>
    <trkpt lat="35.41574" lon="-120.33400"><ele>586.0</ele></trkpt>
    <trkpt lat="35.41558" lon="-120.33383"><ele>586.0</ele></trkpt>
    <trkpt lat="35.41539" lon="-120.33358"><ele>585.0</ele></trkpt>
    <trkpt lat="35.41508" lon="-120.33322"><ele>585.0</ele></trkpt>
    <trkpt lat="35.41485" lon="-120.33292"><ele>585.0</ele></trkpt>
    <trkpt lat="35.41476" lon="-120.33278"><ele>585.0</ele></trkpt>
    <trkpt lat="35.41455" lon="-120.33248"><ele>585.0</ele></trkpt>
    <trkpt lat="35.41433" lon="-120.33212"><ele>585.0</ele></trkpt>
    <trkpt lat="35.41414" lon="-120.33196"><ele>575.0</ele></trkpt>
    <trkpt lat="35.41403" lon="-120.33172"><ele>575.0</ele></trkpt>
    <trkpt lat="35.41385" lon="-120.33138"><ele>575.0</ele></trkpt>
    <trkpt lat="35.41372" lon="-120.33119"><ele>575.0</ele></trkpt>
    <trkpt lat="35.41351" lon="-120.33091"><ele>575.0</ele></trkpt>
    <trkpt lat="35.41334" lon="-120.33070"><ele>568.0</ele></trkpt>
    <trkpt lat="35.41305" lon="-120.33048"><ele>568.0</ele></trkpt>
    <trkpt lat="35.41287" lon="-120.33032"><ele>568.0</ele></trkpt>
    <trkpt lat="35.41281" lon="-120.33015"><ele>568.0</ele></trkpt>
    <trkpt lat="35.41272" lon="-120.32989"><ele>568.0</ele></trkpt>
    <trkpt lat="35.41265" lon="-120.32975"><ele>568.0</ele></trkpt>
    <trkpt lat="35.41255" lon="-120.32961"><ele>556.0</ele></trkpt>
    <trkpt lat="35.41243" lon="-120.32944"><ele>556.0</ele></trkpt>
    <trkpt lat="35.41228" lon="-120.32916"><ele>556.0</ele></trkpt>
    <trkpt lat="35.41217" lon="-120.32887"><ele>556.0</ele></trkpt>
    <trkpt lat="35.41213" lon="-120.32868"><ele>556.0</ele></trkpt>
    <trkpt lat="35.41202" lon="-120.32841"><ele>547.0</ele></trkpt>
    <trkpt lat="35.41194" lon="-120.32811"><ele>547.0</ele></trkpt>
    <trkpt lat="35.41188" lon="-120.32781"><ele>547.0</ele></trkpt>
    <trkpt lat="35.41182" lon="-120.32767"><ele>547.0</ele></trkpt>
    <trkpt lat="35.41170" lon="-120.32751"><ele>547.0</ele></trkpt>
    <trkpt lat="35.41144" lon="-120.32721"><ele>547.0</ele></trkpt>
    <trkpt lat="35.41129" lon="-120.32701"><ele>541.0</ele></trkpt>
    <trkpt lat="35.41120" lon="-120.32684"><ele>541.0</ele></trkpt>
    <trkpt lat="35.41111" lon="-120.32667"><ele>541.0</ele></trkpt>
    <trkpt lat="35.41104" lon="-120.32644"><ele>541.0</ele></trkpt>
    <trkpt lat="35.41098" lon="-120.32608"><ele>541.0</ele></trkpt>
    <trkpt lat="35.41097" lon="-120.32586"><ele>541.0</ele></trkpt>
    <trkpt lat="35.41101" lon="-120.32551"><ele>532.0</ele></trkpt>
    <trkpt lat="35.41103" lon="-120.32533"><ele>532.0</ele></trkpt>
    <trkpt lat="35.41109" lon="-120.32497"><ele>532.0</ele></trkpt>
    <trkpt lat="35.41113" lon="-120.32483"><ele>532.0</ele></trkpt>
    <trkpt lat="35.41123" lon="-120.32450"><ele>532.0</ele></trkpt>
    <trkpt lat="35.41136" lon="-120.32430"><ele>529.0</ele></trkpt>
    <trkpt lat="35.41150" lon="-120.32409"><ele>529.0</ele></trkpt>
    <trkpt lat="35.41164" lon="-120.32393"><ele>529.0</ele></trkpt>
    <trkpt lat="35.41188" lon="-120.32361"><ele>529.0</ele></trkpt>
    <trkpt lat="35.41202" lon="-120.32347"><ele>529.0</ele></trkpt>
    <trkpt lat="35.41228" lon="-120.32328"><ele>529.0</ele></trkpt>
    <trkpt lat="35.41241" lon="-120.32320"><ele>532.0</ele></trkpt>
    <trkpt lat="35.41264" lon="-120.32306"><ele>532.0</ele></trkpt>
    <trkpt lat="35.41283" lon="-120.32296"><ele>532.0</ele></trkpt>
    <trkpt lat="35.41292" lon="-120.32289"><ele>532.0</ele></trkpt>
    <trkpt lat="35.41302" lon="-120.32274"><ele>532.0</ele></trkpt>
    <trkpt lat="35.41315" lon="-120.32245"><ele>532.0</ele></trkpt>
    <trkpt lat="35.41323" lon="-120.32230"><ele>536.0</ele></trkpt>
    <trkpt lat="35.41336" lon="-120.32206"><ele>536.0</ele></trkpt>
    <trkpt lat="35.41350" lon="-120.32186"><ele>536.0</ele></trkpt>
    <trkpt lat="35.41363" lon="-120.32151"><ele>536.0</ele></trkpt>
    <trkpt lat="35.41373" lon="-120.32117"><ele>536.0</ele></trkpt>
    <trkpt lat="35.41376" lon="-120.32096"><ele>541.0</ele></trkpt>
    <trkpt lat="35.41378" lon="-120.32080"><ele>541.0</ele></trkpt>
    <trkpt lat="35.41374" lon="-120.32057"><ele>541.0</ele></trkpt>
    <trkpt lat="35.41369" lon="-120.32025"><ele>541.0</ele></trkpt>
    <trkpt lat="35.41369" lon="-120.31998"><ele>541.0</ele></trkpt>
    <trkpt lat="35.41370" lon="-120.31949"><ele>541.0</ele></trkpt>
    <trkpt lat="35.41370" lon="-120.31911"><ele>528.0</ele></trkpt>
    <trkpt lat="35.41364" lon="-120.31889"><ele>528.0</ele></trkpt>
    <trkpt lat="35.41357" lon="-120.31874"><ele>528.0</ele></trkpt>
    <trkpt lat="35.41346" lon="-120.31853"><ele>528.0</ele></trkpt>
    <trkpt lat="35.41332" lon="-120.31836"><ele>528.0</ele></trkpt>
    <trkpt lat="35.41323" lon="-120.31821"><ele>534.0</ele></trkpt>
    <trkpt lat="35.41304" lon="-120.31793"><ele>534.0</ele></trkpt>
    <trkpt lat="35.41295" lon="-120.31774"><ele>534.0</ele></trkpt>
    <trkpt lat="35.41290" lon="-120.31755"><ele>534.0</ele></trkpt>
    <trkpt lat="35.41290" lon="-120.31735"><ele>534.0</ele></trkpt>
    <trkpt lat="35.41286" lon="-120.31726"><ele>534.0</ele></trkpt>
    <trkpt lat="35.41275" lon="-120.31710"><ele>535.0</ele></trkpt>
    <trkpt lat="35.41272" lon="-120.31708"><ele>535.0</ele></trkpt>
    <trkpt lat="35.41245" lon="-120.31676"><ele>535.0</ele></trkpt>
    <trkpt lat="35.41232" lon="-120.31662"><ele>535.0</ele></trkpt>
    <trkpt lat="35.41208" lon="-120.31633"><ele>535.0</ele></trkpt>
    <trkpt lat="35.41191" lon="-120.31614"><ele>535.0</ele></trkpt>
    <trkpt lat="35.41165" lon="-120.31596"><ele>538.0</ele></trkpt>
    <trkpt lat="35.41145" lon="-120.31587"><ele>538.0</ele></trkpt>
    <trkpt lat="35.41127" lon="-120.31574"><ele>538.0</ele></trkpt>
    <trkpt lat="35.41115" lon="-120.31554"><ele>538.0</ele></trkpt>
    <trkpt lat="35.41106" lon="-120.31534"><ele>538.0</ele></trkpt>
    <trkpt lat="35.41095" lon="-120.31503"><ele>541.0</ele></trkpt>
    <trkpt lat="35.41088" lon="-120.31465"><ele>541.0</ele></trkpt>
    <trkpt lat="35.41085" lon="-120.31449"><ele>541.0</ele></trkpt>
    <trkpt lat="35.41078" lon="-120.31424"><ele>541.0</ele></trkpt>
    <trkpt lat="35.41065" lon="-120.31384"><ele>541.0</ele></trkpt>
    <trkpt lat="35.41060" lon="-120.31356"><ele>541.0</ele></trkpt>
    <trkpt lat="35.41055" lon="-120.31336"><ele>544.0</ele></trkpt>
    <trkpt lat="35.41039" lon="-120.31333"><ele>544.0</ele></trkpt>
    <trkpt lat="35.41010" lon="-120.31325"><ele>544.0</ele></trkpt>
    <trkpt lat="35.40991" lon="-120.31321"><ele>544.0</ele></trkpt>
    <trkpt lat="35.40974" lon="-120.31315"><ele>544.0</ele></trkpt>
    <trkpt lat="35.40943" lon="-120.31304"><ele>551.0</ele></trkpt>
    <trkpt lat="35.40922" lon="-120.31294"><ele>551.0</ele></trkpt>
    <trkpt lat="35.40887" lon="-120.31278"><ele>551.0</ele></trkpt>
    <trkpt lat="35.40859" lon="-120.31267"><ele>551.0</ele></trkpt>
    <trkpt lat="35.40842" lon="-120.31262"><ele>551.0</ele></trkpt>
    <trkpt lat="35.40824" lon="-120.31270"><ele>551.0</ele></trkpt>
    <trkpt lat="35.40814" lon="-120.31274"><ele>559.0</ele></trkpt>
    <trkpt lat="35.40806" lon="-120.31273"><ele>559.0</ele></trkpt>
    <trkpt lat="35.40800" lon="-120.31260"><ele>559.0</ele></trkpt>
    <trkpt lat="35.40793" lon="-120.31242"><ele>559.0</ele></trkpt>
    <trkpt lat="35.40786" lon="-120.31234"><ele>559.0</ele></trkpt>
    <trkpt lat="35.40768" lon="-120.31233"><ele>559.0</ele></trkpt>
    <trkpt lat="35.40752" lon="-120.31230"><ele>568.0</ele></trkpt>
    <trkpt lat="35.40734" lon="-120.31217"><ele>568.0</ele></trkpt>
    <trkpt lat="35.40718" lon="-120.31200"><ele>568.0</ele></trkpt>
    <trkpt lat="35.40704" lon="-120.31186"><ele>568.0</ele></trkpt>
    <trkpt lat="35.40683" lon="-120.31173"><ele>568.0</ele></trkpt>
    <trkpt lat="35.40666" lon="-120.31168"><ele>571.0</ele></trkpt>
    <trkpt lat="35.40653" lon="-120.31154"><ele>571.0</ele></trkpt>
    <trkpt lat="35.40643" lon="-120.31137"><ele>571.0</ele></trkpt>
    <trkpt lat="35.40635" lon="-120.31113"><ele>571.0</ele></trkpt>
    <trkpt lat="35.40633" lon="-120.31086"><ele>571.0</ele></trkpt>
    <trkpt lat="35.40634" lon="-120.31076"><ele>571.0</ele></trkpt>
    <trkpt lat="35.40643" lon="-120.31060"><ele>567.0</ele></trkpt>
    <trkpt lat="35.40656" lon="-120.31045"><ele>567.0</ele></trkpt>
    <trkpt lat="35.40652" lon="-120.31028"><ele>567.0</ele></trkpt>
    <trkpt lat="35.40652" lon="-120.31017"><ele>567.0</ele></trkpt>
    <trkpt lat="35.40662" lon="-120.30997"><ele>567.0</ele></trkpt>
    <trkpt lat="35.40666" lon="-120.30985"><ele>567.0</ele></trkpt>
    <trkpt lat="35.40667" lon="-120.30966"><ele>557.0</ele></trkpt>
    <trkpt lat="35.40672" lon="-120.30943"><ele>557.0</ele></trkpt>
    <trkpt lat="35.40682" lon="-120.30918"><ele>557.0</ele></trkpt>
    <trkpt lat="35.40688" lon="-120.30896"><ele>557.0</ele></trkpt>
    <trkpt lat="35.40685" lon="-120.30866"><ele>557.0</ele></trkpt>
    <trkpt lat="35.40676" lon="-120.30839"><ele>551.0</ele></trkpt>
    <trkpt lat="35.40673" lon="-120.30823"><ele>551.0</ele></trkpt>
    <trkpt lat="35.40659" lon="-120.30802"><ele>551.0</ele></trkpt>
    <trkpt lat="35.40648" lon="-120.30799"><ele>551.0</ele></trkpt>
    <trkpt lat="35.40648" lon="-120.30800"><ele>551.0</ele></trkpt>
    <trkpt lat="35.40630" lon="-120.30820"><ele>551.0</ele></trkpt>
    <trkpt lat="35.40619" lon="-120.30842"><ele>561.0</ele></trkpt>
    <trkpt lat="35.40603" lon="-120.30873"><ele>561.0</ele></trkpt>
    <trkpt lat="35.40590" lon="-120.30883"><ele>561.0</ele></trkpt>
    <trkpt lat="35.40584" lon="-120.30883"><ele>561.0</ele></trkpt>
    <trkpt lat="35.40578" lon="-120.30880"><ele>561.0</ele></trkpt>
    <trkpt lat="35.40575" lon="-120.30868"><ele>558.0</ele></trkpt>
    <trkpt lat="35.40578" lon="-120.30851"><ele>558.0</ele></trkpt>
    <trkpt lat="35.40595" lon="-120.30816"><ele>558.0</ele></trkpt>
    <trkpt lat="35.40596" lon="-120.30802"><ele>558.0</ele></trkpt>
    <trkpt lat="35.40592" lon="-120.30798"><ele>558.0</ele></trkpt>
    <trkpt lat="35.40584" lon="-120.30796"><ele>558.0</ele></trkpt>
    <trkpt lat="35.40561" lon="-120.30788"><ele>563.0</ele></trkpt>
    <trkpt lat="35.40556" lon="-120.30776"><ele>563.0</ele></trkpt>
    <trkpt lat="35.40559" lon="-120.30766"><ele>563.0</ele></trkpt>
    <trkpt lat="35.40574" lon="-120.30759"><ele>563.0</ele></trkpt>
    <trkpt lat="35.40581" lon="-120.30749"><ele>563.0</ele></trkpt>
    <trkpt lat="35.40581" lon="-120.30742"><ele>563.0</ele></trkpt>
    <trkpt lat="35.40569" lon="-120.30726"><ele>562.0</ele></trkpt>
    <trkpt lat="35.40563" lon="-120.30721"><ele>562.0</ele></trkpt>
    <trkpt lat="35.40541" lon="-120.30716"><ele>562.0</ele></trkpt>
    <trkpt lat="35.40523" lon="-120.30712"><ele>562.0</ele></trkpt>
    <trkpt lat="35.40496" lon="-120.30700"><ele>562.0</ele></trkpt>
    <trkpt lat="35.40476" lon="-120.30702"><ele>573.0</ele></trkpt>
    <trkpt lat="35.40465" lon="-120.30703"><ele>573.0</ele></trkpt>
    <trkpt lat="35.40455" lon="-120.30694"><ele>573.0</ele></trkpt>
    <trkpt lat="35.40456" lon="-120.30674"><ele>573.0</ele></trkpt>
    <trkpt lat="35.40455" lon="-120.30658"><ele>573.0</ele></trkpt>
    <trkpt lat="35.40449" lon="-120.30641"><ele>573.0</ele></trkpt>
    <trkpt lat="35.40445" lon="-120.30633"><ele>570.0</ele></trkpt>
    <trkpt lat="35.40425" lon="-120.30623"><ele>570.0</ele></trkpt>
    <trkpt lat="35.40415" lon="-120.30618"><ele>570.0</ele></trkpt>
    <trkpt lat="35.40406" lon="-120.30616"><ele>570.0</ele></trkpt>
    <trkpt lat="35.40384" lon="-120.30623"><ele>570.0</ele></trkpt>
    <trkpt lat="35.40373" lon="-120.30633"><ele>570.0</ele></trkpt>
    <trkpt lat="35.40355" lon="-120.30652"><ele>580.0</ele></trkpt>
    <trkpt lat="35.40347" lon="-120.30653"><ele>580.0</ele></trkpt>
    <trkpt lat="35.40343" lon="-120.30649"><ele>580.0</ele></trkpt>
    <trkpt lat="35.40342" lon="-120.30638"><ele>580.0</ele></trkpt>
    <trkpt lat="35.40345" lon="-120.30612"><ele>580.0</ele></trkpt>
    <trkpt lat="35.40343" lon="-120.30586"><ele>579.0</ele></trkpt>
    <trkpt lat="35.40337" lon="-120.30579"><ele>579.0</ele></trkpt>
    <trkpt lat="35.40311" lon="-120.30573"><ele>579.0</ele></trkpt>
    <trkpt lat="35.40299" lon="-120.30573"><ele>579.0</ele></trkpt>
    <trkpt lat="35.40284" lon="-120.30570"><ele>579.0</ele></trkpt>
    <trkpt lat="35.40282" lon="-120.30557"><ele>579.0</ele></trkpt>
    <trkpt lat="35.40284" lon="-120.30540"><ele>582.0</ele></trkpt>
    <trkpt lat="35.40282" lon="-120.30520"><ele>582.0</ele></trkpt>
    <trkpt lat="35.40279" lon="-120.30505"><ele>582.0</ele></trkpt>
    <trkpt lat="35.40270" lon="-120.30492"><ele>582.0</ele></trkpt>
    <trkpt lat="35.40262" lon="-120.30490"><ele>582.0</ele></trkpt>
    <trkpt lat="35.40254" lon="-120.30496"><ele>591.0</ele></trkpt>
    <trkpt lat="35.40246" lon="-120.30510"><ele>591.0</ele></trkpt>
    <trkpt lat="35.40232" lon="-120.30516"><ele>591.0</ele></trkpt>
    <trkpt lat="35.40222" lon="-120.30514"><ele>591.0</ele></trkpt>
    <trkpt lat="35.40217" lon="-120.30503"><ele>591.0</ele></trkpt>
    <trkpt lat="35.40222" lon="-120.30485"><ele>591.0</ele></trkpt>
    <trkpt lat="35.40230" lon="-120.30453"><ele>589.0</ele></trkpt>
    <trkpt lat="35.40232" lon="-120.30440"><ele>589.0</ele></trkpt>
    <trkpt lat="35.40228" lon="-120.30415"><ele>589.0</ele></trkpt>
    <trkpt lat="35.40223" lon="-120.30401"><ele>589.0</ele></trkpt>
    <trkpt lat="35.40216" lon="-120.30388"><ele>589.0</ele></trkpt>
    <trkpt lat="35.40202" lon="-120.30366"><ele>589.0</ele></trkpt>
    <trkpt lat="35.40194" lon="-120.30353"><ele>580.0</ele></trkpt>
    <trkpt lat="35.40184" lon="-120.30318"><ele>580.0</ele></trkpt>
    <trkpt lat="35.40177" lon="-120.30304"><ele>580.0</ele></trkpt>
    <trkpt lat="35.40161" lon="-120.30283"><ele>580.0</ele></trkpt>
    <trkpt lat="35.40156" lon="-120.30276"><ele>580.0</ele></trkpt>
    <trkpt lat="35.40150" lon="-120.30255"><ele>564.0</ele></trkpt>
    <trkpt lat="35.40155" lon="-120.30225"><ele>564.0</ele></trkpt>
    <trkpt lat="35.40161" lon="-120.30164"><ele>564.0</ele></trkpt>
    <trkpt lat="35.40162" lon="-120.30121"><ele>564.0</ele></trkpt>
    <trkpt lat="35.40171" lon="-120.30090"><ele>564.0</ele></trkpt>
    <trkpt lat="35.40172" lon="-120.30061"><ele>564.0</ele></trkpt>
    <trkpt lat="35.40181" lon="-120.30044"><ele>544.0</ele></trkpt>
    <trkpt lat="35.40202" lon="-120.30024"><ele>544.0</ele></trkpt>
    <trkpt lat="35.40216" lon="-120.30014"><ele>544.0</ele></trkpt>
    <trkpt lat="35.40220" lon="-120.30004"><ele>544.0</ele></trkpt>
    <trkpt lat="35.40223" lon="-120.29990"><ele>544.0</ele></trkpt>
    <trkpt lat="35.40217" lon="-120.29964"><ele>538.0</ele></trkpt>
    <trkpt lat="35.40215" lon="-120.29954"><ele>538.0</ele></trkpt>
    <trkpt lat="35.40216" lon="-120.29944"><ele>538.0</ele></trkpt>
    <trkpt lat="35.40230" lon="-120.29925"><ele>538.0</ele></trkpt>
    <trkpt lat="35.40240" lon="-120.29910"><ele>538.0</ele></trkpt>
    <trkpt lat="35.40242" lon="-120.29897"><ele>538.0</ele></trkpt>
    <trkpt lat="35.40238" lon="-120.29880"><ele>529.0</ele></trkpt>
    <trkpt lat="35.40223" lon="-120.29848"><ele>529.0</ele></trkpt>
    <trkpt lat="35.40209" lon="-120.29817"><ele>529.0</ele></trkpt>
    <trkpt lat="35.40190" lon="-120.29768"><ele>529.0</ele></trkpt>
    <trkpt lat="35.40175" lon="-120.29730"><ele>529.0</ele></trkpt>
    <trkpt lat="35.40172" lon="-120.29713"><ele>529.0</ele></trkpt>
    <trkpt lat="35.40168" lon="-120.29683"><ele>533.0</ele></trkpt>
    <trkpt lat="35.40153" lon="-120.29662"><ele>533.0</ele></trkpt>
    <trkpt lat="35.40134" lon="-120.29636"><ele>533.0</ele></trkpt>
    <trkpt lat="35.40126" lon="-120.29627"><ele>533.0</ele></trkpt>
    <trkpt lat="35.40118" lon="-120.29621"><ele>533.0</ele></trkpt>
    <trkpt lat="35.40095" lon="-120.29614"><ele>536.0</ele></trkpt>
    <trkpt lat="35.40081" lon="-120.29613"><ele>536.0</ele></trkpt>
    <trkpt lat="35.40059" lon="-120.29614"><ele>536.0</ele></trkpt>
    <trkpt lat="35.40045" lon="-120.29615"><ele>536.0</ele></trkpt>
    <trkpt lat="35.40028" lon="-120.29620"><ele>536.0</ele></trkpt>
    <trkpt lat="35.40009" lon="-120.29624"><ele>536.0</ele></trkpt>
    <trkpt lat="35.39998" lon="-120.29631"><ele>544.0</ele></trkpt>
    <trkpt lat="35.39981" lon="-120.29649"><ele>544.0</ele></trkpt>
    <trkpt lat="35.39973" lon="-120.29654"><ele>544.0</ele></trkpt>
    <trkpt lat="35.39966" lon="-120.29656"><ele>544.0</ele></trkpt>
    <trkpt lat="35.39956" lon="-120.29656"><ele>544.0</ele></trkpt>
    <trkpt lat="35.39948" lon="-120.29649"><ele>544.0</ele></trkpt>
    <trkpt lat="35.39948" lon="-120.29643"><ele>544.0</ele></trkpt>
    <trkpt lat="35.39949" lon="-120.29624"><ele>544.0</ele></trkpt>
    <trkpt lat="35.39949" lon="-120.29606"><ele>544.0</ele></trkpt>
    <trkpt lat="35.39946" lon="-120.29584"><ele>544.0</ele></trkpt>
    <trkpt lat="35.39936" lon="-120.29555"><ele>544.0</ele></trkpt>
    <trkpt lat="35.39924" lon="-120.29524"><ele>540.0</ele></trkpt>
    <trkpt lat="35.39913" lon="-120.29505"><ele>540.0</ele></trkpt>
    <trkpt lat="35.39905" lon="-120.29495"><ele>540.0</ele></trkpt>
    <trkpt lat="35.39892" lon="-120.29484"><ele>540.0</ele></trkpt>
    <trkpt lat="35.39881" lon="-120.29472"><ele>540.0</ele></trkpt>
    <trkpt lat="35.39874" lon="-120.29464"><ele>540.0</ele></trkpt>
    <trkpt lat="35.39869" lon="-120.29450"><ele>541.0</ele></trkpt>
    <trkpt lat="35.39864" lon="-120.29440"><ele>541.0</ele></trkpt>
    <trkpt lat="35.39850" lon="-120.29424"><ele>541.0</ele></trkpt>
    <trkpt lat="35.39842" lon="-120.29418"><ele>541.0</ele></trkpt>
    <trkpt lat="35.39836" lon="-120.29418"><ele>541.0</ele></trkpt>
    <trkpt lat="35.39816" lon="-120.29425"><ele>547.0</ele></trkpt>
    <trkpt lat="35.39807" lon="-120.29428"><ele>547.0</ele></trkpt>
    <trkpt lat="35.39794" lon="-120.29431"><ele>547.0</ele></trkpt>
    <trkpt lat="35.39780" lon="-120.29427"><ele>547.0</ele></trkpt>
    <trkpt lat="35.39764" lon="-120.29417"><ele>547.0</ele></trkpt>
    <trkpt lat="35.39744" lon="-120.29403"><ele>547.0</ele></trkpt>
    <trkpt lat="35.39721" lon="-120.29384"><ele>555.0</ele></trkpt>
    <trkpt lat="35.39703" lon="-120.29371"><ele>555.0</ele></trkpt>
    <trkpt lat="35.39680" lon="-120.29352"><ele>555.0</ele></trkpt>
    <trkpt lat="35.39670" lon="-120.29342"><ele>555.0</ele></trkpt>
    <trkpt lat="35.39648" lon="-120.29323"><ele>555.0</ele></trkpt>
    <trkpt lat="35.39639" lon="-120.29312"><ele>555.0</ele></trkpt>
    <trkpt lat="35.39632" lon="-120.29301"><ele>550.0</ele></trkpt>
    <trkpt lat="35.39628" lon="-120.29285"><ele>550.0</ele></trkpt>
    <trkpt lat="35.39621" lon="-120.29269"><ele>550.0</ele></trkpt>
    <trkpt lat="35.39607" lon="-120.29257"><ele>550.0</ele></trkpt>
    <trkpt lat="35.39593" lon="-120.29247"><ele>550.0</ele></trkpt>
    <trkpt lat="35.39569" lon="-120.29223"><ele>546.0</ele></trkpt>
    <trkpt lat="35.39560" lon="-120.29213"><ele>546.0</ele></trkpt>
    <trkpt lat="35.39554" lon="-120.29206"><ele>546.0</ele></trkpt>
    <trkpt lat="35.39547" lon="-120.29193"><ele>546.0</ele></trkpt>
    <trkpt lat="35.39544" lon="-120.29171"><ele>546.0</ele></trkpt>
    <trkpt lat="35.39543" lon="-120.29138"><ele>546.0</ele></trkpt>
    <trkpt lat="35.39539" lon="-120.29121"><ele>542.0</ele></trkpt>
    <trkpt lat="35.39530" lon="-120.29113"><ele>542.0</ele></trkpt>
    <trkpt lat="35.39521" lon="-120.29114"><ele>542.0</ele></trkpt>
    <trkpt lat="35.39507" lon="-120.29130"><ele>542.0</ele></trkpt>
    <trkpt lat="35.39496" lon="-120.29137"><ele>542.0</ele></trkpt>
    <trkpt lat="35.39489" lon="-120.29133"><ele>545.0</ele></trkpt>
    <trkpt lat="35.39471" lon="-120.29124"><ele>545.0</ele></trkpt>
    <trkpt lat="35.39445" lon="-120.29120"><ele>545.0</ele></trkpt>
    <trkpt lat="35.39426" lon="-120.29117"><ele>545.0</ele></trkpt>
    <trkpt lat="35.39415" lon="-120.29115"><ele>545.0</ele></trkpt>
    <trkpt lat="35.39386" lon="-120.29117"><ele>545.0</ele></trkpt>
    <trkpt lat="35.39374" lon="-120.29115"><ele>548.0</ele></trkpt>
    <trkpt lat="35.39363" lon="-120.29110"><ele>548.0</ele></trkpt>
    <trkpt lat="35.39326" lon="-120.29088"><ele>548.0</ele></trkpt>
    <trkpt lat="35.39314" lon="-120.29081"><ele>548.0</ele></trkpt>
    <trkpt lat="35.39295" lon="-120.29078"><ele>548.0</ele></trkpt>
    <trkpt lat="35.39280" lon="-120.29081"><ele>548.0</ele></trkpt>
    <trkpt lat="35.39265" lon="-120.29079"><ele>550.0</ele></trkpt>
    <trkpt lat="35.39256" lon="-120.29079"><ele>550.0</ele></trkpt>
    <trkpt lat="35.39232" lon="-120.29068"><ele>550.0</ele></trkpt>
    <trkpt lat="35.39222" lon="-120.29062"><ele>550.0</ele></trkpt>
    <trkpt lat="35.39212" lon="-120.29058"><ele>550.0</ele></trkpt>
    <trkpt lat="35.39201" lon="-120.29053"><ele>552.0</ele></trkpt>
    <trkpt lat="35.39190" lon="-120.29055"><ele>552.0</ele></trkpt>
    <trkpt lat="35.39182" lon="-120.29069"><ele>552.0</ele></trkpt>
    <trkpt lat="35.39174" lon="-120.29080"><ele>552.0</ele></trkpt>
    <trkpt lat="35.39154" lon="-120.29091"><ele>552.0</ele></trkpt>
    <trkpt lat="35.39142" lon="-120.29093"><ele>552.0</ele></trkpt>
    <trkpt lat="35.39113" lon="-120.29093"><ele>559.0</ele></trkpt>
    <trkpt lat="35.39100" lon="-120.29094"><ele>559.0</ele></trkpt>
    <trkpt lat="35.39074" lon="-120.29099"><ele>559.0</ele></trkpt>
    <trkpt lat="35.39066" lon="-120.29098"><ele>559.0</ele></trkpt>
    <trkpt lat="35.39048" lon="-120.29095"><ele>559.0</ele></trkpt>
    <trkpt lat="35.39038" lon="-120.29092"><ele>559.0</ele></trkpt>
    <trkpt lat="35.39029" lon="-120.29083"><ele>567.0</ele></trkpt>
    <trkpt lat="35.39008" lon="-120.29069"><ele>567.0</ele></trkpt>
    <trkpt lat="35.38994" lon="-120.29069"><ele>567.0</ele></trkpt>
    <trkpt lat="35.38970" lon="-120.29078"><ele>567.0</ele></trkpt>
    <trkpt lat="35.38968" lon="-120.29079"><ele>567.0</ele></trkpt>
    <trkpt lat="35.38958" lon="-120.29082"><ele>574.0</ele></trkpt>
    <trkpt lat="35.38919" lon="-120.29079"><ele>574.0</ele></trkpt>
    <trkpt lat="35.38908" lon="-120.29076"><ele>574.0</ele></trkpt>
    <trkpt lat="35.38886" lon="-120.29062"><ele>574.0</ele></trkpt>
    <trkpt lat="35.38876" lon="-120.29057"><ele>574.0</ele></trkpt>
    <trkpt lat="35.38863" lon="-120.29056"><ele>574.0</ele></trkpt>
    <trkpt lat="35.38843" lon="-120.29067"><ele>584.0</ele></trkpt>
    <trkpt lat="35.38822" lon="-120.29063"><ele>584.0</ele></trkpt>
    <trkpt lat="35.38790" lon="-120.29048"><ele>584.0</ele></trkpt>
    <trkpt lat="35.38781" lon="-120.29046"><ele>584.0</ele></trkpt>
    <trkpt lat="35.38745" lon="-120.29037"><ele>584.0</ele></trkpt>
    <trkpt lat="35.38712" lon="-120.29036"><ele>593.0</ele></trkpt>
    <trkpt lat="35.38683" lon="-120.29041"><ele>593.0</ele></trkpt>
    <trkpt lat="35.38666" lon="-120.29037"><ele>593.0</ele></trkpt>
    <trkpt lat="35.38657" lon="-120.29032"><ele>593.0</ele></trkpt>
    <trkpt lat="35.38634" lon="-120.29006"><ele>593.0</ele></trkpt>
    <trkpt lat="35.38627" lon="-120.28995"><ele>593.0</ele></trkpt>
    <trkpt lat="35.38611" lon="-120.28975"><ele>592.0</ele></trkpt>
    <trkpt lat="35.38611" lon="-120.28975"><ele>592.0</ele></trkpt>
    <trkpt lat="35.38592" lon="-120.28947"><ele>592.0</ele></trkpt>
    <trkpt lat="35.38579" lon="-120.28926"><ele>592.0</ele></trkpt>
    <trkpt lat="35.38570" lon="-120.28909"><ele>592.0</ele></trkpt>
    <trkpt lat="35.38556" lon="-120.28873"><ele>592.0</ele></trkpt>
    <trkpt lat="35.38545" lon="-120.28843"><ele>591.0</ele></trkpt>
    <trkpt lat="35.38541" lon="-120.28829"><ele>591.0</ele></trkpt>
    <trkpt lat="35.38529" lon="-120.28812"><ele>591.0</ele></trkpt>
    <trkpt lat="35.38519" lon="-120.28804"><ele>591.0</ele></trkpt>
    <trkpt lat="35.38499" lon="-120.28790"><ele>591.0</ele></trkpt>
    <trkpt lat="35.38481" lon="-120.28774"><ele>595.0</ele></trkpt>
    <trkpt lat="35.38465" lon="-120.28767"><ele>595.0</ele></trkpt>
    <trkpt lat="35.38437" lon="-120.28762"><ele>595.0</ele></trkpt>
    <trkpt lat="35.38419" lon="-120.28761"><ele>595.0</ele></trkpt>
    <trkpt lat="35.38405" lon="-120.28759"><ele>595.0</ele></trkpt>
    <trkpt lat="35.38373" lon="-120.28754"><ele>595.0</ele></trkpt>
    <trkpt lat="35.38338" lon="-120.28753"><ele>599.0</ele></trkpt>
    <trkpt lat="35.38324" lon="-120.28750"><ele>599.0</ele></trkpt>
    <trkpt lat="35.38306" lon="-120.28752"><ele>599.0</ele></trkpt>
    <trkpt lat="35.38285" lon="-120.28747"><ele>599.0</ele></trkpt>
    <trkpt lat="35.38273" lon="-120.28747"><ele>599.0</ele></trkpt>
    <trkpt lat="35.38242" lon="-120.28740"><ele>599.0</ele></trkpt>
    <trkpt lat="35.38229" lon="-120.28733"><ele>601.0</ele></trkpt>
    <trkpt lat="35.38214" lon="-120.28720"><ele>601.0</ele></trkpt>
    <trkpt lat="35.38196" lon="-120.28697"><ele>601.0</ele></trkpt>
    <trkpt lat="35.38190" lon="-120.28688"><ele>601.0</ele></trkpt>
    <trkpt lat="35.38171" lon="-120.28667"><ele>601.0</ele></trkpt>
    <trkpt lat="35.38138" lon="-120.28628"><ele>591.0</ele></trkpt>
    <trkpt lat="35.38123" lon="-120.28621"><ele>591.0</ele></trkpt>
    <trkpt lat="35.38113" lon="-120.28622"><ele>591.0</ele></trkpt>
    <trkpt lat="35.38095" lon="-120.28598"><ele>591.0</ele></trkpt>
    <trkpt lat="35.38083" lon="-120.28570"><ele>591.0</ele></trkpt>
    <trkpt lat="35.38061" lon="-120.28540"><ele>591.0</ele></trkpt>
    <trkpt lat="35.38040" lon="-120.28511"><ele>580.0</ele></trkpt>
    <trkpt lat="35.38032" lon="-120.28480"><ele>580.0</ele></trkpt>
    <trkpt lat="35.38020" lon="-120.28428"><ele>580.0</ele></trkpt>
    <trkpt lat="35.38019" lon="-120.28380"><ele>580.0</ele></trkpt>
    <trkpt lat="35.38019" lon="-120.28338"><ele>580.0</ele></trkpt>
    <trkpt lat="35.38019" lon="-120.28311"><ele>569.0</ele></trkpt>
    <trkpt lat="35.38014" lon="-120.28273"><ele>569.0</ele></trkpt>
    <trkpt lat="35.38002" lon="-120.28273"><ele>569.0</ele></trkpt>
    <trkpt lat="35.37988" lon="-120.28271"><ele>569.0</ele></trkpt>
    <trkpt lat="35.37973" lon="-120.28255"><ele>569.0</ele></trkpt>
    <trkpt lat="35.37954" lon="-120.28238"><ele>569.0</ele></trkpt>
    <trkpt lat="35.37934" lon="-120.28228"><ele>570.0</ele></trkpt>
    <trkpt lat="35.37913" lon="-120.28215"><ele>570.0</ele></trkpt>
    <trkpt lat="35.37903" lon="-120.28221"><ele>570.0</ele></trkpt>
  </trkseg></trk>
</gpx>
