<?xml version="1.0" encoding="UTF-8"?>
<gpx version="1.1" creator="dirt-bikes build-area-routes (MVUM geometry + SRTM elevation)" xmlns="http://www.topografix.com/GPX/1/1">
  <trk><name>Fish Creek Meadows Road</name><trkseg>
    <trkpt lat="34.15103" lon="-116.77202"><ele>2138.0</ele></trkpt>
    <trkpt lat="34.15090" lon="-116.77195"><ele>2138.0</ele></trkpt>
    <trkpt lat="34.15082" lon="-116.77189"><ele>2138.0</ele></trkpt>
    <trkpt lat="34.15065" lon="-116.77174"><ele>2138.0</ele></trkpt>
    <trkpt lat="34.15053" lon="-116.77164"><ele>2138.0</ele></trkpt>
    <trkpt lat="34.15052" lon="-116.77164"><ele>2138.0</ele></trkpt>
    <trkpt lat="34.15041" lon="-116.77155"><ele>2140.0</ele></trkpt>
    <trkpt lat="34.15021" lon="-116.77138"><ele>2140.0</ele></trkpt>
    <trkpt lat="34.15007" lon="-116.77124"><ele>2140.0</ele></trkpt>
    <trkpt lat="34.14994" lon="-116.77113"><ele>2140.0</ele></trkpt>
    <trkpt lat="34.14984" lon="-116.77105"><ele>2140.0</ele></trkpt>
    <trkpt lat="34.14972" lon="-116.77097"><ele>2140.0</ele></trkpt>
    <trkpt lat="34.14957" lon="-116.77086"><ele>2140.0</ele></trkpt>
    <trkpt lat="34.14948" lon="-116.77082"><ele>2140.0</ele></trkpt>
    <trkpt lat="34.14941" lon="-116.77079"><ele>2140.0</ele></trkpt>
    <trkpt lat="34.14935" lon="-116.77076"><ele>2140.0</ele></trkpt>
    <trkpt lat="34.14930" lon="-116.77075"><ele>2140.0</ele></trkpt>
    <trkpt lat="34.14923" lon="-116.77076"><ele>2145.0</ele></trkpt>
    <trkpt lat="34.14916" lon="-116.77077"><ele>2145.0</ele></trkpt>
    <trkpt lat="34.14910" lon="-116.77078"><ele>2145.0</ele></trkpt>
    <trkpt lat="34.14904" lon="-116.77078"><ele>2145.0</ele></trkpt>
    <trkpt lat="34.14899" lon="-116.77078"><ele>2145.0</ele></trkpt>
    <trkpt lat="34.14891" lon="-116.77076"><ele>2145.0</ele></trkpt>
    <trkpt lat="34.14891" lon="-116.77076"><ele>2145.0</ele></trkpt>
    <trkpt lat="34.14885" lon="-116.77075"><ele>2145.0</ele></trkpt>
    <trkpt lat="34.14880" lon="-116.77074"><ele>2145.0</ele></trkpt>
    <trkpt lat="34.14876" lon="-116.77075"><ele>2145.0</ele></trkpt>
    <trkpt lat="34.14876" lon="-116.77075"><ele>2145.0</ele></trkpt>
    <trkpt lat="34.14870" lon="-116.77077"><ele>2149.0</ele></trkpt>
    <trkpt lat="34.14862" lon="-116.77082"><ele>2149.0</ele></trkpt>
    <trkpt lat="34.14858" lon="-116.77087"><ele>2149.0</ele></trkpt>
    <trkpt lat="34.14855" lon="-116.77093"><ele>2149.0</ele></trkpt>
    <trkpt lat="34.14854" lon="-116.77102"><ele>2149.0</ele></trkpt>
    <trkpt lat="34.14855" lon="-116.77110"><ele>2149.0</ele></trkpt>
    <trkpt lat="34.14858" lon="-116.77116"><ele>2149.0</ele></trkpt>
    <trkpt lat="34.14864" lon="-116.77124"><ele>2149.0</ele></trkpt>
    <trkpt lat="34.14868" lon="-116.77135"><ele>2149.0</ele></trkpt>
    <trkpt lat="34.14871" lon="-116.77142"><ele>2149.0</ele></trkpt>
    <trkpt lat="34.14873" lon="-116.77153"><ele>2149.0</ele></trkpt>
    <trkpt lat="34.14873" lon="-116.77162"><ele>2150.0</ele></trkpt>
    <trkpt lat="34.14871" lon="-116.77170"><ele>2150.0</ele></trkpt>
    <trkpt lat="34.14868" lon="-116.77175"><ele>2150.0</ele></trkpt>
    <trkpt lat="34.14863" lon="-116.77182"><ele>2150.0</ele></trkpt>
    <trkpt lat="34.14858" lon="-116.77189"><ele>2150.0</ele></trkpt>
    <trkpt lat="34.14855" lon="-116.77197"><ele>2150.0</ele></trkpt>
    <trkpt lat="34.14852" lon="-116.77207"><ele>2150.0</ele></trkpt>
    <trkpt lat="34.14848" lon="-116.77213"><ele>2150.0</ele></trkpt>
    <trkpt lat="34.14843" lon="-116.77218"><ele>2150.0</ele></trkpt>
    <trkpt lat="34.14836" lon="-116.77224"><ele>2150.0</ele></trkpt>
    <trkpt lat="34.14831" lon="-116.77235"><ele>2150.0</ele></trkpt>
    <trkpt lat="34.14826" lon="-116.77249"><ele>2150.0</ele></trkpt>
    <trkpt lat="34.14823" lon="-116.77265"><ele>2157.0</ele></trkpt>
    <trkpt lat="34.14822" lon="-116.77280"><ele>2157.0</ele></trkpt>
    <trkpt lat="34.14821" lon="-116.77298"><ele>2157.0</ele></trkpt>
    <trkpt lat="34.14821" lon="-116.77312"><ele>2157.0</ele></trkpt>
    <trkpt lat="34.14820" lon="-116.77330"><ele>2157.0</ele></trkpt>
    <trkpt lat="34.14819" lon="-116.77352"><ele>2157.0</ele></trkpt>
    <trkpt lat="34.14818" lon="-116.77376"><ele>2157.0</ele></trkpt>
    <trkpt lat="34.14818" lon="-116.77392"><ele>2157.0</ele></trkpt>
    <trkpt lat="34.14819" lon="-116.77405"><ele>2157.0</ele></trkpt>
    <trkpt lat="34.14821" lon="-116.77418"><ele>2157.0</ele></trkpt>
    <trkpt lat="34.14825" lon="-116.77429"><ele>2157.0</ele></trkpt>
    <trkpt lat="34.14832" lon="-116.77442"><ele>2159.0</ele></trkpt>
    <trkpt lat="34.14839" lon="-116.77454"><ele>2159.0</ele></trkpt>
    <trkpt lat="34.14843" lon="-116.77463"><ele>2159.0</ele></trkpt>
    <trkpt lat="34.14844" lon="-116.77473"><ele>2159.0</ele></trkpt>
    <trkpt lat="34.14845" lon="-116.77484"><ele>2159.0</ele></trkpt>
    <trkpt lat="34.14844" lon="-116.77498"><ele>2159.0</ele></trkpt>
    <trkpt lat="34.14844" lon="-116.77512"><ele>2159.0</ele></trkpt>
    <trkpt lat="34.14845" lon="-116.77527"><ele>2159.0</ele></trkpt>
    <trkpt lat="34.14847" lon="-116.77553"><ele>2159.0</ele></trkpt>
    <trkpt lat="34.14847" lon="-116.77564"><ele>2159.0</ele></trkpt>
    <trkpt lat="34.14846" lon="-116.77576"><ele>2159.0</ele></trkpt>
    <trkpt lat="34.14844" lon="-116.77587"><ele>2176.0</ele></trkpt>
    <trkpt lat="34.14839" lon="-116.77632"><ele>2176.0</ele></trkpt>
    <trkpt lat="34.14837" lon="-116.77651"><ele>2176.0</ele></trkpt>
    <trkpt lat="34.14837" lon="-116.77669"><ele>2176.0</ele></trkpt>
    <trkpt lat="34.14837" lon="-116.77681"><ele>2176.0</ele></trkpt>
    <trkpt lat="34.14839" lon="-116.77690"><ele>2176.0</ele></trkpt>
    <trkpt lat="34.14844" lon="-116.77697"><ele>2176.0</ele></trkpt>
    <trkpt lat="34.14853" lon="-116.77706"><ele>2176.0</ele></trkpt>
    <trkpt lat="34.14859" lon="-116.77716"><ele>2176.0</ele></trkpt>
    <trkpt lat="34.14862" lon="-116.77726"><ele>2176.0</ele></trkpt>
    <trkpt lat="34.14863" lon="-116.77738"><ele>2176.0</ele></trkpt>
    <trkpt lat="34.14863" lon="-116.77752"><ele>2182.0</ele></trkpt>
    <trkpt lat="34.14861" lon="-116.77763"><ele>2182.0</ele></trkpt>
    <trkpt lat="34.14860" lon="-116.77771"><ele>2182.0</ele></trkpt>
    <trkpt lat="34.14857" lon="-116.77784"><ele>2182.0</ele></trkpt>
    <trkpt lat="34.14854" lon="-116.77795"><ele>2182.0</ele></trkpt>
    <trkpt lat="34.14851" lon="-116.77802"><ele>2182.0</ele></trkpt>
    <trkpt lat="34.14849" lon="-116.77808"><ele>2182.0</ele></trkpt>
    <trkpt lat="34.14849" lon="-116.77816"><ele>2182.0</ele></trkpt>
    <trkpt lat="34.14849" lon="-116.77828"><ele>2182.0</ele></trkpt>
    <trkpt lat="34.14850" lon="-116.77842"><ele>2182.0</ele></trkpt>
    <trkpt lat="34.14848" lon="-116.77851"><ele>2182.0</ele></trkpt>
    <trkpt lat="34.14845" lon="-116.77859"><ele>2191.0</ele></trkpt>
    <trkpt lat="34.14841" lon="-116.77866"><ele>2191.0</ele></trkpt>
    <trkpt lat="34.14837" lon="-116.77873"><ele>2191.0</ele></trkpt>
    <trkpt lat="34.14833" lon="-116.77878"><ele>2191.0</ele></trkpt>
    <trkpt lat="34.14825" lon="-116.77884"><ele>2191.0</ele></trkpt>
    <trkpt lat="34.14818" lon="-116.77888"><ele>2191.0</ele></trkpt>
    <trkpt lat="34.14809" lon="-116.77894"><ele>2191.0</ele></trkpt>
    <trkpt lat="34.14801" lon="-116.77901"><ele>2191.0</ele></trkpt>
    <trkpt lat="34.14794" lon="-116.77907"><ele>2191.0</ele></trkpt>
    <trkpt lat="34.14790" lon="-116.77912"><ele>2191.0</ele></trkpt>
    <trkpt lat="34.14788" lon="-116.77919"><ele>2191.0</ele></trkpt>
    <trkpt lat="34.14788" lon="-116.77925"><ele>2189.0</ele></trkpt>
    <trkpt lat="34.14789" lon="-116.77930"><ele>2189.0</ele></trkpt>
    <trkpt lat="34.14793" lon="-116.77937"><ele>2189.0</ele></trkpt>
    <trkpt lat="34.14802" lon="-116.77946"><ele>2189.0</ele></trkpt>
    <trkpt lat="34.14812" lon="-116.77956"><ele>2189.0</ele></trkpt>
    <trkpt lat="34.14817" lon="-116.77962"><ele>2189.0</ele></trkpt>
    <trkpt lat="34.14820" lon="-116.77970"><ele>2189.0</ele></trkpt>
    <trkpt lat="34.14822" lon="-116.77980"><ele>2189.0</ele></trkpt>
    <trkpt lat="34.14823" lon="-116.77992"><ele>2189.0</ele></trkpt>
    <trkpt lat="34.14822" lon="-116.78008"><ele>2189.0</ele></trkpt>
    <trkpt lat="34.14819" lon="-116.78022"><ele>2189.0</ele></trkpt>
    <trkpt lat="34.14817" lon="-116.78035"><ele>2197.0</ele></trkpt>
    <trkpt lat="34.14813" lon="-116.78044"><ele>2197.0</ele></trkpt>
    <trkpt lat="34.14807" lon="-116.78053"><ele>2197.0</ele></trkpt>
    <trkpt lat="34.14800" lon="-116.78062"><ele>2197.0</ele></trkpt>
    <trkpt lat="34.14792" lon="-116.78070"><ele>2197.0</ele></trkpt>
    <trkpt lat="34.14784" lon="-116.78078"><ele>2197.0</ele></trkpt>
    <trkpt lat="34.14774" lon="-116.78086"><ele>2197.0</ele></trkpt>
    <trkpt lat="34.14767" lon="-116.78093"><ele>2197.0</ele></trkpt>
    <trkpt lat="34.14761" lon="-116.78100"><ele>2197.0</ele></trkpt>
    <trkpt lat="34.14757" lon="-116.78104"><ele>2197.0</ele></trkpt>
    <trkpt lat="34.14754" lon="-116.78109"><ele>2197.0</ele></trkpt>
    <trkpt lat="34.14754" lon="-116.78114"><ele>2206.0</ele></trkpt>
    <trkpt lat="34.14754" lon="-116.78120"><ele>2206.0</ele></trkpt>
    <trkpt lat="34.14756" lon="-116.78124"><ele>2206.0</ele></trkpt>
    <trkpt lat="34.14762" lon="-116.78129"><ele>2206.0</ele></trkpt>
    <trkpt lat="34.14774" lon="-116.78136"><ele>2206.0</ele></trkpt>
    <trkpt lat="34.14781" lon="-116.78143"><ele>2206.0</ele></trkpt>
    <trkpt lat="34.14789" lon="-116.78150"><ele>2206.0</ele></trkpt>
    <trkpt lat="34.14792" lon="-116.78155"><ele>2206.0</ele></trkpt>
    <trkpt lat="34.14796" lon="-116.78164"><ele>2206.0</ele></trkpt>
    <trkpt lat="34.14801" lon="-116.78176"><ele>2206.0</ele></trkpt>
    <trkpt lat="34.14805" lon="-116.78188"><ele>2206.0</ele></trkpt>
    <trkpt lat="34.14809" lon="-116.78202"><ele>2206.0</ele></trkpt>
    <trkpt lat="34.14811" lon="-116.78210"><ele>2210.0</ele></trkpt>
    <trkpt lat="34.14811" lon="-116.78221"><ele>2210.0</ele></trkpt>
    <trkpt lat="34.14810" lon="-116.78230"><ele>2210.0</ele></trkpt>
    <trkpt lat="34.14808" lon="-116.78240"><ele>2210.0</ele></trkpt>
    <trkpt lat="34.14803" lon="-116.78251"><ele>2210.0</ele></trkpt>
    <trkpt lat="34.14796" lon="-116.78260"><ele>2210.0</ele></trkpt>
    <trkpt lat="34.14792" lon="-116.78268"><ele>2210.0</ele></trkpt>
    <trkpt lat="34.14788" lon="-116.78276"><ele>2210.0</ele></trkpt>
    <trkpt lat="34.14787" lon="-116.78282"><ele>2210.0</ele></trkpt>
    <trkpt lat="34.14788" lon="-116.78287"><ele>2210.0</ele></trkpt>
    <trkpt lat="34.14793" lon="-116.78293"><ele>2210.0</ele></trkpt>
    <trkpt lat="34.14798" lon="-116.78298"><ele>2207.0</ele></trkpt>
    <trkpt lat="34.14802" lon="-116.78305"><ele>2207.0</ele></trkpt>
    <trkpt lat="34.14803" lon="-116.78311"><ele>2207.0</ele></trkpt>
    <trkpt lat="34.14804" lon="-116.78318"><ele>2207.0</ele></trkpt>
    <trkpt lat="34.14802" lon="-116.78326"><ele>2207.0</ele></trkpt>
    <trkpt lat="34.14798" lon="-116.78337"><ele>2207.0</ele></trkpt>
    <trkpt lat="34.14795" lon="-116.78349"><ele>2207.0</ele></trkpt>
    <trkpt lat="34.14792" lon="-116.78359"><ele>2207.0</ele></trkpt>
    <trkpt lat="34.14790" lon="-116.78367"><ele>2207.0</ele></trkpt>
    <trkpt lat="34.14789" lon="-116.78374"><ele>2207.0</ele></trkpt>
    <trkpt lat="34.14786" lon="-116.78382"><ele>2207.0</ele></trkpt>
    <trkpt lat="34.14784" lon="-116.78388"><ele>2224.0</ele></trkpt>
    <trkpt lat="34.14780" lon="-116.78395"><ele>2224.0</ele></trkpt>
    <trkpt lat="34.14775" lon="-116.78400"><ele>2224.0</ele></trkpt>
    <trkpt lat="34.14770" lon="-116.78404"><ele>2224.0</ele></trkpt>
    <trkpt lat="34.14762" lon="-116.78409"><ele>2224.0</ele></trkpt>
    <trkpt lat="34.14755" lon="-116.78413"><ele>2224.0</ele></trkpt>
    <trkpt lat="34.14747" lon="-116.78418"><ele>2224.0</ele></trkpt>
    <trkpt lat="34.14741" lon="-116.78423"><ele>2224.0</ele></trkpt>
    <trkpt lat="34.14737" lon="-116.78427"><ele>2224.0</ele></trkpt>
    <trkpt lat="34.14735" lon="-116.78432"><ele>2224.0</ele></trkpt>
    <trkpt lat="34.14732" lon="-116.78439"><ele>2224.0</ele></trkpt>
    <trkpt lat="34.14729" lon="-116.78448"><ele>2242.0</ele></trkpt>
    <trkpt lat="34.14726" lon="-116.78454"><ele>2242.0</ele></trkpt>
    <trkpt lat="34.14721" lon="-116.78462"><ele>2242.0</ele></trkpt>
    <trkpt lat="34.14718" lon="-116.78467"><ele>2242.0</ele></trkpt>
    <trkpt lat="34.14717" lon="-116.78473"><ele>2242.0</ele></trkpt>
    <trkpt lat="34.14718" lon="-116.78478"><ele>2242.0</ele></trkpt>
    <trkpt lat="34.14720" lon="-116.78485"><ele>2242.0</ele></trkpt>
    <trkpt lat="34.14723" lon="-116.78497"><ele>2242.0</ele></trkpt>
    <trkpt lat="34.14725" lon="-116.78506"><ele>2242.0</ele></trkpt>
    <trkpt lat="34.14726" lon="-116.78514"><ele>2242.0</ele></trkpt>
    <trkpt lat="34.14727" lon="-116.78523"><ele>2242.0</ele></trkpt>
    <trkpt lat="34.14729" lon="-116.78528"><ele>2229.0</ele></trkpt>
    <trkpt lat="34.14733" lon="-116.78530"><ele>2229.0</ele></trkpt>
    <trkpt lat="34.14739" lon="-116.78531"><ele>2229.0</ele></trkpt>
    <trkpt lat="34.14745" lon="-116.78531"><ele>2229.0</ele></trkpt>
    <trkpt lat="34.14750" lon="-116.78532"><ele>2229.0</ele></trkpt>
    <trkpt lat="34.14755" lon="-116.78537"><ele>2229.0</ele></trkpt>
    <trkpt lat="34.14757" lon="-116.78545"><ele>2229.0</ele></trkpt>
    <trkpt lat="34.14759" lon="-116.78552"><ele>2229.0</ele></trkpt>
    <trkpt lat="34.14762" lon="-116.78562"><ele>2229.0</ele></trkpt>
    <trkpt lat="34.14763" lon="-116.78570"><ele>2229.0</ele></trkpt>
    <trkpt lat="34.14764" lon="-116.78581"><ele>2229.0</ele></trkpt>
    <trkpt lat="34.14764" lon="-116.78590"><ele>2242.0</ele></trkpt>
    <trkpt lat="34.14762" lon="-116.78601"><ele>2242.0</ele></trkpt>
    <trkpt lat="34.14760" lon="-116.78615"><ele>2242.0</ele></trkpt>
    <trkpt lat="34.14757" lon="-116.78629"><ele>2242.0</ele></trkpt>
    <trkpt lat="34.14754" lon="-116.78644"><ele>2242.0</ele></trkpt>
    <trkpt lat="34.14751" lon="-116.78656"><ele>2242.0</ele></trkpt>
    <trkpt lat="34.14750" lon="-116.78662"><ele>2242.0</ele></trkpt>
    <trkpt lat="34.14748" lon="-116.78669"><ele>2242.0</ele></trkpt>
    <trkpt lat="34.14744" lon="-116.78678"><ele>2242.0</ele></trkpt>
    <trkpt lat="34.14741" lon="-116.78690"><ele>2242.0</ele></trkpt>
    <trkpt lat="34.14739" lon="-116.78703"><ele>2242.0</ele></trkpt>
    <trkpt lat="34.14738" lon="-116.78717"><ele>2245.0</ele></trkpt>
    <trkpt lat="34.14738" lon="-116.78727"><ele>2245.0</ele></trkpt>
    <trkpt lat="34.14741" lon="-116.78735"><ele>2245.0</ele></trkpt>
    <trkpt lat="34.14748" lon="-116.78747"><ele>2245.0</ele></trkpt>
    <trkpt lat="34.14755" lon="-116.78761"><ele>2245.0</ele></trkpt>
    <trkpt lat="34.14761" lon="-116.78775"><ele>2245.0</ele></trkpt>
    <trkpt lat="34.14762" lon="-116.78787"><ele>2245.0</ele></trkpt>
    <trkpt lat="34.14763" lon="-116.78798"><ele>2245.0</ele></trkpt>
    <trkpt lat="34.14763" lon="-116.78812"><ele>2245.0</ele></trkpt>
    <trkpt lat="34.14762" lon="-116.78823"><ele>2245.0</ele></trkpt>
    <trkpt lat="34.14759" lon="-116.78840"><ele>2245.0</ele></trkpt>
    <trkpt lat="34.14758" lon="-116.78861"><ele>2260.0</ele></trkpt>
    <trkpt lat="34.14757" lon="-116.78879"><ele>2260.0</ele></trkpt>
    <trkpt lat="34.14757" lon="-116.78888"><ele>2260.0</ele></trkpt>
    <trkpt lat="34.14759" lon="-116.78898"><ele>2260.0</ele></trkpt>
    <trkpt lat="34.14762" lon="-116.78907"><ele>2260.0</ele></trkpt>
    <trkpt lat="34.14768" lon="-116.78918"><ele>2260.0</ele></trkpt>
    <trkpt lat="34.14774" lon="-116.78932"><ele>2260.0</ele></trkpt>
    <trkpt lat="34.14778" lon="-116.78945"><ele>2260.0</ele></trkpt>
    <trkpt lat="34.14780" lon="-116.78958"><ele>2260.0</ele></trkpt>
    <trkpt lat="34.14780" lon="-116.78968"><ele>2260.0</ele></trkpt>
    <trkpt lat="34.14778" lon="-116.78975"><ele>2260.0</ele></trkpt>
    <trkpt lat="34.14774" lon="-116.78984"><ele>2260.0</ele></trkpt>
    <trkpt lat="34.14768" lon="-116.78988"><ele>2261.0</ele></trkpt>
    <trkpt lat="34.14764" lon="-116.78990"><ele>2261.0</ele></trkpt>
    <trkpt lat="34.14758" lon="-116.78989"><ele>2261.0</ele></trkpt>
    <trkpt lat="34.14758" lon="-116.78989"><ele>2261.0</ele></trkpt>
    <trkpt lat="34.14755" lon="-116.78988"><ele>2261.0</ele></trkpt>
    <trkpt lat="34.14750" lon="-116.78980"><ele>2261.0</ele></trkpt>
    <trkpt lat="34.14747" lon="-116.78972"><ele>2261.0</ele></trkpt>
    <trkpt lat="34.14744" lon="-116.78955"><ele>2261.0</ele></trkpt>
    <trkpt lat="34.14742" lon="-116.78945"><ele>2261.0</ele></trkpt>
    <trkpt lat="34.14733" lon="-116.78915"><ele>2261.0</ele></trkpt>
    <trkpt lat="34.14727" lon="-116.78895"><ele>2261.0</ele></trkpt>
    <trkpt lat="34.14720" lon="-116.78876"><ele>2277.0</ele></trkpt>
    <trkpt lat="34.14715" lon="-116.78864"><ele>2277.0</ele></trkpt>
    <trkpt lat="34.14711" lon="-116.78851"><ele>2277.0</ele></trkpt>
    <trkpt lat="34.14706" lon="-116.78837"><ele>2277.0</ele></trkpt>
    <trkpt lat="34.14700" lon="-116.78814"><ele>2277.0</ele></trkpt>
    <trkpt lat="34.14695" lon="-116.78798"><ele>2277.0</ele></trkpt>
    <trkpt lat="34.14690" lon="-116.78785"><ele>2277.0</ele></trkpt>
    <trkpt lat="34.14686" lon="-116.78777"><ele>2277.0</ele></trkpt>
    <trkpt lat="34.14681" lon="-116.78769"><ele>2277.0</ele></trkpt>
    <trkpt lat="34.14673" lon="-116.78762"><ele>2277.0</ele></trkpt>
    <trkpt lat="34.14669" lon="-116.78758"><ele>2277.0</ele></trkpt>
    <trkpt lat="34.14667" lon="-116.78754"><ele>2287.0</ele></trkpt>
    <trkpt lat="34.14665" lon="-116.78748"><ele>2287.0</ele></trkpt>
    <trkpt lat="34.14664" lon="-116.78739"><ele>2287.0</ele></trkpt>
    <trkpt lat="34.14662" lon="-116.78713"><ele>2287.0</ele></trkpt>
    <trkpt lat="34.14659" lon="-116.78690"><ele>2287.0</ele></trkpt>
    <trkpt lat="34.14659" lon="-116.78677"><ele>2287.0</ele></trkpt>
    <trkpt lat="34.14660" lon="-116.78665"><ele>2287.0</ele></trkpt>
    <trkpt lat="34.14662" lon="-116.78650"><ele>2287.0</ele></trkpt>
    <trkpt lat="34.14662" lon="-116.78637"><ele>2287.0</ele></trkpt>
    <trkpt lat="34.14662" lon="-116.78625"><ele>2287.0</ele></trkpt>
    <trkpt lat="34.14660" lon="-116.78615"><ele>2287.0</ele></trkpt>
    <trkpt lat="34.14655" lon="-116.78603"><ele>2288.0</ele></trkpt>
    <trkpt lat="34.14650" lon="-116.78594"><ele>2288.0</ele></trkpt>
    <trkpt lat="34.14644" lon="-116.78585"><ele>2288.0</ele></trkpt>
    <trkpt lat="34.14638" lon="-116.78575"><ele>2288.0</ele></trkpt>
    <trkpt lat="34.14635" lon="-116.78570"><ele>2288.0</ele></trkpt>
    <trkpt lat="34.14634" lon="-116.78561"><ele>2288.0</ele></trkpt>
    <trkpt lat="34.14631" lon="-116.78551"><ele>2288.0</ele></trkpt>
    <trkpt lat="34.14628" lon="-116.78543"><ele>2288.0</ele></trkpt>
    <trkpt lat="34.14621" lon="-116.78534"><ele>2288.0</ele></trkpt>
    <trkpt lat="34.14614" lon="-116.78527"><ele>2288.0</ele></trkpt>
    <trkpt lat="34.14605" lon="-116.78521"><ele>2288.0</ele></trkpt>
    <trkpt lat="34.14594" lon="-116.78516"><ele>2304.0</ele></trkpt>
    <trkpt lat="34.14586" lon="-116.78511"><ele>2304.0</ele></trkpt>
    <trkpt lat="34.14577" lon="-116.78504"><ele>2304.0</ele></trkpt>
    <trkpt lat="34.14570" lon="-116.78498"><ele>2304.0</ele></trkpt>
    <trkpt lat="34.14567" lon="-116.78492"><ele>2304.0</ele></trkpt>
    <trkpt lat="34.14567" lon="-116.78483"><ele>2304.0</ele></trkpt>
    <trkpt lat="34.14569" lon="-116.78473"><ele>2304.0</ele></trkpt>
    <trkpt lat="34.14573" lon="-116.78461"><ele>2304.0</ele></trkpt>
    <trkpt lat="34.14573" lon="-116.78451"><ele>2304.0</ele></trkpt>
    <trkpt lat="34.14572" lon="-116.78445"><ele>2304.0</ele></trkpt>
    <trkpt lat="34.14569" lon="-116.78440"><ele>2304.0</ele></trkpt>
    <trkpt lat="34.14565" lon="-116.78437"><ele>2312.0</ele></trkpt>
    <trkpt lat="34.14562" lon="-116.78438"><ele>2312.0</ele></trkpt>
    <trkpt lat="34.14557" lon="-116.78439"><ele>2312.0</ele></trkpt>
    <trkpt lat="34.14550" lon="-116.78443"><ele>2312.0</ele></trkpt>
    <trkpt lat="34.14547" lon="-116.78447"><ele>2312.0</ele></trkpt>
    <trkpt lat="34.14545" lon="-116.78456"><ele>2312.0</ele></trkpt>
    <trkpt lat="34.14543" lon="-116.78469"><ele>2312.0</ele></trkpt>
    <trkpt lat="34.14540" lon="-116.78479"><ele>2312.0</ele></trkpt>
    <trkpt lat="34.14535" lon="-116.78489"><ele>2312.0</ele></trkpt>
    <trkpt lat="34.14532" lon="-116.78495"><ele>2312.0</ele></trkpt>
    <trkpt lat="34.14532" lon="-116.78501"><ele>2312.0</ele></trkpt>
    <trkpt lat="34.14533" lon="-116.78509"><ele>2310.0</ele></trkpt>
    <trkpt lat="34.14537" lon="-116.78516"><ele>2310.0</ele></trkpt>
    <trkpt lat="34.14542" lon="-116.78526"><ele>2310.0</ele></trkpt>
    <trkpt lat="34.14545" lon="-116.78534"><ele>2310.0</ele></trkpt>
    <trkpt lat="34.14547" lon="-116.78545"><ele>2310.0</ele></trkpt>
    <trkpt lat="34.14546" lon="-116.78555"><ele>2310.0</ele></trkpt>
    <trkpt lat="34.14542" lon="-116.78563"><ele>2310.0</ele></trkpt>
    <trkpt lat="34.14536" lon="-116.78567"><ele>2310.0</ele></trkpt>
    <trkpt lat="34.14527" lon="-116.78571"><ele>2310.0</ele></trkpt>
    <trkpt lat="34.14521" lon="-116.78571"><ele>2310.0</ele></trkpt>
    <trkpt lat="34.14515" lon="-116.78568"><ele>2310.0</ele></trkpt>
    <trkpt lat="34.14510" lon="-116.78563"><ele>2322.0</ele></trkpt>
    <trkpt lat="34.14503" lon="-116.78556"><ele>2322.0</ele></trkpt>
    <trkpt lat="34.14500" lon="-116.78548"><ele>2322.0</ele></trkpt>
    <trkpt lat="34.14496" lon="-116.78537"><ele>2322.0</ele></trkpt>
    <trkpt lat="34.14494" lon="-116.78526"><ele>2322.0</ele></trkpt>
    <trkpt lat="34.14493" lon="-116.78512"><ele>2322.0</ele></trkpt>
    <trkpt lat="34.14492" lon="-116.78497"><ele>2322.0</ele></trkpt>
    <trkpt lat="34.14490" lon="-116.78481"><ele>2322.0</ele></trkpt>
    <trkpt lat="34.14491" lon="-116.78468"><ele>2322.0</ele></trkpt>
    <trkpt lat="34.14493" lon="-116.78450"><ele>2322.0</ele></trkpt>
    <trkpt lat="34.14496" lon="-116.78436"><ele>2322.0</ele></trkpt>
    <trkpt lat="34.14500" lon="-116.78424"><ele>2322.0</ele></trkpt>
    <trkpt lat="34.14503" lon="-116.78412"><ele>2336.0</ele></trkpt>
    <trkpt lat="34.14504" lon="-116.78401"><ele>2336.0</ele></trkpt>
    <trkpt lat="34.14502" lon="-116.78393"><ele>2336.0</ele></trkpt>
    <trkpt lat="34.14499" lon="-116.78387"><ele>2336.0</ele></trkpt>
    <trkpt lat="34.14494" lon="-116.78383"><ele>2336.0</ele></trkpt>
    <trkpt lat="34.14487" lon="-116.78383"><ele>2336.0</ele></trkpt>
    <trkpt lat="34.14480" lon="-116.78387"><ele>2336.0</ele></trkpt>
    <trkpt lat="34.14474" lon="-116.78393"><ele>2336.0</ele></trkpt>
    <trkpt lat="34.14469" lon="-116.78400"><ele>2336.0</ele></trkpt>
    <trkpt lat="34.14464" lon="-116.78411"><ele>2336.0</ele></trkpt>
    <trkpt lat="34.14458" lon="-116.78417"><ele>2336.0</ele></trkpt>
    <trkpt lat="34.14450" lon="-116.78421"><ele>2343.0</ele></trkpt>
    <trkpt lat="34.14436" lon="-116.78423"><ele>2343.0</ele></trkpt>
    <trkpt lat="34.14421" lon="-116.78424"><ele>2343.0</ele></trkpt>
    <trkpt lat="34.14410" lon="-116.78426"><ele>2343.0</ele></trkpt>
    <trkpt lat="34.14394" lon="-116.78429"><ele>2343.0</ele></trkpt>
    <trkpt lat="34.14376" lon="-116.78433"><ele>2343.0</ele></trkpt>
    <trkpt lat="34.14365" lon="-116.78435"><ele>2343.0</ele></trkpt>
    <trkpt lat="34.14354" lon="-116.78437"><ele>2343.0</ele></trkpt>
    <trkpt lat="34.14346" lon="-116.78438"><ele>2343.0</ele></trkpt>
    <trkpt lat="34.14338" lon="-116.78436"><ele>2343.0</ele></trkpt>
    <trkpt lat="34.14331" lon="-116.78431"><ele>2343.0</ele></trkpt>
    <trkpt lat="34.14328" lon="-116.78425"><ele>2353.0</ele></trkpt>
    <trkpt lat="34.14326" lon="-116.78418"><ele>2353.0</ele></trkpt>
    <trkpt lat="34.14326" lon="-116.78410"><ele>2353.0</ele></trkpt>
    <trkpt lat="34.14328" lon="-116.78403"><ele>2353.0</ele></trkpt>
    <trkpt lat="34.14334" lon="-116.78394"><ele>2353.0</ele></trkpt>
    <trkpt lat="34.14341" lon="-116.78385"><ele>2353.0</ele></trkpt>
    <trkpt lat="34.14352" lon="-116.78371"><ele>2353.0</ele></trkpt>
    <trkpt lat="34.14365" lon="-116.78356"><ele>2353.0</ele></trkpt>
    <trkpt lat="34.14374" lon="-116.78346"><ele>2353.0</ele></trkpt>
    <trkpt lat="34.14381" lon="-116.78337"><ele>2353.0</ele></trkpt>
    <trkpt lat="34.14386" lon="-116.78328"><ele>2353.0</ele></trkpt>
    <trkpt lat="34.14392" lon="-116.78317"><ele>2363.0</ele></trkpt>
    <trkpt lat="34.14398" lon="-116.78309"><ele>2363.0</ele></trkpt>
    <trkpt lat="34.14406" lon="-116.78301"><ele>2363.0</ele></trkpt>
    <trkpt lat="34.14411" lon="-116.78294"><ele>2363.0</ele></trkpt>
    <trkpt lat="34.14414" lon="-116.78285"><ele>2363.0</ele></trkpt>
    <trkpt lat="34.14414" lon="-116.78278"><ele>2363.0</ele></trkpt>
    <trkpt lat="34.14411" lon="-116.78269"><ele>2363.0</ele></trkpt>
    <trkpt lat="34.14406" lon="-116.78262"><ele>2363.0</ele></trkpt>
    <trkpt lat="34.14398" lon="-116.78261"><ele>2363.0</ele></trkpt>
    <trkpt lat="34.14387" lon="-116.78266"><ele>2363.0</ele></trkpt>
    <trkpt lat="34.14359" lon="-116.78286"><ele>2363.0</ele></trkpt>
    <trkpt lat="34.14352" lon="-116.78288"><ele>2374.0</ele></trkpt>
    <trkpt lat="34.14345" lon="-116.78288"><ele>2374.0</ele></trkpt>
    <trkpt lat="34.14339" lon="-116.78285"><ele>2374.0</ele></trkpt>
    <trkpt lat="34.14335" lon="-116.78280"><ele>2374.0</ele></trkpt>
    <trkpt lat="34.14332" lon="-116.78274"><ele>2374.0</ele></trkpt>
    <trkpt lat="34.14331" lon="-116.78266"><ele>2374.0</ele></trkpt>
    <trkpt lat="34.14332" lon="-116.78256"><ele>2374.0</ele></trkpt>
    <trkpt lat="34.14337" lon="-116.78235"><ele>2374.0</ele></trkpt>
    <trkpt lat="34.14340" lon="-116.78213"><ele>2374.0</ele></trkpt>
    <trkpt lat="34.14343" lon="-116.78198"><ele>2374.0</ele></trkpt>
    <trkpt lat="34.14344" lon="-116.78182"><ele>2374.0</ele></trkpt>
    <trkpt lat="34.14346" lon="-116.78170"><ele>2392.0</ele></trkpt>
    <trkpt lat="34.14350" lon="-116.78155"><ele>2392.0</ele></trkpt>
    <trkpt lat="34.14353" lon="-116.78143"><ele>2392.0</ele></trkpt>
    <trkpt lat="34.14357" lon="-116.78131"><ele>2392.0</ele></trkpt>
    <trkpt lat="34.14361" lon="-116.78113"><ele>2392.0</ele></trkpt>
    <trkpt lat="34.14363" lon="-116.78099"><ele>2392.0</ele></trkpt>
    <trkpt lat="34.14364" lon="-116.78084"><ele>2392.0</ele></trkpt>
    <trkpt lat="34.14365" lon="-116.78069"><ele>2392.0</ele></trkpt>
    <trkpt lat="34.14364" lon="-116.78055"><ele>2392.0</ele></trkpt>
    <trkpt lat="34.14364" lon="-116.78044"><ele>2392.0</ele></trkpt>
    <trkpt lat="34.14364" lon="-116.78037"><ele>2392.0</ele></trkpt>
    <trkpt lat="34.14367" lon="-116.78030"><ele>2404.0</ele></trkpt>
    <trkpt lat="34.14370" lon="-116.78022"><ele>2404.0</ele></trkpt>
    <trkpt lat="34.14377" lon="-116.78010"><ele>2404.0</ele></trkpt>
    <trkpt lat="34.14381" lon="-116.78001"><ele>2404.0</ele></trkpt>
    <trkpt lat="34.14383" lon="-116.77991"><ele>2404.0</ele></trkpt>
    <trkpt lat="34.14385" lon="-116.77980"><ele>2404.0</ele></trkpt>
    <trkpt lat="34.14385" lon="-116.77972"><ele>2404.0</ele></trkpt>
    <trkpt lat="34.14386" lon="-116.77963"><ele>2404.0</ele></trkpt>
    <trkpt lat="34.14387" lon="-116.77954"><ele>2404.0</ele></trkpt>
    <trkpt lat="34.14389" lon="-116.77943"><ele>2404.0</ele></trkpt>
    <trkpt lat="34.14391" lon="-116.77924"><ele>2404.0</ele></trkpt>
    <trkpt lat="34.14393" lon="-116.77906"><ele>2420.0</ele></trkpt>
    <trkpt lat="34.14394" lon="-116.77889"><ele>2420.0</ele></trkpt>
    <trkpt lat="34.14393" lon="-116.77878"><ele>2420.0</ele></trkpt>
    <trkpt lat="34.14392" lon="-116.77861"><ele>2420.0</ele></trkpt>
    <trkpt lat="34.14390" lon="-116.77838"><ele>2420.0</ele></trkpt>
    <trkpt lat="34.14388" lon="-116.77824"><ele>2420.0</ele></trkpt>
    <trkpt lat="34.14387" lon="-116.77807"><ele>2420.0</ele></trkpt>
    <trkpt lat="34.14389" lon="-116.77793"><ele>2420.0</ele></trkpt>
    <trkpt lat="34.14388" lon="-116.77774"><ele>2420.0</ele></trkpt>
    <trkpt lat="34.14389" lon="-116.77758"><ele>2420.0</ele></trkpt>
    <trkpt lat="34.14390" lon="-116.77739"><ele>2420.0</ele></trkpt>
    <trkpt lat="34.14387" lon="-116.77723"><ele>2420.0</ele></trkpt>
    <trkpt lat="34.14383" lon="-116.77706"><ele>2420.0</ele></trkpt>
    <trkpt lat="34.14380" lon="-116.77691"><ele>2420.0</ele></trkpt>
    <trkpt lat="34.14374" lon="-116.77668"><ele>2420.0</ele></trkpt>
    <trkpt lat="34.14369" lon="-116.77647"><ele>2420.0</ele></trkpt>
    <trkpt lat="34.14365" lon="-116.77636"><ele>2420.0</ele></trkpt>
    <trkpt lat="34.14359" lon="-116.77625"><ele>2420.0</ele></trkpt>
    <trkpt lat="34.14353" lon="-116.77618"><ele>2420.0</ele></trkpt>
    <trkpt lat="34.14343" lon="-116.77611"><ele>2420.0</ele></trkpt>
    <trkpt lat="34.14320" lon="-116.77598"><ele>2420.0</ele></trkpt>
    <trkpt lat="34.14301" lon="-116.77584"><ele>2420.0</ele></trkpt>
    <trkpt lat="34.14290" lon="-116.77574"><ele>2420.0</ele></trkpt>
    <trkpt lat="34.14279" lon="-116.77567"><ele>2426.0</ele></trkpt>
    <trkpt lat="34.14264" lon="-116.77557"><ele>2426.0</ele></trkpt>
    <trkpt lat="34.14248" lon="-116.77542"><ele>2426.0</ele></trkpt>
    <trkpt lat="34.14237" lon="-116.77531"><ele>2426.0</ele></trkpt>
    <trkpt lat="34.14229" lon="-116.77522"><ele>2426.0</ele></trkpt>
    <trkpt lat="34.14223" lon="-116.77518"><ele>2426.0</ele></trkpt>
    <trkpt lat="34.14215" lon="-116.77516"><ele>2426.0</ele></trkpt>
    <trkpt lat="34.14209" lon="-116.77518"><ele>2426.0</ele></trkpt>
    <trkpt lat="34.14203" lon="-116.77522"><ele>2426.0</ele></trkpt>
    <trkpt lat="34.14199" lon="-116.77530"><ele>2426.0</ele></trkpt>
    <trkpt lat="34.14197" lon="-116.77541"><ele>2426.0</ele></trkpt>
    <trkpt lat="34.14201" lon="-116.77553"><ele>2443.0</ele></trkpt>
    <trkpt lat="34.14208" lon="-116.77559"><ele>2443.0</ele></trkpt>
    <trkpt lat="34.14217" lon="-116.77563"><ele>2443.0</ele></trkpt>
    <trkpt lat="34.14228" lon="-116.77568"><ele>2443.0</ele></trkpt>
    <trkpt lat="34.14240" lon="-116.77579"><ele>2443.0</ele></trkpt>
    <trkpt lat="34.14252" lon="-116.77594"><ele>2443.0</ele></trkpt>
    <trkpt lat="34.14268" lon="-116.77615"><ele>2443.0</ele></trkpt>
    <trkpt lat="34.14282" lon="-116.77635"><ele>2443.0</ele></trkpt>
    <trkpt lat="34.14289" lon="-116.77643"><ele>2443.0</ele></trkpt>
    <trkpt lat="34.14291" lon="-116.77650"><ele>2443.0</ele></trkpt>
    <trkpt lat="34.14291" lon="-116.77657"><ele>2443.0</ele></trkpt>
    <trkpt lat="34.14288" lon="-116.77664"><ele>2452.0</ele></trkpt>
    <trkpt lat="34.14284" lon="-116.77668"><ele>2452.0</ele></trkpt>
    <trkpt lat="34.14279" lon="-116.77669"><ele>2452.0</ele></trkpt>
    <trkpt lat="34.14273" lon="-116.77668"><ele>2452.0</ele></trkpt>
    <trkpt lat="34.14267" lon="-116.77665"><ele>2452.0</ele></trkpt>
    <trkpt lat="34.14257" lon="-116.77657"><ele>2452.0</ele></trkpt>
    <trkpt lat="34.14250" lon="-116.77652"><ele>2452.0</ele></trkpt>
    <trkpt lat="34.14244" lon="-116.77651"><ele>2452.0</ele></trkpt>
    <trkpt lat="34.14237" lon="-116.77652"><ele>2452.0</ele></trkpt>
    <trkpt lat="34.14232" lon="-116.77655"><ele>2452.0</ele></trkpt>
    <trkpt lat="34.14227" lon="-116.77660"><ele>2452.0</ele></trkpt>
    <trkpt lat="34.14221" lon="-116.77666"><ele>2460.0</ele></trkpt>
    <trkpt lat="34.14216" lon="-116.77673"><ele>2460.0</ele></trkpt>
    <trkpt lat="34.14210" lon="-116.77683"><ele>2460.0</ele></trkpt>
    <trkpt lat="34.14205" lon="-116.77690"><ele>2460.0</ele></trkpt>
    <trkpt lat="34.14200" lon="-116.77697"><ele>2460.0</ele></trkpt>
    <trkpt lat="34.14197" lon="-116.77704"><ele>2460.0</ele></trkpt>
    <trkpt lat="34.14196" lon="-116.77712"><ele>2460.0</ele></trkpt>
    <trkpt lat="34.14196" lon="-116.77722"><ele>2460.0</ele></trkpt>
    <trkpt lat="34.14196" lon="-116.77737"><ele>2460.0</ele></trkpt>
    <trkpt lat="34.14196" lon="-116.77746"><ele>2460.0</ele></trkpt>
    <trkpt lat="34.14195" lon="-116.77758"><ele>2460.0</ele></trkpt>
    <trkpt lat="34.14194" lon="-116.77767"><ele>2473.0</ele></trkpt>
    <trkpt lat="34.14191" lon="-116.77783"><ele>2473.0</ele></trkpt>
    <trkpt lat="34.14187" lon="-116.77806"><ele>2473.0</ele></trkpt>
    <trkpt lat="34.14182" lon="-116.77827"><ele>2473.0</ele></trkpt>
    <trkpt lat="34.14174" lon="-116.77857"><ele>2473.0</ele></trkpt>
    <trkpt lat="34.14171" lon="-116.77875"><ele>2473.0</ele></trkpt>
    <trkpt lat="34.14167" lon="-116.77893"><ele>2473.0</ele></trkpt>
    <trkpt lat="34.14161" lon="-116.77909"><ele>2473.0</ele></trkpt>
    <trkpt lat="34.14155" lon="-116.77923"><ele>2473.0</ele></trkpt>
    <trkpt lat="34.14148" lon="-116.77938"><ele>2473.0</ele></trkpt>
    <trkpt lat="34.14141" lon="-116.77950"><ele>2473.0</ele></trkpt>
    <trkpt lat="34.14129" lon="-116.77968"><ele>2471.0</ele></trkpt>
    <trkpt lat="34.14121" lon="-116.77977"><ele>2471.0</ele></trkpt>
    <trkpt lat="34.14115" lon="-116.77982"><ele>2471.0</ele></trkpt>
    <trkpt lat="34.14107" lon="-116.77986"><ele>2471.0</ele></trkpt>
    <trkpt lat="34.14097" lon="-116.77989"><ele>2471.0</ele></trkpt>
    <trkpt lat="34.14089" lon="-116.77992"><ele>2471.0</ele></trkpt>
    <trkpt lat="34.14083" lon="-116.77996"><ele>2471.0</ele></trkpt>
    <trkpt lat="34.14078" lon="-116.78003"><ele>2471.0</ele></trkpt>
    <trkpt lat="34.14074" lon="-116.78012"><ele>2471.0</ele></trkpt>
    <trkpt lat="34.14069" lon="-116.78020"><ele>2471.0</ele></trkpt>
    <trkpt lat="34.14064" lon="-116.78026"><ele>2471.0</ele></trkpt>
    <trkpt lat="34.14058" lon="-116.78031"><ele>2472.0</ele></trkpt>
    <trkpt lat="34.14048" lon="-116.78038"><ele>2472.0</ele></trkpt>
    <trkpt lat="34.14034" lon="-116.78045"><ele>2472.0</ele></trkpt>
    <trkpt lat="34.14018" lon="-116.78052"><ele>2472.0</ele></trkpt>
    <trkpt lat="34.14000" lon="-116.78057"><ele>2472.0</ele></trkpt>
    <trkpt lat="34.13984" lon="-116.78062"><ele>2472.0</ele></trkpt>
    <trkpt lat="34.13966" lon="-116.78066"><ele>2472.0</ele></trkpt>
    <trkpt lat="34.13950" lon="-116.78067"><ele>2472.0</ele></trkpt>
    <trkpt lat="34.13930" lon="-116.78065"><ele>2472.0</ele></trkpt>
    <trkpt lat="34.13911" lon="-116.78062"><ele>2472.0</ele></trkpt>
    <trkpt lat="34.13897" lon="-116.78055"><ele>2472.0</ele></trkpt>
    <trkpt lat="34.13886" lon="-116.78047"><ele>2472.0</ele></trkpt>
    <trkpt lat="34.13879" lon="-116.78044"><ele>2481.0</ele></trkpt>
    <trkpt lat="34.13873" lon="-116.78046"><ele>2481.0</ele></trkpt>
    <trkpt lat="34.13863" lon="-116.78053"><ele>2481.0</ele></trkpt>
    <trkpt lat="34.13855" lon="-116.78061"><ele>2481.0</ele></trkpt>
    <trkpt lat="34.13845" lon="-116.78067"><ele>2481.0</ele></trkpt>
    <trkpt lat="34.13836" lon="-116.78072"><ele>2481.0</ele></trkpt>
    <trkpt lat="34.13826" lon="-116.78075"><ele>2481.0</ele></trkpt>
    <trkpt lat="34.13815" lon="-116.78074"><ele>2481.0</ele></trkpt>
    <trkpt lat="34.13803" lon="-116.78067"><ele>2481.0</ele></trkpt>
    <trkpt lat="34.13790" lon="-116.78058"><ele>2481.0</ele></trkpt>
    <trkpt lat="34.13778" lon="-116.78049"><ele>2481.0</ele></trkpt>
    <trkpt lat="34.13767" lon="-116.78043"><ele>2499.0</ele></trkpt>
    <trkpt lat="34.13758" lon="-116.78035"><ele>2499.0</ele></trkpt>
    <trkpt lat="34.13751" lon="-116.78026"><ele>2499.0</ele></trkpt>
    <trkpt lat="34.13745" lon="-116.78014"><ele>2499.0</ele></trkpt>
    <trkpt lat="34.13742" lon="-116.78009"><ele>2499.0</ele></trkpt>
    <trkpt lat="34.13736" lon="-116.78002"><ele>2499.0</ele></trkpt>
    <trkpt lat="34.13723" lon="-116.77995"><ele>2499.0</ele></trkpt>
    <trkpt lat="34.13714" lon="-116.77991"><ele>2499.0</ele></trkpt>
    <trkpt lat="34.13702" lon="-116.77983"><ele>2499.0</ele></trkpt>
    <trkpt lat="34.13692" lon="-116.77976"><ele>2499.0</ele></trkpt>
    <trkpt lat="34.13682" lon="-116.77964"><ele>2499.0</ele></trkpt>
    <trkpt lat="34.13672" lon="-116.77947"><ele>2510.0</ele></trkpt>
    <trkpt lat="34.13662" lon="-116.77925"><ele>2510.0</ele></trkpt>
    <trkpt lat="34.13655" lon="-116.77908"><ele>2510.0</ele></trkpt>
    <trkpt lat="34.13652" lon="-116.77892"><ele>2510.0</ele></trkpt>
    <trkpt lat="34.13651" lon="-116.77880"><ele>2510.0</ele></trkpt>
    <trkpt lat="34.13653" lon="-116.77869"><ele>2510.0</ele></trkpt>
    <trkpt lat="34.13656" lon="-116.77856"><ele>2510.0</ele></trkpt>
    <trkpt lat="34.13657" lon="-116.77844"><ele>2510.0</ele></trkpt>
    <trkpt lat="34.13656" lon="-116.77833"><ele>2510.0</ele></trkpt>
    <trkpt lat="34.13653" lon="-116.77821"><ele>2510.0</ele></trkpt>
    <trkpt lat="34.13649" lon="-116.77809"><ele>2510.0</ele></trkpt>
    <trkpt lat="34.13644" lon="-116.77799"><ele>2510.0</ele></trkpt>
    <trkpt lat="34.13635" lon="-116.77792"><ele>2510.0</ele></trkpt>
    <trkpt lat="34.13625" lon="-116.77783"><ele>2510.0</ele></trkpt>
    <trkpt lat="34.13613" lon="-116.77771"><ele>2510.0</ele></trkpt>
    <trkpt lat="34.13602" lon="-116.77759"><ele>2510.0</ele></trkpt>
    <trkpt lat="34.13593" lon="-116.77744"><ele>2510.0</ele></trkpt>
    <trkpt lat="34.13588" lon="-116.77731"><ele>2510.0</ele></trkpt>
    <trkpt lat="34.13584" lon="-116.77717"><ele>2510.0</ele></trkpt>
    <trkpt lat="34.13585" lon="-116.77704"><ele>2510.0</ele></trkpt>
    <trkpt lat="34.13588" lon="-116.77687"><ele>2510.0</ele></trkpt>
    <trkpt lat="34.13594" lon="-116.77665"><ele>2510.0</ele></trkpt>
    <trkpt lat="34.13603" lon="-116.77635"><ele>2529.0</ele></trkpt>
    <trkpt lat="34.13610" lon="-116.77615"><ele>2529.0</ele></trkpt>
    <trkpt lat="34.13614" lon="-116.77603"><ele>2529.0</ele></trkpt>
    <trkpt lat="34.13615" lon="-116.77596"><ele>2529.0</ele></trkpt>
    <trkpt lat="34.13615" lon="-116.77586"><ele>2529.0</ele></trkpt>
    <trkpt lat="34.13613" lon="-116.77576"><ele>2529.0</ele></trkpt>
    <trkpt lat="34.13611" lon="-116.77563"><ele>2529.0</ele></trkpt>
    <trkpt lat="34.13609" lon="-116.77555"><ele>2529.0</ele></trkpt>
    <trkpt lat="34.13603" lon="-116.77547"><ele>2529.0</ele></trkpt>
    <trkpt lat="34.13596" lon="-116.77537"><ele>2529.0</ele></trkpt>
    <trkpt lat="34.13590" lon="-116.77528"><ele>2529.0</ele></trkpt>
    <trkpt lat="34.13587" lon="-116.77521"><ele>2537.0</ele></trkpt>
    <trkpt lat="34.13582" lon="-116.77509"><ele>2537.0</ele></trkpt>
    <trkpt lat="34.13579" lon="-116.77497"><ele>2537.0</ele></trkpt>
    <trkpt lat="34.13577" lon="-116.77484"><ele>2537.0</ele></trkpt>
    <trkpt lat="34.13575" lon="-116.77470"><ele>2537.0</ele></trkpt>
    <trkpt lat="34.13573" lon="-116.77460"><ele>2537.0</ele></trkpt>
    <trkpt lat="34.13569" lon="-116.77452"><ele>2537.0</ele></trkpt>
    <trkpt lat="34.13564" lon="-116.77447"><ele>2537.0</ele></trkpt>
    <trkpt lat="34.13555" lon="-116.77440"><ele>2537.0</ele></trkpt>
    <trkpt lat="34.13547" lon="-116.77430"><ele>2537.0</ele></trkpt>
    <trkpt lat="34.13543" lon="-116.77422"><ele>2537.0</ele></trkpt>
    <trkpt lat="34.13539" lon="-116.77411"><ele>2541.0</ele></trkpt>
    <trkpt lat="34.13538" lon="-116.77398"><ele>2541.0</ele></trkpt>
    <trkpt lat="34.13539" lon="-116.77382"><ele>2541.0</ele></trkpt>
    <trkpt lat="34.13538" lon="-116.77369"><ele>2541.0</ele></trkpt>
    <trkpt lat="34.13536" lon="-116.77359"><ele>2541.0</ele></trkpt>
    <trkpt lat="34.13532" lon="-116.77352"><ele>2541.0</ele></trkpt>
    <trkpt lat="34.13526" lon="-116.77347"><ele>2541.0</ele></trkpt>
    <trkpt lat="34.13519" lon="-116.77343"><ele>2541.0</ele></trkpt>
    <trkpt lat="34.13514" lon="-116.77339"><ele>2541.0</ele></trkpt>
    <trkpt lat="34.13511" lon="-116.77332"><ele>2541.0</ele></trkpt>
    <trkpt lat="34.13509" lon="-116.77324"><ele>2541.0</ele></trkpt>
    <trkpt lat="34.13509" lon="-116.77310"><ele>2538.0</ele></trkpt>
    <trkpt lat="34.13508" lon="-116.77301"><ele>2538.0</ele></trkpt>
    <trkpt lat="34.13505" lon="-116.77288"><ele>2538.0</ele></trkpt>
    <trkpt lat="34.13501" lon="-116.77276"><ele>2538.0</ele></trkpt>
    <trkpt lat="34.13497" lon="-116.77263"><ele>2538.0</ele></trkpt>
    <trkpt lat="34.13495" lon="-116.77253"><ele>2538.0</ele></trkpt>
    <trkpt lat="34.13494" lon="-116.77244"><ele>2538.0</ele></trkpt>
    <trkpt lat="34.13496" lon="-116.77237"><ele>2538.0</ele></trkpt>
    <trkpt lat="34.13499" lon="-116.77227"><ele>2538.0</ele></trkpt>
    <trkpt lat="34.13502" lon="-116.77217"><ele>2538.0</ele></trkpt>
    <trkpt lat="34.13502" lon="-116.77211"><ele>2538.0</ele></trkpt>
    <trkpt lat="34.13501" lon="-116.77204"><ele>2538.0</ele></trkpt>
    <trkpt lat="34.13497" lon="-116.77194"><ele>2527.0</ele></trkpt>
    <trkpt lat="34.13494" lon="-116.77185"><ele>2527.0</ele></trkpt>
    <trkpt lat="34.13491" lon="-116.77176"><ele>2527.0</ele></trkpt>
    <trkpt lat="34.13490" lon="-116.77164"><ele>2527.0</ele></trkpt>
    <trkpt lat="34.13488" lon="-116.77151"><ele>2527.0</ele></trkpt>
    <trkpt lat="34.13488" lon="-116.77140"><ele>2527.0</ele></trkpt>
    <trkpt lat="34.13490" lon="-116.77130"><ele>2527.0</ele></trkpt>
    <trkpt lat="34.13490" lon="-116.77122"><ele>2527.0</ele></trkpt>
    <trkpt lat="34.13487" lon="-116.77116"><ele>2527.0</ele></trkpt>
    <trkpt lat="34.13481" lon="-116.77111"><ele>2527.0</ele></trkpt>
    <trkpt lat="34.13474" lon="-116.77108"><ele>2527.0</ele></trkpt>
    <trkpt lat="34.13468" lon="-116.77104"><ele>2523.0</ele></trkpt>
    <trkpt lat="34.13462" lon="-116.77099"><ele>2523.0</ele></trkpt>
    <trkpt lat="34.13459" lon="-116.77093"><ele>2523.0</ele></trkpt>
    <trkpt lat="34.13460" lon="-116.77085"><ele>2523.0</ele></trkpt>
    <trkpt lat="34.13460" lon="-116.77074"><ele>2523.0</ele></trkpt>
    <trkpt lat="34.13459" lon="-116.77062"><ele>2523.0</ele></trkpt>
    <trkpt lat="34.13458" lon="-116.77043"><ele>2523.0</ele></trkpt>
    <trkpt lat="34.13456" lon="-116.77026"><ele>2523.0</ele></trkpt>
    <trkpt lat="34.13455" lon="-116.77012"><ele>2523.0</ele></trkpt>
    <trkpt lat="34.13455" lon="-116.76999"><ele>2523.0</ele></trkpt>
    <trkpt lat="34.13452" lon="-116.76991"><ele>2523.0</ele></trkpt>
    <trkpt lat="34.13449" lon="-116.76986"><ele>2521.0</ele></trkpt>
    <trkpt lat="34.13444" lon="-116.76982"><ele>2521.0</ele></trkpt>
    <trkpt lat="34.13434" lon="-116.76978"><ele>2521.0</ele></trkpt>
    <trkpt lat="34.13421" lon="-116.76973"><ele>2521.0</ele></trkpt>
    <trkpt lat="34.13407" lon="-116.76971"><ele>2521.0</ele></trkpt>
    <trkpt lat="34.13389" lon="-116.76968"><ele>2521.0</ele></trkpt>
    <trkpt lat="34.13378" lon="-116.76966"><ele>2521.0</ele></trkpt>
    <trkpt lat="34.13366" lon="-116.76961"><ele>2521.0</ele></trkpt>
    <trkpt lat="34.13357" lon="-116.76957"><ele>2521.0</ele></trkpt>
    <trkpt lat="34.13349" lon="-116.76955"><ele>2521.0</ele></trkpt>
    <trkpt lat="34.13339" lon="-116.76955"><ele>2521.0</ele></trkpt>
    <trkpt lat="34.13332" lon="-116.76955"><ele>2530.0</ele></trkpt>
    <trkpt lat="34.13329" lon="-116.76953"><ele>2530.0</ele></trkpt>
    <trkpt lat="34.13326" lon="-116.76946"><ele>2530.0</ele></trkpt>
    <trkpt lat="34.13324" lon="-116.76935"><ele>2530.0</ele></trkpt>
    <trkpt lat="34.13320" lon="-116.76927"><ele>2530.0</ele></trkpt>
    <trkpt lat="34.13316" lon="-116.76921"><ele>2530.0</ele></trkpt>
    <trkpt lat="34.13309" lon="-116.76915"><ele>2530.0</ele></trkpt>
    <trkpt lat="34.13299" lon="-116.76907"><ele>2530.0</ele></trkpt>
    <trkpt lat="34.13293" lon="-116.76899"><ele>2530.0</ele></trkpt>
    <trkpt lat="34.13289" lon="-116.76890"><ele>2530.0</ele></trkpt>
    <trkpt lat="34.13289" lon="-116.76881"><ele>2530.0</ele></trkpt>
    <trkpt lat="34.13291" lon="-116.76870"><ele>2529.0</ele></trkpt>
    <trkpt lat="34.13295" lon="-116.76856"><ele>2529.0</ele></trkpt>
    <trkpt lat="34.13298" lon="-116.76840"><ele>2529.0</ele></trkpt>
    <trkpt lat="34.13300" lon="-116.76826"><ele>2529.0</ele></trkpt>
    <trkpt lat="34.13300" lon="-116.76814"><ele>2529.0</ele></trkpt>
    <trkpt lat="34.13295" lon="-116.76805"><ele>2529.0</ele></trkpt>
    <trkpt lat="34.13288" lon="-116.76792"><ele>2529.0</ele></trkpt>
    <trkpt lat="34.13279" lon="-116.76776"><ele>2529.0</ele></trkpt>
    <trkpt lat="34.13277" lon="-116.76768"><ele>2529.0</ele></trkpt>
    <trkpt lat="34.13275" lon="-116.76759"><ele>2529.0</ele></trkpt>
    <trkpt lat="34.13271" lon="-116.76752"><ele>2529.0</ele></trkpt>
    <trkpt lat="34.13265" lon="-116.76746"><ele>2539.0</ele></trkpt>
    <trkpt lat="34.13257" lon="-116.76741"><ele>2539.0</ele></trkpt>
    <trkpt lat="34.13248" lon="-116.76736"><ele>2539.0</ele></trkpt>
    <trkpt lat="34.13240" lon="-116.76728"><ele>2539.0</ele></trkpt>
    <trkpt lat="34.13233" lon="-116.76719"><ele>2539.0</ele></trkpt>
    <trkpt lat="34.13228" lon="-116.76712"><ele>2539.0</ele></trkpt>
    <trkpt lat="34.13224" lon="-116.76706"><ele>2539.0</ele></trkpt>
    <trkpt lat="34.13222" lon="-116.76699"><ele>2539.0</ele></trkpt>
    <trkpt lat="34.13222" lon="-116.76691"><ele>2539.0</ele></trkpt>
    <trkpt lat="34.13225" lon="-116.76683"><ele>2539.0</ele></trkpt>
    <trkpt lat="34.13230" lon="-116.76680"><ele>2539.0</ele></trkpt>
    <trkpt lat="34.13238" lon="-116.76676"><ele>2536.0</ele></trkpt>
    <trkpt lat="34.13246" lon="-116.76672"><ele>2536.0</ele></trkpt>
    <trkpt lat="34.13251" lon="-116.76666"><ele>2536.0</ele></trkpt>
    <trkpt lat="34.13254" lon="-116.76657"><ele>2536.0</ele></trkpt>
    <trkpt lat="34.13256" lon="-116.76644"><ele>2536.0</ele></trkpt>
    <trkpt lat="34.13257" lon="-116.76631"><ele>2536.0</ele></trkpt>
    <trkpt lat="34.13259" lon="-116.76624"><ele>2536.0</ele></trkpt>
    <trkpt lat="34.13265" lon="-116.76618"><ele>2536.0</ele></trkpt>
    <trkpt lat="34.13272" lon="-116.76614"><ele>2536.0</ele></trkpt>
    <trkpt lat="34.13278" lon="-116.76610"><ele>2536.0</ele></trkpt>
    <trkpt lat="34.13284" lon="-116.76604"><ele>2536.0</ele></trkpt>
    <trkpt lat="34.13288" lon="-116.76598"><ele>2536.0</ele></trkpt>
    <trkpt lat="34.13297" lon="-116.76581"><ele>2536.0</ele></trkpt>
    <trkpt lat="34.13307" lon="-116.76566"><ele>2536.0</ele></trkpt>
    <trkpt lat="34.13312" lon="-116.76557"><ele>2536.0</ele></trkpt>
    <trkpt lat="34.13314" lon="-116.76546"><ele>2536.0</ele></trkpt>
    <trkpt lat="34.13315" lon="-116.76537"><ele>2536.0</ele></trkpt>
    <trkpt lat="34.13313" lon="-116.76529"><ele>2536.0</ele></trkpt>
    <trkpt lat="34.13309" lon="-116.76520"><ele>2536.0</ele></trkpt>
    <trkpt lat="34.13300" lon="-116.76508"><ele>2536.0</ele></trkpt>
    <trkpt lat="34.13294" lon="-116.76495"><ele>2536.0</ele></trkpt>
    <trkpt lat="34.13289" lon="-116.76482"><ele>2536.0</ele></trkpt>
    <trkpt lat="34.13285" lon="-116.76466"><ele>2536.0</ele></trkpt>
    <trkpt lat="34.13281" lon="-116.76452"><ele>2538.0</ele></trkpt>
    <trkpt lat="34.13276" lon="-116.76444"><ele>2538.0</ele></trkpt>
    <trkpt lat="34.13267" lon="-116.76439"><ele>2538.0</ele></trkpt>
    <trkpt lat="34.13261" lon="-116.76432"><ele>2538.0</ele></trkpt>
    <trkpt lat="34.13251" lon="-116.76417"><ele>2538.0</ele></trkpt>
    <trkpt lat="34.13244" lon="-116.76403"><ele>2538.0</ele></trkpt>
    <trkpt lat="34.13241" lon="-116.76392"><ele>2538.0</ele></trkpt>
    <trkpt lat="34.13235" lon="-116.76384"><ele>2538.0</ele></trkpt>
    <trkpt lat="34.13226" lon="-116.76379"><ele>2538.0</ele></trkpt>
    <trkpt lat="34.13211" lon="-116.76373"><ele>2538.0</ele></trkpt>
    <trkpt lat="34.13202" lon="-116.76366"><ele>2538.0</ele></trkpt>
    <trkpt lat="34.13198" lon="-116.76358"><ele>2548.0</ele></trkpt>
    <trkpt lat="34.13194" lon="-116.76352"><ele>2548.0</ele></trkpt>
    <trkpt lat="34.13188" lon="-116.76346"><ele>2548.0</ele></trkpt>
    <trkpt lat="34.13178" lon="-116.76339"><ele>2548.0</ele></trkpt>
    <trkpt lat="34.13163" lon="-116.76325"><ele>2548.0</ele></trkpt>
    <trkpt lat="34.13155" lon="-116.76313"><ele>2548.0</ele></trkpt>
    <trkpt lat="34.13147" lon="-116.76301"><ele>2548.0</ele></trkpt>
    <trkpt lat="34.13145" lon="-116.76293"><ele>2548.0</ele></trkpt>
    <trkpt lat="34.13145" lon="-116.76284"><ele>2548.0</ele></trkpt>
    <trkpt lat="34.13146" lon="-116.76274"><ele>2548.0</ele></trkpt>
    <trkpt lat="34.13145" lon="-116.76261"><ele>2548.0</ele></trkpt>
    <trkpt lat="34.13143" lon="-116.76250"><ele>2543.0</ele></trkpt>
    <trkpt lat="34.13138" lon="-116.76239"><ele>2543.0</ele></trkpt>
    <trkpt lat="34.13132" lon="-116.76227"><ele>2543.0</ele></trkpt>
    <trkpt lat="34.13129" lon="-116.76218"><ele>2543.0</ele></trkpt>
    <trkpt lat="34.13130" lon="-116.76209"><ele>2543.0</ele></trkpt>
    <trkpt lat="34.13133" lon="-116.76199"><ele>2543.0</ele></trkpt>
    <trkpt lat="34.13139" lon="-116.76190"><ele>2543.0</ele></trkpt>
    <trkpt lat="34.13146" lon="-116.76183"><ele>2543.0</ele></trkpt>
    <trkpt lat="34.13156" lon="-116.76173"><ele>2543.0</ele></trkpt>
    <trkpt lat="34.13162" lon="-116.76165"><ele>2543.0</ele></trkpt>
    <trkpt lat="34.13164" lon="-116.76154"><ele>2543.0</ele></trkpt>
    <trkpt lat="34.13163" lon="-116.76142"><ele>2536.0</ele></trkpt>
    <trkpt lat="34.13159" lon="-116.76129"><ele>2536.0</ele></trkpt>
    <trkpt lat="34.13155" lon="-116.76117"><ele>2536.0</ele></trkpt>
    <trkpt lat="34.13149" lon="-116.76109"><ele>2536.0</ele></trkpt>
    <trkpt lat="34.13136" lon="-116.76096"><ele>2536.0</ele></trkpt>
    <trkpt lat="34.13122" lon="-116.76083"><ele>2536.0</ele></trkpt>
    <trkpt lat="34.13114" lon="-116.76074"><ele>2536.0</ele></trkpt>
    <trkpt lat="34.13108" lon="-116.76069"><ele>2536.0</ele></trkpt>
    <trkpt lat="34.13106" lon="-116.76062"><ele>2536.0</ele></trkpt>
    <trkpt lat="34.13106" lon="-116.76055"><ele>2536.0</ele></trkpt>
    <trkpt lat="34.13110" lon="-116.76048"><ele>2536.0</ele></trkpt>
    <trkpt lat="34.13117" lon="-116.76039"><ele>2526.0</ele></trkpt>
    <trkpt lat="34.13126" lon="-116.76033"><ele>2526.0</ele></trkpt>
    <trkpt lat="34.13140" lon="-116.76026"><ele>2526.0</ele></trkpt>
    <trkpt lat="34.13144" lon="-116.76020"><ele>2526.0</ele></trkpt>
    <trkpt lat="34.13147" lon="-116.76011"><ele>2526.0</ele></trkpt>
    <trkpt lat="34.13147" lon="-116.76001"><ele>2526.0</ele></trkpt>
    <trkpt lat="34.13146" lon="-116.75992"><ele>2526.0</ele></trkpt>
    <trkpt lat="34.13143" lon="-116.75984"><ele>2526.0</ele></trkpt>
    <trkpt lat="34.13142" lon="-116.75975"><ele>2526.0</ele></trkpt>
    <trkpt lat="34.13142" lon="-116.75968"><ele>2526.0</ele></trkpt>
    <trkpt lat="34.13140" lon="-116.75960"><ele>2526.0</ele></trkpt>
    <trkpt lat="34.13137" lon="-116.75950"><ele>2521.0</ele></trkpt>
    <trkpt lat="34.13134" lon="-116.75939"><ele>2521.0</ele></trkpt>
    <trkpt lat="34.13133" lon="-116.75932"><ele>2521.0</ele></trkpt>
    <trkpt lat="34.13134" lon="-116.75925"><ele>2521.0</ele></trkpt>
    <trkpt lat="34.13138" lon="-116.75921"><ele>2521.0</ele></trkpt>
    <trkpt lat="34.13144" lon="-116.75917"><ele>2521.0</ele></trkpt>
    <trkpt lat="34.13152" lon="-116.75915"><ele>2521.0</ele></trkpt>
    <trkpt lat="34.13162" lon="-116.75914"><ele>2521.0</ele></trkpt>
    <trkpt lat="34.13168" lon="-116.75913"><ele>2521.0</ele></trkpt>
    <trkpt lat="34.13171" lon="-116.75906"><ele>2521.0</ele></trkpt>
    <trkpt lat="34.13171" lon="-116.75898"><ele>2521.0</ele></trkpt>
    <trkpt lat="34.13169" lon="-116.75891"><ele>2515.0</ele></trkpt>
    <trkpt lat="34.13164" lon="-116.75880"><ele>2515.0</ele></trkpt>
    <trkpt lat="34.13157" lon="-116.75864"><ele>2515.0</ele></trkpt>
    <trkpt lat="34.13151" lon="-116.75849"><ele>2515.0</ele></trkpt>
    <trkpt lat="34.13146" lon="-116.75836"><ele>2515.0</ele></trkpt>
    <trkpt lat="34.13141" lon="-116.75831"><ele>2515.0</ele></trkpt>
    <trkpt lat="34.13135" lon="-116.75827"><ele>2515.0</ele></trkpt>
    <trkpt lat="34.13125" lon="-116.75823"><ele>2515.0</ele></trkpt>
    <trkpt lat="34.13121" lon="-116.75817"><ele>2515.0</ele></trkpt>
    <trkpt lat="34.13120" lon="-116.75811"><ele>2515.0</ele></trkpt>
    <trkpt lat="34.13122" lon="-116.75800"><ele>2515.0</ele></trkpt>
    <trkpt lat="34.13126" lon="-116.75784"><ele>2508.0</ele></trkpt>
    <trkpt lat="34.13130" lon="-116.75770"><ele>2508.0</ele></trkpt>
    <trkpt lat="34.13131" lon="-116.75760"><ele>2508.0</ele></trkpt>
    <trkpt lat="34.13128" lon="-116.75753"><ele>2508.0</ele></trkpt>
    <trkpt lat="34.13123" lon="-116.75742"><ele>2508.0</ele></trkpt>
    <trkpt lat="34.13116" lon="-116.75728"><ele>2508.0</ele></trkpt>
    <trkpt lat="34.13110" lon="-116.75714"><ele>2508.0</ele></trkpt>
    <trkpt lat="34.13106" lon="-116.75699"><ele>2508.0</ele></trkpt>
    <trkpt lat="34.13102" lon="-116.75684"><ele>2508.0</ele></trkpt>
    <trkpt lat="34.13099" lon="-116.75675"><ele>2508.0</ele></trkpt>
    <trkpt lat="34.13094" lon="-116.75670"><ele>2508.0</ele></trkpt>
    <trkpt lat="34.13092" lon="-116.75670"><ele>2508.0</ele></trkpt>
    <trkpt lat="34.13089" lon="-116.75671"><ele>2508.0</ele></trkpt>
    <trkpt lat="34.13083" lon="-116.75675"><ele>2508.0</ele></trkpt>
    <trkpt lat="34.13079" lon="-116.75679"><ele>2508.0</ele></trkpt>
    <trkpt lat="34.13074" lon="-116.75686"><ele>2508.0</ele></trkpt>
    <trkpt lat="34.13069" lon="-116.75693"><ele>2508.0</ele></trkpt>
    <trkpt lat="34.13067" lon="-116.75699"><ele>2508.0</ele></trkpt>
    <trkpt lat="34.13064" lon="-116.75710"><ele>2508.0</ele></trkpt>
    <trkpt lat="34.13061" lon="-116.75716"><ele>2508.0</ele></trkpt>
    <trkpt lat="34.13055" lon="-116.75724"><ele>2508.0</ele></trkpt>
    <trkpt lat="34.13046" lon="-116.75732"><ele>2508.0</ele></trkpt>
    <trkpt lat="34.13034" lon="-116.75745"><ele>2508.0</ele></trkpt>
    <trkpt lat="34.13021" lon="-116.75757"><ele>2493.0</ele></trkpt>
    <trkpt lat="34.13011" lon="-116.75765"><ele>2493.0</ele></trkpt>
    <trkpt lat="34.13005" lon="-116.75769"><ele>2493.0</ele></trkpt>
    <trkpt lat="34.12999" lon="-116.75771"><ele>2493.0</ele></trkpt>
    <trkpt lat="34.12991" lon="-116.75769"><ele>2493.0</ele></trkpt>
    <trkpt lat="34.12986" lon="-116.75764"><ele>2493.0</ele></trkpt>
    <trkpt lat="34.12984" lon="-116.75758"><ele>2493.0</ele></trkpt>
    <trkpt lat="34.12983" lon="-116.75751"><ele>2493.0</ele></trkpt>
    <trkpt lat="34.12986" lon="-116.75742"><ele>2493.0</ele></trkpt>
    <trkpt lat="34.12994" lon="-116.75734"><ele>2493.0</ele></trkpt>
    <trkpt lat="34.12999" lon="-116.75727"><ele>2493.0</ele></trkpt>
    <trkpt lat="34.13001" lon="-116.75720"><ele>2491.0</ele></trkpt>
    <trkpt lat="34.13001" lon="-116.75712"><ele>2491.0</ele></trkpt>
    <trkpt lat="34.12998" lon="-116.75704"><ele>2491.0</ele></trkpt>
    <trkpt lat="34.12992" lon="-116.75697"><ele>2491.0</ele></trkpt>
    <trkpt lat="34.12985" lon="-116.75691"><ele>2491.0</ele></trkpt>
    <trkpt lat="34.12976" lon="-116.75684"><ele>2491.0</ele></trkpt>
    <trkpt lat="34.12965" lon="-116.75679"><ele>2491.0</ele></trkpt>
    <trkpt lat="34.12956" lon="-116.75673"><ele>2491.0</ele></trkpt>
    <trkpt lat="34.12951" lon="-116.75668"><ele>2491.0</ele></trkpt>
    <trkpt lat="34.12946" lon="-116.75658"><ele>2491.0</ele></trkpt>
    <trkpt lat="34.12941" lon="-116.75651"><ele>2491.0</ele></trkpt>
    <trkpt lat="34.12935" lon="-116.75647"><ele>2473.0</ele></trkpt>
    <trkpt lat="34.12927" lon="-116.75644"><ele>2473.0</ele></trkpt>
    <trkpt lat="34.12918" lon="-116.75643"><ele>2473.0</ele></trkpt>
    <trkpt lat="34.12911" lon="-116.75641"><ele>2473.0</ele></trkpt>
    <trkpt lat="34.12902" lon="-116.75636"><ele>2473.0</ele></trkpt>
    <trkpt lat="34.12895" lon="-116.75630"><ele>2473.0</ele></trkpt>
    <trkpt lat="34.12888" lon="-116.75622"><ele>2473.0</ele></trkpt>
    <trkpt lat="34.12884" lon="-116.75617"><ele>2473.0</ele></trkpt>
    <trkpt lat="34.12875" lon="-116.75604"><ele>2473.0</ele></trkpt>
    <trkpt lat="34.12866" lon="-116.75594"><ele>2473.0</ele></trkpt>
    <trkpt lat="34.12857" lon="-116.75587"><ele>2473.0</ele></trkpt>
    <trkpt lat="34.12848" lon="-116.75584"><ele>2456.0</ele></trkpt>
    <trkpt lat="34.12839" lon="-116.75584"><ele>2456.0</ele></trkpt>
    <trkpt lat="34.12829" lon="-116.75587"><ele>2456.0</ele></trkpt>
    <trkpt lat="34.12826" lon="-116.75593"><ele>2456.0</ele></trkpt>
    <trkpt lat="34.12824" lon="-116.75602"><ele>2456.0</ele></trkpt>
    <trkpt lat="34.12826" lon="-116.75611"><ele>2456.0</ele></trkpt>
    <trkpt lat="34.12833" lon="-116.75626"><ele>2456.0</ele></trkpt>
    <trkpt lat="34.12836" lon="-116.75634"><ele>2456.0</ele></trkpt>
    <trkpt lat="34.12837" lon="-116.75642"><ele>2456.0</ele></trkpt>
    <trkpt lat="34.12835" lon="-116.75650"><ele>2456.0</ele></trkpt>
    <trkpt lat="34.12834" lon="-116.75660"><ele>2456.0</ele></trkpt>
    <trkpt lat="34.12835" lon="-116.75669"><ele>2453.0</ele></trkpt>
    <trkpt lat="34.12838" lon="-116.75680"><ele>2453.0</ele></trkpt>
    <trkpt lat="34.12840" lon="-116.75689"><ele>2453.0</ele></trkpt>
    <trkpt lat="34.12840" lon="-116.75697"><ele>2453.0</ele></trkpt>
    <trkpt lat="34.12840" lon="-116.75706"><ele>2453.0</ele></trkpt>
    <trkpt lat="34.12841" lon="-116.75714"><ele>2453.0</ele></trkpt>
    <trkpt lat="34.12843" lon="-116.75732"><ele>2453.0</ele></trkpt>
    <trkpt lat="34.12845" lon="-116.75749"><ele>2453.0</ele></trkpt>
    <trkpt lat="34.12847" lon="-116.75758"><ele>2453.0</ele></trkpt>
    <trkpt lat="34.12848" lon="-116.75767"><ele>2453.0</ele></trkpt>
    <trkpt lat="34.12851" lon="-116.75776"><ele>2453.0</ele></trkpt>
    <trkpt lat="34.12855" lon="-116.75782"><ele>2456.0</ele></trkpt>
    <trkpt lat="34.12859" lon="-116.75788"><ele>2456.0</ele></trkpt>
    <trkpt lat="34.12862" lon="-116.75796"><ele>2456.0</ele></trkpt>
    <trkpt lat="34.12862" lon="-116.75803"><ele>2456.0</ele></trkpt>
    <trkpt lat="34.12861" lon="-116.75810"><ele>2456.0</ele></trkpt>
    <trkpt lat="34.12856" lon="-116.75815"><ele>2456.0</ele></trkpt>
    <trkpt lat="34.12849" lon="-116.75818"><ele>2456.0</ele></trkpt>
    <trkpt lat="34.12842" lon="-116.75820"><ele>2456.0</ele></trkpt>
    <trkpt lat="34.12835" lon="-116.75818"><ele>2456.0</ele></trkpt>
    <trkpt lat="34.12829" lon="-116.75814"><ele>2456.0</ele></trkpt>
    <trkpt lat="34.12825" lon="-116.75805"><ele>2456.0</ele></trkpt>
    <trkpt lat="34.12821" lon="-116.75796"><ele>2441.0</ele></trkpt>
    <trkpt lat="34.12816" lon="-116.75788"><ele>2441.0</ele></trkpt>
    <trkpt lat="34.12810" lon="-116.75784"><ele>2441.0</ele></trkpt>
    <trkpt lat="34.12803" lon="-116.75783"><ele>2441.0</ele></trkpt>
    <trkpt lat="34.12796" lon="-116.75784"><ele>2441.0</ele></trkpt>
    <trkpt lat="34.12791" lon="-116.75789"><ele>2441.0</ele></trkpt>
    <trkpt lat="34.12786" lon="-116.75795"><ele>2441.0</ele></trkpt>
    <trkpt lat="34.12782" lon="-116.75802"><ele>2441.0</ele></trkpt>
    <trkpt lat="34.12780" lon="-116.75808"><ele>2441.0</ele></trkpt>
    <trkpt lat="34.12778" lon="-116.75822"><ele>2441.0</ele></trkpt>
    <trkpt lat="34.12777" lon="-116.75836"><ele>2441.0</ele></trkpt>
    <trkpt lat="34.12775" lon="-116.75849"><ele>2441.0</ele></trkpt>
    <trkpt lat="34.12772" lon="-116.75860"><ele>2442.0</ele></trkpt>
    <trkpt lat="34.12767" lon="-116.75869"><ele>2442.0</ele></trkpt>
    <trkpt lat="34.12764" lon="-116.75873"><ele>2442.0</ele></trkpt>
    <trkpt lat="34.12760" lon="-116.75874"><ele>2442.0</ele></trkpt>
    <trkpt lat="34.12754" lon="-116.75872"><ele>2442.0</ele></trkpt>
    <trkpt lat="34.12746" lon="-116.75869"><ele>2442.0</ele></trkpt>
    <trkpt lat="34.12736" lon="-116.75867"><ele>2442.0</ele></trkpt>
    <trkpt lat="34.12727" lon="-116.75868"><ele>2442.0</ele></trkpt>
    <trkpt lat="34.12718" lon="-116.75870"><ele>2442.0</ele></trkpt>
    <trkpt lat="34.12710" lon="-116.75872"><ele>2442.0</ele></trkpt>
    <trkpt lat="34.12699" lon="-116.75877"><ele>2442.0</ele></trkpt>
    <trkpt lat="34.12687" lon="-116.75881"><ele>2436.0</ele></trkpt>
    <trkpt lat="34.12676" lon="-116.75888"><ele>2436.0</ele></trkpt>
    <trkpt lat="34.12665" lon="-116.75895"><ele>2436.0</ele></trkpt>
    <trkpt lat="34.12651" lon="-116.75905"><ele>2436.0</ele></trkpt>
    <trkpt lat="34.12641" lon="-116.75912"><ele>2436.0</ele></trkpt>
    <trkpt lat="34.12634" lon="-116.75921"><ele>2436.0</ele></trkpt>
    <trkpt lat="34.12625" lon="-116.75926"><ele>2436.0</ele></trkpt>
    <trkpt lat="34.12614" lon="-116.75935"><ele>2436.0</ele></trkpt>
    <trkpt lat="34.12609" lon="-116.75938"><ele>2436.0</ele></trkpt>
    <trkpt lat="34.12608" lon="-116.75940"><ele>2436.0</ele></trkpt>
    <trkpt lat="34.12603" lon="-116.75948"><ele>2436.0</ele></trkpt>
    <trkpt lat="34.12598" lon="-116.75960"><ele>2438.0</ele></trkpt>
    <trkpt lat="34.12593" lon="-116.75976"><ele>2438.0</ele></trkpt>
    <trkpt lat="34.12589" lon="-116.75995"><ele>2438.0</ele></trkpt>
    <trkpt lat="34.12586" lon="-116.76009"><ele>2438.0</ele></trkpt>
    <trkpt lat="34.12584" lon="-116.76016"><ele>2438.0</ele></trkpt>
    <trkpt lat="34.12580" lon="-116.76023"><ele>2438.0</ele></trkpt>
    <trkpt lat="34.12577" lon="-116.76028"><ele>2438.0</ele></trkpt>
    <trkpt lat="34.12572" lon="-116.76033"><ele>2438.0</ele></trkpt>
    <trkpt lat="34.12569" lon="-116.76039"><ele>2438.0</ele></trkpt>
    <trkpt lat="34.12566" lon="-116.76047"><ele>2438.0</ele></trkpt>
    <trkpt lat="34.12563" lon="-116.76056"><ele>2438.0</ele></trkpt>
    <trkpt lat="34.12559" lon="-116.76073"><ele>2451.0</ele></trkpt>
    <trkpt lat="34.12557" lon="-116.76098"><ele>2451.0</ele></trkpt>
    <trkpt lat="34.12556" lon="-116.76116"><ele>2451.0</ele></trkpt>
    <trkpt lat="34.12555" lon="-116.76138"><ele>2451.0</ele></trkpt>
    <trkpt lat="34.12553" lon="-116.76151"><ele>2451.0</ele></trkpt>
    <trkpt lat="34.12549" lon="-116.76171"><ele>2451.0</ele></trkpt>
    <trkpt lat="34.12546" lon="-116.76190"><ele>2451.0</ele></trkpt>
    <trkpt lat="34.12545" lon="-116.76206"><ele>2451.0</ele></trkpt>
    <trkpt lat="34.12543" lon="-116.76224"><ele>2451.0</ele></trkpt>
    <trkpt lat="34.12543" lon="-116.76239"><ele>2451.0</ele></trkpt>
    <trkpt lat="34.12542" lon="-116.76247"><ele>2451.0</ele></trkpt>
    <trkpt lat="34.12544" lon="-116.76254"><ele>2462.0</ele></trkpt>
    <trkpt lat="34.12545" lon="-116.76260"><ele>2462.0</ele></trkpt>
    <trkpt lat="34.12543" lon="-116.76269"><ele>2462.0</ele></trkpt>
    <trkpt lat="34.12542" lon="-116.76276"><ele>2462.0</ele></trkpt>
    <trkpt lat="34.12539" lon="-116.76281"><ele>2462.0</ele></trkpt>
    <trkpt lat="34.12535" lon="-116.76285"><ele>2462.0</ele></trkpt>
    <trkpt lat="34.12529" lon="-116.76286"><ele>2462.0</ele></trkpt>
    <trkpt lat="34.12521" lon="-116.76286"><ele>2462.0</ele></trkpt>
    <trkpt lat="34.12516" lon="-116.76287"><ele>2462.0</ele></trkpt>
    <trkpt lat="34.12512" lon="-116.76292"><ele>2462.0</ele></trkpt>
    <trkpt lat="34.12508" lon="-116.76300"><ele>2462.0</ele></trkpt>
    <trkpt lat="34.12506" lon="-116.76307"><ele>2463.0</ele></trkpt>
    <trkpt lat="34.12504" lon="-116.76312"><ele>2463.0</ele></trkpt>
    <trkpt lat="34.12503" lon="-116.76317"><ele>2463.0</ele></trkpt>
    <trkpt lat="34.12502" lon="-116.76323"><ele>2463.0</ele></trkpt>
    <trkpt lat="34.12499" lon="-116.76327"><ele>2463.0</ele></trkpt>
    <trkpt lat="34.12496" lon="-116.76332"><ele>2463.0</ele></trkpt>
    <trkpt lat="34.12492" lon="-116.76339"><ele>2463.0</ele></trkpt>
    <trkpt lat="34.12490" lon="-116.76347"><ele>2463.0</ele></trkpt>
    <trkpt lat="34.12490" lon="-116.76354"><ele>2463.0</ele></trkpt>
    <trkpt lat="34.12490" lon="-116.76361"><ele>2463.0</ele></trkpt>
    <trkpt lat="34.12491" lon="-116.76369"><ele>2463.0</ele></trkpt>
    <trkpt lat="34.12492" lon="-116.76377"><ele>2466.0</ele></trkpt>
    <trkpt lat="34.12491" lon="-116.76385"><ele>2466.0</ele></trkpt>
    <trkpt lat="34.12490" lon="-116.76390"><ele>2466.0</ele></trkpt>
    <trkpt lat="34.12487" lon="-116.76395"><ele>2466.0</ele></trkpt>
    <trkpt lat="34.12483" lon="-116.76400"><ele>2466.0</ele></trkpt>
    <trkpt lat="34.12479" lon="-116.76405"><ele>2466.0</ele></trkpt>
    <trkpt lat="34.12478" lon="-116.76411"><ele>2466.0</ele></trkpt>
    <trkpt lat="34.12476" lon="-116.76418"><ele>2466.0</ele></trkpt>
    <trkpt lat="34.12474" lon="-116.76429"><ele>2466.0</ele></trkpt>
    <trkpt lat="34.12473" lon="-116.76441"><ele>2466.0</ele></trkpt>
    <trkpt lat="34.12472" lon="-116.76452"><ele>2466.0</ele></trkpt>
    <trkpt lat="34.12472" lon="-116.76461"><ele>2471.0</ele></trkpt>
    <trkpt lat="34.12470" lon="-116.76470"><ele>2471.0</ele></trkpt>
    <trkpt lat="34.12467" lon="-116.76481"><ele>2471.0</ele></trkpt>
    <trkpt lat="34.12465" lon="-116.76492"><ele>2471.0</ele></trkpt>
    <trkpt lat="34.12463" lon="-116.76501"><ele>2471.0</ele></trkpt>
    <trkpt lat="34.12461" lon="-116.76512"><ele>2471.0</ele></trkpt>
    <trkpt lat="34.12458" lon="-116.76521"><ele>2471.0</ele></trkpt>
    <trkpt lat="34.12456" lon="-116.76528"><ele>2471.0</ele></trkpt>
    <trkpt lat="34.12455" lon="-116.76532"><ele>2471.0</ele></trkpt>
    <trkpt lat="34.12454" lon="-116.76540"><ele>2471.0</ele></trkpt>
    <trkpt lat="34.12454" lon="-116.76554"><ele>2471.0</ele></trkpt>
    <trkpt lat="34.12454" lon="-116.76565"><ele>2471.0</ele></trkpt>
    <trkpt lat="34.12455" lon="-116.76574"><ele>2475.0</ele></trkpt>
    <trkpt lat="34.12457" lon="-116.76581"><ele>2475.0</ele></trkpt>
    <trkpt lat="34.12457" lon="-116.76582"><ele>2475.0</ele></trkpt>
    <trkpt lat="34.12459" lon="-116.76596"><ele>2475.0</ele></trkpt>
    <trkpt lat="34.12461" lon="-116.76616"><ele>2475.0</ele></trkpt>
    <trkpt lat="34.12463" lon="-116.76636"><ele>2475.0</ele></trkpt>
    <trkpt lat="34.12466" lon="-116.76651"><ele>2475.0</ele></trkpt>
    <trkpt lat="34.12467" lon="-116.76661"><ele>2475.0</ele></trkpt>
    <trkpt lat="34.12468" lon="-116.76669"><ele>2475.0</ele></trkpt>
    <trkpt lat="34.12469" lon="-116.76680"><ele>2475.0</ele></trkpt>
    <trkpt lat="34.12473" lon="-116.76691"><ele>2475.0</ele></trkpt>
    <trkpt lat="34.12475" lon="-116.76698"><ele>2476.0</ele></trkpt>
    <trkpt lat="34.12478" lon="-116.76704"><ele>2476.0</ele></trkpt>
    <trkpt lat="34.12486" lon="-116.76716"><ele>2476.0</ele></trkpt>
    <trkpt lat="34.12494" lon="-116.76726"><ele>2476.0</ele></trkpt>
    <trkpt lat="34.12501" lon="-116.76733"><ele>2476.0</ele></trkpt>
    <trkpt lat="34.12507" lon="-116.76736"><ele>2476.0</ele></trkpt>
    <trkpt lat="34.12513" lon="-116.76738"><ele>2476.0</ele></trkpt>
    <trkpt lat="34.12521" lon="-116.76736"><ele>2476.0</ele></trkpt>
    <trkpt lat="34.12527" lon="-116.76732"><ele>2476.0</ele></trkpt>
    <trkpt lat="34.12531" lon="-116.76724"><ele>2476.0</ele></trkpt>
    <trkpt lat="34.12532" lon="-116.76713"><ele>2476.0</ele></trkpt>
    <trkpt lat="34.12530" lon="-116.76697"><ele>2478.0</ele></trkpt>
    <trkpt lat="34.12530" lon="-116.76681"><ele>2478.0</ele></trkpt>
    <trkpt lat="34.12531" lon="-116.76668"><ele>2478.0</ele></trkpt>
    <trkpt lat="34.12533" lon="-116.76655"><ele>2478.0</ele></trkpt>
    <trkpt lat="34.12537" lon="-116.76644"><ele>2478.0</ele></trkpt>
    <trkpt lat="34.12540" lon="-116.76635"><ele>2478.0</ele></trkpt>
    <trkpt lat="34.12539" lon="-116.76630"><ele>2478.0</ele></trkpt>
    <trkpt lat="34.12537" lon="-116.76625"><ele>2478.0</ele></trkpt>
    <trkpt lat="34.12534" lon="-116.76623"><ele>2478.0</ele></trkpt>
    <trkpt lat="34.12528" lon="-116.76622"><ele>2478.0</ele></trkpt>
    <trkpt lat="34.12523" lon="-116.76624"><ele>2478.0</ele></trkpt>
    <trkpt lat="34.12519" lon="-116.76629"><ele>2476.0</ele></trkpt>
    <trkpt lat="34.12518" lon="-116.76635"><ele>2476.0</ele></trkpt>
    <trkpt lat="34.12516" lon="-116.76644"><ele>2476.0</ele></trkpt>
    <trkpt lat="34.12515" lon="-116.76654"><ele>2476.0</ele></trkpt>
    <trkpt lat="34.12513" lon="-116.76664"><ele>2476.0</ele></trkpt>
    <trkpt lat="34.12510" lon="-116.76674"><ele>2476.0</ele></trkpt>
    <trkpt lat="34.12507" lon="-116.76683"><ele>2476.0</ele></trkpt>
    <trkpt lat="34.12504" lon="-116.76690"><ele>2476.0</ele></trkpt>
    <trkpt lat="34.12501" lon="-116.76694"><ele>2476.0</ele></trkpt>
    <trkpt lat="34.12497" lon="-116.76695"><ele>2476.0</ele></trkpt>
    <trkpt lat="34.12492" lon="-116.76695"><ele>2476.0</ele></trkpt>
    <trkpt lat="34.12489" lon="-116.76692"><ele>2476.0</ele></trkpt>
    <trkpt lat="34.12487" lon="-116.76684"><ele>2476.0</ele></trkpt>
    <trkpt lat="34.12486" lon="-116.76674"><ele>2476.0</ele></trkpt>
    <trkpt lat="34.12483" lon="-116.76665"><ele>2476.0</ele></trkpt>
    <trkpt lat="34.12479" lon="-116.76661"><ele>2476.0</ele></trkpt>
    <trkpt lat="34.12468" lon="-116.76661"><ele>2476.0</ele></trkpt>
  </trkseg></trk>
</gpx>
