<?xml version="1.0" encoding="UTF-8"?>
<gpx version="1.1" creator="dirt-bikes build-area-routes (MVUM geometry + SRTM elevation)" xmlns="http://www.topografix.com/GPX/1/1">
  <trk><name>Fobes Ranch Road</name><trkseg>
    <trkpt lat="33.63752" lon="-116.64568"><ele>1358.0</ele></trkpt>
    <trkpt lat="33.63760" lon="-116.64552"><ele>1358.0</ele></trkpt>
    <trkpt lat="33.63771" lon="-116.64535"><ele>1358.0</ele></trkpt>
    <trkpt lat="33.63785" lon="-116.64514"><ele>1354.0</ele></trkpt>
    <trkpt lat="33.63803" lon="-116.64491"><ele>1354.0</ele></trkpt>
    <trkpt lat="33.63822" lon="-116.64471"><ele>1354.0</ele></trkpt>
    <trkpt lat="33.63880" lon="-116.64421"><ele>1354.0</ele></trkpt>
    <trkpt lat="33.63909" lon="-116.64395"><ele>1354.0</ele></trkpt>
    <trkpt lat="33.63925" lon="-116.64379"><ele>1354.0</ele></trkpt>
    <trkpt lat="33.63935" lon="-116.64369"><ele>1354.0</ele></trkpt>
    <trkpt lat="33.63941" lon="-116.64358"><ele>1354.0</ele></trkpt>
    <trkpt lat="33.63950" lon="-116.64345"><ele>1354.0</ele></trkpt>
    <trkpt lat="33.63958" lon="-116.64328"><ele>1354.0</ele></trkpt>
    <trkpt lat="33.63966" lon="-116.64307"><ele>1355.0</ele></trkpt>
    <trkpt lat="33.63975" lon="-116.64284"><ele>1355.0</ele></trkpt>
    <trkpt lat="33.63981" lon="-116.64262"><ele>1355.0</ele></trkpt>
    <trkpt lat="33.63985" lon="-116.64244"><ele>1355.0</ele></trkpt>
    <trkpt lat="33.63990" lon="-116.64222"><ele>1355.0</ele></trkpt>
    <trkpt lat="33.63995" lon="-116.64204"><ele>1357.0</ele></trkpt>
    <trkpt lat="33.64002" lon="-116.64187"><ele>1357.0</ele></trkpt>
    <trkpt lat="33.64010" lon="-116.64168"><ele>1357.0</ele></trkpt>
    <trkpt lat="33.64021" lon="-116.64144"><ele>1357.0</ele></trkpt>
    <trkpt lat="33.64029" lon="-116.64127"><ele>1357.0</ele></trkpt>
    <trkpt lat="33.64034" lon="-116.64113"><ele>1358.0</ele></trkpt>
    <trkpt lat="33.64039" lon="-116.64097"><ele>1358.0</ele></trkpt>
    <trkpt lat="33.64043" lon="-116.64081"><ele>1358.0</ele></trkpt>
    <trkpt lat="33.64048" lon="-116.64061"><ele>1358.0</ele></trkpt>
    <trkpt lat="33.64050" lon="-116.64047"><ele>1358.0</ele></trkpt>
    <trkpt lat="33.64056" lon="-116.64020"><ele>1358.0</ele></trkpt>
    <trkpt lat="33.64063" lon="-116.63996"><ele>1360.0</ele></trkpt>
    <trkpt lat="33.64063" lon="-116.63996"><ele>1360.0</ele></trkpt>
    <trkpt lat="33.64070" lon="-116.63981"><ele>1360.0</ele></trkpt>
    <trkpt lat="33.64081" lon="-116.63964"><ele>1360.0</ele></trkpt>
    <trkpt lat="33.64094" lon="-116.63947"><ele>1360.0</ele></trkpt>
    <trkpt lat="33.64101" lon="-116.63935"><ele>1363.0</ele></trkpt>
    <trkpt lat="33.64113" lon="-116.63919"><ele>1363.0</ele></trkpt>
    <trkpt lat="33.64126" lon="-116.63905"><ele>1363.0</ele></trkpt>
    <trkpt lat="33.64135" lon="-116.63896"><ele>1363.0</ele></trkpt>
    <trkpt lat="33.64143" lon="-116.63884"><ele>1363.0</ele></trkpt>
    <trkpt lat="33.64151" lon="-116.63876"><ele>1365.0</ele></trkpt>
    <trkpt lat="33.64159" lon="-116.63871"><ele>1365.0</ele></trkpt>
    <trkpt lat="33.64173" lon="-116.63866"><ele>1365.0</ele></trkpt>
    <trkpt lat="33.64188" lon="-116.63861"><ele>1365.0</ele></trkpt>
    <trkpt lat="33.64204" lon="-116.63857"><ele>1365.0</ele></trkpt>
    <trkpt lat="33.64221" lon="-116.63854"><ele>1371.0</ele></trkpt>
    <trkpt lat="33.64225" lon="-116.63852"><ele>1371.0</ele></trkpt>
    <trkpt lat="33.64230" lon="-116.63848"><ele>1371.0</ele></trkpt>
    <trkpt lat="33.64239" lon="-116.63840"><ele>1371.0</ele></trkpt>
    <trkpt lat="33.64248" lon="-116.63829"><ele>1371.0</ele></trkpt>
    <trkpt lat="33.64257" lon="-116.63820"><ele>1375.0</ele></trkpt>
    <trkpt lat="33.64261" lon="-116.63817"><ele>1375.0</ele></trkpt>
    <trkpt lat="33.64265" lon="-116.63816"><ele>1375.0</ele></trkpt>
    <trkpt lat="33.64270" lon="-116.63816"><ele>1375.0</ele></trkpt>
    <trkpt lat="33.64275" lon="-116.63817"><ele>1375.0</ele></trkpt>
    <trkpt lat="33.64280" lon="-116.63820"><ele>1379.0</ele></trkpt>
    <trkpt lat="33.64287" lon="-116.63825"><ele>1379.0</ele></trkpt>
    <trkpt lat="33.64294" lon="-116.63832"><ele>1379.0</ele></trkpt>
    <trkpt lat="33.64301" lon="-116.63837"><ele>1379.0</ele></trkpt>
    <trkpt lat="33.64310" lon="-116.63841"><ele>1379.0</ele></trkpt>
    <trkpt lat="33.64318" lon="-116.63844"><ele>1381.0</ele></trkpt>
    <trkpt lat="33.64324" lon="-116.63846"><ele>1381.0</ele></trkpt>
    <trkpt lat="33.64329" lon="-116.63846"><ele>1381.0</ele></trkpt>
    <trkpt lat="33.64334" lon="-116.63844"><ele>1381.0</ele></trkpt>
    <trkpt lat="33.64339" lon="-116.63841"><ele>1381.0</ele></trkpt>
    <trkpt lat="33.64345" lon="-116.63836"><ele>1382.0</ele></trkpt>
    <trkpt lat="33.64355" lon="-116.63826"><ele>1382.0</ele></trkpt>
    <trkpt lat="33.64366" lon="-116.63817"><ele>1382.0</ele></trkpt>
    <trkpt lat="33.64373" lon="-116.63809"><ele>1382.0</ele></trkpt>
    <trkpt lat="33.64384" lon="-116.63796"><ele>1382.0</ele></trkpt>
    <trkpt lat="33.64398" lon="-116.63782"><ele>1387.0</ele></trkpt>
    <trkpt lat="33.64409" lon="-116.63774"><ele>1387.0</ele></trkpt>
    <trkpt lat="33.64416" lon="-116.63769"><ele>1387.0</ele></trkpt>
    <trkpt lat="33.64424" lon="-116.63765"><ele>1387.0</ele></trkpt>
    <trkpt lat="33.64431" lon="-116.63761"><ele>1387.0</ele></trkpt>
    <trkpt lat="33.64440" lon="-116.63756"><ele>1389.0</ele></trkpt>
    <trkpt lat="33.64446" lon="-116.63749"><ele>1389.0</ele></trkpt>
    <trkpt lat="33.64454" lon="-116.63740"><ele>1389.0</ele></trkpt>
    <trkpt lat="33.64462" lon="-116.63731"><ele>1389.0</ele></trkpt>
    <trkpt lat="33.64471" lon="-116.63722"><ele>1389.0</ele></trkpt>
    <trkpt lat="33.64482" lon="-116.63713"><ele>1391.0</ele></trkpt>
    <trkpt lat="33.64490" lon="-116.63708"><ele>1391.0</ele></trkpt>
    <trkpt lat="33.64514" lon="-116.63692"><ele>1391.0</ele></trkpt>
    <trkpt lat="33.64537" lon="-116.63678"><ele>1391.0</ele></trkpt>
    <trkpt lat="33.64553" lon="-116.63669"><ele>1391.0</ele></trkpt>
    <trkpt lat="33.64574" lon="-116.63657"><ele>1391.0</ele></trkpt>
    <trkpt lat="33.64595" lon="-116.63645"><ele>1401.0</ele></trkpt>
    <trkpt lat="33.64606" lon="-116.63635"><ele>1401.0</ele></trkpt>
    <trkpt lat="33.64618" lon="-116.63622"><ele>1401.0</ele></trkpt>
    <trkpt lat="33.64627" lon="-116.63613"><ele>1401.0</ele></trkpt>
    <trkpt lat="33.64639" lon="-116.63605"><ele>1401.0</ele></trkpt>
    <trkpt lat="33.64653" lon="-116.63597"><ele>1409.0</ele></trkpt>
    <trkpt lat="33.64667" lon="-116.63591"><ele>1409.0</ele></trkpt>
    <trkpt lat="33.64672" lon="-116.63588"><ele>1409.0</ele></trkpt>
    <trkpt lat="33.64677" lon="-116.63583"><ele>1409.0</ele></trkpt>
    <trkpt lat="33.64682" lon="-116.63575"><ele>1409.0</ele></trkpt>
    <trkpt lat="33.64687" lon="-116.63567"><ele>1412.0</ele></trkpt>
    <trkpt lat="33.64693" lon="-116.63555"><ele>1412.0</ele></trkpt>
    <trkpt lat="33.64696" lon="-116.63547"><ele>1412.0</ele></trkpt>
    <trkpt lat="33.64705" lon="-116.63535"><ele>1412.0</ele></trkpt>
    <trkpt lat="33.64720" lon="-116.63517"><ele>1412.0</ele></trkpt>
    <trkpt lat="33.64728" lon="-116.63506"><ele>1422.0</ele></trkpt>
    <trkpt lat="33.64737" lon="-116.63490"><ele>1422.0</ele></trkpt>
    <trkpt lat="33.64747" lon="-116.63475"><ele>1422.0</ele></trkpt>
    <trkpt lat="33.64755" lon="-116.63466"><ele>1422.0</ele></trkpt>
    <trkpt lat="33.64772" lon="-116.63452"><ele>1422.0</ele></trkpt>
    <trkpt lat="33.64791" lon="-116.63436"><ele>1434.0</ele></trkpt>
    <trkpt lat="33.64812" lon="-116.63418"><ele>1434.0</ele></trkpt>
    <trkpt lat="33.64827" lon="-116.63408"><ele>1434.0</ele></trkpt>
    <trkpt lat="33.64836" lon="-116.63403"><ele>1434.0</ele></trkpt>
    <trkpt lat="33.64845" lon="-116.63400"><ele>1434.0</ele></trkpt>
    <trkpt lat="33.64852" lon="-116.63397"><ele>1437.0</ele></trkpt>
    <trkpt lat="33.64859" lon="-116.63397"><ele>1437.0</ele></trkpt>
    <trkpt lat="33.64865" lon="-116.63399"><ele>1437.0</ele></trkpt>
    <trkpt lat="33.64870" lon="-116.63403"><ele>1437.0</ele></trkpt>
    <trkpt lat="33.64875" lon="-116.63409"><ele>1437.0</ele></trkpt>
    <trkpt lat="33.64883" lon="-116.63416"><ele>1444.0</ele></trkpt>
    <trkpt lat="33.64901" lon="-116.63434"><ele>1444.0</ele></trkpt>
    <trkpt lat="33.64906" lon="-116.63437"><ele>1444.0</ele></trkpt>
    <trkpt lat="33.64927" lon="-116.63443"><ele>1444.0</ele></trkpt>
    <trkpt lat="33.64944" lon="-116.63449"><ele>1444.0</ele></trkpt>
    <trkpt lat="33.64953" lon="-116.63455"><ele>1454.0</ele></trkpt>
    <trkpt lat="33.64966" lon="-116.63464"><ele>1454.0</ele></trkpt>
    <trkpt lat="33.64978" lon="-116.63470"><ele>1454.0</ele></trkpt>
    <trkpt lat="33.64991" lon="-116.63473"><ele>1454.0</ele></trkpt>
    <trkpt lat="33.64999" lon="-116.63473"><ele>1454.0</ele></trkpt>
    <trkpt lat="33.65008" lon="-116.63472"><ele>1457.0</ele></trkpt>
    <trkpt lat="33.65013" lon="-116.63468"><ele>1457.0</ele></trkpt>
    <trkpt lat="33.65023" lon="-116.63462"><ele>1457.0</ele></trkpt>
    <trkpt lat="33.65039" lon="-116.63451"><ele>1457.0</ele></trkpt>
    <trkpt lat="33.65050" lon="-116.63445"><ele>1457.0</ele></trkpt>
    <trkpt lat="33.65064" lon="-116.63439"><ele>1461.0</ele></trkpt>
    <trkpt lat="33.65071" lon="-116.63437"><ele>1461.0</ele></trkpt>
    <trkpt lat="33.65078" lon="-116.63434"><ele>1461.0</ele></trkpt>
    <trkpt lat="33.65084" lon="-116.63429"><ele>1461.0</ele></trkpt>
    <trkpt lat="33.65089" lon="-116.63422"><ele>1461.0</ele></trkpt>
    <trkpt lat="33.65095" lon="-116.63411"><ele>1461.0</ele></trkpt>
    <trkpt lat="33.65101" lon="-116.63398"><ele>1461.0</ele></trkpt>
    <trkpt lat="33.65107" lon="-116.63383"><ele>1461.0</ele></trkpt>
    <trkpt lat="33.65113" lon="-116.63372"><ele>1461.0</ele></trkpt>
    <trkpt lat="33.65127" lon="-116.63355"><ele>1461.0</ele></trkpt>
    <trkpt lat="33.65140" lon="-116.63340"><ele>1461.0</ele></trkpt>
    <trkpt lat="33.65148" lon="-116.63328"><ele>1466.0</ele></trkpt>
    <trkpt lat="33.65156" lon="-116.63313"><ele>1466.0</ele></trkpt>
    <trkpt lat="33.65167" lon="-116.63296"><ele>1466.0</ele></trkpt>
    <trkpt lat="33.65180" lon="-116.63278"><ele>1466.0</ele></trkpt>
    <trkpt lat="33.65195" lon="-116.63259"><ele>1466.0</ele></trkpt>
    <trkpt lat="33.65203" lon="-116.63250"><ele>1464.0</ele></trkpt>
    <trkpt lat="33.65219" lon="-116.63240"><ele>1464.0</ele></trkpt>
    <trkpt lat="33.65231" lon="-116.63231"><ele>1464.0</ele></trkpt>
    <trkpt lat="33.65242" lon="-116.63225"><ele>1464.0</ele></trkpt>
    <trkpt lat="33.65250" lon="-116.63217"><ele>1464.0</ele></trkpt>
    <trkpt lat="33.65265" lon="-116.63199"><ele>1469.0</ele></trkpt>
    <trkpt lat="33.65277" lon="-116.63186"><ele>1469.0</ele></trkpt>
    <trkpt lat="33.65297" lon="-116.63167"><ele>1469.0</ele></trkpt>
    <trkpt lat="33.65312" lon="-116.63150"><ele>1469.0</ele></trkpt>
    <trkpt lat="33.65332" lon="-116.63125"><ele>1469.0</ele></trkpt>
    <trkpt lat="33.65343" lon="-116.63111"><ele>1474.0</ele></trkpt>
    <trkpt lat="33.65353" lon="-116.63103"><ele>1474.0</ele></trkpt>
    <trkpt lat="33.65366" lon="-116.63094"><ele>1474.0</ele></trkpt>
    <trkpt lat="33.65385" lon="-116.63080"><ele>1474.0</ele></trkpt>
    <trkpt lat="33.65395" lon="-116.63068"><ele>1474.0</ele></trkpt>
    <trkpt lat="33.65402" lon="-116.63055"><ele>1483.0</ele></trkpt>
    <trkpt lat="33.65408" lon="-116.63040"><ele>1483.0</ele></trkpt>
    <trkpt lat="33.65418" lon="-116.63024"><ele>1483.0</ele></trkpt>
    <trkpt lat="33.65435" lon="-116.63008"><ele>1483.0</ele></trkpt>
    <trkpt lat="33.65463" lon="-116.62981"><ele>1483.0</ele></trkpt>
    <trkpt lat="33.65499" lon="-116.62949"><ele>1491.0</ele></trkpt>
    <trkpt lat="33.65514" lon="-116.62934"><ele>1491.0</ele></trkpt>
    <trkpt lat="33.65526" lon="-116.62922"><ele>1491.0</ele></trkpt>
    <trkpt lat="33.65533" lon="-116.62917"><ele>1491.0</ele></trkpt>
    <trkpt lat="33.65551" lon="-116.62909"><ele>1491.0</ele></trkpt>
    <trkpt lat="33.65572" lon="-116.62900"><ele>1494.0</ele></trkpt>
    <trkpt lat="33.65597" lon="-116.62883"><ele>1494.0</ele></trkpt>
    <trkpt lat="33.65617" lon="-116.62873"><ele>1494.0</ele></trkpt>
    <trkpt lat="33.65634" lon="-116.62864"><ele>1494.0</ele></trkpt>
    <trkpt lat="33.65652" lon="-116.62853"><ele>1494.0</ele></trkpt>
    <trkpt lat="33.65670" lon="-116.62840"><ele>1502.0</ele></trkpt>
    <trkpt lat="33.65686" lon="-116.62824"><ele>1502.0</ele></trkpt>
    <trkpt lat="33.65707" lon="-116.62803"><ele>1502.0</ele></trkpt>
    <trkpt lat="33.65736" lon="-116.62776"><ele>1502.0</ele></trkpt>
    <trkpt lat="33.65780" lon="-116.62725"><ele>1502.0</ele></trkpt>
    <trkpt lat="33.65787" lon="-116.62721"><ele>1501.0</ele></trkpt>
    <trkpt lat="33.65796" lon="-116.62717"><ele>1501.0</ele></trkpt>
    <trkpt lat="33.65808" lon="-116.62715"><ele>1501.0</ele></trkpt>
    <trkpt lat="33.65817" lon="-116.62712"><ele>1501.0</ele></trkpt>
    <trkpt lat="33.65829" lon="-116.62701"><ele>1501.0</ele></trkpt>
    <trkpt lat="33.65847" lon="-116.62684"><ele>1497.0</ele></trkpt>
    <trkpt lat="33.65859" lon="-116.62674"><ele>1497.0</ele></trkpt>
    <trkpt lat="33.65880" lon="-116.62660"><ele>1497.0</ele></trkpt>
    <trkpt lat="33.65899" lon="-116.62643"><ele>1497.0</ele></trkpt>
    <trkpt lat="33.65921" lon="-116.62625"><ele>1497.0</ele></trkpt>
    <trkpt lat="33.65931" lon="-116.62619"><ele>1494.0</ele></trkpt>
    <trkpt lat="33.65941" lon="-116.62608"><ele>1494.0</ele></trkpt>
    <trkpt lat="33.65952" lon="-116.62595"><ele>1494.0</ele></trkpt>
    <trkpt lat="33.65967" lon="-116.62582"><ele>1494.0</ele></trkpt>
    <trkpt lat="33.65977" lon="-116.62573"><ele>1494.0</ele></trkpt>
    <trkpt lat="33.65990" lon="-116.62554"><ele>1494.0</ele></trkpt>
    <trkpt lat="33.66006" lon="-116.62533"><ele>1497.0</ele></trkpt>
    <trkpt lat="33.66015" lon="-116.62521"><ele>1497.0</ele></trkpt>
    <trkpt lat="33.66019" lon="-116.62511"><ele>1497.0</ele></trkpt>
    <trkpt lat="33.66022" lon="-116.62499"><ele>1497.0</ele></trkpt>
    <trkpt lat="33.66023" lon="-116.62490"><ele>1497.0</ele></trkpt>
    <trkpt lat="33.66023" lon="-116.62475"><ele>1499.0</ele></trkpt>
    <trkpt lat="33.66023" lon="-116.62461"><ele>1499.0</ele></trkpt>
    <trkpt lat="33.66024" lon="-116.62450"><ele>1499.0</ele></trkpt>
    <trkpt lat="33.66028" lon="-116.62441"><ele>1499.0</ele></trkpt>
    <trkpt lat="33.66035" lon="-116.62430"><ele>1499.0</ele></trkpt>
    <trkpt lat="33.66038" lon="-116.62428"><ele>1498.0</ele></trkpt>
    <trkpt lat="33.66045" lon="-116.62423"><ele>1498.0</ele></trkpt>
    <trkpt lat="33.66071" lon="-116.62404"><ele>1498.0</ele></trkpt>
    <trkpt lat="33.66080" lon="-116.62399"><ele>1498.0</ele></trkpt>
    <trkpt lat="33.66087" lon="-116.62398"><ele>1498.0</ele></trkpt>
    <trkpt lat="33.66097" lon="-116.62399"><ele>1494.0</ele></trkpt>
    <trkpt lat="33.66129" lon="-116.62405"><ele>1494.0</ele></trkpt>
    <trkpt lat="33.66142" lon="-116.62407"><ele>1494.0</ele></trkpt>
    <trkpt lat="33.66154" lon="-116.62407"><ele>1494.0</ele></trkpt>
    <trkpt lat="33.66170" lon="-116.62403"><ele>1494.0</ele></trkpt>
    <trkpt lat="33.66179" lon="-116.62398"><ele>1495.0</ele></trkpt>
    <trkpt lat="33.66188" lon="-116.62390"><ele>1495.0</ele></trkpt>
    <trkpt lat="33.66196" lon="-116.62384"><ele>1495.0</ele></trkpt>
    <trkpt lat="33.66201" lon="-116.62383"><ele>1495.0</ele></trkpt>
    <trkpt lat="33.66209" lon="-116.62385"><ele>1495.0</ele></trkpt>
    <trkpt lat="33.66219" lon="-116.62389"><ele>1494.0</ele></trkpt>
    <trkpt lat="33.66227" lon="-116.62392"><ele>1494.0</ele></trkpt>
    <trkpt lat="33.66241" lon="-116.62391"><ele>1494.0</ele></trkpt>
    <trkpt lat="33.66258" lon="-116.62388"><ele>1494.0</ele></trkpt>
    <trkpt lat="33.66276" lon="-116.62380"><ele>1494.0</ele></trkpt>
    <trkpt lat="33.66293" lon="-116.62375"><ele>1497.0</ele></trkpt>
    <trkpt lat="33.66308" lon="-116.62373"><ele>1497.0</ele></trkpt>
    <trkpt lat="33.66333" lon="-116.62368"><ele>1497.0</ele></trkpt>
    <trkpt lat="33.66363" lon="-116.62363"><ele>1497.0</ele></trkpt>
    <trkpt lat="33.66428" lon="-116.62350"><ele>1497.0</ele></trkpt>
    <trkpt lat="33.66446" lon="-116.62347"><ele>1497.0</ele></trkpt>
    <trkpt lat="33.66460" lon="-116.62346"><ele>1497.0</ele></trkpt>
    <trkpt lat="33.66474" lon="-116.62347"><ele>1497.0</ele></trkpt>
    <trkpt lat="33.66482" lon="-116.62350"><ele>1497.0</ele></trkpt>
    <trkpt lat="33.66488" lon="-116.62353"><ele>1497.0</ele></trkpt>
    <trkpt lat="33.66492" lon="-116.62355"><ele>1496.0</ele></trkpt>
    <trkpt lat="33.66500" lon="-116.62354"><ele>1496.0</ele></trkpt>
    <trkpt lat="33.66510" lon="-116.62353"><ele>1496.0</ele></trkpt>
    <trkpt lat="33.66515" lon="-116.62354"><ele>1496.0</ele></trkpt>
    <trkpt lat="33.66519" lon="-116.62356"><ele>1496.0</ele></trkpt>
    <trkpt lat="33.66523" lon="-116.62359"><ele>1495.0</ele></trkpt>
    <trkpt lat="33.66526" lon="-116.62363"><ele>1495.0</ele></trkpt>
    <trkpt lat="33.66527" lon="-116.62371"><ele>1495.0</ele></trkpt>
    <trkpt lat="33.66531" lon="-116.62391"><ele>1495.0</ele></trkpt>
    <trkpt lat="33.66535" lon="-116.62405"><ele>1495.0</ele></trkpt>
    <trkpt lat="33.66539" lon="-116.62414"><ele>1491.0</ele></trkpt>
    <trkpt lat="33.66544" lon="-116.62421"><ele>1491.0</ele></trkpt>
    <trkpt lat="33.66551" lon="-116.62426"><ele>1491.0</ele></trkpt>
    <trkpt lat="33.66560" lon="-116.62431"><ele>1491.0</ele></trkpt>
    <trkpt lat="33.66572" lon="-116.62434"><ele>1491.0</ele></trkpt>
    <trkpt lat="33.66596" lon="-116.62436"><ele>1490.0</ele></trkpt>
    <trkpt lat="33.66604" lon="-116.62436"><ele>1490.0</ele></trkpt>
    <trkpt lat="33.66612" lon="-116.62437"><ele>1490.0</ele></trkpt>
    <trkpt lat="33.66621" lon="-116.62439"><ele>1490.0</ele></trkpt>
    <trkpt lat="33.66628" lon="-116.62443"><ele>1490.0</ele></trkpt>
    <trkpt lat="33.66637" lon="-116.62446"><ele>1490.0</ele></trkpt>
    <trkpt lat="33.66647" lon="-116.62449"><ele>1491.0</ele></trkpt>
    <trkpt lat="33.66658" lon="-116.62452"><ele>1491.0</ele></trkpt>
    <trkpt lat="33.66664" lon="-116.62451"><ele>1491.0</ele></trkpt>
    <trkpt lat="33.66670" lon="-116.62448"><ele>1491.0</ele></trkpt>
    <trkpt lat="33.66686" lon="-116.62437"><ele>1491.0</ele></trkpt>
    <trkpt lat="33.66704" lon="-116.62426"><ele>1496.0</ele></trkpt>
    <trkpt lat="33.66720" lon="-116.62416"><ele>1496.0</ele></trkpt>
    <trkpt lat="33.66728" lon="-116.62412"><ele>1496.0</ele></trkpt>
    <trkpt lat="33.66739" lon="-116.62407"><ele>1496.0</ele></trkpt>
    <trkpt lat="33.66755" lon="-116.62402"><ele>1496.0</ele></trkpt>
    <trkpt lat="33.66777" lon="-116.62395"><ele>1500.0</ele></trkpt>
    <trkpt lat="33.66793" lon="-116.62388"><ele>1500.0</ele></trkpt>
    <trkpt lat="33.66829" lon="-116.62376"><ele>1500.0</ele></trkpt>
    <trkpt lat="33.66840" lon="-116.62373"><ele>1500.0</ele></trkpt>
    <trkpt lat="33.66864" lon="-116.62366"><ele>1500.0</ele></trkpt>
    <trkpt lat="33.66883" lon="-116.62362"><ele>1508.0</ele></trkpt>
    <trkpt lat="33.66891" lon="-116.62361"><ele>1508.0</ele></trkpt>
    <trkpt lat="33.66921" lon="-116.62358"><ele>1508.0</ele></trkpt>
    <trkpt lat="33.66926" lon="-116.62357"><ele>1508.0</ele></trkpt>
    <trkpt lat="33.66933" lon="-116.62353"><ele>1508.0</ele></trkpt>
    <trkpt lat="33.66943" lon="-116.62347"><ele>1510.0</ele></trkpt>
    <trkpt lat="33.66948" lon="-116.62345"><ele>1510.0</ele></trkpt>
    <trkpt lat="33.66954" lon="-116.62344"><ele>1510.0</ele></trkpt>
    <trkpt lat="33.66960" lon="-116.62343"><ele>1510.0</ele></trkpt>
    <trkpt lat="33.66978" lon="-116.62341"><ele>1510.0</ele></trkpt>
    <trkpt lat="33.67006" lon="-116.62339"><ele>1514.0</ele></trkpt>
    <trkpt lat="33.67030" lon="-116.62338"><ele>1514.0</ele></trkpt>
    <trkpt lat="33.67043" lon="-116.62339"><ele>1514.0</ele></trkpt>
    <trkpt lat="33.67060" lon="-116.62341"><ele>1514.0</ele></trkpt>
    <trkpt lat="33.67068" lon="-116.62341"><ele>1514.0</ele></trkpt>
    <trkpt lat="33.67073" lon="-116.62339"><ele>1514.0</ele></trkpt>
    <trkpt lat="33.67077" lon="-116.62337"><ele>1514.0</ele></trkpt>
    <trkpt lat="33.67080" lon="-116.62334"><ele>1514.0</ele></trkpt>
    <trkpt lat="33.67084" lon="-116.62330"><ele>1514.0</ele></trkpt>
    <trkpt lat="33.67089" lon="-116.62323"><ele>1514.0</ele></trkpt>
    <trkpt lat="33.67095" lon="-116.62311"><ele>1515.0</ele></trkpt>
    <trkpt lat="33.67100" lon="-116.62304"><ele>1515.0</ele></trkpt>
    <trkpt lat="33.67104" lon="-116.62300"><ele>1515.0</ele></trkpt>
    <trkpt lat="33.67108" lon="-116.62299"><ele>1515.0</ele></trkpt>
    <trkpt lat="33.67114" lon="-116.62297"><ele>1515.0</ele></trkpt>
    <trkpt lat="33.67123" lon="-116.62298"><ele>1518.0</ele></trkpt>
    <trkpt lat="33.67133" lon="-116.62299"><ele>1518.0</ele></trkpt>
    <trkpt lat="33.67141" lon="-116.62299"><ele>1518.0</ele></trkpt>
    <trkpt lat="33.67153" lon="-116.62296"><ele>1518.0</ele></trkpt>
    <trkpt lat="33.67168" lon="-116.62294"><ele>1518.0</ele></trkpt>
    <trkpt lat="33.67181" lon="-116.62289"><ele>1523.0</ele></trkpt>
    <trkpt lat="33.67193" lon="-116.62285"><ele>1523.0</ele></trkpt>
    <trkpt lat="33.67212" lon="-116.62278"><ele>1523.0</ele></trkpt>
    <trkpt lat="33.67224" lon="-116.62273"><ele>1523.0</ele></trkpt>
    <trkpt lat="33.67230" lon="-116.62269"><ele>1523.0</ele></trkpt>
    <trkpt lat="33.67240" lon="-116.62261"><ele>1523.0</ele></trkpt>
    <trkpt lat="33.67246" lon="-116.62257"><ele>1523.0</ele></trkpt>
    <trkpt lat="33.67254" lon="-116.62252"><ele>1523.0</ele></trkpt>
    <trkpt lat="33.67266" lon="-116.62244"><ele>1523.0</ele></trkpt>
    <trkpt lat="33.67279" lon="-116.62237"><ele>1523.0</ele></trkpt>
    <trkpt lat="33.67289" lon="-116.62230"><ele>1523.0</ele></trkpt>
    <trkpt lat="33.67302" lon="-116.62221"><ele>1524.0</ele></trkpt>
    <trkpt lat="33.67311" lon="-116.62216"><ele>1524.0</ele></trkpt>
    <trkpt lat="33.67318" lon="-116.62214"><ele>1524.0</ele></trkpt>
    <trkpt lat="33.67326" lon="-116.62211"><ele>1524.0</ele></trkpt>
    <trkpt lat="33.67332" lon="-116.62207"><ele>1524.0</ele></trkpt>
    <trkpt lat="33.67338" lon="-116.62201"><ele>1524.0</ele></trkpt>
    <trkpt lat="33.67343" lon="-116.62194"><ele>1524.0</ele></trkpt>
    <trkpt lat="33.67347" lon="-116.62187"><ele>1524.0</ele></trkpt>
    <trkpt lat="33.67349" lon="-116.62177"><ele>1524.0</ele></trkpt>
    <trkpt lat="33.67351" lon="-116.62166"><ele>1524.0</ele></trkpt>
    <trkpt lat="33.67356" lon="-116.62137"><ele>1524.0</ele></trkpt>
    <trkpt lat="33.67359" lon="-116.62113"><ele>1524.0</ele></trkpt>
    <trkpt lat="33.67363" lon="-116.62085"><ele>1524.0</ele></trkpt>
    <trkpt lat="33.67367" lon="-116.62060"><ele>1524.0</ele></trkpt>
    <trkpt lat="33.67369" lon="-116.62050"><ele>1524.0</ele></trkpt>
    <trkpt lat="33.67372" lon="-116.62042"><ele>1531.0</ele></trkpt>
    <trkpt lat="33.67379" lon="-116.62033"><ele>1531.0</ele></trkpt>
    <trkpt lat="33.67391" lon="-116.62020"><ele>1531.0</ele></trkpt>
    <trkpt lat="33.67399" lon="-116.62014"><ele>1531.0</ele></trkpt>
    <trkpt lat="33.67404" lon="-116.62012"><ele>1531.0</ele></trkpt>
    <trkpt lat="33.67411" lon="-116.62011"><ele>1533.0</ele></trkpt>
    <trkpt lat="33.67422" lon="-116.62009"><ele>1533.0</ele></trkpt>
    <trkpt lat="33.67431" lon="-116.62006"><ele>1533.0</ele></trkpt>
    <trkpt lat="33.67441" lon="-116.62003"><ele>1533.0</ele></trkpt>
    <trkpt lat="33.67453" lon="-116.61997"><ele>1533.0</ele></trkpt>
    <trkpt lat="33.67475" lon="-116.61986"><ele>1537.0</ele></trkpt>
    <trkpt lat="33.67498" lon="-116.61972"><ele>1537.0</ele></trkpt>
    <trkpt lat="33.67519" lon="-116.61958"><ele>1537.0</ele></trkpt>
    <trkpt lat="33.67532" lon="-116.61950"><ele>1537.0</ele></trkpt>
    <trkpt lat="33.67562" lon="-116.61936"><ele>1537.0</ele></trkpt>
    <trkpt lat="33.67567" lon="-116.61933"><ele>1543.0</ele></trkpt>
    <trkpt lat="33.67590" lon="-116.61929"><ele>1543.0</ele></trkpt>
    <trkpt lat="33.67608" lon="-116.61926"><ele>1543.0</ele></trkpt>
    <trkpt lat="33.67620" lon="-116.61925"><ele>1543.0</ele></trkpt>
    <trkpt lat="33.67640" lon="-116.61917"><ele>1543.0</ele></trkpt>
    <trkpt lat="33.67671" lon="-116.61900"><ele>1550.0</ele></trkpt>
    <trkpt lat="33.67684" lon="-116.61897"><ele>1550.0</ele></trkpt>
    <trkpt lat="33.67690" lon="-116.61893"><ele>1550.0</ele></trkpt>
    <trkpt lat="33.67694" lon="-116.61887"><ele>1550.0</ele></trkpt>
    <trkpt lat="33.67698" lon="-116.61881"><ele>1550.0</ele></trkpt>
    <trkpt lat="33.67702" lon="-116.61878"><ele>1551.0</ele></trkpt>
    <trkpt lat="33.67706" lon="-116.61877"><ele>1551.0</ele></trkpt>
    <trkpt lat="33.67710" lon="-116.61877"><ele>1551.0</ele></trkpt>
    <trkpt lat="33.67715" lon="-116.61878"><ele>1551.0</ele></trkpt>
    <trkpt lat="33.67719" lon="-116.61880"><ele>1551.0</ele></trkpt>
    <trkpt lat="33.67723" lon="-116.61883"><ele>1553.0</ele></trkpt>
    <trkpt lat="33.67727" lon="-116.61888"><ele>1553.0</ele></trkpt>
    <trkpt lat="33.67736" lon="-116.61890"><ele>1553.0</ele></trkpt>
    <trkpt lat="33.67747" lon="-116.61892"><ele>1553.0</ele></trkpt>
    <trkpt lat="33.67759" lon="-116.61893"><ele>1553.0</ele></trkpt>
    <trkpt lat="33.67773" lon="-116.61895"><ele>1557.0</ele></trkpt>
    <trkpt lat="33.67779" lon="-116.61893"><ele>1557.0</ele></trkpt>
    <trkpt lat="33.67786" lon="-116.61890"><ele>1557.0</ele></trkpt>
    <trkpt lat="33.67792" lon="-116.61886"><ele>1557.0</ele></trkpt>
    <trkpt lat="33.67797" lon="-116.61879"><ele>1557.0</ele></trkpt>
    <trkpt lat="33.67802" lon="-116.61872"><ele>1557.0</ele></trkpt>
    <trkpt lat="33.67807" lon="-116.61864"><ele>1558.0</ele></trkpt>
    <trkpt lat="33.67815" lon="-116.61855"><ele>1558.0</ele></trkpt>
    <trkpt lat="33.67821" lon="-116.61848"><ele>1558.0</ele></trkpt>
    <trkpt lat="33.67824" lon="-116.61840"><ele>1558.0</ele></trkpt>
    <trkpt lat="33.67826" lon="-116.61831"><ele>1558.0</ele></trkpt>
    <trkpt lat="33.67825" lon="-116.61826"><ele>1559.0</ele></trkpt>
    <trkpt lat="33.67822" lon="-116.61820"><ele>1559.0</ele></trkpt>
    <trkpt lat="33.67819" lon="-116.61815"><ele>1559.0</ele></trkpt>
    <trkpt lat="33.67814" lon="-116.61808"><ele>1559.0</ele></trkpt>
    <trkpt lat="33.67807" lon="-116.61802"><ele>1559.0</ele></trkpt>
    <trkpt lat="33.67799" lon="-116.61799"><ele>1557.0</ele></trkpt>
    <trkpt lat="33.67789" lon="-116.61796"><ele>1557.0</ele></trkpt>
    <trkpt lat="33.67784" lon="-116.61793"><ele>1557.0</ele></trkpt>
    <trkpt lat="33.67782" lon="-116.61789"><ele>1557.0</ele></trkpt>
    <trkpt lat="33.67781" lon="-116.61785"><ele>1557.0</ele></trkpt>
    <trkpt lat="33.67781" lon="-116.61779"><ele>1559.0</ele></trkpt>
    <trkpt lat="33.67784" lon="-116.61774"><ele>1559.0</ele></trkpt>
    <trkpt lat="33.67787" lon="-116.61770"><ele>1559.0</ele></trkpt>
    <trkpt lat="33.67791" lon="-116.61767"><ele>1559.0</ele></trkpt>
    <trkpt lat="33.67795" lon="-116.61766"><ele>1559.0</ele></trkpt>
    <trkpt lat="33.67802" lon="-116.61764"><ele>1562.0</ele></trkpt>
    <trkpt lat="33.67814" lon="-116.61764"><ele>1562.0</ele></trkpt>
    <trkpt lat="33.67819" lon="-116.61762"><ele>1562.0</ele></trkpt>
    <trkpt lat="33.67824" lon="-116.61760"><ele>1562.0</ele></trkpt>
    <trkpt lat="33.67828" lon="-116.61758"><ele>1562.0</ele></trkpt>
    <trkpt lat="33.67831" lon="-116.61754"><ele>1565.0</ele></trkpt>
    <trkpt lat="33.67833" lon="-116.61750"><ele>1565.0</ele></trkpt>
    <trkpt lat="33.67834" lon="-116.61744"><ele>1565.0</ele></trkpt>
    <trkpt lat="33.67834" lon="-116.61739"><ele>1565.0</ele></trkpt>
    <trkpt lat="33.67833" lon="-116.61735"><ele>1565.0</ele></trkpt>
    <trkpt lat="33.67831" lon="-116.61730"><ele>1566.0</ele></trkpt>
    <trkpt lat="33.67828" lon="-116.61727"><ele>1566.0</ele></trkpt>
    <trkpt lat="33.67823" lon="-116.61724"><ele>1566.0</ele></trkpt>
    <trkpt lat="33.67817" lon="-116.61721"><ele>1566.0</ele></trkpt>
    <trkpt lat="33.67808" lon="-116.61719"><ele>1566.0</ele></trkpt>
    <trkpt lat="33.67802" lon="-116.61718"><ele>1564.0</ele></trkpt>
    <trkpt lat="33.67796" lon="-116.61715"><ele>1564.0</ele></trkpt>
    <trkpt lat="33.67790" lon="-116.61709"><ele>1564.0</ele></trkpt>
    <trkpt lat="33.67782" lon="-116.61701"><ele>1564.0</ele></trkpt>
    <trkpt lat="33.67780" lon="-116.61695"><ele>1564.0</ele></trkpt>
    <trkpt lat="33.67778" lon="-116.61691"><ele>1565.0</ele></trkpt>
    <trkpt lat="33.67778" lon="-116.61687"><ele>1565.0</ele></trkpt>
    <trkpt lat="33.67778" lon="-116.61683"><ele>1565.0</ele></trkpt>
    <trkpt lat="33.67779" lon="-116.61678"><ele>1565.0</ele></trkpt>
    <trkpt lat="33.67780" lon="-116.61673"><ele>1565.0</ele></trkpt>
    <trkpt lat="33.67784" lon="-116.61664"><ele>1571.0</ele></trkpt>
    <trkpt lat="33.67790" lon="-116.61654"><ele>1571.0</ele></trkpt>
    <trkpt lat="33.67801" lon="-116.61637"><ele>1571.0</ele></trkpt>
    <trkpt lat="33.67809" lon="-116.61626"><ele>1571.0</ele></trkpt>
    <trkpt lat="33.67816" lon="-116.61617"><ele>1571.0</ele></trkpt>
    <trkpt lat="33.67821" lon="-116.61615"><ele>1575.0</ele></trkpt>
    <trkpt lat="33.67826" lon="-116.61614"><ele>1575.0</ele></trkpt>
    <trkpt lat="33.67832" lon="-116.61613"><ele>1575.0</ele></trkpt>
    <trkpt lat="33.67840" lon="-116.61613"><ele>1575.0</ele></trkpt>
    <trkpt lat="33.67845" lon="-116.61613"><ele>1575.0</ele></trkpt>
    <trkpt lat="33.67849" lon="-116.61610"><ele>1575.0</ele></trkpt>
    <trkpt lat="33.67852" lon="-116.61606"><ele>1582.0</ele></trkpt>
    <trkpt lat="33.67855" lon="-116.61601"><ele>1582.0</ele></trkpt>
    <trkpt lat="33.67861" lon="-116.61587"><ele>1582.0</ele></trkpt>
    <trkpt lat="33.67871" lon="-116.61565"><ele>1582.0</ele></trkpt>
    <trkpt lat="33.67876" lon="-116.61555"><ele>1582.0</ele></trkpt>
    <trkpt lat="33.67878" lon="-116.61548"><ele>1587.0</ele></trkpt>
    <trkpt lat="33.67880" lon="-116.61541"><ele>1587.0</ele></trkpt>
    <trkpt lat="33.67881" lon="-116.61533"><ele>1587.0</ele></trkpt>
    <trkpt lat="33.67882" lon="-116.61523"><ele>1587.0</ele></trkpt>
    <trkpt lat="33.67883" lon="-116.61512"><ele>1587.0</ele></trkpt>
    <trkpt lat="33.67884" lon="-116.61499"><ele>1589.0</ele></trkpt>
    <trkpt lat="33.67884" lon="-116.61485"><ele>1589.0</ele></trkpt>
    <trkpt lat="33.67884" lon="-116.61475"><ele>1589.0</ele></trkpt>
    <trkpt lat="33.67885" lon="-116.61461"><ele>1589.0</ele></trkpt>
    <trkpt lat="33.67886" lon="-116.61453"><ele>1589.0</ele></trkpt>
    <trkpt lat="33.67888" lon="-116.61444"><ele>1592.0</ele></trkpt>
    <trkpt lat="33.67891" lon="-116.61436"><ele>1592.0</ele></trkpt>
    <trkpt lat="33.67896" lon="-116.61429"><ele>1592.0</ele></trkpt>
    <trkpt lat="33.67902" lon="-116.61424"><ele>1592.0</ele></trkpt>
    <trkpt lat="33.67909" lon="-116.61418"><ele>1592.0</ele></trkpt>
    <trkpt lat="33.67915" lon="-116.61415"><ele>1596.0</ele></trkpt>
    <trkpt lat="33.67922" lon="-116.61414"><ele>1596.0</ele></trkpt>
    <trkpt lat="33.67928" lon="-116.61414"><ele>1596.0</ele></trkpt>
    <trkpt lat="33.67933" lon="-116.61418"><ele>1596.0</ele></trkpt>
    <trkpt lat="33.67936" lon="-116.61422"><ele>1596.0</ele></trkpt>
    <trkpt lat="33.67938" lon="-116.61425"><ele>1597.0</ele></trkpt>
    <trkpt lat="33.67938" lon="-116.61425"><ele>1597.0</ele></trkpt>
    <trkpt lat="33.67939" lon="-116.61428"><ele>1597.0</ele></trkpt>
  </trkseg></trk>
</gpx>
