<?xml version="1.0" encoding="UTF-8"?>
<gpx version="1.1" creator="dirt-bikes build-area-routes (MVUM geometry + SRTM elevation)" xmlns="http://www.topografix.com/GPX/1/1">
  <trk><name>Frazier Mountain OHV</name><trkseg>
    <trkpt lat="34.78441" lon="-119.00302"><ele>1909.0</ele></trkpt>
    <trkpt lat="34.78429" lon="-119.00317"><ele>1909.0</ele></trkpt>
    <trkpt lat="34.78409" lon="-119.00340"><ele>1916.0</ele></trkpt>
    <trkpt lat="34.78398" lon="-119.00349"><ele>1916.0</ele></trkpt>
    <trkpt lat="34.78388" lon="-119.00348"><ele>1916.0</ele></trkpt>
    <trkpt lat="34.78380" lon="-119.00339"><ele>1916.0</ele></trkpt>
    <trkpt lat="34.78378" lon="-119.00330"><ele>1926.0</ele></trkpt>
    <trkpt lat="34.78377" lon="-119.00305"><ele>1926.0</ele></trkpt>
    <trkpt lat="34.78382" lon="-119.00264"><ele>1926.0</ele></trkpt>
    <trkpt lat="34.78394" lon="-119.00232"><ele>1927.0</ele></trkpt>
    <trkpt lat="34.78400" lon="-119.00211"><ele>1927.0</ele></trkpt>
    <trkpt lat="34.78410" lon="-119.00172"><ele>1927.0</ele></trkpt>
    <trkpt lat="34.78415" lon="-119.00146"><ele>1928.0</ele></trkpt>
    <trkpt lat="34.78414" lon="-119.00130"><ele>1928.0</ele></trkpt>
    <trkpt lat="34.78410" lon="-119.00118"><ele>1928.0</ele></trkpt>
    <trkpt lat="34.78399" lon="-119.00095"><ele>1928.0</ele></trkpt>
    <trkpt lat="34.78389" lon="-119.00085"><ele>1941.0</ele></trkpt>
    <trkpt lat="34.78370" lon="-119.00073"><ele>1941.0</ele></trkpt>
    <trkpt lat="34.78359" lon="-119.00065"><ele>1941.0</ele></trkpt>
    <trkpt lat="34.78352" lon="-119.00058"><ele>1948.0</ele></trkpt>
    <trkpt lat="34.78347" lon="-119.00049"><ele>1948.0</ele></trkpt>
    <trkpt lat="34.78346" lon="-119.00033"><ele>1948.0</ele></trkpt>
    <trkpt lat="34.78350" lon="-119.00000"><ele>1955.0</ele></trkpt>
    <trkpt lat="34.78356" lon="-118.99970"><ele>1955.0</ele></trkpt>
    <trkpt lat="34.78361" lon="-118.99953"><ele>1955.0</ele></trkpt>
    <trkpt lat="34.78372" lon="-118.99941"><ele>1955.0</ele></trkpt>
    <trkpt lat="34.78395" lon="-118.99931"><ele>1953.0</ele></trkpt>
    <trkpt lat="34.78425" lon="-118.99917"><ele>1953.0</ele></trkpt>
    <trkpt lat="34.78449" lon="-118.99907"><ele>1953.0</ele></trkpt>
    <trkpt lat="34.78465" lon="-118.99900"><ele>1953.0</ele></trkpt>
    <trkpt lat="34.78476" lon="-118.99895"><ele>1953.0</ele></trkpt>
    <trkpt lat="34.78489" lon="-118.99880"><ele>1953.0</ele></trkpt>
    <trkpt lat="34.78498" lon="-118.99863"><ele>1963.0</ele></trkpt>
    <trkpt lat="34.78508" lon="-118.99844"><ele>1963.0</ele></trkpt>
    <trkpt lat="34.78514" lon="-118.99831"><ele>1963.0</ele></trkpt>
    <trkpt lat="34.78524" lon="-118.99824"><ele>1963.0</ele></trkpt>
    <trkpt lat="34.78546" lon="-118.99814"><ele>1963.0</ele></trkpt>
    <trkpt lat="34.78559" lon="-118.99806"><ele>1963.0</ele></trkpt>
    <trkpt lat="34.78570" lon="-118.99788"><ele>1963.0</ele></trkpt>
    <trkpt lat="34.78577" lon="-118.99772"><ele>1974.0</ele></trkpt>
    <trkpt lat="34.78588" lon="-118.99750"><ele>1974.0</ele></trkpt>
    <trkpt lat="34.78594" lon="-118.99738"><ele>1974.0</ele></trkpt>
    <trkpt lat="34.78613" lon="-118.99726"><ele>1973.0</ele></trkpt>
    <trkpt lat="34.78640" lon="-118.99717"><ele>1973.0</ele></trkpt>
    <trkpt lat="34.78657" lon="-118.99710"><ele>1973.0</ele></trkpt>
    <trkpt lat="34.78662" lon="-118.99701"><ele>1973.0</ele></trkpt>
    <trkpt lat="34.78670" lon="-118.99686"><ele>1980.0</ele></trkpt>
    <trkpt lat="34.78671" lon="-118.99660"><ele>1980.0</ele></trkpt>
    <trkpt lat="34.78670" lon="-118.99641"><ele>1980.0</ele></trkpt>
    <trkpt lat="34.78665" lon="-118.99592"><ele>1989.0</ele></trkpt>
    <trkpt lat="34.78661" lon="-118.99550"><ele>1989.0</ele></trkpt>
    <trkpt lat="34.78655" lon="-118.99512"><ele>1989.0</ele></trkpt>
    <trkpt lat="34.78643" lon="-118.99498"><ele>1998.0</ele></trkpt>
    <trkpt lat="34.78631" lon="-118.99479"><ele>1998.0</ele></trkpt>
    <trkpt lat="34.78605" lon="-118.99452"><ele>1998.0</ele></trkpt>
    <trkpt lat="34.78592" lon="-118.99430"><ele>1998.0</ele></trkpt>
    <trkpt lat="34.78589" lon="-118.99418"><ele>2006.0</ele></trkpt>
    <trkpt lat="34.78594" lon="-118.99406"><ele>2006.0</ele></trkpt>
    <trkpt lat="34.78609" lon="-118.99394"><ele>2006.0</ele></trkpt>
    <trkpt lat="34.78634" lon="-118.99386"><ele>2006.0</ele></trkpt>
    <trkpt lat="34.78642" lon="-118.99370"><ele>2006.0</ele></trkpt>
    <trkpt lat="34.78647" lon="-118.99344"><ele>2006.0</ele></trkpt>
    <trkpt lat="34.78647" lon="-118.99325"><ele>2018.0</ele></trkpt>
    <trkpt lat="34.78648" lon="-118.99276"><ele>2018.0</ele></trkpt>
    <trkpt lat="34.78652" lon="-118.99245"><ele>2018.0</ele></trkpt>
    <trkpt lat="34.78656" lon="-118.99206"><ele>2018.0</ele></trkpt>
    <trkpt lat="34.78667" lon="-118.99176"><ele>2027.0</ele></trkpt>
    <trkpt lat="34.78672" lon="-118.99157"><ele>2027.0</ele></trkpt>
    <trkpt lat="34.78674" lon="-118.99147"><ele>2027.0</ele></trkpt>
    <trkpt lat="34.78671" lon="-118.99144"><ele>2030.0</ele></trkpt>
    <trkpt lat="34.78667" lon="-118.99143"><ele>2030.0</ele></trkpt>
    <trkpt lat="34.78653" lon="-118.99158"><ele>2030.0</ele></trkpt>
    <trkpt lat="34.78645" lon="-118.99170"><ele>2035.0</ele></trkpt>
    <trkpt lat="34.78628" lon="-118.99196"><ele>2035.0</ele></trkpt>
    <trkpt lat="34.78622" lon="-118.99208"><ele>2035.0</ele></trkpt>
    <trkpt lat="34.78607" lon="-118.99226"><ele>2035.0</ele></trkpt>
    <trkpt lat="34.78602" lon="-118.99235"><ele>2037.0</ele></trkpt>
    <trkpt lat="34.78585" lon="-118.99251"><ele>2037.0</ele></trkpt>
    <trkpt lat="34.78581" lon="-118.99256"><ele>2037.0</ele></trkpt>
    <trkpt lat="34.78566" lon="-118.99263"><ele>2038.0</ele></trkpt>
    <trkpt lat="34.78559" lon="-118.99264"><ele>2038.0</ele></trkpt>
    <trkpt lat="34.78539" lon="-118.99258"><ele>2038.0</ele></trkpt>
    <trkpt lat="34.78511" lon="-118.99235"><ele>2051.0</ele></trkpt>
    <trkpt lat="34.78505" lon="-118.99231"><ele>2051.0</ele></trkpt>
    <trkpt lat="34.78497" lon="-118.99228"><ele>2051.0</ele></trkpt>
    <trkpt lat="34.78492" lon="-118.99229"><ele>2051.0</ele></trkpt>
    <trkpt lat="34.78479" lon="-118.99252"><ele>2053.0</ele></trkpt>
    <trkpt lat="34.78472" lon="-118.99274"><ele>2053.0</ele></trkpt>
    <trkpt lat="34.78461" lon="-118.99303"><ele>2053.0</ele></trkpt>
    <trkpt lat="34.78458" lon="-118.99319"><ele>2054.0</ele></trkpt>
    <trkpt lat="34.78443" lon="-118.99359"><ele>2054.0</ele></trkpt>
    <trkpt lat="34.78440" lon="-118.99376"><ele>2054.0</ele></trkpt>
    <trkpt lat="34.78428" lon="-118.99409"><ele>2059.0</ele></trkpt>
    <trkpt lat="34.78422" lon="-118.99422"><ele>2059.0</ele></trkpt>
    <trkpt lat="34.78409" lon="-118.99453"><ele>2059.0</ele></trkpt>
    <trkpt lat="34.78401" lon="-118.99468"><ele>2059.0</ele></trkpt>
    <trkpt lat="34.78389" lon="-118.99485"><ele>2063.0</ele></trkpt>
    <trkpt lat="34.78372" lon="-118.99496"><ele>2063.0</ele></trkpt>
    <trkpt lat="34.78365" lon="-118.99498"><ele>2063.0</ele></trkpt>
    <trkpt lat="34.78341" lon="-118.99499"><ele>2071.0</ele></trkpt>
    <trkpt lat="34.78333" lon="-118.99497"><ele>2071.0</ele></trkpt>
    <trkpt lat="34.78307" lon="-118.99483"><ele>2071.0</ele></trkpt>
    <trkpt lat="34.78295" lon="-118.99479"><ele>2081.0</ele></trkpt>
    <trkpt lat="34.78277" lon="-118.99471"><ele>2081.0</ele></trkpt>
    <trkpt lat="34.78269" lon="-118.99468"><ele>2081.0</ele></trkpt>
    <trkpt lat="34.78260" lon="-118.99465"><ele>2081.0</ele></trkpt>
    <trkpt lat="34.78247" lon="-118.99469"><ele>2086.0</ele></trkpt>
    <trkpt lat="34.78239" lon="-118.99476"><ele>2086.0</ele></trkpt>
    <trkpt lat="34.78221" lon="-118.99496"><ele>2086.0</ele></trkpt>
    <trkpt lat="34.78215" lon="-118.99511"><ele>2088.0</ele></trkpt>
    <trkpt lat="34.78209" lon="-118.99538"><ele>2088.0</ele></trkpt>
    <trkpt lat="34.78203" lon="-118.99578"><ele>2088.0</ele></trkpt>
    <trkpt lat="34.78191" lon="-118.99614"><ele>2087.0</ele></trkpt>
    <trkpt lat="34.78183" lon="-118.99637"><ele>2087.0</ele></trkpt>
    <trkpt lat="34.78164" lon="-118.99650"><ele>2087.0</ele></trkpt>
    <trkpt lat="34.78156" lon="-118.99650"><ele>2087.0</ele></trkpt>
    <trkpt lat="34.78126" lon="-118.99646"><ele>2102.0</ele></trkpt>
    <trkpt lat="34.78094" lon="-118.99645"><ele>2102.0</ele></trkpt>
    <trkpt lat="34.78083" lon="-118.99648"><ele>2102.0</ele></trkpt>
    <trkpt lat="34.78060" lon="-118.99652"><ele>2106.0</ele></trkpt>
    <trkpt lat="34.78051" lon="-118.99653"><ele>2106.0</ele></trkpt>
    <trkpt lat="34.78026" lon="-118.99655"><ele>2106.0</ele></trkpt>
    <trkpt lat="34.78019" lon="-118.99656"><ele>2113.0</ele></trkpt>
    <trkpt lat="34.77990" lon="-118.99649"><ele>2113.0</ele></trkpt>
    <trkpt lat="34.77983" lon="-118.99640"><ele>2113.0</ele></trkpt>
    <trkpt lat="34.77980" lon="-118.99633"><ele>2113.0</ele></trkpt>
    <trkpt lat="34.77982" lon="-118.99629"><ele>2114.0</ele></trkpt>
    <trkpt lat="34.78011" lon="-118.99627"><ele>2114.0</ele></trkpt>
    <trkpt lat="34.78035" lon="-118.99612"><ele>2114.0</ele></trkpt>
    <trkpt lat="34.78051" lon="-118.99599"><ele>2118.0</ele></trkpt>
    <trkpt lat="34.78062" lon="-118.99571"><ele>2118.0</ele></trkpt>
    <trkpt lat="34.78072" lon="-118.99543"><ele>2118.0</ele></trkpt>
    <trkpt lat="34.78077" lon="-118.99513"><ele>2128.0</ele></trkpt>
    <trkpt lat="34.78090" lon="-118.99477"><ele>2128.0</ele></trkpt>
    <trkpt lat="34.78102" lon="-118.99436"><ele>2128.0</ele></trkpt>
    <trkpt lat="34.78118" lon="-118.99404"><ele>2128.0</ele></trkpt>
    <trkpt lat="34.78129" lon="-118.99376"><ele>2136.0</ele></trkpt>
    <trkpt lat="34.78141" lon="-118.99356"><ele>2136.0</ele></trkpt>
    <trkpt lat="34.78147" lon="-118.99341"><ele>2136.0</ele></trkpt>
    <trkpt lat="34.78165" lon="-118.99310"><ele>2142.0</ele></trkpt>
    <trkpt lat="34.78182" lon="-118.99288"><ele>2142.0</ele></trkpt>
    <trkpt lat="34.78202" lon="-118.99267"><ele>2142.0</ele></trkpt>
    <trkpt lat="34.78228" lon="-118.99237"><ele>2146.0</ele></trkpt>
    <trkpt lat="34.78244" lon="-118.99211"><ele>2146.0</ele></trkpt>
    <trkpt lat="34.78255" lon="-118.99187"><ele>2146.0</ele></trkpt>
    <trkpt lat="34.78257" lon="-118.99174"><ele>2146.0</ele></trkpt>
    <trkpt lat="34.78256" lon="-118.99158"><ele>2155.0</ele></trkpt>
    <trkpt lat="34.78253" lon="-118.99135"><ele>2155.0</ele></trkpt>
    <trkpt lat="34.78251" lon="-118.99117"><ele>2155.0</ele></trkpt>
    <trkpt lat="34.78232" lon="-118.99082"><ele>2165.0</ele></trkpt>
    <trkpt lat="34.78225" lon="-118.99058"><ele>2165.0</ele></trkpt>
    <trkpt lat="34.78222" lon="-118.99032"><ele>2165.0</ele></trkpt>
    <trkpt lat="34.78224" lon="-118.98981"><ele>2165.0</ele></trkpt>
    <trkpt lat="34.78221" lon="-118.98952"><ele>2173.0</ele></trkpt>
    <trkpt lat="34.78219" lon="-118.98945"><ele>2173.0</ele></trkpt>
    <trkpt lat="34.78214" lon="-118.98939"><ele>2173.0</ele></trkpt>
    <trkpt lat="34.78195" lon="-118.98921"><ele>2180.0</ele></trkpt>
    <trkpt lat="34.78188" lon="-118.98919"><ele>2180.0</ele></trkpt>
    <trkpt lat="34.78180" lon="-118.98926"><ele>2180.0</ele></trkpt>
    <trkpt lat="34.78175" lon="-118.98938"><ele>2180.0</ele></trkpt>
    <trkpt lat="34.78175" lon="-118.98952"><ele>2180.0</ele></trkpt>
    <trkpt lat="34.78174" lon="-118.98972"><ele>2180.0</ele></trkpt>
    <trkpt lat="34.78171" lon="-118.99023"><ele>2180.0</ele></trkpt>
    <trkpt lat="34.78172" lon="-118.99051"><ele>2177.0</ele></trkpt>
    <trkpt lat="34.78171" lon="-118.99063"><ele>2177.0</ele></trkpt>
    <trkpt lat="34.78167" lon="-118.99085"><ele>2177.0</ele></trkpt>
    <trkpt lat="34.78159" lon="-118.99101"><ele>2178.0</ele></trkpt>
    <trkpt lat="34.78154" lon="-118.99111"><ele>2178.0</ele></trkpt>
    <trkpt lat="34.78139" lon="-118.99123"><ele>2178.0</ele></trkpt>
    <trkpt lat="34.78131" lon="-118.99126"><ele>2182.0</ele></trkpt>
    <trkpt lat="34.78125" lon="-118.99123"><ele>2182.0</ele></trkpt>
    <trkpt lat="34.78122" lon="-118.99113"><ele>2182.0</ele></trkpt>
    <trkpt lat="34.78119" lon="-118.99102"><ele>2182.0</ele></trkpt>
    <trkpt lat="34.78115" lon="-118.99088"><ele>2189.0</ele></trkpt>
    <trkpt lat="34.78118" lon="-118.99042"><ele>2189.0</ele></trkpt>
    <trkpt lat="34.78119" lon="-118.99001"><ele>2189.0</ele></trkpt>
    <trkpt lat="34.78119" lon="-118.98968"><ele>2192.0</ele></trkpt>
    <trkpt lat="34.78116" lon="-118.98953"><ele>2192.0</ele></trkpt>
    <trkpt lat="34.78104" lon="-118.98929"><ele>2192.0</ele></trkpt>
    <trkpt lat="34.78096" lon="-118.98912"><ele>2198.0</ele></trkpt>
    <trkpt lat="34.78095" lon="-118.98886"><ele>2198.0</ele></trkpt>
    <trkpt lat="34.78094" lon="-118.98860"><ele>2198.0</ele></trkpt>
    <trkpt lat="34.78100" lon="-118.98839"><ele>2198.0</ele></trkpt>
    <trkpt lat="34.78118" lon="-118.98810"><ele>2210.0</ele></trkpt>
    <trkpt lat="34.78130" lon="-118.98780"><ele>2210.0</ele></trkpt>
    <trkpt lat="34.78130" lon="-118.98758"><ele>2210.0</ele></trkpt>
    <trkpt lat="34.78127" lon="-118.98739"><ele>2220.0</ele></trkpt>
    <trkpt lat="34.78122" lon="-118.98716"><ele>2220.0</ele></trkpt>
    <trkpt lat="34.78113" lon="-118.98708"><ele>2220.0</ele></trkpt>
    <trkpt lat="34.78096" lon="-118.98688"><ele>2224.0</ele></trkpt>
    <trkpt lat="34.78092" lon="-118.98672"><ele>2224.0</ele></trkpt>
    <trkpt lat="34.78097" lon="-118.98653"><ele>2224.0</ele></trkpt>
    <trkpt lat="34.78113" lon="-118.98629"><ele>2224.0</ele></trkpt>
    <trkpt lat="34.78130" lon="-118.98606"><ele>2236.0</ele></trkpt>
    <trkpt lat="34.78159" lon="-118.98582"><ele>2236.0</ele></trkpt>
    <trkpt lat="34.78185" lon="-118.98563"><ele>2236.0</ele></trkpt>
    <trkpt lat="34.78212" lon="-118.98543"><ele>2242.0</ele></trkpt>
    <trkpt lat="34.78234" lon="-118.98524"><ele>2242.0</ele></trkpt>
    <trkpt lat="34.78266" lon="-118.98492"><ele>2242.0</ele></trkpt>
    <trkpt lat="34.78277" lon="-118.98479"><ele>2244.0</ele></trkpt>
    <trkpt lat="34.78291" lon="-118.98461"><ele>2244.0</ele></trkpt>
    <trkpt lat="34.78292" lon="-118.98437"><ele>2244.0</ele></trkpt>
    <trkpt lat="34.78290" lon="-118.98415"><ele>2244.0</ele></trkpt>
    <trkpt lat="34.78284" lon="-118.98400"><ele>2256.0</ele></trkpt>
    <trkpt lat="34.78274" lon="-118.98387"><ele>2256.0</ele></trkpt>
    <trkpt lat="34.78258" lon="-118.98361"><ele>2256.0</ele></trkpt>
    <trkpt lat="34.78249" lon="-118.98344"><ele>2268.0</ele></trkpt>
    <trkpt lat="34.78247" lon="-118.98331"><ele>2268.0</ele></trkpt>
    <trkpt lat="34.78246" lon="-118.98310"><ele>2268.0</ele></trkpt>
    <trkpt lat="34.78242" lon="-118.98272"><ele>2273.0</ele></trkpt>
    <trkpt lat="34.78237" lon="-118.98263"><ele>2273.0</ele></trkpt>
    <trkpt lat="34.78222" lon="-118.98236"><ele>2273.0</ele></trkpt>
    <trkpt lat="34.78211" lon="-118.98215"><ele>2273.0</ele></trkpt>
    <trkpt lat="34.78200" lon="-118.98198"><ele>2283.0</ele></trkpt>
    <trkpt lat="34.78183" lon="-118.98167"><ele>2283.0</ele></trkpt>
    <trkpt lat="34.78173" lon="-118.98139"><ele>2283.0</ele></trkpt>
    <trkpt lat="34.78165" lon="-118.98119"><ele>2286.0</ele></trkpt>
    <trkpt lat="34.78158" lon="-118.98093"><ele>2286.0</ele></trkpt>
    <trkpt lat="34.78154" lon="-118.98062"><ele>2286.0</ele></trkpt>
    <trkpt lat="34.78153" lon="-118.98023"><ele>2290.0</ele></trkpt>
    <trkpt lat="34.78155" lon="-118.97994"><ele>2290.0</ele></trkpt>
    <trkpt lat="34.78153" lon="-118.97957"><ele>2290.0</ele></trkpt>
    <trkpt lat="34.78153" lon="-118.97931"><ele>2290.0</ele></trkpt>
    <trkpt lat="34.78151" lon="-118.97915"><ele>2298.0</ele></trkpt>
    <trkpt lat="34.78146" lon="-118.97898"><ele>2298.0</ele></trkpt>
    <trkpt lat="34.78131" lon="-118.97900"><ele>2298.0</ele></trkpt>
    <trkpt lat="34.78098" lon="-118.97903"><ele>2303.0</ele></trkpt>
    <trkpt lat="34.78071" lon="-118.97906"><ele>2303.0</ele></trkpt>
    <trkpt lat="34.78042" lon="-118.97905"><ele>2303.0</ele></trkpt>
    <trkpt lat="34.78033" lon="-118.97903"><ele>2308.0</ele></trkpt>
    <trkpt lat="34.78017" lon="-118.97895"><ele>2308.0</ele></trkpt>
    <trkpt lat="34.78009" lon="-118.97888"><ele>2308.0</ele></trkpt>
    <trkpt lat="34.77984" lon="-118.97872"><ele>2308.0</ele></trkpt>
    <trkpt lat="34.77965" lon="-118.97860"><ele>2326.0</ele></trkpt>
    <trkpt lat="34.77956" lon="-118.97864"><ele>2326.0</ele></trkpt>
    <trkpt lat="34.77950" lon="-118.97881"><ele>2326.0</ele></trkpt>
    <trkpt lat="34.77947" lon="-118.97904"><ele>2321.0</ele></trkpt>
    <trkpt lat="34.77941" lon="-118.97931"><ele>2321.0</ele></trkpt>
    <trkpt lat="34.77931" lon="-118.97945"><ele>2321.0</ele></trkpt>
    <trkpt lat="34.77908" lon="-118.97957"><ele>2328.0</ele></trkpt>
    <trkpt lat="34.77900" lon="-118.97964"><ele>2328.0</ele></trkpt>
    <trkpt lat="34.77891" lon="-118.97977"><ele>2328.0</ele></trkpt>
    <trkpt lat="34.77879" lon="-118.98009"><ele>2328.0</ele></trkpt>
    <trkpt lat="34.77863" lon="-118.98028"><ele>2323.0</ele></trkpt>
    <trkpt lat="34.77843" lon="-118.98045"><ele>2323.0</ele></trkpt>
    <trkpt lat="34.77828" lon="-118.98050"><ele>2323.0</ele></trkpt>
    <trkpt lat="34.77809" lon="-118.98045"><ele>2324.0</ele></trkpt>
    <trkpt lat="34.77802" lon="-118.98043"><ele>2324.0</ele></trkpt>
    <trkpt lat="34.77780" lon="-118.98019"><ele>2324.0</ele></trkpt>
    <trkpt lat="34.77766" lon="-118.98001"><ele>2339.0</ele></trkpt>
    <trkpt lat="34.77741" lon="-118.97971"><ele>2339.0</ele></trkpt>
    <trkpt lat="34.77728" lon="-118.97945"><ele>2339.0</ele></trkpt>
    <trkpt lat="34.77709" lon="-118.97922"><ele>2339.0</ele></trkpt>
    <trkpt lat="34.77692" lon="-118.97907"><ele>2351.0</ele></trkpt>
    <trkpt lat="34.77673" lon="-118.97896"><ele>2351.0</ele></trkpt>
    <trkpt lat="34.77651" lon="-118.97887"><ele>2351.0</ele></trkpt>
    <trkpt lat="34.77615" lon="-118.97871"><ele>2359.0</ele></trkpt>
    <trkpt lat="34.77588" lon="-118.97852"><ele>2359.0</ele></trkpt>
    <trkpt lat="34.77558" lon="-118.97832"><ele>2359.0</ele></trkpt>
    <trkpt lat="34.77550" lon="-118.97827"><ele>2363.0</ele></trkpt>
    <trkpt lat="34.77528" lon="-118.97805"><ele>2363.0</ele></trkpt>
    <trkpt lat="34.77511" lon="-118.97780"><ele>2363.0</ele></trkpt>
    <trkpt lat="34.77491" lon="-118.97750"><ele>2363.0</ele></trkpt>
    <trkpt lat="34.77482" lon="-118.97739"><ele>2374.0</ele></trkpt>
    <trkpt lat="34.77469" lon="-118.97731"><ele>2374.0</ele></trkpt>
    <trkpt lat="34.77442" lon="-118.97714"><ele>2374.0</ele></trkpt>
    <trkpt lat="34.77417" lon="-118.97696"><ele>2375.0</ele></trkpt>
    <trkpt lat="34.77407" lon="-118.97689"><ele>2375.0</ele></trkpt>
    <trkpt lat="34.77389" lon="-118.97672"><ele>2375.0</ele></trkpt>
    <trkpt lat="34.77381" lon="-118.97659"><ele>2378.0</ele></trkpt>
    <trkpt lat="34.77374" lon="-118.97643"><ele>2378.0</ele></trkpt>
    <trkpt lat="34.77369" lon="-118.97629"><ele>2378.0</ele></trkpt>
    <trkpt lat="34.77364" lon="-118.97604"><ele>2378.0</ele></trkpt>
    <trkpt lat="34.77363" lon="-118.97574"><ele>2388.0</ele></trkpt>
    <trkpt lat="34.77368" lon="-118.97545"><ele>2388.0</ele></trkpt>
    <trkpt lat="34.77376" lon="-118.97518"><ele>2388.0</ele></trkpt>
    <trkpt lat="34.77384" lon="-118.97495"><ele>2397.0</ele></trkpt>
    <trkpt lat="34.77385" lon="-118.97483"><ele>2397.0</ele></trkpt>
    <trkpt lat="34.77382" lon="-118.97470"><ele>2397.0</ele></trkpt>
    <trkpt lat="34.77375" lon="-118.97454"><ele>2398.0</ele></trkpt>
    <trkpt lat="34.77370" lon="-118.97432"><ele>2398.0</ele></trkpt>
    <trkpt lat="34.77364" lon="-118.97415"><ele>2398.0</ele></trkpt>
    <trkpt lat="34.77366" lon="-118.97382"><ele>2398.0</ele></trkpt>
    <trkpt lat="34.77366" lon="-118.97349"><ele>2409.0</ele></trkpt>
    <trkpt lat="34.77367" lon="-118.97307"><ele>2409.0</ele></trkpt>
    <trkpt lat="34.77370" lon="-118.97277"><ele>2409.0</ele></trkpt>
    <trkpt lat="34.77372" lon="-118.97229"><ele>2414.0</ele></trkpt>
    <trkpt lat="34.77372" lon="-118.97185"><ele>2414.0</ele></trkpt>
    <trkpt lat="34.77374" lon="-118.97158"><ele>2414.0</ele></trkpt>
    <trkpt lat="34.77380" lon="-118.97121"><ele>2418.0</ele></trkpt>
    <trkpt lat="34.77386" lon="-118.97108"><ele>2418.0</ele></trkpt>
    <trkpt lat="34.77403" lon="-118.97086"><ele>2418.0</ele></trkpt>
    <trkpt lat="34.77425" lon="-118.97068"><ele>2418.0</ele></trkpt>
    <trkpt lat="34.77455" lon="-118.97049"><ele>2432.0</ele></trkpt>
    <trkpt lat="34.77486" lon="-118.97025"><ele>2432.0</ele></trkpt>
    <trkpt lat="34.77513" lon="-118.97011"><ele>2432.0</ele></trkpt>
    <trkpt lat="34.77532" lon="-118.96997"><ele>2435.0</ele></trkpt>
    <trkpt lat="34.77543" lon="-118.96976"><ele>2435.0</ele></trkpt>
  </trkseg></trk>
</gpx>
