<?xml version="1.0" encoding="UTF-8"?>
<gpx version="1.1" creator="dirt-bikes build-area-routes (MVUM geometry + SRTM elevation)" xmlns="http://www.topografix.com/GPX/1/1">
  <trk><name>Happy Canyon Road</name><trkseg>
    <trkpt lat="34.74278" lon="-120.02904"><ele>748.0</ele></trkpt>
    <trkpt lat="34.74277" lon="-120.02879"><ele>748.0</ele></trkpt>
    <trkpt lat="34.74275" lon="-120.02852"><ele>748.0</ele></trkpt>
    <trkpt lat="34.74281" lon="-120.02815"><ele>748.0</ele></trkpt>
    <trkpt lat="34.74286" lon="-120.02798"><ele>748.0</ele></trkpt>
    <trkpt lat="34.74294" lon="-120.02776"><ele>747.0</ele></trkpt>
    <trkpt lat="34.74297" lon="-120.02763"><ele>747.0</ele></trkpt>
    <trkpt lat="34.74299" lon="-120.02734"><ele>747.0</ele></trkpt>
    <trkpt lat="34.74305" lon="-120.02708"><ele>747.0</ele></trkpt>
    <trkpt lat="34.74310" lon="-120.02694"><ele>747.0</ele></trkpt>
    <trkpt lat="34.74307" lon="-120.02686"><ele>747.0</ele></trkpt>
    <trkpt lat="34.74302" lon="-120.02677"><ele>747.0</ele></trkpt>
    <trkpt lat="34.74293" lon="-120.02667"><ele>747.0</ele></trkpt>
    <trkpt lat="34.74286" lon="-120.02657"><ele>747.0</ele></trkpt>
    <trkpt lat="34.74274" lon="-120.02640"><ele>748.0</ele></trkpt>
    <trkpt lat="34.74271" lon="-120.02627"><ele>748.0</ele></trkpt>
    <trkpt lat="34.74267" lon="-120.02614"><ele>748.0</ele></trkpt>
    <trkpt lat="34.74253" lon="-120.02588"><ele>748.0</ele></trkpt>
    <trkpt lat="34.74249" lon="-120.02582"><ele>748.0</ele></trkpt>
    <trkpt lat="34.74232" lon="-120.02551"><ele>748.0</ele></trkpt>
    <trkpt lat="34.74222" lon="-120.02535"><ele>748.0</ele></trkpt>
    <trkpt lat="34.74205" lon="-120.02500"><ele>748.0</ele></trkpt>
    <trkpt lat="34.74199" lon="-120.02480"><ele>748.0</ele></trkpt>
    <trkpt lat="34.74194" lon="-120.02462"><ele>758.0</ele></trkpt>
    <trkpt lat="34.74191" lon="-120.02443"><ele>758.0</ele></trkpt>
    <trkpt lat="34.74188" lon="-120.02423"><ele>758.0</ele></trkpt>
    <trkpt lat="34.74189" lon="-120.02394"><ele>758.0</ele></trkpt>
    <trkpt lat="34.74186" lon="-120.02384"><ele>758.0</ele></trkpt>
    <trkpt lat="34.74182" lon="-120.02376"><ele>758.0</ele></trkpt>
    <trkpt lat="34.74167" lon="-120.02359"><ele>758.0</ele></trkpt>
    <trkpt lat="34.74156" lon="-120.02349"><ele>758.0</ele></trkpt>
    <trkpt lat="34.74133" lon="-120.02323"><ele>758.0</ele></trkpt>
    <trkpt lat="34.74119" lon="-120.02296"><ele>767.0</ele></trkpt>
    <trkpt lat="34.74106" lon="-120.02266"><ele>767.0</ele></trkpt>
    <trkpt lat="34.74106" lon="-120.02229"><ele>767.0</ele></trkpt>
    <trkpt lat="34.74106" lon="-120.02188"><ele>767.0</ele></trkpt>
    <trkpt lat="34.74109" lon="-120.02145"><ele>767.0</ele></trkpt>
    <trkpt lat="34.74111" lon="-120.02126"><ele>767.0</ele></trkpt>
    <trkpt lat="34.74113" lon="-120.02115"><ele>767.0</ele></trkpt>
    <trkpt lat="34.74125" lon="-120.02094"><ele>767.0</ele></trkpt>
    <trkpt lat="34.74133" lon="-120.02078"><ele>767.0</ele></trkpt>
    <trkpt lat="34.74150" lon="-120.02064"><ele>791.0</ele></trkpt>
    <trkpt lat="34.74163" lon="-120.02046"><ele>791.0</ele></trkpt>
    <trkpt lat="34.74167" lon="-120.02034"><ele>791.0</ele></trkpt>
    <trkpt lat="34.74168" lon="-120.02024"><ele>791.0</ele></trkpt>
    <trkpt lat="34.74167" lon="-120.02014"><ele>791.0</ele></trkpt>
    <trkpt lat="34.74159" lon="-120.01981"><ele>791.0</ele></trkpt>
    <trkpt lat="34.74157" lon="-120.01968"><ele>791.0</ele></trkpt>
    <trkpt lat="34.74151" lon="-120.01942"><ele>791.0</ele></trkpt>
    <trkpt lat="34.74149" lon="-120.01914"><ele>791.0</ele></trkpt>
    <trkpt lat="34.74148" lon="-120.01880"><ele>791.0</ele></trkpt>
    <trkpt lat="34.74148" lon="-120.01856"><ele>816.0</ele></trkpt>
    <trkpt lat="34.74151" lon="-120.01821"><ele>816.0</ele></trkpt>
    <trkpt lat="34.74154" lon="-120.01804"><ele>816.0</ele></trkpt>
    <trkpt lat="34.74168" lon="-120.01776"><ele>816.0</ele></trkpt>
    <trkpt lat="34.74172" lon="-120.01762"><ele>816.0</ele></trkpt>
    <trkpt lat="34.74175" lon="-120.01733"><ele>816.0</ele></trkpt>
    <trkpt lat="34.74175" lon="-120.01713"><ele>816.0</ele></trkpt>
    <trkpt lat="34.74184" lon="-120.01673"><ele>816.0</ele></trkpt>
    <trkpt lat="34.74186" lon="-120.01647"><ele>816.0</ele></trkpt>
    <trkpt lat="34.74197" lon="-120.01606"><ele>828.0</ele></trkpt>
    <trkpt lat="34.74200" lon="-120.01592"><ele>828.0</ele></trkpt>
    <trkpt lat="34.74199" lon="-120.01583"><ele>828.0</ele></trkpt>
    <trkpt lat="34.74197" lon="-120.01576"><ele>828.0</ele></trkpt>
    <trkpt lat="34.74194" lon="-120.01572"><ele>828.0</ele></trkpt>
    <trkpt lat="34.74174" lon="-120.01563"><ele>828.0</ele></trkpt>
    <trkpt lat="34.74168" lon="-120.01560"><ele>828.0</ele></trkpt>
    <trkpt lat="34.74150" lon="-120.01548"><ele>828.0</ele></trkpt>
    <trkpt lat="34.74142" lon="-120.01541"><ele>828.0</ele></trkpt>
    <trkpt lat="34.74125" lon="-120.01525"><ele>855.0</ele></trkpt>
    <trkpt lat="34.74117" lon="-120.01511"><ele>855.0</ele></trkpt>
    <trkpt lat="34.74104" lon="-120.01481"><ele>855.0</ele></trkpt>
    <trkpt lat="34.74098" lon="-120.01460"><ele>855.0</ele></trkpt>
    <trkpt lat="34.74091" lon="-120.01441"><ele>855.0</ele></trkpt>
    <trkpt lat="34.74091" lon="-120.01425"><ele>855.0</ele></trkpt>
    <trkpt lat="34.74095" lon="-120.01410"><ele>855.0</ele></trkpt>
    <trkpt lat="34.74102" lon="-120.01394"><ele>855.0</ele></trkpt>
    <trkpt lat="34.74112" lon="-120.01379"><ele>855.0</ele></trkpt>
    <trkpt lat="34.74117" lon="-120.01366"><ele>857.0</ele></trkpt>
    <trkpt lat="34.74120" lon="-120.01349"><ele>857.0</ele></trkpt>
    <trkpt lat="34.74120" lon="-120.01339"><ele>857.0</ele></trkpt>
    <trkpt lat="34.74121" lon="-120.01312"><ele>857.0</ele></trkpt>
    <trkpt lat="34.74121" lon="-120.01300"><ele>857.0</ele></trkpt>
    <trkpt lat="34.74119" lon="-120.01289"><ele>857.0</ele></trkpt>
    <trkpt lat="34.74113" lon="-120.01279"><ele>857.0</ele></trkpt>
    <trkpt lat="34.74096" lon="-120.01249"><ele>857.0</ele></trkpt>
    <trkpt lat="34.74089" lon="-120.01232"><ele>857.0</ele></trkpt>
    <trkpt lat="34.74094" lon="-120.01209"><ele>868.0</ele></trkpt>
    <trkpt lat="34.74106" lon="-120.01178"><ele>868.0</ele></trkpt>
    <trkpt lat="34.74104" lon="-120.01165"><ele>868.0</ele></trkpt>
    <trkpt lat="34.74099" lon="-120.01154"><ele>868.0</ele></trkpt>
    <trkpt lat="34.74089" lon="-120.01149"><ele>868.0</ele></trkpt>
    <trkpt lat="34.74082" lon="-120.01154"><ele>868.0</ele></trkpt>
    <trkpt lat="34.74075" lon="-120.01168"><ele>868.0</ele></trkpt>
    <trkpt lat="34.74064" lon="-120.01188"><ele>868.0</ele></trkpt>
    <trkpt lat="34.74061" lon="-120.01209"><ele>868.0</ele></trkpt>
    <trkpt lat="34.74058" lon="-120.01235"><ele>879.0</ele></trkpt>
    <trkpt lat="34.74060" lon="-120.01255"><ele>879.0</ele></trkpt>
    <trkpt lat="34.74062" lon="-120.01288"><ele>879.0</ele></trkpt>
    <trkpt lat="34.74062" lon="-120.01319"><ele>879.0</ele></trkpt>
    <trkpt lat="34.74062" lon="-120.01339"><ele>879.0</ele></trkpt>
    <trkpt lat="34.74054" lon="-120.01359"><ele>879.0</ele></trkpt>
    <trkpt lat="34.74043" lon="-120.01372"><ele>879.0</ele></trkpt>
    <trkpt lat="34.74029" lon="-120.01376"><ele>879.0</ele></trkpt>
    <trkpt lat="34.74023" lon="-120.01377"><ele>879.0</ele></trkpt>
    <trkpt lat="34.74015" lon="-120.01371"><ele>897.0</ele></trkpt>
    <trkpt lat="34.74009" lon="-120.01356"><ele>897.0</ele></trkpt>
    <trkpt lat="34.74004" lon="-120.01340"><ele>897.0</ele></trkpt>
    <trkpt lat="34.73996" lon="-120.01298"><ele>897.0</ele></trkpt>
    <trkpt lat="34.73994" lon="-120.01272"><ele>897.0</ele></trkpt>
    <trkpt lat="34.73984" lon="-120.01215"><ele>897.0</ele></trkpt>
    <trkpt lat="34.73977" lon="-120.01182"><ele>897.0</ele></trkpt>
    <trkpt lat="34.73965" lon="-120.01148"><ele>897.0</ele></trkpt>
    <trkpt lat="34.73951" lon="-120.01101"><ele>897.0</ele></trkpt>
    <trkpt lat="34.73944" lon="-120.01082"><ele>929.0</ele></trkpt>
    <trkpt lat="34.73940" lon="-120.01059"><ele>929.0</ele></trkpt>
    <trkpt lat="34.73935" lon="-120.01015"><ele>929.0</ele></trkpt>
    <trkpt lat="34.73931" lon="-120.00980"><ele>929.0</ele></trkpt>
    <trkpt lat="34.73921" lon="-120.00937"><ele>929.0</ele></trkpt>
    <trkpt lat="34.73912" lon="-120.00907"><ele>929.0</ele></trkpt>
    <trkpt lat="34.73902" lon="-120.00871"><ele>929.0</ele></trkpt>
    <trkpt lat="34.73891" lon="-120.00857"><ele>929.0</ele></trkpt>
    <trkpt lat="34.73882" lon="-120.00854"><ele>929.0</ele></trkpt>
    <trkpt lat="34.73869" lon="-120.00868"><ele>934.0</ele></trkpt>
    <trkpt lat="34.73853" lon="-120.00892"><ele>934.0</ele></trkpt>
    <trkpt lat="34.73839" lon="-120.00909"><ele>934.0</ele></trkpt>
    <trkpt lat="34.73828" lon="-120.00914"><ele>934.0</ele></trkpt>
    <trkpt lat="34.73814" lon="-120.00913"><ele>934.0</ele></trkpt>
    <trkpt lat="34.73808" lon="-120.00905"><ele>934.0</ele></trkpt>
    <trkpt lat="34.73795" lon="-120.00877"><ele>934.0</ele></trkpt>
    <trkpt lat="34.73788" lon="-120.00854"><ele>934.0</ele></trkpt>
    <trkpt lat="34.73772" lon="-120.00828"><ele>934.0</ele></trkpt>
    <trkpt lat="34.73759" lon="-120.00822"><ele>956.0</ele></trkpt>
    <trkpt lat="34.73736" lon="-120.00814"><ele>956.0</ele></trkpt>
    <trkpt lat="34.73727" lon="-120.00805"><ele>956.0</ele></trkpt>
    <trkpt lat="34.73715" lon="-120.00793"><ele>956.0</ele></trkpt>
    <trkpt lat="34.73704" lon="-120.00792"><ele>956.0</ele></trkpt>
    <trkpt lat="34.73680" lon="-120.00796"><ele>956.0</ele></trkpt>
    <trkpt lat="34.73667" lon="-120.00798"><ele>956.0</ele></trkpt>
    <trkpt lat="34.73657" lon="-120.00794"><ele>956.0</ele></trkpt>
    <trkpt lat="34.73644" lon="-120.00781"><ele>956.0</ele></trkpt>
    <trkpt lat="34.73623" lon="-120.00760"><ele>975.0</ele></trkpt>
    <trkpt lat="34.73614" lon="-120.00740"><ele>975.0</ele></trkpt>
    <trkpt lat="34.73609" lon="-120.00727"><ele>975.0</ele></trkpt>
    <trkpt lat="34.73611" lon="-120.00698"><ele>975.0</ele></trkpt>
    <trkpt lat="34.73608" lon="-120.00681"><ele>975.0</ele></trkpt>
    <trkpt lat="34.73605" lon="-120.00669"><ele>975.0</ele></trkpt>
    <trkpt lat="34.73599" lon="-120.00658"><ele>975.0</ele></trkpt>
    <trkpt lat="34.73590" lon="-120.00643"><ele>975.0</ele></trkpt>
    <trkpt lat="34.73581" lon="-120.00634"><ele>975.0</ele></trkpt>
    <trkpt lat="34.73578" lon="-120.00631"><ele>975.0</ele></trkpt>
    <trkpt lat="34.73562" lon="-120.00627"><ele>981.0</ele></trkpt>
    <trkpt lat="34.73560" lon="-120.00626"><ele>981.0</ele></trkpt>
    <trkpt lat="34.73532" lon="-120.00626"><ele>981.0</ele></trkpt>
    <trkpt lat="34.73511" lon="-120.00628"><ele>981.0</ele></trkpt>
    <trkpt lat="34.73499" lon="-120.00626"><ele>981.0</ele></trkpt>
    <trkpt lat="34.73496" lon="-120.00625"><ele>981.0</ele></trkpt>
    <trkpt lat="34.73481" lon="-120.00619"><ele>981.0</ele></trkpt>
    <trkpt lat="34.73476" lon="-120.00611"><ele>981.0</ele></trkpt>
    <trkpt lat="34.73474" lon="-120.00601"><ele>981.0</ele></trkpt>
    <trkpt lat="34.73477" lon="-120.00582"><ele>993.0</ele></trkpt>
    <trkpt lat="34.73476" lon="-120.00565"><ele>993.0</ele></trkpt>
    <trkpt lat="34.73474" lon="-120.00557"><ele>993.0</ele></trkpt>
    <trkpt lat="34.73471" lon="-120.00551"><ele>993.0</ele></trkpt>
    <trkpt lat="34.73447" lon="-120.00529"><ele>993.0</ele></trkpt>
    <trkpt lat="34.73436" lon="-120.00509"><ele>993.0</ele></trkpt>
    <trkpt lat="34.73434" lon="-120.00498"><ele>993.0</ele></trkpt>
    <trkpt lat="34.73434" lon="-120.00476"><ele>993.0</ele></trkpt>
    <trkpt lat="34.73439" lon="-120.00443"><ele>993.0</ele></trkpt>
    <trkpt lat="34.73442" lon="-120.00397"><ele>1015.0</ele></trkpt>
    <trkpt lat="34.73445" lon="-120.00365"><ele>1015.0</ele></trkpt>
    <trkpt lat="34.73446" lon="-120.00336"><ele>1015.0</ele></trkpt>
    <trkpt lat="34.73444" lon="-120.00313"><ele>1015.0</ele></trkpt>
    <trkpt lat="34.73443" lon="-120.00291"><ele>1015.0</ele></trkpt>
    <trkpt lat="34.73441" lon="-120.00270"><ele>1015.0</ele></trkpt>
    <trkpt lat="34.73443" lon="-120.00249"><ele>1015.0</ele></trkpt>
    <trkpt lat="34.73446" lon="-120.00231"><ele>1015.0</ele></trkpt>
    <trkpt lat="34.73449" lon="-120.00215"><ele>1015.0</ele></trkpt>
    <trkpt lat="34.73452" lon="-120.00202"><ele>1025.0</ele></trkpt>
    <trkpt lat="34.73459" lon="-120.00187"><ele>1025.0</ele></trkpt>
    <trkpt lat="34.73475" lon="-120.00163"><ele>1025.0</ele></trkpt>
    <trkpt lat="34.73501" lon="-120.00119"><ele>1025.0</ele></trkpt>
    <trkpt lat="34.73514" lon="-120.00099"><ele>1025.0</ele></trkpt>
    <trkpt lat="34.73521" lon="-120.00070"><ele>1025.0</ele></trkpt>
    <trkpt lat="34.73529" lon="-120.00051"><ele>1025.0</ele></trkpt>
    <trkpt lat="34.73539" lon="-120.00030"><ele>1025.0</ele></trkpt>
    <trkpt lat="34.73561" lon="-119.99999"><ele>1025.0</ele></trkpt>
    <trkpt lat="34.73569" lon="-119.99986"><ele>1026.0</ele></trkpt>
    <trkpt lat="34.73577" lon="-119.99962"><ele>1026.0</ele></trkpt>
    <trkpt lat="34.73587" lon="-119.99925"><ele>1026.0</ele></trkpt>
    <trkpt lat="34.73596" lon="-119.99892"><ele>1026.0</ele></trkpt>
    <trkpt lat="34.73606" lon="-119.99859"><ele>1026.0</ele></trkpt>
    <trkpt lat="34.73613" lon="-119.99841"><ele>1026.0</ele></trkpt>
    <trkpt lat="34.73624" lon="-119.99815"><ele>1026.0</ele></trkpt>
    <trkpt lat="34.73632" lon="-119.99794"><ele>1026.0</ele></trkpt>
    <trkpt lat="34.73635" lon="-119.99774"><ele>1026.0</ele></trkpt>
    <trkpt lat="34.73630" lon="-119.99743"><ele>1050.0</ele></trkpt>
    <trkpt lat="34.73628" lon="-119.99724"><ele>1050.0</ele></trkpt>
    <trkpt lat="34.73613" lon="-119.99693"><ele>1050.0</ele></trkpt>
    <trkpt lat="34.73609" lon="-119.99684"><ele>1050.0</ele></trkpt>
    <trkpt lat="34.73608" lon="-119.99673"><ele>1050.0</ele></trkpt>
    <trkpt lat="34.73607" lon="-119.99645"><ele>1050.0</ele></trkpt>
    <trkpt lat="34.73610" lon="-119.99635"><ele>1050.0</ele></trkpt>
    <trkpt lat="34.73627" lon="-119.99606"><ele>1050.0</ele></trkpt>
    <trkpt lat="34.73641" lon="-119.99588"><ele>1050.0</ele></trkpt>
    <trkpt lat="34.73655" lon="-119.99570"><ele>1072.0</ele></trkpt>
    <trkpt lat="34.73657" lon="-119.99551"><ele>1072.0</ele></trkpt>
    <trkpt lat="34.73665" lon="-119.99528"><ele>1072.0</ele></trkpt>
    <trkpt lat="34.73679" lon="-119.99501"><ele>1072.0</ele></trkpt>
    <trkpt lat="34.73690" lon="-119.99469"><ele>1072.0</ele></trkpt>
    <trkpt lat="34.73693" lon="-119.99448"><ele>1072.0</ele></trkpt>
    <trkpt lat="34.73695" lon="-119.99423"><ele>1072.0</ele></trkpt>
    <trkpt lat="34.73695" lon="-119.99385"><ele>1072.0</ele></trkpt>
    <trkpt lat="34.73698" lon="-119.99352"><ele>1072.0</ele></trkpt>
    <trkpt lat="34.73707" lon="-119.99299"><ele>1102.0</ele></trkpt>
    <trkpt lat="34.73709" lon="-119.99274"><ele>1102.0</ele></trkpt>
    <trkpt lat="34.73706" lon="-119.99235"><ele>1102.0</ele></trkpt>
    <trkpt lat="34.73702" lon="-119.99214"><ele>1102.0</ele></trkpt>
    <trkpt lat="34.73693" lon="-119.99173"><ele>1102.0</ele></trkpt>
    <trkpt lat="34.73690" lon="-119.99162"><ele>1102.0</ele></trkpt>
    <trkpt lat="34.73682" lon="-119.99142"><ele>1102.0</ele></trkpt>
    <trkpt lat="34.73668" lon="-119.99119"><ele>1102.0</ele></trkpt>
    <trkpt lat="34.73655" lon="-119.99110"><ele>1102.0</ele></trkpt>
    <trkpt lat="34.73650" lon="-119.99101"><ele>1100.0</ele></trkpt>
    <trkpt lat="34.73633" lon="-119.99075"><ele>1100.0</ele></trkpt>
    <trkpt lat="34.73628" lon="-119.99068"><ele>1100.0</ele></trkpt>
    <trkpt lat="34.73619" lon="-119.99042"><ele>1100.0</ele></trkpt>
    <trkpt lat="34.73612" lon="-119.98999"><ele>1100.0</ele></trkpt>
    <trkpt lat="34.73606" lon="-119.98965"><ele>1100.0</ele></trkpt>
    <trkpt lat="34.73605" lon="-119.98923"><ele>1100.0</ele></trkpt>
    <trkpt lat="34.73606" lon="-119.98873"><ele>1100.0</ele></trkpt>
    <trkpt lat="34.73613" lon="-119.98847"><ele>1100.0</ele></trkpt>
    <trkpt lat="34.73618" lon="-119.98830"><ele>1087.0</ele></trkpt>
    <trkpt lat="34.73628" lon="-119.98815"><ele>1087.0</ele></trkpt>
    <trkpt lat="34.73633" lon="-119.98794"><ele>1087.0</ele></trkpt>
    <trkpt lat="34.73636" lon="-119.98781"><ele>1087.0</ele></trkpt>
    <trkpt lat="34.73636" lon="-119.98770"><ele>1087.0</ele></trkpt>
    <trkpt lat="34.73633" lon="-119.98762"><ele>1087.0</ele></trkpt>
    <trkpt lat="34.73622" lon="-119.98750"><ele>1087.0</ele></trkpt>
    <trkpt lat="34.73602" lon="-119.98734"><ele>1087.0</ele></trkpt>
    <trkpt lat="34.73577" lon="-119.98716"><ele>1087.0</ele></trkpt>
    <trkpt lat="34.73558" lon="-119.98701"><ele>1080.0</ele></trkpt>
    <trkpt lat="34.73545" lon="-119.98691"><ele>1080.0</ele></trkpt>
    <trkpt lat="34.73537" lon="-119.98676"><ele>1080.0</ele></trkpt>
    <trkpt lat="34.73517" lon="-119.98639"><ele>1080.0</ele></trkpt>
    <trkpt lat="34.73507" lon="-119.98609"><ele>1080.0</ele></trkpt>
    <trkpt lat="34.73494" lon="-119.98597"><ele>1080.0</ele></trkpt>
    <trkpt lat="34.73474" lon="-119.98584"><ele>1080.0</ele></trkpt>
    <trkpt lat="34.73471" lon="-119.98582"><ele>1080.0</ele></trkpt>
    <trkpt lat="34.73442" lon="-119.98565"><ele>1080.0</ele></trkpt>
    <trkpt lat="34.73439" lon="-119.98564"><ele>1080.0</ele></trkpt>
    <trkpt lat="34.73431" lon="-119.98557"><ele>1078.0</ele></trkpt>
    <trkpt lat="34.73417" lon="-119.98543"><ele>1078.0</ele></trkpt>
    <trkpt lat="34.73409" lon="-119.98529"><ele>1078.0</ele></trkpt>
    <trkpt lat="34.73400" lon="-119.98512"><ele>1078.0</ele></trkpt>
    <trkpt lat="34.73392" lon="-119.98490"><ele>1078.0</ele></trkpt>
    <trkpt lat="34.73382" lon="-119.98473"><ele>1078.0</ele></trkpt>
    <trkpt lat="34.73373" lon="-119.98441"><ele>1078.0</ele></trkpt>
    <trkpt lat="34.73364" lon="-119.98425"><ele>1078.0</ele></trkpt>
    <trkpt lat="34.73340" lon="-119.98401"><ele>1078.0</ele></trkpt>
    <trkpt lat="34.73325" lon="-119.98381"><ele>1073.0</ele></trkpt>
    <trkpt lat="34.73316" lon="-119.98357"><ele>1073.0</ele></trkpt>
    <trkpt lat="34.73313" lon="-119.98352"><ele>1073.0</ele></trkpt>
    <trkpt lat="34.73308" lon="-119.98340"><ele>1073.0</ele></trkpt>
    <trkpt lat="34.73291" lon="-119.98310"><ele>1073.0</ele></trkpt>
    <trkpt lat="34.73283" lon="-119.98297"><ele>1073.0</ele></trkpt>
    <trkpt lat="34.73272" lon="-119.98273"><ele>1073.0</ele></trkpt>
    <trkpt lat="34.73266" lon="-119.98237"><ele>1073.0</ele></trkpt>
    <trkpt lat="34.73257" lon="-119.98203"><ele>1073.0</ele></trkpt>
    <trkpt lat="34.73242" lon="-119.98170"><ele>1071.0</ele></trkpt>
    <trkpt lat="34.73226" lon="-119.98133"><ele>1071.0</ele></trkpt>
    <trkpt lat="34.73218" lon="-119.98107"><ele>1071.0</ele></trkpt>
    <trkpt lat="34.73210" lon="-119.98066"><ele>1071.0</ele></trkpt>
    <trkpt lat="34.73202" lon="-119.98032"><ele>1071.0</ele></trkpt>
    <trkpt lat="34.73200" lon="-119.98009"><ele>1071.0</ele></trkpt>
    <trkpt lat="34.73200" lon="-119.97996"><ele>1071.0</ele></trkpt>
    <trkpt lat="34.73208" lon="-119.97969"><ele>1071.0</ele></trkpt>
    <trkpt lat="34.73221" lon="-119.97931"><ele>1071.0</ele></trkpt>
    <trkpt lat="34.73223" lon="-119.97901"><ele>1094.0</ele></trkpt>
    <trkpt lat="34.73223" lon="-119.97861"><ele>1094.0</ele></trkpt>
    <trkpt lat="34.73223" lon="-119.97829"><ele>1094.0</ele></trkpt>
    <trkpt lat="34.73219" lon="-119.97812"><ele>1094.0</ele></trkpt>
    <trkpt lat="34.73210" lon="-119.97798"><ele>1094.0</ele></trkpt>
    <trkpt lat="34.73193" lon="-119.97774"><ele>1094.0</ele></trkpt>
    <trkpt lat="34.73187" lon="-119.97765"><ele>1094.0</ele></trkpt>
    <trkpt lat="34.73187" lon="-119.97744"><ele>1094.0</ele></trkpt>
    <trkpt lat="34.73184" lon="-119.97727"><ele>1094.0</ele></trkpt>
    <trkpt lat="34.73170" lon="-119.97715"><ele>1093.0</ele></trkpt>
    <trkpt lat="34.73159" lon="-119.97709"><ele>1093.0</ele></trkpt>
    <trkpt lat="34.73145" lon="-119.97697"><ele>1093.0</ele></trkpt>
    <trkpt lat="34.73141" lon="-119.97686"><ele>1093.0</ele></trkpt>
    <trkpt lat="34.73139" lon="-119.97663"><ele>1093.0</ele></trkpt>
    <trkpt lat="34.73140" lon="-119.97633"><ele>1093.0</ele></trkpt>
    <trkpt lat="34.73144" lon="-119.97599"><ele>1093.0</ele></trkpt>
    <trkpt lat="34.73147" lon="-119.97553"><ele>1093.0</ele></trkpt>
    <trkpt lat="34.73145" lon="-119.97541"><ele>1093.0</ele></trkpt>
    <trkpt lat="34.73139" lon="-119.97521"><ele>1120.0</ele></trkpt>
    <trkpt lat="34.73123" lon="-119.97483"><ele>1120.0</ele></trkpt>
    <trkpt lat="34.73111" lon="-119.97465"><ele>1120.0</ele></trkpt>
    <trkpt lat="34.73093" lon="-119.97434"><ele>1120.0</ele></trkpt>
    <trkpt lat="34.73081" lon="-119.97413"><ele>1120.0</ele></trkpt>
    <trkpt lat="34.73068" lon="-119.97373"><ele>1120.0</ele></trkpt>
    <trkpt lat="34.73057" lon="-119.97332"><ele>1120.0</ele></trkpt>
    <trkpt lat="34.73049" lon="-119.97310"><ele>1120.0</ele></trkpt>
    <trkpt lat="34.73038" lon="-119.97262"><ele>1120.0</ele></trkpt>
    <trkpt lat="34.73030" lon="-119.97206"><ele>1148.0</ele></trkpt>
    <trkpt lat="34.73026" lon="-119.97183"><ele>1148.0</ele></trkpt>
    <trkpt lat="34.73016" lon="-119.97166"><ele>1148.0</ele></trkpt>
    <trkpt lat="34.73008" lon="-119.97159"><ele>1148.0</ele></trkpt>
    <trkpt lat="34.72991" lon="-119.97143"><ele>1148.0</ele></trkpt>
    <trkpt lat="34.72982" lon="-119.97124"><ele>1148.0</ele></trkpt>
    <trkpt lat="34.72976" lon="-119.97117"><ele>1148.0</ele></trkpt>
    <trkpt lat="34.72955" lon="-119.97094"><ele>1148.0</ele></trkpt>
    <trkpt lat="34.72943" lon="-119.97084"><ele>1148.0</ele></trkpt>
    <trkpt lat="34.72922" lon="-119.97064"><ele>1161.0</ele></trkpt>
    <trkpt lat="34.72917" lon="-119.97060"><ele>1161.0</ele></trkpt>
    <trkpt lat="34.72899" lon="-119.97048"><ele>1161.0</ele></trkpt>
    <trkpt lat="34.72876" lon="-119.97041"><ele>1161.0</ele></trkpt>
    <trkpt lat="34.72856" lon="-119.97038"><ele>1161.0</ele></trkpt>
    <trkpt lat="34.72849" lon="-119.97037"><ele>1161.0</ele></trkpt>
    <trkpt lat="34.72828" lon="-119.97021"><ele>1161.0</ele></trkpt>
    <trkpt lat="34.72820" lon="-119.97012"><ele>1161.0</ele></trkpt>
    <trkpt lat="34.72794" lon="-119.96992"><ele>1161.0</ele></trkpt>
    <trkpt lat="34.72772" lon="-119.96982"><ele>1172.0</ele></trkpt>
    <trkpt lat="34.72761" lon="-119.96981"><ele>1172.0</ele></trkpt>
    <trkpt lat="34.72738" lon="-119.96986"><ele>1172.0</ele></trkpt>
    <trkpt lat="34.72715" lon="-119.96992"><ele>1172.0</ele></trkpt>
    <trkpt lat="34.72700" lon="-119.96995"><ele>1172.0</ele></trkpt>
    <trkpt lat="34.72680" lon="-119.97006"><ele>1172.0</ele></trkpt>
    <trkpt lat="34.72666" lon="-119.97008"><ele>1172.0</ele></trkpt>
    <trkpt lat="34.72662" lon="-119.97007"><ele>1172.0</ele></trkpt>
    <trkpt lat="34.72647" lon="-119.96999"><ele>1172.0</ele></trkpt>
    <trkpt lat="34.72640" lon="-119.96992"><ele>1179.0</ele></trkpt>
    <trkpt lat="34.72613" lon="-119.96962"><ele>1179.0</ele></trkpt>
    <trkpt lat="34.72580" lon="-119.96922"><ele>1179.0</ele></trkpt>
    <trkpt lat="34.72552" lon="-119.96890"><ele>1179.0</ele></trkpt>
    <trkpt lat="34.72523" lon="-119.96869"><ele>1179.0</ele></trkpt>
    <trkpt lat="34.72500" lon="-119.96850"><ele>1179.0</ele></trkpt>
    <trkpt lat="34.72478" lon="-119.96842"><ele>1179.0</ele></trkpt>
    <trkpt lat="34.72467" lon="-119.96844"><ele>1179.0</ele></trkpt>
    <trkpt lat="34.72445" lon="-119.96842"><ele>1179.0</ele></trkpt>
    <trkpt lat="34.72431" lon="-119.96843"><ele>1202.0</ele></trkpt>
    <trkpt lat="34.72400" lon="-119.96843"><ele>1202.0</ele></trkpt>
    <trkpt lat="34.72391" lon="-119.96843"><ele>1202.0</ele></trkpt>
    <trkpt lat="34.72372" lon="-119.96850"><ele>1202.0</ele></trkpt>
    <trkpt lat="34.72341" lon="-119.96867"><ele>1202.0</ele></trkpt>
    <trkpt lat="34.72312" lon="-119.96883"><ele>1202.0</ele></trkpt>
    <trkpt lat="34.72295" lon="-119.96891"><ele>1202.0</ele></trkpt>
    <trkpt lat="34.72288" lon="-119.96892"><ele>1202.0</ele></trkpt>
    <trkpt lat="34.72266" lon="-119.96893"><ele>1202.0</ele></trkpt>
    <trkpt lat="34.72230" lon="-119.96887"><ele>1202.0</ele></trkpt>
    <trkpt lat="34.72213" lon="-119.96875"><ele>1215.0</ele></trkpt>
    <trkpt lat="34.72204" lon="-119.96863"><ele>1215.0</ele></trkpt>
    <trkpt lat="34.72200" lon="-119.96851"><ele>1215.0</ele></trkpt>
    <trkpt lat="34.72199" lon="-119.96826"><ele>1215.0</ele></trkpt>
    <trkpt lat="34.72200" lon="-119.96804"><ele>1215.0</ele></trkpt>
    <trkpt lat="34.72204" lon="-119.96779"><ele>1215.0</ele></trkpt>
    <trkpt lat="34.72213" lon="-119.96760"><ele>1215.0</ele></trkpt>
    <trkpt lat="34.72218" lon="-119.96743"><ele>1215.0</ele></trkpt>
    <trkpt lat="34.72223" lon="-119.96714"><ele>1215.0</ele></trkpt>
    <trkpt lat="34.72231" lon="-119.96689"><ele>1234.0</ele></trkpt>
    <trkpt lat="34.72235" lon="-119.96673"><ele>1234.0</ele></trkpt>
    <trkpt lat="34.72238" lon="-119.96653"><ele>1234.0</ele></trkpt>
    <trkpt lat="34.72244" lon="-119.96637"><ele>1234.0</ele></trkpt>
    <trkpt lat="34.72252" lon="-119.96618"><ele>1234.0</ele></trkpt>
    <trkpt lat="34.72251" lon="-119.96605"><ele>1234.0</ele></trkpt>
    <trkpt lat="34.72248" lon="-119.96588"><ele>1234.0</ele></trkpt>
    <trkpt lat="34.72239" lon="-119.96563"><ele>1234.0</ele></trkpt>
    <trkpt lat="34.72234" lon="-119.96556"><ele>1234.0</ele></trkpt>
    <trkpt lat="34.72210" lon="-119.96526"><ele>1240.0</ele></trkpt>
    <trkpt lat="34.72196" lon="-119.96501"><ele>1240.0</ele></trkpt>
    <trkpt lat="34.72194" lon="-119.96498"><ele>1240.0</ele></trkpt>
    <trkpt lat="34.72187" lon="-119.96478"><ele>1240.0</ele></trkpt>
    <trkpt lat="34.72174" lon="-119.96426"><ele>1240.0</ele></trkpt>
    <trkpt lat="34.72167" lon="-119.96400"><ele>1240.0</ele></trkpt>
    <trkpt lat="34.72161" lon="-119.96380"><ele>1240.0</ele></trkpt>
    <trkpt lat="34.72156" lon="-119.96370"><ele>1240.0</ele></trkpt>
    <trkpt lat="34.72144" lon="-119.96338"><ele>1240.0</ele></trkpt>
    <trkpt lat="34.72138" lon="-119.96319"><ele>1238.0</ele></trkpt>
    <trkpt lat="34.72132" lon="-119.96286"><ele>1238.0</ele></trkpt>
    <trkpt lat="34.72128" lon="-119.96266"><ele>1238.0</ele></trkpt>
    <trkpt lat="34.72127" lon="-119.96239"><ele>1238.0</ele></trkpt>
    <trkpt lat="34.72124" lon="-119.96217"><ele>1238.0</ele></trkpt>
    <trkpt lat="34.72118" lon="-119.96189"><ele>1238.0</ele></trkpt>
    <trkpt lat="34.72112" lon="-119.96171"><ele>1238.0</ele></trkpt>
    <trkpt lat="34.72100" lon="-119.96146"><ele>1238.0</ele></trkpt>
    <trkpt lat="34.72089" lon="-119.96125"><ele>1238.0</ele></trkpt>
    <trkpt lat="34.72079" lon="-119.96105"><ele>1230.0</ele></trkpt>
    <trkpt lat="34.72073" lon="-119.96092"><ele>1230.0</ele></trkpt>
    <trkpt lat="34.72065" lon="-119.96073"><ele>1230.0</ele></trkpt>
    <trkpt lat="34.72059" lon="-119.96059"><ele>1230.0</ele></trkpt>
    <trkpt lat="34.72055" lon="-119.96040"><ele>1230.0</ele></trkpt>
    <trkpt lat="34.72054" lon="-119.96011"><ele>1230.0</ele></trkpt>
    <trkpt lat="34.72057" lon="-119.95989"><ele>1230.0</ele></trkpt>
    <trkpt lat="34.72063" lon="-119.95968"><ele>1230.0</ele></trkpt>
    <trkpt lat="34.72069" lon="-119.95949"><ele>1230.0</ele></trkpt>
    <trkpt lat="34.72078" lon="-119.95931"><ele>1252.0</ele></trkpt>
    <trkpt lat="34.72089" lon="-119.95908"><ele>1252.0</ele></trkpt>
    <trkpt lat="34.72096" lon="-119.95888"><ele>1252.0</ele></trkpt>
    <trkpt lat="34.72098" lon="-119.95871"><ele>1252.0</ele></trkpt>
    <trkpt lat="34.72096" lon="-119.95841"><ele>1252.0</ele></trkpt>
    <trkpt lat="34.72094" lon="-119.95825"><ele>1252.0</ele></trkpt>
    <trkpt lat="34.72087" lon="-119.95803"><ele>1252.0</ele></trkpt>
    <trkpt lat="34.72072" lon="-119.95782"><ele>1252.0</ele></trkpt>
    <trkpt lat="34.72049" lon="-119.95761"><ele>1252.0</ele></trkpt>
    <trkpt lat="34.72038" lon="-119.95749"><ele>1263.0</ele></trkpt>
    <trkpt lat="34.72038" lon="-119.95749"><ele>1263.0</ele></trkpt>
    <trkpt lat="34.72034" lon="-119.95745"><ele>1263.0</ele></trkpt>
    <trkpt lat="34.72027" lon="-119.95733"><ele>1263.0</ele></trkpt>
    <trkpt lat="34.72012" lon="-119.95702"><ele>1263.0</ele></trkpt>
    <trkpt lat="34.72005" lon="-119.95687"><ele>1263.0</ele></trkpt>
    <trkpt lat="34.72005" lon="-119.95669"><ele>1263.0</ele></trkpt>
    <trkpt lat="34.72006" lon="-119.95643"><ele>1263.0</ele></trkpt>
    <trkpt lat="34.72012" lon="-119.95607"><ele>1263.0</ele></trkpt>
    <trkpt lat="34.72014" lon="-119.95586"><ele>1288.0</ele></trkpt>
    <trkpt lat="34.72015" lon="-119.95576"><ele>1288.0</ele></trkpt>
    <trkpt lat="34.72019" lon="-119.95568"><ele>1288.0</ele></trkpt>
    <trkpt lat="34.72035" lon="-119.95552"><ele>1288.0</ele></trkpt>
    <trkpt lat="34.72052" lon="-119.95533"><ele>1288.0</ele></trkpt>
    <trkpt lat="34.72060" lon="-119.95530"><ele>1288.0</ele></trkpt>
    <trkpt lat="34.72090" lon="-119.95534"><ele>1288.0</ele></trkpt>
    <trkpt lat="34.72113" lon="-119.95530"><ele>1288.0</ele></trkpt>
    <trkpt lat="34.72133" lon="-119.95524"><ele>1288.0</ele></trkpt>
    <trkpt lat="34.72149" lon="-119.95515"><ele>1302.0</ele></trkpt>
    <trkpt lat="34.72161" lon="-119.95506"><ele>1302.0</ele></trkpt>
    <trkpt lat="34.72169" lon="-119.95487"><ele>1302.0</ele></trkpt>
    <trkpt lat="34.72176" lon="-119.95470"><ele>1302.0</ele></trkpt>
    <trkpt lat="34.72189" lon="-119.95443"><ele>1302.0</ele></trkpt>
    <trkpt lat="34.72192" lon="-119.95430"><ele>1302.0</ele></trkpt>
    <trkpt lat="34.72192" lon="-119.95419"><ele>1302.0</ele></trkpt>
    <trkpt lat="34.72184" lon="-119.95406"><ele>1302.0</ele></trkpt>
    <trkpt lat="34.72169" lon="-119.95369"><ele>1302.0</ele></trkpt>
    <trkpt lat="34.72161" lon="-119.95351"><ele>1345.0</ele></trkpt>
    <trkpt lat="34.72155" lon="-119.95334"><ele>1345.0</ele></trkpt>
    <trkpt lat="34.72154" lon="-119.95308"><ele>1345.0</ele></trkpt>
    <trkpt lat="34.72153" lon="-119.95279"><ele>1345.0</ele></trkpt>
    <trkpt lat="34.72155" lon="-119.95255"><ele>1345.0</ele></trkpt>
    <trkpt lat="34.72162" lon="-119.95235"><ele>1345.0</ele></trkpt>
    <trkpt lat="34.72172" lon="-119.95212"><ele>1345.0</ele></trkpt>
    <trkpt lat="34.72178" lon="-119.95202"><ele>1345.0</ele></trkpt>
    <trkpt lat="34.72188" lon="-119.95187"><ele>1345.0</ele></trkpt>
    <trkpt lat="34.72195" lon="-119.95181"><ele>1344.0</ele></trkpt>
    <trkpt lat="34.72200" lon="-119.95179"><ele>1344.0</ele></trkpt>
    <trkpt lat="34.72208" lon="-119.95181"><ele>1344.0</ele></trkpt>
    <trkpt lat="34.72215" lon="-119.95197"><ele>1344.0</ele></trkpt>
    <trkpt lat="34.72222" lon="-119.95215"><ele>1344.0</ele></trkpt>
    <trkpt lat="34.72232" lon="-119.95231"><ele>1344.0</ele></trkpt>
    <trkpt lat="34.72242" lon="-119.95241"><ele>1344.0</ele></trkpt>
    <trkpt lat="34.72254" lon="-119.95245"><ele>1344.0</ele></trkpt>
    <trkpt lat="34.72263" lon="-119.95242"><ele>1344.0</ele></trkpt>
    <trkpt lat="34.72277" lon="-119.95230"><ele>1345.0</ele></trkpt>
    <trkpt lat="34.72284" lon="-119.95213"><ele>1345.0</ele></trkpt>
    <trkpt lat="34.72288" lon="-119.95202"><ele>1345.0</ele></trkpt>
    <trkpt lat="34.72288" lon="-119.95194"><ele>1345.0</ele></trkpt>
    <trkpt lat="34.72287" lon="-119.95162"><ele>1345.0</ele></trkpt>
    <trkpt lat="34.72287" lon="-119.95143"><ele>1345.0</ele></trkpt>
    <trkpt lat="34.72284" lon="-119.95112"><ele>1345.0</ele></trkpt>
    <trkpt lat="34.72282" lon="-119.95093"><ele>1345.0</ele></trkpt>
    <trkpt lat="34.72281" lon="-119.95068"><ele>1345.0</ele></trkpt>
    <trkpt lat="34.72281" lon="-119.95043"><ele>1345.0</ele></trkpt>
    <trkpt lat="34.72282" lon="-119.95034"><ele>1353.0</ele></trkpt>
    <trkpt lat="34.72291" lon="-119.95004"><ele>1353.0</ele></trkpt>
    <trkpt lat="34.72302" lon="-119.94987"><ele>1353.0</ele></trkpt>
    <trkpt lat="34.72323" lon="-119.94978"><ele>1353.0</ele></trkpt>
    <trkpt lat="34.72339" lon="-119.94978"><ele>1353.0</ele></trkpt>
    <trkpt lat="34.72358" lon="-119.94979"><ele>1353.0</ele></trkpt>
    <trkpt lat="34.72383" lon="-119.94991"><ele>1353.0</ele></trkpt>
    <trkpt lat="34.72401" lon="-119.95001"><ele>1353.0</ele></trkpt>
    <trkpt lat="34.72410" lon="-119.95007"><ele>1353.0</ele></trkpt>
    <trkpt lat="34.72422" lon="-119.95014"><ele>1358.0</ele></trkpt>
    <trkpt lat="34.72432" lon="-119.95014"><ele>1358.0</ele></trkpt>
    <trkpt lat="34.72443" lon="-119.95012"><ele>1358.0</ele></trkpt>
    <trkpt lat="34.72449" lon="-119.95006"><ele>1358.0</ele></trkpt>
    <trkpt lat="34.72451" lon="-119.94998"><ele>1358.0</ele></trkpt>
    <trkpt lat="34.72451" lon="-119.94986"><ele>1358.0</ele></trkpt>
    <trkpt lat="34.72446" lon="-119.94971"><ele>1358.0</ele></trkpt>
    <trkpt lat="34.72440" lon="-119.94957"><ele>1358.0</ele></trkpt>
    <trkpt lat="34.72426" lon="-119.94924"><ele>1358.0</ele></trkpt>
    <trkpt lat="34.72419" lon="-119.94910"><ele>1340.0</ele></trkpt>
    <trkpt lat="34.72407" lon="-119.94902"><ele>1340.0</ele></trkpt>
    <trkpt lat="34.72400" lon="-119.94899"><ele>1340.0</ele></trkpt>
    <trkpt lat="34.72383" lon="-119.94897"><ele>1340.0</ele></trkpt>
    <trkpt lat="34.72373" lon="-119.94897"><ele>1340.0</ele></trkpt>
    <trkpt lat="34.72361" lon="-119.94904"><ele>1340.0</ele></trkpt>
    <trkpt lat="34.72356" lon="-119.94904"><ele>1340.0</ele></trkpt>
    <trkpt lat="34.72336" lon="-119.94905"><ele>1340.0</ele></trkpt>
    <trkpt lat="34.72331" lon="-119.94905"><ele>1340.0</ele></trkpt>
    <trkpt lat="34.72316" lon="-119.94894"><ele>1311.0</ele></trkpt>
    <trkpt lat="34.72311" lon="-119.94889"><ele>1311.0</ele></trkpt>
    <trkpt lat="34.72294" lon="-119.94869"><ele>1311.0</ele></trkpt>
    <trkpt lat="34.72281" lon="-119.94847"><ele>1311.0</ele></trkpt>
    <trkpt lat="34.72268" lon="-119.94822"><ele>1311.0</ele></trkpt>
    <trkpt lat="34.72263" lon="-119.94803"><ele>1311.0</ele></trkpt>
    <trkpt lat="34.72260" lon="-119.94781"><ele>1311.0</ele></trkpt>
    <trkpt lat="34.72258" lon="-119.94739"><ele>1311.0</ele></trkpt>
    <trkpt lat="34.72257" lon="-119.94719"><ele>1311.0</ele></trkpt>
    <trkpt lat="34.72251" lon="-119.94695"><ele>1303.0</ele></trkpt>
    <trkpt lat="34.72239" lon="-119.94663"><ele>1303.0</ele></trkpt>
    <trkpt lat="34.72234" lon="-119.94653"><ele>1303.0</ele></trkpt>
    <trkpt lat="34.72228" lon="-119.94642"><ele>1303.0</ele></trkpt>
    <trkpt lat="34.72220" lon="-119.94630"><ele>1303.0</ele></trkpt>
    <trkpt lat="34.72204" lon="-119.94603"><ele>1303.0</ele></trkpt>
    <trkpt lat="34.72200" lon="-119.94593"><ele>1303.0</ele></trkpt>
    <trkpt lat="34.72194" lon="-119.94568"><ele>1303.0</ele></trkpt>
    <trkpt lat="34.72187" lon="-119.94543"><ele>1303.0</ele></trkpt>
    <trkpt lat="34.72183" lon="-119.94535"><ele>1282.0</ele></trkpt>
    <trkpt lat="34.72168" lon="-119.94508"><ele>1282.0</ele></trkpt>
    <trkpt lat="34.72146" lon="-119.94478"><ele>1282.0</ele></trkpt>
    <trkpt lat="34.72137" lon="-119.94462"><ele>1282.0</ele></trkpt>
    <trkpt lat="34.72135" lon="-119.94456"><ele>1282.0</ele></trkpt>
    <trkpt lat="34.72140" lon="-119.94446"><ele>1282.0</ele></trkpt>
    <trkpt lat="34.72145" lon="-119.94434"><ele>1282.0</ele></trkpt>
    <trkpt lat="34.72156" lon="-119.94421"><ele>1282.0</ele></trkpt>
    <trkpt lat="34.72166" lon="-119.94412"><ele>1282.0</ele></trkpt>
    <trkpt lat="34.72184" lon="-119.94404"><ele>1288.0</ele></trkpt>
    <trkpt lat="34.72195" lon="-119.94394"><ele>1288.0</ele></trkpt>
    <trkpt lat="34.72214" lon="-119.94372"><ele>1288.0</ele></trkpt>
    <trkpt lat="34.72229" lon="-119.94349"><ele>1288.0</ele></trkpt>
    <trkpt lat="34.72237" lon="-119.94336"><ele>1288.0</ele></trkpt>
    <trkpt lat="34.72249" lon="-119.94314"><ele>1288.0</ele></trkpt>
    <trkpt lat="34.72254" lon="-119.94308"><ele>1288.0</ele></trkpt>
    <trkpt lat="34.72254" lon="-119.94291"><ele>1288.0</ele></trkpt>
    <trkpt lat="34.72256" lon="-119.94279"><ele>1288.0</ele></trkpt>
    <trkpt lat="34.72265" lon="-119.94252"><ele>1297.0</ele></trkpt>
    <trkpt lat="34.72270" lon="-119.94233"><ele>1297.0</ele></trkpt>
    <trkpt lat="34.72274" lon="-119.94218"><ele>1297.0</ele></trkpt>
    <trkpt lat="34.72276" lon="-119.94208"><ele>1297.0</ele></trkpt>
    <trkpt lat="34.72274" lon="-119.94203"><ele>1297.0</ele></trkpt>
    <trkpt lat="34.72270" lon="-119.94203"><ele>1297.0</ele></trkpt>
    <trkpt lat="34.72265" lon="-119.94203"><ele>1297.0</ele></trkpt>
    <trkpt lat="34.72251" lon="-119.94213"><ele>1297.0</ele></trkpt>
    <trkpt lat="34.72239" lon="-119.94219"><ele>1297.0</ele></trkpt>
    <trkpt lat="34.72225" lon="-119.94235"><ele>1262.0</ele></trkpt>
    <trkpt lat="34.72214" lon="-119.94243"><ele>1262.0</ele></trkpt>
    <trkpt lat="34.72192" lon="-119.94249"><ele>1262.0</ele></trkpt>
    <trkpt lat="34.72187" lon="-119.94249"><ele>1262.0</ele></trkpt>
    <trkpt lat="34.72172" lon="-119.94246"><ele>1262.0</ele></trkpt>
    <trkpt lat="34.72166" lon="-119.94245"><ele>1262.0</ele></trkpt>
    <trkpt lat="34.72140" lon="-119.94233"><ele>1262.0</ele></trkpt>
    <trkpt lat="34.72117" lon="-119.94222"><ele>1262.0</ele></trkpt>
    <trkpt lat="34.72091" lon="-119.94206"><ele>1262.0</ele></trkpt>
    <trkpt lat="34.72067" lon="-119.94188"><ele>1234.0</ele></trkpt>
    <trkpt lat="34.72053" lon="-119.94173"><ele>1234.0</ele></trkpt>
    <trkpt lat="34.72047" lon="-119.94161"><ele>1234.0</ele></trkpt>
    <trkpt lat="34.72045" lon="-119.94151"><ele>1234.0</ele></trkpt>
    <trkpt lat="34.72044" lon="-119.94141"><ele>1234.0</ele></trkpt>
    <trkpt lat="34.72047" lon="-119.94127"><ele>1234.0</ele></trkpt>
    <trkpt lat="34.72052" lon="-119.94120"><ele>1234.0</ele></trkpt>
    <trkpt lat="34.72062" lon="-119.94105"><ele>1234.0</ele></trkpt>
    <trkpt lat="34.72083" lon="-119.94088"><ele>1234.0</ele></trkpt>
    <trkpt lat="34.72099" lon="-119.94073"><ele>1242.0</ele></trkpt>
    <trkpt lat="34.72107" lon="-119.94065"><ele>1242.0</ele></trkpt>
    <trkpt lat="34.72104" lon="-119.94040"><ele>1242.0</ele></trkpt>
    <trkpt lat="34.72110" lon="-119.94019"><ele>1242.0</ele></trkpt>
    <trkpt lat="34.72127" lon="-119.93995"><ele>1242.0</ele></trkpt>
    <trkpt lat="34.72128" lon="-119.93983"><ele>1242.0</ele></trkpt>
    <trkpt lat="34.72121" lon="-119.93971"><ele>1242.0</ele></trkpt>
    <trkpt lat="34.72116" lon="-119.93963"><ele>1242.0</ele></trkpt>
    <trkpt lat="34.72117" lon="-119.93948"><ele>1242.0</ele></trkpt>
    <trkpt lat="34.72120" lon="-119.93938"><ele>1242.0</ele></trkpt>
    <trkpt lat="34.72120" lon="-119.93928"><ele>1218.0</ele></trkpt>
    <trkpt lat="34.72117" lon="-119.93923"><ele>1218.0</ele></trkpt>
    <trkpt lat="34.72113" lon="-119.93921"><ele>1218.0</ele></trkpt>
    <trkpt lat="34.72090" lon="-119.93919"><ele>1218.0</ele></trkpt>
    <trkpt lat="34.72065" lon="-119.93917"><ele>1218.0</ele></trkpt>
    <trkpt lat="34.72052" lon="-119.93912"><ele>1218.0</ele></trkpt>
    <trkpt lat="34.72042" lon="-119.93906"><ele>1218.0</ele></trkpt>
    <trkpt lat="34.72036" lon="-119.93902"><ele>1218.0</ele></trkpt>
    <trkpt lat="34.72029" lon="-119.93895"><ele>1218.0</ele></trkpt>
    <trkpt lat="34.72022" lon="-119.93865"><ele>1219.0</ele></trkpt>
    <trkpt lat="34.72020" lon="-119.93852"><ele>1219.0</ele></trkpt>
    <trkpt lat="34.72021" lon="-119.93819"><ele>1219.0</ele></trkpt>
    <trkpt lat="34.72022" lon="-119.93804"><ele>1219.0</ele></trkpt>
    <trkpt lat="34.72021" lon="-119.93791"><ele>1219.0</ele></trkpt>
    <trkpt lat="34.72019" lon="-119.93782"><ele>1219.0</ele></trkpt>
    <trkpt lat="34.72014" lon="-119.93779"><ele>1219.0</ele></trkpt>
    <trkpt lat="34.72000" lon="-119.93776"><ele>1219.0</ele></trkpt>
    <trkpt lat="34.71981" lon="-119.93769"><ele>1219.0</ele></trkpt>
    <trkpt lat="34.71973" lon="-119.93763"><ele>1204.0</ele></trkpt>
    <trkpt lat="34.71967" lon="-119.93756"><ele>1204.0</ele></trkpt>
    <trkpt lat="34.71962" lon="-119.93744"><ele>1204.0</ele></trkpt>
    <trkpt lat="34.71962" lon="-119.93740"><ele>1204.0</ele></trkpt>
    <trkpt lat="34.71968" lon="-119.93717"><ele>1204.0</ele></trkpt>
    <trkpt lat="34.71970" lon="-119.93704"><ele>1204.0</ele></trkpt>
    <trkpt lat="34.71971" lon="-119.93695"><ele>1204.0</ele></trkpt>
    <trkpt lat="34.71966" lon="-119.93677"><ele>1204.0</ele></trkpt>
    <trkpt lat="34.71960" lon="-119.93658"><ele>1204.0</ele></trkpt>
    <trkpt lat="34.71957" lon="-119.93632"><ele>1199.0</ele></trkpt>
    <trkpt lat="34.71954" lon="-119.93624"><ele>1199.0</ele></trkpt>
    <trkpt lat="34.71947" lon="-119.93621"><ele>1199.0</ele></trkpt>
    <trkpt lat="34.71929" lon="-119.93612"><ele>1199.0</ele></trkpt>
    <trkpt lat="34.71911" lon="-119.93615"><ele>1199.0</ele></trkpt>
    <trkpt lat="34.71887" lon="-119.93614"><ele>1199.0</ele></trkpt>
    <trkpt lat="34.71880" lon="-119.93611"><ele>1199.0</ele></trkpt>
    <trkpt lat="34.71873" lon="-119.93608"><ele>1199.0</ele></trkpt>
    <trkpt lat="34.71869" lon="-119.93602"><ele>1199.0</ele></trkpt>
    <trkpt lat="34.71866" lon="-119.93595"><ele>1190.0</ele></trkpt>
    <trkpt lat="34.71869" lon="-119.93566"><ele>1190.0</ele></trkpt>
    <trkpt lat="34.71875" lon="-119.93533"><ele>1190.0</ele></trkpt>
    <trkpt lat="34.71878" lon="-119.93514"><ele>1190.0</ele></trkpt>
    <trkpt lat="34.71878" lon="-119.93498"><ele>1190.0</ele></trkpt>
    <trkpt lat="34.71873" lon="-119.93477"><ele>1190.0</ele></trkpt>
    <trkpt lat="34.71871" lon="-119.93458"><ele>1190.0</ele></trkpt>
    <trkpt lat="34.71874" lon="-119.93430"><ele>1190.0</ele></trkpt>
    <trkpt lat="34.71875" lon="-119.93419"><ele>1190.0</ele></trkpt>
    <trkpt lat="34.71875" lon="-119.93409"><ele>1190.0</ele></trkpt>
    <trkpt lat="34.71873" lon="-119.93400"><ele>1190.0</ele></trkpt>
    <trkpt lat="34.71870" lon="-119.93397"><ele>1190.0</ele></trkpt>
    <trkpt lat="34.71856" lon="-119.93388"><ele>1190.0</ele></trkpt>
    <trkpt lat="34.71850" lon="-119.93383"><ele>1190.0</ele></trkpt>
    <trkpt lat="34.71829" lon="-119.93376"><ele>1190.0</ele></trkpt>
    <trkpt lat="34.71806" lon="-119.93366"><ele>1190.0</ele></trkpt>
    <trkpt lat="34.71784" lon="-119.93362"><ele>1190.0</ele></trkpt>
    <trkpt lat="34.71777" lon="-119.93364"><ele>1190.0</ele></trkpt>
    <trkpt lat="34.71759" lon="-119.93363"><ele>1168.0</ele></trkpt>
    <trkpt lat="34.71752" lon="-119.93356"><ele>1168.0</ele></trkpt>
    <trkpt lat="34.71750" lon="-119.93346"><ele>1168.0</ele></trkpt>
    <trkpt lat="34.71750" lon="-119.93339"><ele>1168.0</ele></trkpt>
    <trkpt lat="34.71766" lon="-119.93322"><ele>1168.0</ele></trkpt>
    <trkpt lat="34.71792" lon="-119.93305"><ele>1168.0</ele></trkpt>
    <trkpt lat="34.71806" lon="-119.93291"><ele>1168.0</ele></trkpt>
    <trkpt lat="34.71819" lon="-119.93276"><ele>1168.0</ele></trkpt>
    <trkpt lat="34.71837" lon="-119.93251"><ele>1168.0</ele></trkpt>
    <trkpt lat="34.71837" lon="-119.93232"><ele>1152.0</ele></trkpt>
    <trkpt lat="34.71837" lon="-119.93204"><ele>1152.0</ele></trkpt>
    <trkpt lat="34.71833" lon="-119.93195"><ele>1152.0</ele></trkpt>
    <trkpt lat="34.71825" lon="-119.93185"><ele>1152.0</ele></trkpt>
    <trkpt lat="34.71806" lon="-119.93159"><ele>1152.0</ele></trkpt>
    <trkpt lat="34.71803" lon="-119.93147"><ele>1152.0</ele></trkpt>
    <trkpt lat="34.71807" lon="-119.93115"><ele>1152.0</ele></trkpt>
    <trkpt lat="34.71819" lon="-119.93089"><ele>1152.0</ele></trkpt>
    <trkpt lat="34.71823" lon="-119.93073"><ele>1152.0</ele></trkpt>
    <trkpt lat="34.71823" lon="-119.93063"><ele>1151.0</ele></trkpt>
    <trkpt lat="34.71818" lon="-119.93050"><ele>1151.0</ele></trkpt>
    <trkpt lat="34.71812" lon="-119.93044"><ele>1151.0</ele></trkpt>
    <trkpt lat="34.71793" lon="-119.93040"><ele>1151.0</ele></trkpt>
    <trkpt lat="34.71771" lon="-119.93045"><ele>1151.0</ele></trkpt>
    <trkpt lat="34.71744" lon="-119.93046"><ele>1151.0</ele></trkpt>
    <trkpt lat="34.71739" lon="-119.93045"><ele>1151.0</ele></trkpt>
    <trkpt lat="34.71704" lon="-119.93022"><ele>1151.0</ele></trkpt>
    <trkpt lat="34.71677" lon="-119.93015"><ele>1151.0</ele></trkpt>
    <trkpt lat="34.71662" lon="-119.93013"><ele>1124.0</ele></trkpt>
    <trkpt lat="34.71640" lon="-119.93012"><ele>1124.0</ele></trkpt>
    <trkpt lat="34.71634" lon="-119.93010"><ele>1124.0</ele></trkpt>
    <trkpt lat="34.71612" lon="-119.92998"><ele>1124.0</ele></trkpt>
    <trkpt lat="34.71603" lon="-119.92990"><ele>1124.0</ele></trkpt>
    <trkpt lat="34.71592" lon="-119.92983"><ele>1124.0</ele></trkpt>
    <trkpt lat="34.71564" lon="-119.92975"><ele>1124.0</ele></trkpt>
    <trkpt lat="34.71556" lon="-119.92972"><ele>1124.0</ele></trkpt>
    <trkpt lat="34.71536" lon="-119.92962"><ele>1124.0</ele></trkpt>
    <trkpt lat="34.71525" lon="-119.92949"><ele>1111.0</ele></trkpt>
    <trkpt lat="34.71522" lon="-119.92943"><ele>1111.0</ele></trkpt>
    <trkpt lat="34.71520" lon="-119.92914"><ele>1111.0</ele></trkpt>
    <trkpt lat="34.71516" lon="-119.92886"><ele>1111.0</ele></trkpt>
    <trkpt lat="34.71506" lon="-119.92860"><ele>1111.0</ele></trkpt>
    <trkpt lat="34.71501" lon="-119.92831"><ele>1111.0</ele></trkpt>
    <trkpt lat="34.71497" lon="-119.92789"><ele>1111.0</ele></trkpt>
    <trkpt lat="34.71492" lon="-119.92771"><ele>1111.0</ele></trkpt>
    <trkpt lat="34.71487" lon="-119.92761"><ele>1111.0</ele></trkpt>
    <trkpt lat="34.71474" lon="-119.92738"><ele>1111.0</ele></trkpt>
    <trkpt lat="34.71477" lon="-119.92714"><ele>1110.0</ele></trkpt>
    <trkpt lat="34.71485" lon="-119.92688"><ele>1110.0</ele></trkpt>
    <trkpt lat="34.71495" lon="-119.92673"><ele>1110.0</ele></trkpt>
    <trkpt lat="34.71506" lon="-119.92660"><ele>1110.0</ele></trkpt>
    <trkpt lat="34.71521" lon="-119.92646"><ele>1110.0</ele></trkpt>
    <trkpt lat="34.71537" lon="-119.92632"><ele>1110.0</ele></trkpt>
    <trkpt lat="34.71546" lon="-119.92622"><ele>1110.0</ele></trkpt>
    <trkpt lat="34.71542" lon="-119.92602"><ele>1110.0</ele></trkpt>
    <trkpt lat="34.71539" lon="-119.92593"><ele>1110.0</ele></trkpt>
    <trkpt lat="34.71529" lon="-119.92582"><ele>1092.0</ele></trkpt>
    <trkpt lat="34.71512" lon="-119.92559"><ele>1092.0</ele></trkpt>
    <trkpt lat="34.71509" lon="-119.92547"><ele>1092.0</ele></trkpt>
    <trkpt lat="34.71504" lon="-119.92514"><ele>1092.0</ele></trkpt>
    <trkpt lat="34.71497" lon="-119.92499"><ele>1092.0</ele></trkpt>
    <trkpt lat="34.71493" lon="-119.92493"><ele>1092.0</ele></trkpt>
    <trkpt lat="34.71476" lon="-119.92473"><ele>1092.0</ele></trkpt>
    <trkpt lat="34.71475" lon="-119.92463"><ele>1092.0</ele></trkpt>
    <trkpt lat="34.71474" lon="-119.92455"><ele>1092.0</ele></trkpt>
    <trkpt lat="34.71482" lon="-119.92441"><ele>1089.0</ele></trkpt>
    <trkpt lat="34.71490" lon="-119.92437"><ele>1089.0</ele></trkpt>
    <trkpt lat="34.71500" lon="-119.92438"><ele>1089.0</ele></trkpt>
    <trkpt lat="34.71525" lon="-119.92448"><ele>1089.0</ele></trkpt>
    <trkpt lat="34.71547" lon="-119.92460"><ele>1089.0</ele></trkpt>
    <trkpt lat="34.71561" lon="-119.92464"><ele>1089.0</ele></trkpt>
    <trkpt lat="34.71571" lon="-119.92463"><ele>1089.0</ele></trkpt>
    <trkpt lat="34.71588" lon="-119.92446"><ele>1089.0</ele></trkpt>
    <trkpt lat="34.71606" lon="-119.92421"><ele>1089.0</ele></trkpt>
    <trkpt lat="34.71617" lon="-119.92405"><ele>1072.0</ele></trkpt>
    <trkpt lat="34.71627" lon="-119.92398"><ele>1072.0</ele></trkpt>
    <trkpt lat="34.71638" lon="-119.92394"><ele>1072.0</ele></trkpt>
    <trkpt lat="34.71656" lon="-119.92405"><ele>1072.0</ele></trkpt>
    <trkpt lat="34.71667" lon="-119.92415"><ele>1072.0</ele></trkpt>
    <trkpt lat="34.71686" lon="-119.92441"><ele>1072.0</ele></trkpt>
    <trkpt lat="34.71695" lon="-119.92452"><ele>1072.0</ele></trkpt>
    <trkpt lat="34.71711" lon="-119.92468"><ele>1072.0</ele></trkpt>
    <trkpt lat="34.71719" lon="-119.92476"><ele>1072.0</ele></trkpt>
    <trkpt lat="34.71726" lon="-119.92476"><ele>1071.0</ele></trkpt>
    <trkpt lat="34.71739" lon="-119.92473"><ele>1071.0</ele></trkpt>
    <trkpt lat="34.71748" lon="-119.92466"><ele>1071.0</ele></trkpt>
    <trkpt lat="34.71760" lon="-119.92458"><ele>1071.0</ele></trkpt>
    <trkpt lat="34.71774" lon="-119.92451"><ele>1071.0</ele></trkpt>
    <trkpt lat="34.71782" lon="-119.92441"><ele>1071.0</ele></trkpt>
    <trkpt lat="34.71798" lon="-119.92424"><ele>1071.0</ele></trkpt>
    <trkpt lat="34.71815" lon="-119.92417"><ele>1071.0</ele></trkpt>
    <trkpt lat="34.71826" lon="-119.92412"><ele>1071.0</ele></trkpt>
    <trkpt lat="34.71835" lon="-119.92401"><ele>1056.0</ele></trkpt>
    <trkpt lat="34.71838" lon="-119.92392"><ele>1056.0</ele></trkpt>
    <trkpt lat="34.71836" lon="-119.92386"><ele>1056.0</ele></trkpt>
    <trkpt lat="34.71823" lon="-119.92370"><ele>1056.0</ele></trkpt>
    <trkpt lat="34.71810" lon="-119.92350"><ele>1056.0</ele></trkpt>
    <trkpt lat="34.71809" lon="-119.92345"><ele>1056.0</ele></trkpt>
    <trkpt lat="34.71808" lon="-119.92336"><ele>1056.0</ele></trkpt>
    <trkpt lat="34.71815" lon="-119.92326"><ele>1056.0</ele></trkpt>
    <trkpt lat="34.71825" lon="-119.92317"><ele>1056.0</ele></trkpt>
    <trkpt lat="34.71844" lon="-119.92308"><ele>1046.0</ele></trkpt>
    <trkpt lat="34.71855" lon="-119.92299"><ele>1046.0</ele></trkpt>
    <trkpt lat="34.71858" lon="-119.92292"><ele>1046.0</ele></trkpt>
    <trkpt lat="34.71858" lon="-119.92278"><ele>1046.0</ele></trkpt>
    <trkpt lat="34.71854" lon="-119.92268"><ele>1046.0</ele></trkpt>
    <trkpt lat="34.71852" lon="-119.92259"><ele>1046.0</ele></trkpt>
    <trkpt lat="34.71848" lon="-119.92240"><ele>1046.0</ele></trkpt>
    <trkpt lat="34.71844" lon="-119.92229"><ele>1046.0</ele></trkpt>
    <trkpt lat="34.71843" lon="-119.92214"><ele>1046.0</ele></trkpt>
    <trkpt lat="34.71841" lon="-119.92197"><ele>1033.0</ele></trkpt>
    <trkpt lat="34.71844" lon="-119.92190"><ele>1033.0</ele></trkpt>
    <trkpt lat="34.71853" lon="-119.92186"><ele>1033.0</ele></trkpt>
    <trkpt lat="34.71860" lon="-119.92185"><ele>1033.0</ele></trkpt>
    <trkpt lat="34.71868" lon="-119.92189"><ele>1033.0</ele></trkpt>
    <trkpt lat="34.71883" lon="-119.92198"><ele>1033.0</ele></trkpt>
    <trkpt lat="34.71887" lon="-119.92202"><ele>1033.0</ele></trkpt>
    <trkpt lat="34.71899" lon="-119.92221"><ele>1033.0</ele></trkpt>
    <trkpt lat="34.71911" lon="-119.92241"><ele>1033.0</ele></trkpt>
    <trkpt lat="34.71916" lon="-119.92247"><ele>1040.0</ele></trkpt>
    <trkpt lat="34.71932" lon="-119.92251"><ele>1040.0</ele></trkpt>
    <trkpt lat="34.71937" lon="-119.92249"><ele>1040.0</ele></trkpt>
    <trkpt lat="34.71943" lon="-119.92243"><ele>1040.0</ele></trkpt>
    <trkpt lat="34.71954" lon="-119.92212"><ele>1040.0</ele></trkpt>
    <trkpt lat="34.71957" lon="-119.92205"><ele>1040.0</ele></trkpt>
    <trkpt lat="34.71969" lon="-119.92197"><ele>1040.0</ele></trkpt>
    <trkpt lat="34.71975" lon="-119.92191"><ele>1040.0</ele></trkpt>
    <trkpt lat="34.71984" lon="-119.92174"><ele>1040.0</ele></trkpt>
    <trkpt lat="34.71995" lon="-119.92165"><ele>1025.0</ele></trkpt>
    <trkpt lat="34.72003" lon="-119.92164"><ele>1025.0</ele></trkpt>
    <trkpt lat="34.72014" lon="-119.92165"><ele>1025.0</ele></trkpt>
    <trkpt lat="34.72036" lon="-119.92180"><ele>1025.0</ele></trkpt>
    <trkpt lat="34.72053" lon="-119.92187"><ele>1025.0</ele></trkpt>
    <trkpt lat="34.72070" lon="-119.92189"><ele>1025.0</ele></trkpt>
    <trkpt lat="34.72078" lon="-119.92191"><ele>1025.0</ele></trkpt>
    <trkpt lat="34.72097" lon="-119.92182"><ele>1025.0</ele></trkpt>
    <trkpt lat="34.72107" lon="-119.92178"><ele>1025.0</ele></trkpt>
    <trkpt lat="34.72118" lon="-119.92169"><ele>1001.0</ele></trkpt>
    <trkpt lat="34.72127" lon="-119.92158"><ele>1001.0</ele></trkpt>
    <trkpt lat="34.72138" lon="-119.92142"><ele>1001.0</ele></trkpt>
    <trkpt lat="34.72153" lon="-119.92117"><ele>1001.0</ele></trkpt>
    <trkpt lat="34.72160" lon="-119.92105"><ele>1001.0</ele></trkpt>
    <trkpt lat="34.72167" lon="-119.92097"><ele>1001.0</ele></trkpt>
    <trkpt lat="34.72173" lon="-119.92094"><ele>1001.0</ele></trkpt>
    <trkpt lat="34.72188" lon="-119.92095"><ele>1001.0</ele></trkpt>
    <trkpt lat="34.72197" lon="-119.92096"><ele>1001.0</ele></trkpt>
    <trkpt lat="34.72219" lon="-119.92102"><ele>1001.0</ele></trkpt>
    <trkpt lat="34.72227" lon="-119.92105"><ele>985.0</ele></trkpt>
    <trkpt lat="34.72247" lon="-119.92105"><ele>985.0</ele></trkpt>
    <trkpt lat="34.72268" lon="-119.92092"><ele>985.0</ele></trkpt>
    <trkpt lat="34.72271" lon="-119.92089"><ele>985.0</ele></trkpt>
    <trkpt lat="34.72278" lon="-119.92082"><ele>985.0</ele></trkpt>
    <trkpt lat="34.72287" lon="-119.92068"><ele>985.0</ele></trkpt>
    <trkpt lat="34.72293" lon="-119.92067"><ele>985.0</ele></trkpt>
    <trkpt lat="34.72298" lon="-119.92069"><ele>985.0</ele></trkpt>
    <trkpt lat="34.72306" lon="-119.92083"><ele>985.0</ele></trkpt>
    <trkpt lat="34.72307" lon="-119.92098"><ele>995.0</ele></trkpt>
    <trkpt lat="34.72309" lon="-119.92121"><ele>995.0</ele></trkpt>
    <trkpt lat="34.72313" lon="-119.92133"><ele>995.0</ele></trkpt>
    <trkpt lat="34.72326" lon="-119.92151"><ele>995.0</ele></trkpt>
    <trkpt lat="34.72329" lon="-119.92161"><ele>995.0</ele></trkpt>
    <trkpt lat="34.72331" lon="-119.92188"><ele>995.0</ele></trkpt>
    <trkpt lat="34.72335" lon="-119.92202"><ele>995.0</ele></trkpt>
    <trkpt lat="34.72338" lon="-119.92205"><ele>995.0</ele></trkpt>
    <trkpt lat="34.72344" lon="-119.92205"><ele>995.0</ele></trkpt>
    <trkpt lat="34.72351" lon="-119.92201"><ele>1003.0</ele></trkpt>
    <trkpt lat="34.72365" lon="-119.92191"><ele>1003.0</ele></trkpt>
    <trkpt lat="34.72373" lon="-119.92188"><ele>1003.0</ele></trkpt>
    <trkpt lat="34.72384" lon="-119.92184"><ele>1003.0</ele></trkpt>
    <trkpt lat="34.72386" lon="-119.92180"><ele>1003.0</ele></trkpt>
    <trkpt lat="34.72386" lon="-119.92155"><ele>1003.0</ele></trkpt>
    <trkpt lat="34.72391" lon="-119.92135"><ele>1003.0</ele></trkpt>
    <trkpt lat="34.72400" lon="-119.92118"><ele>1003.0</ele></trkpt>
    <trkpt lat="34.72407" lon="-119.92092"><ele>1003.0</ele></trkpt>
    <trkpt lat="34.72414" lon="-119.92077"><ele>964.0</ele></trkpt>
    <trkpt lat="34.72431" lon="-119.92060"><ele>964.0</ele></trkpt>
    <trkpt lat="34.72439" lon="-119.92054"><ele>964.0</ele></trkpt>
    <trkpt lat="34.72454" lon="-119.92037"><ele>964.0</ele></trkpt>
    <trkpt lat="34.72460" lon="-119.92036"><ele>964.0</ele></trkpt>
    <trkpt lat="34.72484" lon="-119.92043"><ele>964.0</ele></trkpt>
    <trkpt lat="34.72489" lon="-119.92046"><ele>964.0</ele></trkpt>
    <trkpt lat="34.72496" lon="-119.92047"><ele>964.0</ele></trkpt>
    <trkpt lat="34.72520" lon="-119.92032"><ele>964.0</ele></trkpt>
    <trkpt lat="34.72535" lon="-119.92029"><ele>969.0</ele></trkpt>
    <trkpt lat="34.72541" lon="-119.92032"><ele>969.0</ele></trkpt>
    <trkpt lat="34.72549" lon="-119.92036"><ele>969.0</ele></trkpt>
    <trkpt lat="34.72565" lon="-119.92044"><ele>969.0</ele></trkpt>
    <trkpt lat="34.72574" lon="-119.92045"><ele>969.0</ele></trkpt>
    <trkpt lat="34.72591" lon="-119.92043"><ele>969.0</ele></trkpt>
    <trkpt lat="34.72596" lon="-119.92041"><ele>969.0</ele></trkpt>
    <trkpt lat="34.72602" lon="-119.92035"><ele>969.0</ele></trkpt>
    <trkpt lat="34.72615" lon="-119.92015"><ele>969.0</ele></trkpt>
    <trkpt lat="34.72629" lon="-119.91999"><ele>948.0</ele></trkpt>
    <trkpt lat="34.72648" lon="-119.91991"><ele>948.0</ele></trkpt>
    <trkpt lat="34.72661" lon="-119.91988"><ele>948.0</ele></trkpt>
    <trkpt lat="34.72676" lon="-119.91979"><ele>948.0</ele></trkpt>
    <trkpt lat="34.72686" lon="-119.91963"><ele>948.0</ele></trkpt>
  </trkseg></trk>
</gpx>
