<?xml version="1.0" encoding="UTF-8"?>
<gpx version="1.1" creator="dirt-bikes build-area-routes (MVUM geometry + SRTM elevation)" xmlns="http://www.topografix.com/GPX/1/1">
  <trk><name>Hi Mountain OHV Road</name><trkseg>
    <trkpt lat="35.26620" lon="-120.40784"><ele>629.0</ele></trkpt>
    <trkpt lat="35.26611" lon="-120.40797"><ele>629.0</ele></trkpt>
    <trkpt lat="35.26606" lon="-120.40807"><ele>629.0</ele></trkpt>
    <trkpt lat="35.26601" lon="-120.40821"><ele>629.0</ele></trkpt>
    <trkpt lat="35.26596" lon="-120.40830"><ele>629.0</ele></trkpt>
    <trkpt lat="35.26588" lon="-120.40840"><ele>630.0</ele></trkpt>
    <trkpt lat="35.26560" lon="-120.40860"><ele>630.0</ele></trkpt>
    <trkpt lat="35.26554" lon="-120.40869"><ele>630.0</ele></trkpt>
    <trkpt lat="35.26554" lon="-120.40882"><ele>630.0</ele></trkpt>
    <trkpt lat="35.26557" lon="-120.40895"><ele>630.0</ele></trkpt>
    <trkpt lat="35.26562" lon="-120.40906"><ele>630.0</ele></trkpt>
    <trkpt lat="35.26561" lon="-120.40923"><ele>630.0</ele></trkpt>
    <trkpt lat="35.26556" lon="-120.40948"><ele>646.0</ele></trkpt>
    <trkpt lat="35.26546" lon="-120.40964"><ele>646.0</ele></trkpt>
    <trkpt lat="35.26537" lon="-120.40988"><ele>646.0</ele></trkpt>
    <trkpt lat="35.26537" lon="-120.41011"><ele>646.0</ele></trkpt>
    <trkpt lat="35.26527" lon="-120.41026"><ele>646.0</ele></trkpt>
    <trkpt lat="35.26514" lon="-120.41037"><ele>646.0</ele></trkpt>
    <trkpt lat="35.26499" lon="-120.41049"><ele>646.0</ele></trkpt>
    <trkpt lat="35.26497" lon="-120.41061"><ele>646.0</ele></trkpt>
    <trkpt lat="35.26498" lon="-120.41075"><ele>657.0</ele></trkpt>
    <trkpt lat="35.26501" lon="-120.41091"><ele>657.0</ele></trkpt>
    <trkpt lat="35.26501" lon="-120.41145"><ele>657.0</ele></trkpt>
    <trkpt lat="35.26495" lon="-120.41167"><ele>657.0</ele></trkpt>
    <trkpt lat="35.26476" lon="-120.41195"><ele>657.0</ele></trkpt>
    <trkpt lat="35.26430" lon="-120.41263"><ele>657.0</ele></trkpt>
    <trkpt lat="35.26412" lon="-120.41302"><ele>657.0</ele></trkpt>
    <trkpt lat="35.26405" lon="-120.41318"><ele>657.0</ele></trkpt>
    <trkpt lat="35.26392" lon="-120.41323"><ele>672.0</ele></trkpt>
    <trkpt lat="35.26371" lon="-120.41314"><ele>672.0</ele></trkpt>
    <trkpt lat="35.26350" lon="-120.41301"><ele>672.0</ele></trkpt>
    <trkpt lat="35.26331" lon="-120.41298"><ele>672.0</ele></trkpt>
    <trkpt lat="35.26315" lon="-120.41300"><ele>672.0</ele></trkpt>
    <trkpt lat="35.26294" lon="-120.41327"><ele>672.0</ele></trkpt>
    <trkpt lat="35.26288" lon="-120.41343"><ele>672.0</ele></trkpt>
    <trkpt lat="35.26279" lon="-120.41376"><ele>705.0</ele></trkpt>
    <trkpt lat="35.26249" lon="-120.41435"><ele>705.0</ele></trkpt>
    <trkpt lat="35.26248" lon="-120.41456"><ele>705.0</ele></trkpt>
    <trkpt lat="35.26244" lon="-120.41474"><ele>705.0</ele></trkpt>
    <trkpt lat="35.26234" lon="-120.41478"><ele>705.0</ele></trkpt>
    <trkpt lat="35.26225" lon="-120.41472"><ele>705.0</ele></trkpt>
    <trkpt lat="35.26205" lon="-120.41449"><ele>705.0</ele></trkpt>
    <trkpt lat="35.26184" lon="-120.41420"><ele>705.0</ele></trkpt>
    <trkpt lat="35.26175" lon="-120.41403"><ele>711.0</ele></trkpt>
    <trkpt lat="35.26136" lon="-120.41367"><ele>711.0</ele></trkpt>
    <trkpt lat="35.26106" lon="-120.41341"><ele>711.0</ele></trkpt>
    <trkpt lat="35.26095" lon="-120.41343"><ele>711.0</ele></trkpt>
    <trkpt lat="35.26089" lon="-120.41348"><ele>711.0</ele></trkpt>
    <trkpt lat="35.26084" lon="-120.41360"><ele>711.0</ele></trkpt>
    <trkpt lat="35.26083" lon="-120.41374"><ele>711.0</ele></trkpt>
    <trkpt lat="35.26082" lon="-120.41382"><ele>711.0</ele></trkpt>
    <trkpt lat="35.26080" lon="-120.41408"><ele>739.0</ele></trkpt>
    <trkpt lat="35.26082" lon="-120.41442"><ele>739.0</ele></trkpt>
    <trkpt lat="35.26091" lon="-120.41462"><ele>739.0</ele></trkpt>
    <trkpt lat="35.26095" lon="-120.41481"><ele>739.0</ele></trkpt>
    <trkpt lat="35.26099" lon="-120.41500"><ele>739.0</ele></trkpt>
    <trkpt lat="35.26120" lon="-120.41527"><ele>739.0</ele></trkpt>
    <trkpt lat="35.26129" lon="-120.41530"><ele>739.0</ele></trkpt>
    <trkpt lat="35.26144" lon="-120.41529"><ele>739.0</ele></trkpt>
    <trkpt lat="35.26156" lon="-120.41527"><ele>740.0</ele></trkpt>
    <trkpt lat="35.26163" lon="-120.41536"><ele>740.0</ele></trkpt>
    <trkpt lat="35.26177" lon="-120.41556"><ele>740.0</ele></trkpt>
    <trkpt lat="35.26186" lon="-120.41565"><ele>740.0</ele></trkpt>
    <trkpt lat="35.26200" lon="-120.41569"><ele>740.0</ele></trkpt>
    <trkpt lat="35.26212" lon="-120.41584"><ele>740.0</ele></trkpt>
    <trkpt lat="35.26216" lon="-120.41602"><ele>740.0</ele></trkpt>
    <trkpt lat="35.26218" lon="-120.41627"><ele>759.0</ele></trkpt>
    <trkpt lat="35.26225" lon="-120.41651"><ele>759.0</ele></trkpt>
    <trkpt lat="35.26239" lon="-120.41672"><ele>759.0</ele></trkpt>
    <trkpt lat="35.26255" lon="-120.41687"><ele>759.0</ele></trkpt>
    <trkpt lat="35.26283" lon="-120.41697"><ele>759.0</ele></trkpt>
    <trkpt lat="35.26345" lon="-120.41705"><ele>759.0</ele></trkpt>
    <trkpt lat="35.26398" lon="-120.41767"><ele>759.0</ele></trkpt>
    <trkpt lat="35.26399" lon="-120.41797"><ele>759.0</ele></trkpt>
    <trkpt lat="35.26395" lon="-120.41811"><ele>779.0</ele></trkpt>
    <trkpt lat="35.26380" lon="-120.41820"><ele>779.0</ele></trkpt>
    <trkpt lat="35.26367" lon="-120.41817"><ele>779.0</ele></trkpt>
    <trkpt lat="35.26350" lon="-120.41808"><ele>779.0</ele></trkpt>
    <trkpt lat="35.26331" lon="-120.41798"><ele>779.0</ele></trkpt>
    <trkpt lat="35.26320" lon="-120.41801"><ele>779.0</ele></trkpt>
    <trkpt lat="35.26310" lon="-120.41816"><ele>779.0</ele></trkpt>
    <trkpt lat="35.26310" lon="-120.41839"><ele>779.0</ele></trkpt>
    <trkpt lat="35.26316" lon="-120.41858"><ele>795.0</ele></trkpt>
    <trkpt lat="35.26330" lon="-120.41879"><ele>795.0</ele></trkpt>
    <trkpt lat="35.26371" lon="-120.41926"><ele>795.0</ele></trkpt>
    <trkpt lat="35.26388" lon="-120.41931"><ele>795.0</ele></trkpt>
    <trkpt lat="35.26399" lon="-120.41929"><ele>795.0</ele></trkpt>
    <trkpt lat="35.26414" lon="-120.41924"><ele>795.0</ele></trkpt>
    <trkpt lat="35.26425" lon="-120.41907"><ele>795.0</ele></trkpt>
    <trkpt lat="35.26443" lon="-120.41897"><ele>787.0</ele></trkpt>
    <trkpt lat="35.26461" lon="-120.41890"><ele>787.0</ele></trkpt>
    <trkpt lat="35.26472" lon="-120.41893"><ele>787.0</ele></trkpt>
    <trkpt lat="35.26481" lon="-120.41904"><ele>787.0</ele></trkpt>
    <trkpt lat="35.26484" lon="-120.41918"><ele>787.0</ele></trkpt>
    <trkpt lat="35.26482" lon="-120.41930"><ele>787.0</ele></trkpt>
    <trkpt lat="35.26476" lon="-120.41937"><ele>787.0</ele></trkpt>
    <trkpt lat="35.26465" lon="-120.41942"><ele>787.0</ele></trkpt>
    <trkpt lat="35.26455" lon="-120.41942"><ele>801.0</ele></trkpt>
    <trkpt lat="35.26449" lon="-120.41948"><ele>801.0</ele></trkpt>
    <trkpt lat="35.26447" lon="-120.41960"><ele>801.0</ele></trkpt>
    <trkpt lat="35.26447" lon="-120.41978"><ele>801.0</ele></trkpt>
    <trkpt lat="35.26445" lon="-120.42003"><ele>801.0</ele></trkpt>
    <trkpt lat="35.26436" lon="-120.42027"><ele>801.0</ele></trkpt>
    <trkpt lat="35.26429" lon="-120.42047"><ele>801.0</ele></trkpt>
    <trkpt lat="35.26421" lon="-120.42065"><ele>801.0</ele></trkpt>
    <trkpt lat="35.26406" lon="-120.42085"><ele>826.0</ele></trkpt>
    <trkpt lat="35.26386" lon="-120.42102"><ele>826.0</ele></trkpt>
    <trkpt lat="35.26368" lon="-120.42106"><ele>826.0</ele></trkpt>
    <trkpt lat="35.26361" lon="-120.42108"><ele>826.0</ele></trkpt>
    <trkpt lat="35.26353" lon="-120.42113"><ele>826.0</ele></trkpt>
    <trkpt lat="35.26348" lon="-120.42122"><ele>826.0</ele></trkpt>
    <trkpt lat="35.26351" lon="-120.42130"><ele>826.0</ele></trkpt>
    <trkpt lat="35.26359" lon="-120.42134"><ele>824.0</ele></trkpt>
    <trkpt lat="35.26372" lon="-120.42145"><ele>824.0</ele></trkpt>
    <trkpt lat="35.26378" lon="-120.42152"><ele>824.0</ele></trkpt>
    <trkpt lat="35.26384" lon="-120.42162"><ele>824.0</ele></trkpt>
    <trkpt lat="35.26382" lon="-120.42174"><ele>824.0</ele></trkpt>
    <trkpt lat="35.26375" lon="-120.42188"><ele>824.0</ele></trkpt>
    <trkpt lat="35.26365" lon="-120.42198"><ele>824.0</ele></trkpt>
    <trkpt lat="35.26358" lon="-120.42207"><ele>824.0</ele></trkpt>
    <trkpt lat="35.26356" lon="-120.42216"><ele>838.0</ele></trkpt>
    <trkpt lat="35.26362" lon="-120.42231"><ele>838.0</ele></trkpt>
    <trkpt lat="35.26370" lon="-120.42242"><ele>838.0</ele></trkpt>
    <trkpt lat="35.26375" lon="-120.42254"><ele>838.0</ele></trkpt>
    <trkpt lat="35.26377" lon="-120.42268"><ele>838.0</ele></trkpt>
    <trkpt lat="35.26378" lon="-120.42286"><ele>838.0</ele></trkpt>
    <trkpt lat="35.26379" lon="-120.42306"><ele>838.0</ele></trkpt>
    <trkpt lat="35.26375" lon="-120.42326"><ele>838.0</ele></trkpt>
    <trkpt lat="35.26372" lon="-120.42340"><ele>857.0</ele></trkpt>
    <trkpt lat="35.26367" lon="-120.42350"><ele>857.0</ele></trkpt>
    <trkpt lat="35.26354" lon="-120.42351"><ele>857.0</ele></trkpt>
    <trkpt lat="35.26338" lon="-120.42345"><ele>857.0</ele></trkpt>
    <trkpt lat="35.26331" lon="-120.42348"><ele>857.0</ele></trkpt>
    <trkpt lat="35.26327" lon="-120.42356"><ele>857.0</ele></trkpt>
    <trkpt lat="35.26326" lon="-120.42362"><ele>857.0</ele></trkpt>
    <trkpt lat="35.26322" lon="-120.42378"><ele>857.0</ele></trkpt>
    <trkpt lat="35.26320" lon="-120.42394"><ele>878.0</ele></trkpt>
    <trkpt lat="35.26312" lon="-120.42404"><ele>878.0</ele></trkpt>
    <trkpt lat="35.26295" lon="-120.42414"><ele>878.0</ele></trkpt>
    <trkpt lat="35.26283" lon="-120.42420"><ele>878.0</ele></trkpt>
    <trkpt lat="35.26274" lon="-120.42428"><ele>878.0</ele></trkpt>
    <trkpt lat="35.26270" lon="-120.42443"><ele>878.0</ele></trkpt>
    <trkpt lat="35.26270" lon="-120.42459"><ele>878.0</ele></trkpt>
    <trkpt lat="35.26273" lon="-120.42469"><ele>876.0</ele></trkpt>
    <trkpt lat="35.26280" lon="-120.42480"><ele>876.0</ele></trkpt>
    <trkpt lat="35.26287" lon="-120.42489"><ele>876.0</ele></trkpt>
    <trkpt lat="35.26293" lon="-120.42501"><ele>876.0</ele></trkpt>
    <trkpt lat="35.26297" lon="-120.42515"><ele>876.0</ele></trkpt>
    <trkpt lat="35.26296" lon="-120.42534"><ele>876.0</ele></trkpt>
    <trkpt lat="35.26291" lon="-120.42562"><ele>876.0</ele></trkpt>
    <trkpt lat="35.26284" lon="-120.42581"><ele>876.0</ele></trkpt>
    <trkpt lat="35.26276" lon="-120.42595"><ele>885.0</ele></trkpt>
    <trkpt lat="35.26269" lon="-120.42608"><ele>885.0</ele></trkpt>
    <trkpt lat="35.26254" lon="-120.42613"><ele>885.0</ele></trkpt>
    <trkpt lat="35.26235" lon="-120.42608"><ele>885.0</ele></trkpt>
    <trkpt lat="35.26221" lon="-120.42602"><ele>885.0</ele></trkpt>
    <trkpt lat="35.26201" lon="-120.42590"><ele>885.0</ele></trkpt>
    <trkpt lat="35.26189" lon="-120.42582"><ele>885.0</ele></trkpt>
    <trkpt lat="35.26177" lon="-120.42572"><ele>885.0</ele></trkpt>
    <trkpt lat="35.26167" lon="-120.42568"><ele>919.0</ele></trkpt>
    <trkpt lat="35.26158" lon="-120.42565"><ele>919.0</ele></trkpt>
    <trkpt lat="35.26149" lon="-120.42566"><ele>919.0</ele></trkpt>
    <trkpt lat="35.26145" lon="-120.42569"><ele>919.0</ele></trkpt>
    <trkpt lat="35.26144" lon="-120.42576"><ele>919.0</ele></trkpt>
    <trkpt lat="35.26144" lon="-120.42595"><ele>919.0</ele></trkpt>
    <trkpt lat="35.26145" lon="-120.42613"><ele>919.0</ele></trkpt>
    <trkpt lat="35.26150" lon="-120.42628"><ele>910.0</ele></trkpt>
    <trkpt lat="35.26151" lon="-120.42646"><ele>910.0</ele></trkpt>
    <trkpt lat="35.26148" lon="-120.42661"><ele>910.0</ele></trkpt>
    <trkpt lat="35.26144" lon="-120.42676"><ele>910.0</ele></trkpt>
    <trkpt lat="35.26129" lon="-120.42687"><ele>910.0</ele></trkpt>
    <trkpt lat="35.26115" lon="-120.42692"><ele>910.0</ele></trkpt>
    <trkpt lat="35.26102" lon="-120.42701"><ele>910.0</ele></trkpt>
    <trkpt lat="35.26090" lon="-120.42710"><ele>910.0</ele></trkpt>
    <trkpt lat="35.26085" lon="-120.42721"><ele>927.0</ele></trkpt>
    <trkpt lat="35.26081" lon="-120.42730"><ele>927.0</ele></trkpt>
    <trkpt lat="35.26082" lon="-120.42748"><ele>927.0</ele></trkpt>
    <trkpt lat="35.26090" lon="-120.42771"><ele>927.0</ele></trkpt>
    <trkpt lat="35.26093" lon="-120.42793"><ele>927.0</ele></trkpt>
    <trkpt lat="35.26094" lon="-120.42823"><ele>927.0</ele></trkpt>
    <trkpt lat="35.26097" lon="-120.42851"><ele>927.0</ele></trkpt>
    <trkpt lat="35.26093" lon="-120.42883"><ele>927.0</ele></trkpt>
    <trkpt lat="35.26097" lon="-120.42897"><ele>927.0</ele></trkpt>
    <trkpt lat="35.26104" lon="-120.42912"><ele>927.0</ele></trkpt>
    <trkpt lat="35.26116" lon="-120.42930"><ele>927.0</ele></trkpt>
    <trkpt lat="35.26124" lon="-120.42940"><ele>927.0</ele></trkpt>
    <trkpt lat="35.26130" lon="-120.42958"><ele>927.0</ele></trkpt>
    <trkpt lat="35.26135" lon="-120.42974"><ele>927.0</ele></trkpt>
    <trkpt lat="35.26137" lon="-120.42988"><ele>927.0</ele></trkpt>
    <trkpt lat="35.26128" lon="-120.42994"><ele>931.0</ele></trkpt>
    <trkpt lat="35.26115" lon="-120.43004"><ele>931.0</ele></trkpt>
    <trkpt lat="35.26105" lon="-120.43010"><ele>931.0</ele></trkpt>
    <trkpt lat="35.26093" lon="-120.43019"><ele>931.0</ele></trkpt>
    <trkpt lat="35.26082" lon="-120.43029"><ele>931.0</ele></trkpt>
    <trkpt lat="35.26077" lon="-120.43044"><ele>931.0</ele></trkpt>
    <trkpt lat="35.26080" lon="-120.43068"><ele>931.0</ele></trkpt>
    <trkpt lat="35.26080" lon="-120.43104"><ele>931.0</ele></trkpt>
    <trkpt lat="35.26079" lon="-120.43141"><ele>934.0</ele></trkpt>
    <trkpt lat="35.26083" lon="-120.43175"><ele>934.0</ele></trkpt>
    <trkpt lat="35.26081" lon="-120.43209"><ele>934.0</ele></trkpt>
    <trkpt lat="35.26080" lon="-120.43224"><ele>934.0</ele></trkpt>
    <trkpt lat="35.26082" lon="-120.43242"><ele>934.0</ele></trkpt>
    <trkpt lat="35.26091" lon="-120.43261"><ele>934.0</ele></trkpt>
    <trkpt lat="35.26101" lon="-120.43268"><ele>934.0</ele></trkpt>
    <trkpt lat="35.26118" lon="-120.43281"><ele>934.0</ele></trkpt>
    <trkpt lat="35.26138" lon="-120.43305"><ele>922.0</ele></trkpt>
    <trkpt lat="35.26149" lon="-120.43330"><ele>922.0</ele></trkpt>
    <trkpt lat="35.26162" lon="-120.43355"><ele>922.0</ele></trkpt>
    <trkpt lat="35.26179" lon="-120.43396"><ele>922.0</ele></trkpt>
    <trkpt lat="35.26204" lon="-120.43441"><ele>922.0</ele></trkpt>
    <trkpt lat="35.26214" lon="-120.43473"><ele>922.0</ele></trkpt>
    <trkpt lat="35.26222" lon="-120.43489"><ele>922.0</ele></trkpt>
    <trkpt lat="35.26228" lon="-120.43512"><ele>922.0</ele></trkpt>
    <trkpt lat="35.26229" lon="-120.43529"><ele>909.0</ele></trkpt>
    <trkpt lat="35.26228" lon="-120.43548"><ele>909.0</ele></trkpt>
    <trkpt lat="35.26228" lon="-120.43572"><ele>909.0</ele></trkpt>
    <trkpt lat="35.26227" lon="-120.43586"><ele>909.0</ele></trkpt>
    <trkpt lat="35.26228" lon="-120.43595"><ele>909.0</ele></trkpt>
    <trkpt lat="35.26235" lon="-120.43601"><ele>909.0</ele></trkpt>
    <trkpt lat="35.26246" lon="-120.43605"><ele>909.0</ele></trkpt>
    <trkpt lat="35.26261" lon="-120.43614"><ele>905.0</ele></trkpt>
    <trkpt lat="35.26279" lon="-120.43639"><ele>905.0</ele></trkpt>
    <trkpt lat="35.26304" lon="-120.43649"><ele>905.0</ele></trkpt>
    <trkpt lat="35.26317" lon="-120.43658"><ele>905.0</ele></trkpt>
    <trkpt lat="35.26330" lon="-120.43673"><ele>905.0</ele></trkpt>
    <trkpt lat="35.26335" lon="-120.43683"><ele>905.0</ele></trkpt>
    <trkpt lat="35.26341" lon="-120.43697"><ele>905.0</ele></trkpt>
    <trkpt lat="35.26345" lon="-120.43711"><ele>905.0</ele></trkpt>
    <trkpt lat="35.26349" lon="-120.43717"><ele>902.0</ele></trkpt>
    <trkpt lat="35.26362" lon="-120.43721"><ele>902.0</ele></trkpt>
    <trkpt lat="35.26370" lon="-120.43721"><ele>902.0</ele></trkpt>
    <trkpt lat="35.26386" lon="-120.43719"><ele>902.0</ele></trkpt>
    <trkpt lat="35.26399" lon="-120.43711"><ele>902.0</ele></trkpt>
    <trkpt lat="35.26413" lon="-120.43705"><ele>902.0</ele></trkpt>
    <trkpt lat="35.26420" lon="-120.43691"><ele>902.0</ele></trkpt>
    <trkpt lat="35.26428" lon="-120.43675"><ele>902.0</ele></trkpt>
    <trkpt lat="35.26444" lon="-120.43667"><ele>892.0</ele></trkpt>
    <trkpt lat="35.26459" lon="-120.43668"><ele>892.0</ele></trkpt>
    <trkpt lat="35.26473" lon="-120.43674"><ele>892.0</ele></trkpt>
    <trkpt lat="35.26483" lon="-120.43682"><ele>892.0</ele></trkpt>
    <trkpt lat="35.26491" lon="-120.43693"><ele>892.0</ele></trkpt>
    <trkpt lat="35.26495" lon="-120.43709"><ele>892.0</ele></trkpt>
    <trkpt lat="35.26497" lon="-120.43747"><ele>892.0</ele></trkpt>
    <trkpt lat="35.26496" lon="-120.43776"><ele>887.0</ele></trkpt>
    <trkpt lat="35.26497" lon="-120.43808"><ele>887.0</ele></trkpt>
    <trkpt lat="35.26492" lon="-120.43833"><ele>887.0</ele></trkpt>
    <trkpt lat="35.26476" lon="-120.43852"><ele>887.0</ele></trkpt>
    <trkpt lat="35.26459" lon="-120.43881"><ele>887.0</ele></trkpt>
    <trkpt lat="35.26443" lon="-120.43913"><ele>887.0</ele></trkpt>
    <trkpt lat="35.26428" lon="-120.43957"><ele>887.0</ele></trkpt>
    <trkpt lat="35.26418" lon="-120.43991"><ele>887.0</ele></trkpt>
    <trkpt lat="35.26412" lon="-120.44011"><ele>873.0</ele></trkpt>
    <trkpt lat="35.26411" lon="-120.44014"><ele>873.0</ele></trkpt>
    <trkpt lat="35.26397" lon="-120.44025"><ele>873.0</ele></trkpt>
    <trkpt lat="35.26388" lon="-120.44021"><ele>873.0</ele></trkpt>
    <trkpt lat="35.26381" lon="-120.44015"><ele>873.0</ele></trkpt>
    <trkpt lat="35.26368" lon="-120.44005"><ele>873.0</ele></trkpt>
    <trkpt lat="35.26357" lon="-120.43999"><ele>873.0</ele></trkpt>
    <trkpt lat="35.26331" lon="-120.43983"><ele>873.0</ele></trkpt>
    <trkpt lat="35.26315" lon="-120.43977"><ele>861.0</ele></trkpt>
    <trkpt lat="35.26299" lon="-120.43976"><ele>861.0</ele></trkpt>
    <trkpt lat="35.26286" lon="-120.43981"><ele>861.0</ele></trkpt>
    <trkpt lat="35.26237" lon="-120.44013"><ele>861.0</ele></trkpt>
    <trkpt lat="35.26228" lon="-120.44018"><ele>861.0</ele></trkpt>
    <trkpt lat="35.26216" lon="-120.44016"><ele>861.0</ele></trkpt>
    <trkpt lat="35.26192" lon="-120.44007"><ele>861.0</ele></trkpt>
    <trkpt lat="35.26141" lon="-120.43995"><ele>843.0</ele></trkpt>
    <trkpt lat="35.26121" lon="-120.43995"><ele>843.0</ele></trkpt>
    <trkpt lat="35.26112" lon="-120.43997"><ele>843.0</ele></trkpt>
    <trkpt lat="35.26107" lon="-120.44000"><ele>843.0</ele></trkpt>
    <trkpt lat="35.26105" lon="-120.44013"><ele>843.0</ele></trkpt>
    <trkpt lat="35.26106" lon="-120.44023"><ele>843.0</ele></trkpt>
    <trkpt lat="35.26111" lon="-120.44033"><ele>843.0</ele></trkpt>
    <trkpt lat="35.26119" lon="-120.44042"><ele>843.0</ele></trkpt>
    <trkpt lat="35.26127" lon="-120.44046"><ele>847.0</ele></trkpt>
    <trkpt lat="35.26135" lon="-120.44045"><ele>847.0</ele></trkpt>
    <trkpt lat="35.26150" lon="-120.44046"><ele>847.0</ele></trkpt>
    <trkpt lat="35.26165" lon="-120.44042"><ele>847.0</ele></trkpt>
    <trkpt lat="35.26187" lon="-120.44046"><ele>847.0</ele></trkpt>
    <trkpt lat="35.26198" lon="-120.44049"><ele>847.0</ele></trkpt>
    <trkpt lat="35.26216" lon="-120.44055"><ele>847.0</ele></trkpt>
    <trkpt lat="35.26244" lon="-120.44071"><ele>847.0</ele></trkpt>
    <trkpt lat="35.26287" lon="-120.44091"><ele>840.0</ele></trkpt>
    <trkpt lat="35.26313" lon="-120.44122"><ele>840.0</ele></trkpt>
    <trkpt lat="35.26324" lon="-120.44145"><ele>840.0</ele></trkpt>
    <trkpt lat="35.26326" lon="-120.44152"><ele>840.0</ele></trkpt>
    <trkpt lat="35.26337" lon="-120.44179"><ele>840.0</ele></trkpt>
    <trkpt lat="35.26353" lon="-120.44205"><ele>840.0</ele></trkpt>
    <trkpt lat="35.26367" lon="-120.44216"><ele>840.0</ele></trkpt>
    <trkpt lat="35.26381" lon="-120.44235"><ele>840.0</ele></trkpt>
    <trkpt lat="35.26393" lon="-120.44247"><ele>840.0</ele></trkpt>
    <trkpt lat="35.26402" lon="-120.44255"><ele>840.0</ele></trkpt>
    <trkpt lat="35.26421" lon="-120.44272"><ele>840.0</ele></trkpt>
    <trkpt lat="35.26435" lon="-120.44290"><ele>840.0</ele></trkpt>
    <trkpt lat="35.26455" lon="-120.44309"><ele>840.0</ele></trkpt>
    <trkpt lat="35.26468" lon="-120.44325"><ele>840.0</ele></trkpt>
    <trkpt lat="35.26483" lon="-120.44344"><ele>840.0</ele></trkpt>
    <trkpt lat="35.26492" lon="-120.44368"><ele>825.0</ele></trkpt>
    <trkpt lat="35.26500" lon="-120.44391"><ele>825.0</ele></trkpt>
    <trkpt lat="35.26503" lon="-120.44410"><ele>825.0</ele></trkpt>
    <trkpt lat="35.26506" lon="-120.44430"><ele>825.0</ele></trkpt>
    <trkpt lat="35.26510" lon="-120.44452"><ele>825.0</ele></trkpt>
    <trkpt lat="35.26517" lon="-120.44474"><ele>825.0</ele></trkpt>
    <trkpt lat="35.26525" lon="-120.44493"><ele>825.0</ele></trkpt>
    <trkpt lat="35.26529" lon="-120.44514"><ele>825.0</ele></trkpt>
    <trkpt lat="35.26529" lon="-120.44529"><ele>815.0</ele></trkpt>
    <trkpt lat="35.26531" lon="-120.44547"><ele>815.0</ele></trkpt>
    <trkpt lat="35.26534" lon="-120.44556"><ele>815.0</ele></trkpt>
    <trkpt lat="35.26536" lon="-120.44586"><ele>815.0</ele></trkpt>
    <trkpt lat="35.26538" lon="-120.44610"><ele>815.0</ele></trkpt>
    <trkpt lat="35.26538" lon="-120.44632"><ele>815.0</ele></trkpt>
    <trkpt lat="35.26533" lon="-120.44656"><ele>815.0</ele></trkpt>
    <trkpt lat="35.26534" lon="-120.44683"><ele>815.0</ele></trkpt>
    <trkpt lat="35.26530" lon="-120.44724"><ele>798.0</ele></trkpt>
    <trkpt lat="35.26531" lon="-120.44748"><ele>798.0</ele></trkpt>
    <trkpt lat="35.26531" lon="-120.44772"><ele>798.0</ele></trkpt>
    <trkpt lat="35.26534" lon="-120.44799"><ele>798.0</ele></trkpt>
    <trkpt lat="35.26541" lon="-120.44818"><ele>798.0</ele></trkpt>
    <trkpt lat="35.26550" lon="-120.44841"><ele>798.0</ele></trkpt>
    <trkpt lat="35.26559" lon="-120.44853"><ele>798.0</ele></trkpt>
    <trkpt lat="35.26573" lon="-120.44866"><ele>792.0</ele></trkpt>
    <trkpt lat="35.26582" lon="-120.44886"><ele>792.0</ele></trkpt>
    <trkpt lat="35.26587" lon="-120.44906"><ele>792.0</ele></trkpt>
    <trkpt lat="35.26588" lon="-120.44927"><ele>792.0</ele></trkpt>
    <trkpt lat="35.26584" lon="-120.44945"><ele>792.0</ele></trkpt>
    <trkpt lat="35.26579" lon="-120.44979"><ele>792.0</ele></trkpt>
    <trkpt lat="35.26581" lon="-120.45013"><ele>792.0</ele></trkpt>
    <trkpt lat="35.26584" lon="-120.45046"><ele>792.0</ele></trkpt>
    <trkpt lat="35.26586" lon="-120.45073"><ele>779.0</ele></trkpt>
    <trkpt lat="35.26588" lon="-120.45100"><ele>779.0</ele></trkpt>
    <trkpt lat="35.26585" lon="-120.45138"><ele>779.0</ele></trkpt>
    <trkpt lat="35.26581" lon="-120.45158"><ele>779.0</ele></trkpt>
    <trkpt lat="35.26583" lon="-120.45179"><ele>779.0</ele></trkpt>
    <trkpt lat="35.26586" lon="-120.45207"><ele>779.0</ele></trkpt>
    <trkpt lat="35.26591" lon="-120.45233"><ele>779.0</ele></trkpt>
    <trkpt lat="35.26596" lon="-120.45243"><ele>779.0</ele></trkpt>
    <trkpt lat="35.26598" lon="-120.45246"><ele>775.0</ele></trkpt>
    <trkpt lat="35.26609" lon="-120.45262"><ele>775.0</ele></trkpt>
    <trkpt lat="35.26616" lon="-120.45281"><ele>775.0</ele></trkpt>
    <trkpt lat="35.26625" lon="-120.45293"><ele>775.0</ele></trkpt>
    <trkpt lat="35.26634" lon="-120.45300"><ele>775.0</ele></trkpt>
    <trkpt lat="35.26643" lon="-120.45311"><ele>775.0</ele></trkpt>
    <trkpt lat="35.26657" lon="-120.45322"><ele>775.0</ele></trkpt>
    <trkpt lat="35.26679" lon="-120.45328"><ele>770.0</ele></trkpt>
    <trkpt lat="35.26699" lon="-120.45345"><ele>770.0</ele></trkpt>
    <trkpt lat="35.26708" lon="-120.45368"><ele>770.0</ele></trkpt>
    <trkpt lat="35.26718" lon="-120.45387"><ele>770.0</ele></trkpt>
    <trkpt lat="35.26725" lon="-120.45403"><ele>770.0</ele></trkpt>
    <trkpt lat="35.26730" lon="-120.45429"><ele>770.0</ele></trkpt>
    <trkpt lat="35.26738" lon="-120.45461"><ele>770.0</ele></trkpt>
    <trkpt lat="35.26748" lon="-120.45489"><ele>770.0</ele></trkpt>
    <trkpt lat="35.26755" lon="-120.45505"><ele>773.0</ele></trkpt>
    <trkpt lat="35.26762" lon="-120.45533"><ele>773.0</ele></trkpt>
    <trkpt lat="35.26762" lon="-120.45562"><ele>773.0</ele></trkpt>
    <trkpt lat="35.26760" lon="-120.45587"><ele>773.0</ele></trkpt>
    <trkpt lat="35.26762" lon="-120.45607"><ele>773.0</ele></trkpt>
    <trkpt lat="35.26769" lon="-120.45621"><ele>773.0</ele></trkpt>
    <trkpt lat="35.26778" lon="-120.45645"><ele>773.0</ele></trkpt>
    <trkpt lat="35.26782" lon="-120.45666"><ele>773.0</ele></trkpt>
    <trkpt lat="35.26783" lon="-120.45681"><ele>777.0</ele></trkpt>
    <trkpt lat="35.26773" lon="-120.45688"><ele>777.0</ele></trkpt>
    <trkpt lat="35.26758" lon="-120.45692"><ele>777.0</ele></trkpt>
    <trkpt lat="35.26733" lon="-120.45700"><ele>777.0</ele></trkpt>
    <trkpt lat="35.26718" lon="-120.45709"><ele>777.0</ele></trkpt>
    <trkpt lat="35.26703" lon="-120.45723"><ele>777.0</ele></trkpt>
    <trkpt lat="35.26700" lon="-120.45736"><ele>777.0</ele></trkpt>
    <trkpt lat="35.26699" lon="-120.45748"><ele>781.0</ele></trkpt>
    <trkpt lat="35.26703" lon="-120.45759"><ele>781.0</ele></trkpt>
    <trkpt lat="35.26717" lon="-120.45773"><ele>781.0</ele></trkpt>
    <trkpt lat="35.26732" lon="-120.45777"><ele>781.0</ele></trkpt>
    <trkpt lat="35.26747" lon="-120.45793"><ele>781.0</ele></trkpt>
    <trkpt lat="35.26757" lon="-120.45807"><ele>781.0</ele></trkpt>
    <trkpt lat="35.26768" lon="-120.45831"><ele>781.0</ele></trkpt>
    <trkpt lat="35.26784" lon="-120.45847"><ele>781.0</ele></trkpt>
    <trkpt lat="35.26806" lon="-120.45867"><ele>791.0</ele></trkpt>
    <trkpt lat="35.26832" lon="-120.45886"><ele>791.0</ele></trkpt>
    <trkpt lat="35.26871" lon="-120.45920"><ele>791.0</ele></trkpt>
    <trkpt lat="35.26889" lon="-120.45925"><ele>791.0</ele></trkpt>
    <trkpt lat="35.26905" lon="-120.45912"><ele>791.0</ele></trkpt>
    <trkpt lat="35.26912" lon="-120.45903"><ele>791.0</ele></trkpt>
    <trkpt lat="35.26922" lon="-120.45894"><ele>791.0</ele></trkpt>
    <trkpt lat="35.26934" lon="-120.45897"><ele>791.0</ele></trkpt>
    <trkpt lat="35.26945" lon="-120.45902"><ele>794.0</ele></trkpt>
    <trkpt lat="35.26961" lon="-120.45908"><ele>794.0</ele></trkpt>
    <trkpt lat="35.26971" lon="-120.45918"><ele>794.0</ele></trkpt>
    <trkpt lat="35.26986" lon="-120.45930"><ele>794.0</ele></trkpt>
    <trkpt lat="35.27000" lon="-120.45944"><ele>794.0</ele></trkpt>
    <trkpt lat="35.27009" lon="-120.45970"><ele>794.0</ele></trkpt>
    <trkpt lat="35.27010" lon="-120.45987"><ele>794.0</ele></trkpt>
    <trkpt lat="35.27016" lon="-120.46004"><ele>794.0</ele></trkpt>
    <trkpt lat="35.27025" lon="-120.46013"><ele>787.0</ele></trkpt>
    <trkpt lat="35.27037" lon="-120.46015"><ele>787.0</ele></trkpt>
    <trkpt lat="35.27047" lon="-120.46019"><ele>787.0</ele></trkpt>
    <trkpt lat="35.27058" lon="-120.46028"><ele>787.0</ele></trkpt>
    <trkpt lat="35.27068" lon="-120.46044"><ele>787.0</ele></trkpt>
    <trkpt lat="35.27076" lon="-120.46059"><ele>787.0</ele></trkpt>
    <trkpt lat="35.27079" lon="-120.46079"><ele>787.0</ele></trkpt>
    <trkpt lat="35.27080" lon="-120.46096"><ele>785.0</ele></trkpt>
    <trkpt lat="35.27080" lon="-120.46099"><ele>785.0</ele></trkpt>
    <trkpt lat="35.27082" lon="-120.46128"><ele>785.0</ele></trkpt>
    <trkpt lat="35.27080" lon="-120.46155"><ele>785.0</ele></trkpt>
    <trkpt lat="35.27080" lon="-120.46181"><ele>785.0</ele></trkpt>
    <trkpt lat="35.27084" lon="-120.46207"><ele>785.0</ele></trkpt>
    <trkpt lat="35.27089" lon="-120.46218"><ele>785.0</ele></trkpt>
    <trkpt lat="35.27097" lon="-120.46227"><ele>785.0</ele></trkpt>
    <trkpt lat="35.27109" lon="-120.46232"><ele>784.0</ele></trkpt>
    <trkpt lat="35.27125" lon="-120.46234"><ele>784.0</ele></trkpt>
    <trkpt lat="35.27132" lon="-120.46241"><ele>784.0</ele></trkpt>
    <trkpt lat="35.27136" lon="-120.46251"><ele>784.0</ele></trkpt>
    <trkpt lat="35.27139" lon="-120.46264"><ele>784.0</ele></trkpt>
    <trkpt lat="35.27141" lon="-120.46278"><ele>784.0</ele></trkpt>
    <trkpt lat="35.27142" lon="-120.46291"><ele>784.0</ele></trkpt>
    <trkpt lat="35.27144" lon="-120.46302"><ele>784.0</ele></trkpt>
    <trkpt lat="35.27149" lon="-120.46311"><ele>777.0</ele></trkpt>
    <trkpt lat="35.27157" lon="-120.46315"><ele>777.0</ele></trkpt>
    <trkpt lat="35.27169" lon="-120.46317"><ele>777.0</ele></trkpt>
    <trkpt lat="35.27181" lon="-120.46316"><ele>777.0</ele></trkpt>
    <trkpt lat="35.27193" lon="-120.46317"><ele>777.0</ele></trkpt>
    <trkpt lat="35.27207" lon="-120.46324"><ele>777.0</ele></trkpt>
    <trkpt lat="35.27215" lon="-120.46334"><ele>777.0</ele></trkpt>
    <trkpt lat="35.27223" lon="-120.46350"><ele>767.0</ele></trkpt>
    <trkpt lat="35.27231" lon="-120.46372"><ele>767.0</ele></trkpt>
    <trkpt lat="35.27231" lon="-120.46387"><ele>767.0</ele></trkpt>
    <trkpt lat="35.27231" lon="-120.46406"><ele>767.0</ele></trkpt>
    <trkpt lat="35.27234" lon="-120.46422"><ele>767.0</ele></trkpt>
    <trkpt lat="35.27238" lon="-120.46434"><ele>767.0</ele></trkpt>
    <trkpt lat="35.27244" lon="-120.46448"><ele>767.0</ele></trkpt>
    <trkpt lat="35.27251" lon="-120.46463"><ele>767.0</ele></trkpt>
    <trkpt lat="35.27266" lon="-120.46473"><ele>759.0</ele></trkpt>
    <trkpt lat="35.27274" lon="-120.46483"><ele>759.0</ele></trkpt>
    <trkpt lat="35.27282" lon="-120.46498"><ele>759.0</ele></trkpt>
    <trkpt lat="35.27285" lon="-120.46510"><ele>759.0</ele></trkpt>
    <trkpt lat="35.27284" lon="-120.46516"><ele>759.0</ele></trkpt>
    <trkpt lat="35.27283" lon="-120.46524"><ele>759.0</ele></trkpt>
    <trkpt lat="35.27277" lon="-120.46534"><ele>759.0</ele></trkpt>
    <trkpt lat="35.27267" lon="-120.46543"><ele>759.0</ele></trkpt>
    <trkpt lat="35.27252" lon="-120.46552"><ele>752.0</ele></trkpt>
    <trkpt lat="35.27241" lon="-120.46553"><ele>752.0</ele></trkpt>
    <trkpt lat="35.27232" lon="-120.46555"><ele>752.0</ele></trkpt>
    <trkpt lat="35.27221" lon="-120.46565"><ele>752.0</ele></trkpt>
    <trkpt lat="35.27214" lon="-120.46580"><ele>752.0</ele></trkpt>
    <trkpt lat="35.27214" lon="-120.46597"><ele>752.0</ele></trkpt>
    <trkpt lat="35.27216" lon="-120.46616"><ele>752.0</ele></trkpt>
    <trkpt lat="35.27218" lon="-120.46636"><ele>729.0</ele></trkpt>
    <trkpt lat="35.27217" lon="-120.46654"><ele>729.0</ele></trkpt>
    <trkpt lat="35.27212" lon="-120.46674"><ele>729.0</ele></trkpt>
    <trkpt lat="35.27204" lon="-120.46697"><ele>729.0</ele></trkpt>
    <trkpt lat="35.27199" lon="-120.46714"><ele>729.0</ele></trkpt>
    <trkpt lat="35.27200" lon="-120.46732"><ele>729.0</ele></trkpt>
    <trkpt lat="35.27213" lon="-120.46751"><ele>729.0</ele></trkpt>
    <trkpt lat="35.27223" lon="-120.46761"><ele>729.0</ele></trkpt>
    <trkpt lat="35.27229" lon="-120.46764"><ele>734.0</ele></trkpt>
    <trkpt lat="35.27240" lon="-120.46758"><ele>734.0</ele></trkpt>
    <trkpt lat="35.27256" lon="-120.46750"><ele>734.0</ele></trkpt>
    <trkpt lat="35.27273" lon="-120.46745"><ele>734.0</ele></trkpt>
    <trkpt lat="35.27287" lon="-120.46749"><ele>734.0</ele></trkpt>
    <trkpt lat="35.27298" lon="-120.46759"><ele>734.0</ele></trkpt>
    <trkpt lat="35.27305" lon="-120.46769"><ele>734.0</ele></trkpt>
    <trkpt lat="35.27313" lon="-120.46779"><ele>734.0</ele></trkpt>
    <trkpt lat="35.27324" lon="-120.46787"><ele>722.0</ele></trkpt>
    <trkpt lat="35.27334" lon="-120.46789"><ele>722.0</ele></trkpt>
    <trkpt lat="35.27349" lon="-120.46788"><ele>722.0</ele></trkpt>
    <trkpt lat="35.27364" lon="-120.46777"><ele>722.0</ele></trkpt>
    <trkpt lat="35.27375" lon="-120.46763"><ele>722.0</ele></trkpt>
    <trkpt lat="35.27388" lon="-120.46743"><ele>722.0</ele></trkpt>
    <trkpt lat="35.27397" lon="-120.46726"><ele>722.0</ele></trkpt>
    <trkpt lat="35.27405" lon="-120.46708"><ele>728.0</ele></trkpt>
    <trkpt lat="35.27409" lon="-120.46686"><ele>728.0</ele></trkpt>
    <trkpt lat="35.27410" lon="-120.46670"><ele>728.0</ele></trkpt>
    <trkpt lat="35.27414" lon="-120.46656"><ele>728.0</ele></trkpt>
    <trkpt lat="35.27427" lon="-120.46641"><ele>728.0</ele></trkpt>
    <trkpt lat="35.27448" lon="-120.46627"><ele>728.0</ele></trkpt>
    <trkpt lat="35.27458" lon="-120.46629"><ele>728.0</ele></trkpt>
    <trkpt lat="35.27463" lon="-120.46649"><ele>728.0</ele></trkpt>
    <trkpt lat="35.27479" lon="-120.46683"><ele>707.0</ele></trkpt>
    <trkpt lat="35.27498" lon="-120.46720"><ele>707.0</ele></trkpt>
    <trkpt lat="35.27522" lon="-120.46738"><ele>707.0</ele></trkpt>
    <trkpt lat="35.27566" lon="-120.46772"><ele>707.0</ele></trkpt>
    <trkpt lat="35.27585" lon="-120.46789"><ele>707.0</ele></trkpt>
    <trkpt lat="35.27599" lon="-120.46808"><ele>707.0</ele></trkpt>
    <trkpt lat="35.27611" lon="-120.46826"><ele>707.0</ele></trkpt>
    <trkpt lat="35.27622" lon="-120.46846"><ele>707.0</ele></trkpt>
    <trkpt lat="35.27631" lon="-120.46867"><ele>709.0</ele></trkpt>
    <trkpt lat="35.27637" lon="-120.46889"><ele>709.0</ele></trkpt>
    <trkpt lat="35.27639" lon="-120.46905"><ele>709.0</ele></trkpt>
    <trkpt lat="35.27639" lon="-120.46923"><ele>709.0</ele></trkpt>
    <trkpt lat="35.27636" lon="-120.46936"><ele>709.0</ele></trkpt>
    <trkpt lat="35.27631" lon="-120.46944"><ele>709.0</ele></trkpt>
    <trkpt lat="35.27621" lon="-120.46946"><ele>709.0</ele></trkpt>
    <trkpt lat="35.27600" lon="-120.46950"><ele>709.0</ele></trkpt>
    <trkpt lat="35.27583" lon="-120.46949"><ele>706.0</ele></trkpt>
    <trkpt lat="35.27570" lon="-120.46954"><ele>706.0</ele></trkpt>
    <trkpt lat="35.27560" lon="-120.46961"><ele>706.0</ele></trkpt>
    <trkpt lat="35.27551" lon="-120.46972"><ele>706.0</ele></trkpt>
    <trkpt lat="35.27543" lon="-120.46985"><ele>706.0</ele></trkpt>
    <trkpt lat="35.27536" lon="-120.47008"><ele>706.0</ele></trkpt>
    <trkpt lat="35.27533" lon="-120.47042"><ele>706.0</ele></trkpt>
    <trkpt lat="35.27533" lon="-120.47061"><ele>708.0</ele></trkpt>
    <trkpt lat="35.27534" lon="-120.47086"><ele>708.0</ele></trkpt>
    <trkpt lat="35.27536" lon="-120.47110"><ele>708.0</ele></trkpt>
    <trkpt lat="35.27536" lon="-120.47129"><ele>708.0</ele></trkpt>
    <trkpt lat="35.27531" lon="-120.47140"><ele>708.0</ele></trkpt>
    <trkpt lat="35.27524" lon="-120.47147"><ele>708.0</ele></trkpt>
    <trkpt lat="35.27506" lon="-120.47140"><ele>708.0</ele></trkpt>
    <trkpt lat="35.27490" lon="-120.47136"><ele>708.0</ele></trkpt>
    <trkpt lat="35.27475" lon="-120.47135"><ele>689.0</ele></trkpt>
    <trkpt lat="35.27465" lon="-120.47140"><ele>689.0</ele></trkpt>
    <trkpt lat="35.27460" lon="-120.47154"><ele>689.0</ele></trkpt>
    <trkpt lat="35.27460" lon="-120.47169"><ele>689.0</ele></trkpt>
    <trkpt lat="35.27460" lon="-120.47186"><ele>689.0</ele></trkpt>
    <trkpt lat="35.27454" lon="-120.47207"><ele>689.0</ele></trkpt>
    <trkpt lat="35.27448" lon="-120.47229"><ele>689.0</ele></trkpt>
    <trkpt lat="35.27440" lon="-120.47249"><ele>689.0</ele></trkpt>
    <trkpt lat="35.27437" lon="-120.47266"><ele>680.0</ele></trkpt>
    <trkpt lat="35.27437" lon="-120.47281"><ele>680.0</ele></trkpt>
    <trkpt lat="35.27445" lon="-120.47302"><ele>680.0</ele></trkpt>
    <trkpt lat="35.27453" lon="-120.47322"><ele>680.0</ele></trkpt>
    <trkpt lat="35.27463" lon="-120.47336"><ele>680.0</ele></trkpt>
    <trkpt lat="35.27471" lon="-120.47348"><ele>680.0</ele></trkpt>
    <trkpt lat="35.27474" lon="-120.47369"><ele>680.0</ele></trkpt>
    <trkpt lat="35.27477" lon="-120.47382"><ele>688.0</ele></trkpt>
    <trkpt lat="35.27472" lon="-120.47392"><ele>688.0</ele></trkpt>
    <trkpt lat="35.27453" lon="-120.47404"><ele>688.0</ele></trkpt>
    <trkpt lat="35.27409" lon="-120.47399"><ele>688.0</ele></trkpt>
    <trkpt lat="35.27389" lon="-120.47393"><ele>688.0</ele></trkpt>
    <trkpt lat="35.27364" lon="-120.47384"><ele>688.0</ele></trkpt>
    <trkpt lat="35.27350" lon="-120.47378"><ele>688.0</ele></trkpt>
    <trkpt lat="35.27337" lon="-120.47371"><ele>688.0</ele></trkpt>
    <trkpt lat="35.27325" lon="-120.47369"><ele>666.0</ele></trkpt>
    <trkpt lat="35.27314" lon="-120.47372"><ele>666.0</ele></trkpt>
    <trkpt lat="35.27302" lon="-120.47381"><ele>666.0</ele></trkpt>
    <trkpt lat="35.27288" lon="-120.47406"><ele>666.0</ele></trkpt>
    <trkpt lat="35.27274" lon="-120.47428"><ele>666.0</ele></trkpt>
    <trkpt lat="35.27264" lon="-120.47452"><ele>666.0</ele></trkpt>
    <trkpt lat="35.27258" lon="-120.47467"><ele>666.0</ele></trkpt>
    <trkpt lat="35.27257" lon="-120.47486"><ele>666.0</ele></trkpt>
    <trkpt lat="35.27265" lon="-120.47500"><ele>661.0</ele></trkpt>
    <trkpt lat="35.27282" lon="-120.47518"><ele>661.0</ele></trkpt>
    <trkpt lat="35.27295" lon="-120.47537"><ele>661.0</ele></trkpt>
    <trkpt lat="35.27314" lon="-120.47555"><ele>661.0</ele></trkpt>
    <trkpt lat="35.27334" lon="-120.47579"><ele>661.0</ele></trkpt>
    <trkpt lat="35.27345" lon="-120.47609"><ele>661.0</ele></trkpt>
    <trkpt lat="35.27351" lon="-120.47626"><ele>661.0</ele></trkpt>
    <trkpt lat="35.27358" lon="-120.47647"><ele>644.0</ele></trkpt>
    <trkpt lat="35.27364" lon="-120.47665"><ele>644.0</ele></trkpt>
    <trkpt lat="35.27387" lon="-120.47689"><ele>644.0</ele></trkpt>
    <trkpt lat="35.27409" lon="-120.47713"><ele>644.0</ele></trkpt>
    <trkpt lat="35.27424" lon="-120.47723"><ele>644.0</ele></trkpt>
    <trkpt lat="35.27435" lon="-120.47725"><ele>644.0</ele></trkpt>
    <trkpt lat="35.27447" lon="-120.47723"><ele>644.0</ele></trkpt>
    <trkpt lat="35.27461" lon="-120.47719"><ele>644.0</ele></trkpt>
    <trkpt lat="35.27473" lon="-120.47719"><ele>646.0</ele></trkpt>
    <trkpt lat="35.27484" lon="-120.47727"><ele>646.0</ele></trkpt>
    <trkpt lat="35.27499" lon="-120.47743"><ele>646.0</ele></trkpt>
    <trkpt lat="35.27507" lon="-120.47770"><ele>646.0</ele></trkpt>
    <trkpt lat="35.27509" lon="-120.47810"><ele>646.0</ele></trkpt>
    <trkpt lat="35.27506" lon="-120.47836"><ele>646.0</ele></trkpt>
    <trkpt lat="35.27491" lon="-120.47876"><ele>646.0</ele></trkpt>
    <trkpt lat="35.27485" lon="-120.47902"><ele>646.0</ele></trkpt>
    <trkpt lat="35.27483" lon="-120.47915"><ele>617.0</ele></trkpt>
    <trkpt lat="35.27471" lon="-120.47951"><ele>617.0</ele></trkpt>
    <trkpt lat="35.27460" lon="-120.47973"><ele>617.0</ele></trkpt>
    <trkpt lat="35.27454" lon="-120.47993"><ele>617.0</ele></trkpt>
    <trkpt lat="35.27454" lon="-120.47993"><ele>617.0</ele></trkpt>
    <trkpt lat="35.27454" lon="-120.48013"><ele>617.0</ele></trkpt>
    <trkpt lat="35.27453" lon="-120.48024"><ele>617.0</ele></trkpt>
    <trkpt lat="35.27457" lon="-120.48044"><ele>617.0</ele></trkpt>
    <trkpt lat="35.27465" lon="-120.48060"><ele>608.0</ele></trkpt>
    <trkpt lat="35.27472" lon="-120.48070"><ele>608.0</ele></trkpt>
    <trkpt lat="35.27484" lon="-120.48079"><ele>608.0</ele></trkpt>
    <trkpt lat="35.27501" lon="-120.48073"><ele>608.0</ele></trkpt>
    <trkpt lat="35.27513" lon="-120.48052"><ele>608.0</ele></trkpt>
    <trkpt lat="35.27522" lon="-120.48041"><ele>608.0</ele></trkpt>
    <trkpt lat="35.27535" lon="-120.48041"><ele>608.0</ele></trkpt>
    <trkpt lat="35.27553" lon="-120.48045"><ele>606.0</ele></trkpt>
    <trkpt lat="35.27573" lon="-120.48054"><ele>606.0</ele></trkpt>
    <trkpt lat="35.27593" lon="-120.48060"><ele>606.0</ele></trkpt>
    <trkpt lat="35.27608" lon="-120.48057"><ele>606.0</ele></trkpt>
    <trkpt lat="35.27622" lon="-120.48053"><ele>606.0</ele></trkpt>
    <trkpt lat="35.27639" lon="-120.48044"><ele>606.0</ele></trkpt>
    <trkpt lat="35.27650" lon="-120.48033"><ele>606.0</ele></trkpt>
    <trkpt lat="35.27663" lon="-120.48023"><ele>606.0</ele></trkpt>
    <trkpt lat="35.27675" lon="-120.48019"><ele>615.0</ele></trkpt>
    <trkpt lat="35.27690" lon="-120.48019"><ele>615.0</ele></trkpt>
    <trkpt lat="35.27700" lon="-120.48024"><ele>615.0</ele></trkpt>
    <trkpt lat="35.27710" lon="-120.48037"><ele>615.0</ele></trkpt>
    <trkpt lat="35.27717" lon="-120.48058"><ele>615.0</ele></trkpt>
    <trkpt lat="35.27728" lon="-120.48085"><ele>615.0</ele></trkpt>
    <trkpt lat="35.27734" lon="-120.48112"><ele>615.0</ele></trkpt>
    <trkpt lat="35.27726" lon="-120.48147"><ele>615.0</ele></trkpt>
    <trkpt lat="35.27722" lon="-120.48158"><ele>605.0</ele></trkpt>
    <trkpt lat="35.27724" lon="-120.48177"><ele>605.0</ele></trkpt>
    <trkpt lat="35.27726" lon="-120.48202"><ele>605.0</ele></trkpt>
    <trkpt lat="35.27723" lon="-120.48222"><ele>605.0</ele></trkpt>
    <trkpt lat="35.27713" lon="-120.48232"><ele>605.0</ele></trkpt>
    <trkpt lat="35.27691" lon="-120.48232"><ele>605.0</ele></trkpt>
    <trkpt lat="35.27670" lon="-120.48225"><ele>605.0</ele></trkpt>
    <trkpt lat="35.27651" lon="-120.48226"><ele>595.0</ele></trkpt>
    <trkpt lat="35.27631" lon="-120.48232"><ele>595.0</ele></trkpt>
    <trkpt lat="35.27620" lon="-120.48241"><ele>595.0</ele></trkpt>
    <trkpt lat="35.27611" lon="-120.48258"><ele>595.0</ele></trkpt>
    <trkpt lat="35.27604" lon="-120.48279"><ele>595.0</ele></trkpt>
    <trkpt lat="35.27603" lon="-120.48293"><ele>595.0</ele></trkpt>
    <trkpt lat="35.27605" lon="-120.48312"><ele>595.0</ele></trkpt>
    <trkpt lat="35.27611" lon="-120.48319"><ele>595.0</ele></trkpt>
    <trkpt lat="35.27633" lon="-120.48325"><ele>615.0</ele></trkpt>
    <trkpt lat="35.27656" lon="-120.48326"><ele>615.0</ele></trkpt>
    <trkpt lat="35.27668" lon="-120.48328"><ele>615.0</ele></trkpt>
    <trkpt lat="35.27683" lon="-120.48333"><ele>615.0</ele></trkpt>
    <trkpt lat="35.27693" lon="-120.48339"><ele>615.0</ele></trkpt>
    <trkpt lat="35.27701" lon="-120.48347"><ele>615.0</ele></trkpt>
    <trkpt lat="35.27698" lon="-120.48371"><ele>615.0</ele></trkpt>
    <trkpt lat="35.27676" lon="-120.48379"><ele>615.0</ele></trkpt>
    <trkpt lat="35.27654" lon="-120.48383"><ele>613.0</ele></trkpt>
    <trkpt lat="35.27636" lon="-120.48398"><ele>613.0</ele></trkpt>
    <trkpt lat="35.27622" lon="-120.48417"><ele>613.0</ele></trkpt>
    <trkpt lat="35.27615" lon="-120.48433"><ele>613.0</ele></trkpt>
    <trkpt lat="35.27610" lon="-120.48447"><ele>613.0</ele></trkpt>
    <trkpt lat="35.27607" lon="-120.48468"><ele>613.0</ele></trkpt>
    <trkpt lat="35.27610" lon="-120.48484"><ele>613.0</ele></trkpt>
    <trkpt lat="35.27615" lon="-120.48495"><ele>627.0</ele></trkpt>
    <trkpt lat="35.27623" lon="-120.48506"><ele>627.0</ele></trkpt>
    <trkpt lat="35.27640" lon="-120.48514"><ele>627.0</ele></trkpt>
    <trkpt lat="35.27650" lon="-120.48518"><ele>627.0</ele></trkpt>
    <trkpt lat="35.27665" lon="-120.48531"><ele>627.0</ele></trkpt>
    <trkpt lat="35.27680" lon="-120.48561"><ele>627.0</ele></trkpt>
    <trkpt lat="35.27691" lon="-120.48586"><ele>627.0</ele></trkpt>
    <trkpt lat="35.27705" lon="-120.48607"><ele>627.0</ele></trkpt>
    <trkpt lat="35.27713" lon="-120.48624"><ele>649.0</ele></trkpt>
    <trkpt lat="35.27720" lon="-120.48645"><ele>649.0</ele></trkpt>
    <trkpt lat="35.27728" lon="-120.48669"><ele>649.0</ele></trkpt>
    <trkpt lat="35.27736" lon="-120.48691"><ele>649.0</ele></trkpt>
    <trkpt lat="35.27744" lon="-120.48714"><ele>649.0</ele></trkpt>
    <trkpt lat="35.27747" lon="-120.48738"><ele>649.0</ele></trkpt>
    <trkpt lat="35.27741" lon="-120.48754"><ele>649.0</ele></trkpt>
    <trkpt lat="35.27728" lon="-120.48766"><ele>649.0</ele></trkpt>
    <trkpt lat="35.27714" lon="-120.48767"><ele>654.0</ele></trkpt>
    <trkpt lat="35.27697" lon="-120.48755"><ele>654.0</ele></trkpt>
    <trkpt lat="35.27681" lon="-120.48745"><ele>654.0</ele></trkpt>
    <trkpt lat="35.27669" lon="-120.48738"><ele>654.0</ele></trkpt>
    <trkpt lat="35.27657" lon="-120.48736"><ele>654.0</ele></trkpt>
    <trkpt lat="35.27636" lon="-120.48735"><ele>654.0</ele></trkpt>
    <trkpt lat="35.27620" lon="-120.48737"><ele>654.0</ele></trkpt>
    <trkpt lat="35.27611" lon="-120.48737"><ele>654.0</ele></trkpt>
    <trkpt lat="35.27596" lon="-120.48741"><ele>637.0</ele></trkpt>
    <trkpt lat="35.27580" lon="-120.48747"><ele>637.0</ele></trkpt>
    <trkpt lat="35.27565" lon="-120.48753"><ele>637.0</ele></trkpt>
    <trkpt lat="35.27555" lon="-120.48770"><ele>637.0</ele></trkpt>
    <trkpt lat="35.27556" lon="-120.48789"><ele>637.0</ele></trkpt>
    <trkpt lat="35.27557" lon="-120.48800"><ele>637.0</ele></trkpt>
    <trkpt lat="35.27563" lon="-120.48806"><ele>637.0</ele></trkpt>
    <trkpt lat="35.27577" lon="-120.48808"><ele>655.0</ele></trkpt>
    <trkpt lat="35.27597" lon="-120.48814"><ele>655.0</ele></trkpt>
    <trkpt lat="35.27623" lon="-120.48820"><ele>655.0</ele></trkpt>
    <trkpt lat="35.27630" lon="-120.48830"><ele>655.0</ele></trkpt>
    <trkpt lat="35.27640" lon="-120.48846"><ele>655.0</ele></trkpt>
    <trkpt lat="35.27644" lon="-120.48866"><ele>655.0</ele></trkpt>
    <trkpt lat="35.27649" lon="-120.48899"><ele>655.0</ele></trkpt>
    <trkpt lat="35.27658" lon="-120.48928"><ele>655.0</ele></trkpt>
    <trkpt lat="35.27668" lon="-120.48948"><ele>662.0</ele></trkpt>
    <trkpt lat="35.27679" lon="-120.48960"><ele>662.0</ele></trkpt>
    <trkpt lat="35.27695" lon="-120.48966"><ele>662.0</ele></trkpt>
    <trkpt lat="35.27714" lon="-120.48967"><ele>662.0</ele></trkpt>
    <trkpt lat="35.27723" lon="-120.48971"><ele>662.0</ele></trkpt>
    <trkpt lat="35.27744" lon="-120.48992"><ele>662.0</ele></trkpt>
    <trkpt lat="35.27760" lon="-120.49011"><ele>662.0</ele></trkpt>
    <trkpt lat="35.27773" lon="-120.49030"><ele>662.0</ele></trkpt>
    <trkpt lat="35.27778" lon="-120.49042"><ele>661.0</ele></trkpt>
    <trkpt lat="35.27782" lon="-120.49063"><ele>661.0</ele></trkpt>
    <trkpt lat="35.27789" lon="-120.49093"><ele>661.0</ele></trkpt>
    <trkpt lat="35.27800" lon="-120.49123"><ele>661.0</ele></trkpt>
    <trkpt lat="35.27811" lon="-120.49143"><ele>661.0</ele></trkpt>
    <trkpt lat="35.27825" lon="-120.49160"><ele>661.0</ele></trkpt>
    <trkpt lat="35.27843" lon="-120.49177"><ele>661.0</ele></trkpt>
    <trkpt lat="35.27860" lon="-120.49195"><ele>664.0</ele></trkpt>
    <trkpt lat="35.27876" lon="-120.49208"><ele>664.0</ele></trkpt>
    <trkpt lat="35.27891" lon="-120.49213"><ele>664.0</ele></trkpt>
    <trkpt lat="35.27904" lon="-120.49221"><ele>664.0</ele></trkpt>
    <trkpt lat="35.27919" lon="-120.49229"><ele>664.0</ele></trkpt>
    <trkpt lat="35.27928" lon="-120.49233"><ele>664.0</ele></trkpt>
    <trkpt lat="35.27937" lon="-120.49241"><ele>664.0</ele></trkpt>
    <trkpt lat="35.27944" lon="-120.49249"><ele>664.0</ele></trkpt>
    <trkpt lat="35.27945" lon="-120.49258"><ele>661.0</ele></trkpt>
    <trkpt lat="35.27940" lon="-120.49265"><ele>661.0</ele></trkpt>
    <trkpt lat="35.27934" lon="-120.49278"><ele>661.0</ele></trkpt>
    <trkpt lat="35.27924" lon="-120.49284"><ele>661.0</ele></trkpt>
  </trkseg></trk>
</gpx>
