<?xml version="1.0" encoding="UTF-8"?>
<gpx version="1.1" creator="dirt-bikes build-area-routes (MVUM geometry + SRTM elevation)" xmlns="http://www.topografix.com/GPX/1/1">
  <trk><name>High Point Road</name><trkseg>
    <trkpt lat="33.44032" lon="-116.85696"><ele>610.0</ele></trkpt>
    <trkpt lat="33.43980" lon="-116.85713"><ele>610.0</ele></trkpt>
    <trkpt lat="33.43902" lon="-116.85773"><ele>610.0</ele></trkpt>
    <trkpt lat="33.43863" lon="-116.85778"><ele>606.0</ele></trkpt>
    <trkpt lat="33.43822" lon="-116.85804"><ele>606.0</ele></trkpt>
    <trkpt lat="33.43795" lon="-116.85864"><ele>606.0</ele></trkpt>
    <trkpt lat="33.43785" lon="-116.85880"><ele>606.0</ele></trkpt>
    <trkpt lat="33.43750" lon="-116.85899"><ele>604.0</ele></trkpt>
    <trkpt lat="33.43665" lon="-116.85888"><ele>604.0</ele></trkpt>
    <trkpt lat="33.43618" lon="-116.85867"><ele>604.0</ele></trkpt>
    <trkpt lat="33.43493" lon="-116.85799"><ele>604.0</ele></trkpt>
    <trkpt lat="33.43411" lon="-116.85777"><ele>611.0</ele></trkpt>
    <trkpt lat="33.43382" lon="-116.85787"><ele>611.0</ele></trkpt>
    <trkpt lat="33.43346" lon="-116.85805"><ele>611.0</ele></trkpt>
    <trkpt lat="33.43346" lon="-116.85805"><ele>611.0</ele></trkpt>
    <trkpt lat="33.43342" lon="-116.85807"><ele>611.0</ele></trkpt>
    <trkpt lat="33.43275" lon="-116.85873"><ele>619.0</ele></trkpt>
    <trkpt lat="33.43259" lon="-116.85866"><ele>619.0</ele></trkpt>
    <trkpt lat="33.43242" lon="-116.85846"><ele>619.0</ele></trkpt>
    <trkpt lat="33.43198" lon="-116.85830"><ele>619.0</ele></trkpt>
    <trkpt lat="33.43140" lon="-116.85810"><ele>646.0</ele></trkpt>
    <trkpt lat="33.43057" lon="-116.85745"><ele>646.0</ele></trkpt>
    <trkpt lat="33.43035" lon="-116.85739"><ele>646.0</ele></trkpt>
    <trkpt lat="33.43019" lon="-116.85758"><ele>646.0</ele></trkpt>
    <trkpt lat="33.43035" lon="-116.85812"><ele>646.0</ele></trkpt>
    <trkpt lat="33.43027" lon="-116.85843"><ele>646.0</ele></trkpt>
    <trkpt lat="33.42931" lon="-116.85939"><ele>646.0</ele></trkpt>
    <trkpt lat="33.42885" lon="-116.85965"><ele>646.0</ele></trkpt>
    <trkpt lat="33.42830" lon="-116.85978"><ele>660.0</ele></trkpt>
    <trkpt lat="33.42806" lon="-116.85989"><ele>660.0</ele></trkpt>
    <trkpt lat="33.42753" lon="-116.85976"><ele>660.0</ele></trkpt>
    <trkpt lat="33.42704" lon="-116.85983"><ele>660.0</ele></trkpt>
    <trkpt lat="33.42645" lon="-116.85968"><ele>660.0</ele></trkpt>
    <trkpt lat="33.42596" lon="-116.85949"><ele>685.0</ele></trkpt>
    <trkpt lat="33.42541" lon="-116.85900"><ele>685.0</ele></trkpt>
    <trkpt lat="33.42540" lon="-116.85860"><ele>685.0</ele></trkpt>
    <trkpt lat="33.42517" lon="-116.85845"><ele>685.0</ele></trkpt>
    <trkpt lat="33.42480" lon="-116.85821"><ele>711.0</ele></trkpt>
    <trkpt lat="33.42442" lon="-116.85740"><ele>711.0</ele></trkpt>
    <trkpt lat="33.42450" lon="-116.85693"><ele>711.0</ele></trkpt>
    <trkpt lat="33.42450" lon="-116.85675"><ele>711.0</ele></trkpt>
    <trkpt lat="33.42429" lon="-116.85653"><ele>713.0</ele></trkpt>
    <trkpt lat="33.42341" lon="-116.85666"><ele>713.0</ele></trkpt>
    <trkpt lat="33.42286" lon="-116.85700"><ele>713.0</ele></trkpt>
    <trkpt lat="33.42261" lon="-116.85738"><ele>713.0</ele></trkpt>
    <trkpt lat="33.42221" lon="-116.85756"><ele>719.0</ele></trkpt>
    <trkpt lat="33.42187" lon="-116.85765"><ele>719.0</ele></trkpt>
    <trkpt lat="33.42161" lon="-116.85761"><ele>719.0</ele></trkpt>
    <trkpt lat="33.42133" lon="-116.85734"><ele>719.0</ele></trkpt>
    <trkpt lat="33.42093" lon="-116.85676"><ele>719.0</ele></trkpt>
    <trkpt lat="33.42027" lon="-116.85649"><ele>725.0</ele></trkpt>
    <trkpt lat="33.41956" lon="-116.85615"><ele>725.0</ele></trkpt>
    <trkpt lat="33.41860" lon="-116.85569"><ele>725.0</ele></trkpt>
    <trkpt lat="33.41712" lon="-116.85498"><ele>725.0</ele></trkpt>
    <trkpt lat="33.41701" lon="-116.85479"><ele>753.0</ele></trkpt>
    <trkpt lat="33.41658" lon="-116.85449"><ele>753.0</ele></trkpt>
    <trkpt lat="33.41576" lon="-116.85408"><ele>753.0</ele></trkpt>
    <trkpt lat="33.41505" lon="-116.85387"><ele>753.0</ele></trkpt>
    <trkpt lat="33.41452" lon="-116.85356"><ele>766.0</ele></trkpt>
    <trkpt lat="33.41421" lon="-116.85318"><ele>766.0</ele></trkpt>
    <trkpt lat="33.41374" lon="-116.85277"><ele>766.0</ele></trkpt>
    <trkpt lat="33.41354" lon="-116.85252"><ele>766.0</ele></trkpt>
    <trkpt lat="33.41312" lon="-116.85213"><ele>779.0</ele></trkpt>
    <trkpt lat="33.41280" lon="-116.85152"><ele>779.0</ele></trkpt>
    <trkpt lat="33.41277" lon="-116.85128"><ele>779.0</ele></trkpt>
    <trkpt lat="33.41269" lon="-116.85079"><ele>779.0</ele></trkpt>
    <trkpt lat="33.41224" lon="-116.85022"><ele>779.0</ele></trkpt>
    <trkpt lat="33.41199" lon="-116.85019"><ele>790.0</ele></trkpt>
    <trkpt lat="33.41174" lon="-116.85045"><ele>790.0</ele></trkpt>
    <trkpt lat="33.41165" lon="-116.85044"><ele>790.0</ele></trkpt>
    <trkpt lat="33.41136" lon="-116.85014"><ele>790.0</ele></trkpt>
    <trkpt lat="33.41125" lon="-116.84980"><ele>799.0</ele></trkpt>
    <trkpt lat="33.41081" lon="-116.84948"><ele>799.0</ele></trkpt>
    <trkpt lat="33.41024" lon="-116.84847"><ele>799.0</ele></trkpt>
    <trkpt lat="33.41008" lon="-116.84824"><ele>799.0</ele></trkpt>
    <trkpt lat="33.40986" lon="-116.84811"><ele>814.0</ele></trkpt>
    <trkpt lat="33.40980" lon="-116.84796"><ele>814.0</ele></trkpt>
    <trkpt lat="33.40983" lon="-116.84720"><ele>814.0</ele></trkpt>
    <trkpt lat="33.40928" lon="-116.84638"><ele>814.0</ele></trkpt>
    <trkpt lat="33.40867" lon="-116.84602"><ele>838.0</ele></trkpt>
    <trkpt lat="33.40812" lon="-116.84536"><ele>838.0</ele></trkpt>
    <trkpt lat="33.40780" lon="-116.84516"><ele>838.0</ele></trkpt>
    <trkpt lat="33.40711" lon="-116.84457"><ele>838.0</ele></trkpt>
    <trkpt lat="33.40658" lon="-116.84463"><ele>865.0</ele></trkpt>
    <trkpt lat="33.40644" lon="-116.84481"><ele>865.0</ele></trkpt>
    <trkpt lat="33.40636" lon="-116.84510"><ele>865.0</ele></trkpt>
    <trkpt lat="33.40587" lon="-116.84534"><ele>865.0</ele></trkpt>
    <trkpt lat="33.40570" lon="-116.84564"><ele>865.0</ele></trkpt>
    <trkpt lat="33.40557" lon="-116.84576"><ele>880.0</ele></trkpt>
    <trkpt lat="33.40540" lon="-116.84568"><ele>880.0</ele></trkpt>
    <trkpt lat="33.40508" lon="-116.84582"><ele>880.0</ele></trkpt>
    <trkpt lat="33.40499" lon="-116.84599"><ele>880.0</ele></trkpt>
    <trkpt lat="33.40457" lon="-116.84631"><ele>904.0</ele></trkpt>
    <trkpt lat="33.40444" lon="-116.84632"><ele>904.0</ele></trkpt>
    <trkpt lat="33.40424" lon="-116.84662"><ele>904.0</ele></trkpt>
    <trkpt lat="33.40397" lon="-116.84691"><ele>904.0</ele></trkpt>
    <trkpt lat="33.40375" lon="-116.84698"><ele>923.0</ele></trkpt>
    <trkpt lat="33.40362" lon="-116.84709"><ele>923.0</ele></trkpt>
    <trkpt lat="33.40354" lon="-116.84762"><ele>923.0</ele></trkpt>
    <trkpt lat="33.40305" lon="-116.84817"><ele>923.0</ele></trkpt>
    <trkpt lat="33.40286" lon="-116.84817"><ele>944.0</ele></trkpt>
    <trkpt lat="33.40244" lon="-116.84845"><ele>944.0</ele></trkpt>
    <trkpt lat="33.40249" lon="-116.84853"><ele>944.0</ele></trkpt>
    <trkpt lat="33.40250" lon="-116.84883"><ele>944.0</ele></trkpt>
    <trkpt lat="33.40242" lon="-116.84898"><ele>944.0</ele></trkpt>
    <trkpt lat="33.40252" lon="-116.84905"><ele>943.0</ele></trkpt>
    <trkpt lat="33.40275" lon="-116.84883"><ele>943.0</ele></trkpt>
    <trkpt lat="33.40311" lon="-116.84872"><ele>943.0</ele></trkpt>
    <trkpt lat="33.40339" lon="-116.84878"><ele>943.0</ele></trkpt>
    <trkpt lat="33.40359" lon="-116.84902"><ele>950.0</ele></trkpt>
    <trkpt lat="33.40379" lon="-116.84900"><ele>950.0</ele></trkpt>
    <trkpt lat="33.40402" lon="-116.84909"><ele>950.0</ele></trkpt>
    <trkpt lat="33.40408" lon="-116.84906"><ele>950.0</ele></trkpt>
    <trkpt lat="33.40416" lon="-116.84893"><ele>939.0</ele></trkpt>
    <trkpt lat="33.40409" lon="-116.84863"><ele>939.0</ele></trkpt>
    <trkpt lat="33.40422" lon="-116.84842"><ele>939.0</ele></trkpt>
    <trkpt lat="33.40445" lon="-116.84846"><ele>939.0</ele></trkpt>
    <trkpt lat="33.40486" lon="-116.84913"><ele>949.0</ele></trkpt>
    <trkpt lat="33.40519" lon="-116.84924"><ele>949.0</ele></trkpt>
    <trkpt lat="33.40548" lon="-116.84951"><ele>949.0</ele></trkpt>
    <trkpt lat="33.40548" lon="-116.85009"><ele>949.0</ele></trkpt>
    <trkpt lat="33.40517" lon="-116.85035"><ele>949.0</ele></trkpt>
    <trkpt lat="33.40460" lon="-116.85112"><ele>979.0</ele></trkpt>
    <trkpt lat="33.40475" lon="-116.85144"><ele>979.0</ele></trkpt>
    <trkpt lat="33.40473" lon="-116.85172"><ele>979.0</ele></trkpt>
    <trkpt lat="33.40458" lon="-116.85201"><ele>979.0</ele></trkpt>
    <trkpt lat="33.40462" lon="-116.85213"><ele>974.0</ele></trkpt>
    <trkpt lat="33.40518" lon="-116.85252"><ele>974.0</ele></trkpt>
    <trkpt lat="33.40525" lon="-116.85261"><ele>974.0</ele></trkpt>
    <trkpt lat="33.40509" lon="-116.85275"><ele>974.0</ele></trkpt>
    <trkpt lat="33.40489" lon="-116.85286"><ele>996.0</ele></trkpt>
    <trkpt lat="33.40484" lon="-116.85305"><ele>996.0</ele></trkpt>
    <trkpt lat="33.40484" lon="-116.85390"><ele>996.0</ele></trkpt>
    <trkpt lat="33.40510" lon="-116.85426"><ele>996.0</ele></trkpt>
    <trkpt lat="33.40515" lon="-116.85454"><ele>1007.0</ele></trkpt>
    <trkpt lat="33.40496" lon="-116.85472"><ele>1007.0</ele></trkpt>
    <trkpt lat="33.40472" lon="-116.85469"><ele>1007.0</ele></trkpt>
    <trkpt lat="33.40449" lon="-116.85503"><ele>1007.0</ele></trkpt>
    <trkpt lat="33.40420" lon="-116.85485"><ele>1007.0</ele></trkpt>
    <trkpt lat="33.40391" lon="-116.85475"><ele>1037.0</ele></trkpt>
    <trkpt lat="33.40382" lon="-116.85480"><ele>1037.0</ele></trkpt>
    <trkpt lat="33.40397" lon="-116.85524"><ele>1037.0</ele></trkpt>
    <trkpt lat="33.40394" lon="-116.85560"><ele>1037.0</ele></trkpt>
    <trkpt lat="33.40386" lon="-116.85589"><ele>1033.0</ele></trkpt>
    <trkpt lat="33.40393" lon="-116.85600"><ele>1033.0</ele></trkpt>
    <trkpt lat="33.40387" lon="-116.85625"><ele>1033.0</ele></trkpt>
    <trkpt lat="33.40359" lon="-116.85635"><ele>1033.0</ele></trkpt>
    <trkpt lat="33.40348" lon="-116.85662"><ele>1051.0</ele></trkpt>
    <trkpt lat="33.40345" lon="-116.85689"><ele>1051.0</ele></trkpt>
    <trkpt lat="33.40362" lon="-116.85700"><ele>1051.0</ele></trkpt>
    <trkpt lat="33.40373" lon="-116.85732"><ele>1051.0</ele></trkpt>
    <trkpt lat="33.40381" lon="-116.85763"><ele>1042.0</ele></trkpt>
    <trkpt lat="33.40361" lon="-116.85772"><ele>1042.0</ele></trkpt>
    <trkpt lat="33.40334" lon="-116.85759"><ele>1042.0</ele></trkpt>
    <trkpt lat="33.40305" lon="-116.85785"><ele>1042.0</ele></trkpt>
    <trkpt lat="33.40293" lon="-116.85783"><ele>1061.0</ele></trkpt>
    <trkpt lat="33.40297" lon="-116.85738"><ele>1061.0</ele></trkpt>
    <trkpt lat="33.40286" lon="-116.85685"><ele>1061.0</ele></trkpt>
    <trkpt lat="33.40298" lon="-116.85643"><ele>1061.0</ele></trkpt>
    <trkpt lat="33.40291" lon="-116.85625"><ele>1061.0</ele></trkpt>
    <trkpt lat="33.40285" lon="-116.85560"><ele>1076.0</ele></trkpt>
    <trkpt lat="33.40250" lon="-116.85547"><ele>1076.0</ele></trkpt>
    <trkpt lat="33.40193" lon="-116.85516"><ele>1076.0</ele></trkpt>
    <trkpt lat="33.40174" lon="-116.85497"><ele>1076.0</ele></trkpt>
    <trkpt lat="33.40160" lon="-116.85454"><ele>1090.0</ele></trkpt>
    <trkpt lat="33.40131" lon="-116.85413"><ele>1090.0</ele></trkpt>
    <trkpt lat="33.40108" lon="-116.85379"><ele>1090.0</ele></trkpt>
    <trkpt lat="33.40125" lon="-116.85305"><ele>1090.0</ele></trkpt>
    <trkpt lat="33.40114" lon="-116.85297"><ele>1103.0</ele></trkpt>
    <trkpt lat="33.40072" lon="-116.85312"><ele>1103.0</ele></trkpt>
    <trkpt lat="33.40044" lon="-116.85294"><ele>1103.0</ele></trkpt>
    <trkpt lat="33.40011" lon="-116.85286"><ele>1103.0</ele></trkpt>
    <trkpt lat="33.39984" lon="-116.85245"><ele>1121.0</ele></trkpt>
    <trkpt lat="33.39957" lon="-116.85217"><ele>1121.0</ele></trkpt>
    <trkpt lat="33.39916" lon="-116.85208"><ele>1121.0</ele></trkpt>
    <trkpt lat="33.39891" lon="-116.85201"><ele>1121.0</ele></trkpt>
    <trkpt lat="33.39884" lon="-116.85206"><ele>1121.0</ele></trkpt>
    <trkpt lat="33.39890" lon="-116.85243"><ele>1136.0</ele></trkpt>
    <trkpt lat="33.39878" lon="-116.85278"><ele>1136.0</ele></trkpt>
    <trkpt lat="33.39872" lon="-116.85333"><ele>1136.0</ele></trkpt>
    <trkpt lat="33.39848" lon="-116.85370"><ele>1136.0</ele></trkpt>
    <trkpt lat="33.39853" lon="-116.85408"><ele>1140.0</ele></trkpt>
    <trkpt lat="33.39850" lon="-116.85445"><ele>1140.0</ele></trkpt>
    <trkpt lat="33.39840" lon="-116.85461"><ele>1140.0</ele></trkpt>
    <trkpt lat="33.39831" lon="-116.85447"><ele>1140.0</ele></trkpt>
    <trkpt lat="33.39830" lon="-116.85416"><ele>1151.0</ele></trkpt>
    <trkpt lat="33.39822" lon="-116.85389"><ele>1151.0</ele></trkpt>
    <trkpt lat="33.39778" lon="-116.85359"><ele>1151.0</ele></trkpt>
    <trkpt lat="33.39773" lon="-116.85383"><ele>1151.0</ele></trkpt>
    <trkpt lat="33.39753" lon="-116.85399"><ele>1158.0</ele></trkpt>
    <trkpt lat="33.39729" lon="-116.85434"><ele>1158.0</ele></trkpt>
    <trkpt lat="33.39707" lon="-116.85440"><ele>1158.0</ele></trkpt>
    <trkpt lat="33.39693" lon="-116.85454"><ele>1158.0</ele></trkpt>
    <trkpt lat="33.39705" lon="-116.85480"><ele>1158.0</ele></trkpt>
    <trkpt lat="33.39700" lon="-116.85495"><ele>1159.0</ele></trkpt>
    <trkpt lat="33.39614" lon="-116.85478"><ele>1159.0</ele></trkpt>
    <trkpt lat="33.39549" lon="-116.85418"><ele>1159.0</ele></trkpt>
    <trkpt lat="33.39539" lon="-116.85380"><ele>1159.0</ele></trkpt>
    <trkpt lat="33.39499" lon="-116.85337"><ele>1166.0</ele></trkpt>
    <trkpt lat="33.39471" lon="-116.85346"><ele>1166.0</ele></trkpt>
    <trkpt lat="33.39453" lon="-116.85370"><ele>1166.0</ele></trkpt>
    <trkpt lat="33.39432" lon="-116.85388"><ele>1166.0</ele></trkpt>
    <trkpt lat="33.39414" lon="-116.85381"><ele>1159.0</ele></trkpt>
    <trkpt lat="33.39396" lon="-116.85348"><ele>1159.0</ele></trkpt>
    <trkpt lat="33.39403" lon="-116.85326"><ele>1159.0</ele></trkpt>
    <trkpt lat="33.39422" lon="-116.85297"><ele>1159.0</ele></trkpt>
    <trkpt lat="33.39430" lon="-116.85226"><ele>1158.0</ele></trkpt>
    <trkpt lat="33.39414" lon="-116.85210"><ele>1158.0</ele></trkpt>
    <trkpt lat="33.39401" lon="-116.85177"><ele>1158.0</ele></trkpt>
    <trkpt lat="33.39409" lon="-116.85098"><ele>1158.0</ele></trkpt>
    <trkpt lat="33.39440" lon="-116.85017"><ele>1158.0</ele></trkpt>
    <trkpt lat="33.39420" lon="-116.85000"><ele>1173.0</ele></trkpt>
    <trkpt lat="33.39404" lon="-116.85002"><ele>1173.0</ele></trkpt>
    <trkpt lat="33.39396" lon="-116.84991"><ele>1173.0</ele></trkpt>
    <trkpt lat="33.39416" lon="-116.84931"><ele>1173.0</ele></trkpt>
    <trkpt lat="33.39411" lon="-116.84892"><ele>1187.0</ele></trkpt>
    <trkpt lat="33.39425" lon="-116.84851"><ele>1187.0</ele></trkpt>
    <trkpt lat="33.39421" lon="-116.84837"><ele>1187.0</ele></trkpt>
    <trkpt lat="33.39427" lon="-116.84792"><ele>1187.0</ele></trkpt>
    <trkpt lat="33.39421" lon="-116.84734"><ele>1188.0</ele></trkpt>
    <trkpt lat="33.39421" lon="-116.84709"><ele>1188.0</ele></trkpt>
    <trkpt lat="33.39439" lon="-116.84676"><ele>1188.0</ele></trkpt>
    <trkpt lat="33.39440" lon="-116.84636"><ele>1188.0</ele></trkpt>
    <trkpt lat="33.39452" lon="-116.84599"><ele>1197.0</ele></trkpt>
    <trkpt lat="33.39451" lon="-116.84559"><ele>1197.0</ele></trkpt>
    <trkpt lat="33.39435" lon="-116.84532"><ele>1197.0</ele></trkpt>
    <trkpt lat="33.39428" lon="-116.84501"><ele>1197.0</ele></trkpt>
    <trkpt lat="33.39434" lon="-116.84456"><ele>1197.0</ele></trkpt>
    <trkpt lat="33.39419" lon="-116.84423"><ele>1211.0</ele></trkpt>
    <trkpt lat="33.39403" lon="-116.84421"><ele>1211.0</ele></trkpt>
    <trkpt lat="33.39393" lon="-116.84397"><ele>1211.0</ele></trkpt>
    <trkpt lat="33.39365" lon="-116.84376"><ele>1211.0</ele></trkpt>
    <trkpt lat="33.39359" lon="-116.84362"><ele>1214.0</ele></trkpt>
    <trkpt lat="33.39370" lon="-116.84345"><ele>1214.0</ele></trkpt>
    <trkpt lat="33.39368" lon="-116.84325"><ele>1214.0</ele></trkpt>
    <trkpt lat="33.39382" lon="-116.84282"><ele>1214.0</ele></trkpt>
    <trkpt lat="33.39403" lon="-116.84276"><ele>1223.0</ele></trkpt>
    <trkpt lat="33.39453" lon="-116.84246"><ele>1223.0</ele></trkpt>
    <trkpt lat="33.39444" lon="-116.84222"><ele>1223.0</ele></trkpt>
    <trkpt lat="33.39457" lon="-116.84205"><ele>1223.0</ele></trkpt>
    <trkpt lat="33.39471" lon="-116.84157"><ele>1228.0</ele></trkpt>
    <trkpt lat="33.39497" lon="-116.84146"><ele>1228.0</ele></trkpt>
    <trkpt lat="33.39527" lon="-116.84186"><ele>1228.0</ele></trkpt>
    <trkpt lat="33.39541" lon="-116.84183"><ele>1228.0</ele></trkpt>
    <trkpt lat="33.39545" lon="-116.84165"><ele>1221.0</ele></trkpt>
    <trkpt lat="33.39565" lon="-116.84131"><ele>1221.0</ele></trkpt>
    <trkpt lat="33.39582" lon="-116.84069"><ele>1221.0</ele></trkpt>
    <trkpt lat="33.39560" lon="-116.84026"><ele>1221.0</ele></trkpt>
    <trkpt lat="33.39528" lon="-116.84021"><ele>1221.0</ele></trkpt>
    <trkpt lat="33.39522" lon="-116.83985"><ele>1216.0</ele></trkpt>
    <trkpt lat="33.39538" lon="-116.83961"><ele>1216.0</ele></trkpt>
    <trkpt lat="33.39544" lon="-116.83930"><ele>1216.0</ele></trkpt>
    <trkpt lat="33.39516" lon="-116.83872"><ele>1216.0</ele></trkpt>
    <trkpt lat="33.39500" lon="-116.83875"><ele>1229.0</ele></trkpt>
    <trkpt lat="33.39483" lon="-116.83900"><ele>1229.0</ele></trkpt>
    <trkpt lat="33.39437" lon="-116.83906"><ele>1229.0</ele></trkpt>
    <trkpt lat="33.39390" lon="-116.83946"><ele>1229.0</ele></trkpt>
    <trkpt lat="33.39379" lon="-116.83964"><ele>1229.0</ele></trkpt>
    <trkpt lat="33.39382" lon="-116.83993"><ele>1229.0</ele></trkpt>
    <trkpt lat="33.39369" lon="-116.84014"><ele>1229.0</ele></trkpt>
    <trkpt lat="33.39352" lon="-116.84008"><ele>1229.0</ele></trkpt>
    <trkpt lat="33.39343" lon="-116.83989"><ele>1250.0</ele></trkpt>
    <trkpt lat="33.39375" lon="-116.83908"><ele>1250.0</ele></trkpt>
    <trkpt lat="33.39434" lon="-116.83833"><ele>1250.0</ele></trkpt>
    <trkpt lat="33.39434" lon="-116.83740"><ele>1250.0</ele></trkpt>
    <trkpt lat="33.39350" lon="-116.83676"><ele>1250.0</ele></trkpt>
    <trkpt lat="33.39344" lon="-116.83653"><ele>1255.0</ele></trkpt>
    <trkpt lat="33.39304" lon="-116.83595"><ele>1255.0</ele></trkpt>
    <trkpt lat="33.39283" lon="-116.83576"><ele>1255.0</ele></trkpt>
    <trkpt lat="33.39252" lon="-116.83575"><ele>1255.0</ele></trkpt>
    <trkpt lat="33.39225" lon="-116.83552"><ele>1255.0</ele></trkpt>
    <trkpt lat="33.39193" lon="-116.83543"><ele>1255.0</ele></trkpt>
    <trkpt lat="33.39193" lon="-116.83491"><ele>1255.0</ele></trkpt>
    <trkpt lat="33.39181" lon="-116.83471"><ele>1255.0</ele></trkpt>
    <trkpt lat="33.39174" lon="-116.83455"><ele>1253.0</ele></trkpt>
    <trkpt lat="33.39185" lon="-116.83408"><ele>1253.0</ele></trkpt>
    <trkpt lat="33.39179" lon="-116.83384"><ele>1253.0</ele></trkpt>
    <trkpt lat="33.39131" lon="-116.83362"><ele>1253.0</ele></trkpt>
    <trkpt lat="33.39118" lon="-116.83330"><ele>1264.0</ele></trkpt>
    <trkpt lat="33.39095" lon="-116.83331"><ele>1264.0</ele></trkpt>
    <trkpt lat="33.39058" lon="-116.83351"><ele>1264.0</ele></trkpt>
    <trkpt lat="33.39040" lon="-116.83345"><ele>1264.0</ele></trkpt>
    <trkpt lat="33.39021" lon="-116.83359"><ele>1264.0</ele></trkpt>
    <trkpt lat="33.38988" lon="-116.83356"><ele>1266.0</ele></trkpt>
    <trkpt lat="33.38957" lon="-116.83324"><ele>1266.0</ele></trkpt>
    <trkpt lat="33.38896" lon="-116.83306"><ele>1266.0</ele></trkpt>
    <trkpt lat="33.38884" lon="-116.83290"><ele>1266.0</ele></trkpt>
    <trkpt lat="33.38853" lon="-116.83273"><ele>1267.0</ele></trkpt>
    <trkpt lat="33.38852" lon="-116.83250"><ele>1267.0</ele></trkpt>
    <trkpt lat="33.38860" lon="-116.83240"><ele>1267.0</ele></trkpt>
    <trkpt lat="33.38842" lon="-116.83183"><ele>1267.0</ele></trkpt>
    <trkpt lat="33.38808" lon="-116.83132"><ele>1277.0</ele></trkpt>
    <trkpt lat="33.38780" lon="-116.83141"><ele>1277.0</ele></trkpt>
    <trkpt lat="33.38755" lon="-116.83124"><ele>1277.0</ele></trkpt>
    <trkpt lat="33.38739" lon="-116.83101"><ele>1277.0</ele></trkpt>
    <trkpt lat="33.38728" lon="-116.83101"><ele>1287.0</ele></trkpt>
    <trkpt lat="33.38719" lon="-116.83091"><ele>1287.0</ele></trkpt>
    <trkpt lat="33.38721" lon="-116.83062"><ele>1287.0</ele></trkpt>
    <trkpt lat="33.38707" lon="-116.83059"><ele>1287.0</ele></trkpt>
    <trkpt lat="33.38697" lon="-116.83045"><ele>1287.0</ele></trkpt>
    <trkpt lat="33.38699" lon="-116.83016"><ele>1287.0</ele></trkpt>
    <trkpt lat="33.38706" lon="-116.83004"><ele>1287.0</ele></trkpt>
    <trkpt lat="33.38709" lon="-116.82987"><ele>1287.0</ele></trkpt>
    <trkpt lat="33.38692" lon="-116.82953"><ele>1287.0</ele></trkpt>
    <trkpt lat="33.38689" lon="-116.82940"><ele>1285.0</ele></trkpt>
    <trkpt lat="33.38706" lon="-116.82924"><ele>1285.0</ele></trkpt>
    <trkpt lat="33.38705" lon="-116.82910"><ele>1285.0</ele></trkpt>
    <trkpt lat="33.38689" lon="-116.82887"><ele>1285.0</ele></trkpt>
    <trkpt lat="33.38658" lon="-116.82882"><ele>1298.0</ele></trkpt>
    <trkpt lat="33.38638" lon="-116.82850"><ele>1298.0</ele></trkpt>
    <trkpt lat="33.38606" lon="-116.82846"><ele>1298.0</ele></trkpt>
    <trkpt lat="33.38599" lon="-116.82827"><ele>1298.0</ele></trkpt>
    <trkpt lat="33.38557" lon="-116.82838"><ele>1317.0</ele></trkpt>
    <trkpt lat="33.38533" lon="-116.82836"><ele>1317.0</ele></trkpt>
    <trkpt lat="33.38522" lon="-116.82812"><ele>1317.0</ele></trkpt>
    <trkpt lat="33.38504" lon="-116.82802"><ele>1317.0</ele></trkpt>
    <trkpt lat="33.38489" lon="-116.82790"><ele>1325.0</ele></trkpt>
    <trkpt lat="33.38482" lon="-116.82800"><ele>1325.0</ele></trkpt>
    <trkpt lat="33.38472" lon="-116.82798"><ele>1325.0</ele></trkpt>
    <trkpt lat="33.38471" lon="-116.82775"><ele>1325.0</ele></trkpt>
    <trkpt lat="33.38486" lon="-116.82750"><ele>1325.0</ele></trkpt>
    <trkpt lat="33.38515" lon="-116.82723"><ele>1311.0</ele></trkpt>
    <trkpt lat="33.38559" lon="-116.82663"><ele>1311.0</ele></trkpt>
    <trkpt lat="33.38554" lon="-116.82645"><ele>1311.0</ele></trkpt>
    <trkpt lat="33.38523" lon="-116.82646"><ele>1311.0</ele></trkpt>
    <trkpt lat="33.38475" lon="-116.82673"><ele>1322.0</ele></trkpt>
    <trkpt lat="33.38469" lon="-116.82693"><ele>1322.0</ele></trkpt>
    <trkpt lat="33.38445" lon="-116.82693"><ele>1322.0</ele></trkpt>
    <trkpt lat="33.38409" lon="-116.82788"><ele>1322.0</ele></trkpt>
    <trkpt lat="33.38392" lon="-116.82793"><ele>1340.0</ele></trkpt>
    <trkpt lat="33.38377" lon="-116.82774"><ele>1340.0</ele></trkpt>
    <trkpt lat="33.38340" lon="-116.82772"><ele>1340.0</ele></trkpt>
    <trkpt lat="33.38314" lon="-116.82805"><ele>1340.0</ele></trkpt>
    <trkpt lat="33.38294" lon="-116.82812"><ele>1351.0</ele></trkpt>
    <trkpt lat="33.38295" lon="-116.82858"><ele>1351.0</ele></trkpt>
    <trkpt lat="33.38308" lon="-116.82877"><ele>1351.0</ele></trkpt>
    <trkpt lat="33.38320" lon="-116.82898"><ele>1351.0</ele></trkpt>
    <trkpt lat="33.38318" lon="-116.82923"><ele>1351.0</ele></trkpt>
    <trkpt lat="33.38278" lon="-116.82944"><ele>1365.0</ele></trkpt>
    <trkpt lat="33.38244" lon="-116.82977"><ele>1365.0</ele></trkpt>
    <trkpt lat="33.38218" lon="-116.82957"><ele>1365.0</ele></trkpt>
    <trkpt lat="33.38205" lon="-116.82972"><ele>1365.0</ele></trkpt>
    <trkpt lat="33.38150" lon="-116.83015"><ele>1388.0</ele></trkpt>
    <trkpt lat="33.38108" lon="-116.83004"><ele>1388.0</ele></trkpt>
    <trkpt lat="33.38091" lon="-116.82981"><ele>1388.0</ele></trkpt>
    <trkpt lat="33.38098" lon="-116.82970"><ele>1388.0</ele></trkpt>
    <trkpt lat="33.38104" lon="-116.82951"><ele>1390.0</ele></trkpt>
    <trkpt lat="33.38091" lon="-116.82938"><ele>1390.0</ele></trkpt>
    <trkpt lat="33.38076" lon="-116.82886"><ele>1390.0</ele></trkpt>
    <trkpt lat="33.38033" lon="-116.82862"><ele>1390.0</ele></trkpt>
    <trkpt lat="33.38047" lon="-116.82952"><ele>1409.0</ele></trkpt>
    <trkpt lat="33.38031" lon="-116.82977"><ele>1409.0</ele></trkpt>
    <trkpt lat="33.38035" lon="-116.83005"><ele>1409.0</ele></trkpt>
    <trkpt lat="33.38019" lon="-116.83031"><ele>1409.0</ele></trkpt>
    <trkpt lat="33.37991" lon="-116.83027"><ele>1409.0</ele></trkpt>
    <trkpt lat="33.37978" lon="-116.83049"><ele>1426.0</ele></trkpt>
    <trkpt lat="33.37942" lon="-116.83064"><ele>1426.0</ele></trkpt>
    <trkpt lat="33.37905" lon="-116.83055"><ele>1426.0</ele></trkpt>
    <trkpt lat="33.37883" lon="-116.83036"><ele>1426.0</ele></trkpt>
    <trkpt lat="33.37858" lon="-116.83043"><ele>1446.0</ele></trkpt>
    <trkpt lat="33.37842" lon="-116.83035"><ele>1446.0</ele></trkpt>
    <trkpt lat="33.37825" lon="-116.83008"><ele>1446.0</ele></trkpt>
    <trkpt lat="33.37815" lon="-116.82975"><ele>1446.0</ele></trkpt>
    <trkpt lat="33.37819" lon="-116.82943"><ele>1445.0</ele></trkpt>
    <trkpt lat="33.37801" lon="-116.82918"><ele>1445.0</ele></trkpt>
    <trkpt lat="33.37773" lon="-116.82920"><ele>1445.0</ele></trkpt>
    <trkpt lat="33.37761" lon="-116.82936"><ele>1445.0</ele></trkpt>
    <trkpt lat="33.37739" lon="-116.82944"><ele>1479.0</ele></trkpt>
    <trkpt lat="33.37724" lon="-116.82933"><ele>1479.0</ele></trkpt>
    <trkpt lat="33.37688" lon="-116.82940"><ele>1479.0</ele></trkpt>
    <trkpt lat="33.37677" lon="-116.82934"><ele>1479.0</ele></trkpt>
    <trkpt lat="33.37678" lon="-116.82857"><ele>1479.0</ele></trkpt>
    <trkpt lat="33.37662" lon="-116.82815"><ele>1481.0</ele></trkpt>
    <trkpt lat="33.37666" lon="-116.82793"><ele>1481.0</ele></trkpt>
    <trkpt lat="33.37655" lon="-116.82744"><ele>1481.0</ele></trkpt>
    <trkpt lat="33.37634" lon="-116.82738"><ele>1481.0</ele></trkpt>
    <trkpt lat="33.37612" lon="-116.82729"><ele>1492.0</ele></trkpt>
    <trkpt lat="33.37627" lon="-116.82691"><ele>1492.0</ele></trkpt>
  </trkseg></trk>
</gpx>
