<?xml version="1.0" encoding="UTF-8"?>
<gpx version="1.1" creator="dirt-bikes build-area-routes (MVUM geometry + SRTM elevation)" xmlns="http://www.topografix.com/GPX/1/1">
  <trk><name>Idyllwild Control Road</name><trkseg>
    <trkpt lat="33.73385" lon="-116.75066"><ele>1554.0</ele></trkpt>
    <trkpt lat="33.73391" lon="-116.75070"><ele>1554.0</ele></trkpt>
    <trkpt lat="33.73397" lon="-116.75073"><ele>1554.0</ele></trkpt>
    <trkpt lat="33.73403" lon="-116.75074"><ele>1554.0</ele></trkpt>
    <trkpt lat="33.73411" lon="-116.75075"><ele>1554.0</ele></trkpt>
    <trkpt lat="33.73417" lon="-116.75075"><ele>1554.0</ele></trkpt>
    <trkpt lat="33.73423" lon="-116.75075"><ele>1554.0</ele></trkpt>
    <trkpt lat="33.73429" lon="-116.75075"><ele>1554.0</ele></trkpt>
    <trkpt lat="33.73433" lon="-116.75075"><ele>1554.0</ele></trkpt>
    <trkpt lat="33.73438" lon="-116.75076"><ele>1547.0</ele></trkpt>
    <trkpt lat="33.73442" lon="-116.75079"><ele>1547.0</ele></trkpt>
    <trkpt lat="33.73447" lon="-116.75083"><ele>1547.0</ele></trkpt>
    <trkpt lat="33.73456" lon="-116.75094"><ele>1547.0</ele></trkpt>
    <trkpt lat="33.73467" lon="-116.75108"><ele>1547.0</ele></trkpt>
    <trkpt lat="33.73478" lon="-116.75121"><ele>1547.0</ele></trkpt>
    <trkpt lat="33.73483" lon="-116.75128"><ele>1547.0</ele></trkpt>
    <trkpt lat="33.73486" lon="-116.75133"><ele>1547.0</ele></trkpt>
    <trkpt lat="33.73488" lon="-116.75141"><ele>1547.0</ele></trkpt>
    <trkpt lat="33.73491" lon="-116.75148"><ele>1547.0</ele></trkpt>
    <trkpt lat="33.73496" lon="-116.75154"><ele>1547.0</ele></trkpt>
    <trkpt lat="33.73503" lon="-116.75157"><ele>1547.0</ele></trkpt>
    <trkpt lat="33.73511" lon="-116.75158"><ele>1547.0</ele></trkpt>
    <trkpt lat="33.73517" lon="-116.75155"><ele>1547.0</ele></trkpt>
    <trkpt lat="33.73527" lon="-116.75148"><ele>1547.0</ele></trkpt>
    <trkpt lat="33.73537" lon="-116.75142"><ele>1537.0</ele></trkpt>
    <trkpt lat="33.73542" lon="-116.75141"><ele>1537.0</ele></trkpt>
    <trkpt lat="33.73546" lon="-116.75145"><ele>1537.0</ele></trkpt>
    <trkpt lat="33.73551" lon="-116.75150"><ele>1537.0</ele></trkpt>
    <trkpt lat="33.73557" lon="-116.75158"><ele>1537.0</ele></trkpt>
    <trkpt lat="33.73564" lon="-116.75168"><ele>1537.0</ele></trkpt>
    <trkpt lat="33.73569" lon="-116.75176"><ele>1537.0</ele></trkpt>
    <trkpt lat="33.73571" lon="-116.75183"><ele>1537.0</ele></trkpt>
    <trkpt lat="33.73575" lon="-116.75193"><ele>1537.0</ele></trkpt>
    <trkpt lat="33.73580" lon="-116.75200"><ele>1537.0</ele></trkpt>
    <trkpt lat="33.73585" lon="-116.75204"><ele>1537.0</ele></trkpt>
    <trkpt lat="33.73590" lon="-116.75205"><ele>1537.0</ele></trkpt>
    <trkpt lat="33.73594" lon="-116.75204"><ele>1537.0</ele></trkpt>
    <trkpt lat="33.73598" lon="-116.75203"><ele>1537.0</ele></trkpt>
    <trkpt lat="33.73603" lon="-116.75199"><ele>1537.0</ele></trkpt>
    <trkpt lat="33.73609" lon="-116.75188"><ele>1537.0</ele></trkpt>
    <trkpt lat="33.73615" lon="-116.75175"><ele>1533.0</ele></trkpt>
    <trkpt lat="33.73620" lon="-116.75167"><ele>1533.0</ele></trkpt>
    <trkpt lat="33.73625" lon="-116.75163"><ele>1533.0</ele></trkpt>
    <trkpt lat="33.73634" lon="-116.75163"><ele>1533.0</ele></trkpt>
    <trkpt lat="33.73645" lon="-116.75162"><ele>1533.0</ele></trkpt>
    <trkpt lat="33.73653" lon="-116.75156"><ele>1533.0</ele></trkpt>
    <trkpt lat="33.73660" lon="-116.75147"><ele>1533.0</ele></trkpt>
    <trkpt lat="33.73666" lon="-116.75142"><ele>1533.0</ele></trkpt>
    <trkpt lat="33.73675" lon="-116.75140"><ele>1533.0</ele></trkpt>
    <trkpt lat="33.73685" lon="-116.75140"><ele>1533.0</ele></trkpt>
    <trkpt lat="33.73695" lon="-116.75143"><ele>1533.0</ele></trkpt>
    <trkpt lat="33.73703" lon="-116.75149"><ele>1533.0</ele></trkpt>
    <trkpt lat="33.73721" lon="-116.75164"><ele>1533.0</ele></trkpt>
    <trkpt lat="33.73742" lon="-116.75179"><ele>1533.0</ele></trkpt>
    <trkpt lat="33.73774" lon="-116.75205"><ele>1533.0</ele></trkpt>
    <trkpt lat="33.73781" lon="-116.75212"><ele>1533.0</ele></trkpt>
    <trkpt lat="33.73787" lon="-116.75216"><ele>1533.0</ele></trkpt>
    <trkpt lat="33.73794" lon="-116.75217"><ele>1533.0</ele></trkpt>
    <trkpt lat="33.73802" lon="-116.75220"><ele>1533.0</ele></trkpt>
    <trkpt lat="33.73812" lon="-116.75222"><ele>1533.0</ele></trkpt>
    <trkpt lat="33.73821" lon="-116.75224"><ele>1533.0</ele></trkpt>
    <trkpt lat="33.73831" lon="-116.75227"><ele>1533.0</ele></trkpt>
    <trkpt lat="33.73831" lon="-116.75227"><ele>1533.0</ele></trkpt>
    <trkpt lat="33.73834" lon="-116.75229"><ele>1533.0</ele></trkpt>
    <trkpt lat="33.73839" lon="-116.75233"><ele>1533.0</ele></trkpt>
    <trkpt lat="33.73840" lon="-116.75237"><ele>1533.0</ele></trkpt>
    <trkpt lat="33.73840" lon="-116.75237"><ele>1533.0</ele></trkpt>
    <trkpt lat="33.73842" lon="-116.75240"><ele>1533.0</ele></trkpt>
    <trkpt lat="33.73845" lon="-116.75247"><ele>1533.0</ele></trkpt>
    <trkpt lat="33.73848" lon="-116.75255"><ele>1533.0</ele></trkpt>
    <trkpt lat="33.73850" lon="-116.75265"><ele>1533.0</ele></trkpt>
    <trkpt lat="33.73851" lon="-116.75273"><ele>1516.0</ele></trkpt>
    <trkpt lat="33.73851" lon="-116.75282"><ele>1516.0</ele></trkpt>
    <trkpt lat="33.73850" lon="-116.75290"><ele>1516.0</ele></trkpt>
    <trkpt lat="33.73849" lon="-116.75300"><ele>1516.0</ele></trkpt>
    <trkpt lat="33.73850" lon="-116.75309"><ele>1516.0</ele></trkpt>
    <trkpt lat="33.73850" lon="-116.75318"><ele>1516.0</ele></trkpt>
    <trkpt lat="33.73851" lon="-116.75330"><ele>1516.0</ele></trkpt>
    <trkpt lat="33.73852" lon="-116.75338"><ele>1516.0</ele></trkpt>
    <trkpt lat="33.73853" lon="-116.75346"><ele>1516.0</ele></trkpt>
    <trkpt lat="33.73856" lon="-116.75351"><ele>1516.0</ele></trkpt>
    <trkpt lat="33.73860" lon="-116.75355"><ele>1516.0</ele></trkpt>
    <trkpt lat="33.73865" lon="-116.75359"><ele>1516.0</ele></trkpt>
    <trkpt lat="33.73871" lon="-116.75362"><ele>1516.0</ele></trkpt>
    <trkpt lat="33.73879" lon="-116.75366"><ele>1516.0</ele></trkpt>
    <trkpt lat="33.73883" lon="-116.75370"><ele>1516.0</ele></trkpt>
    <trkpt lat="33.73886" lon="-116.75376"><ele>1513.0</ele></trkpt>
    <trkpt lat="33.73886" lon="-116.75384"><ele>1513.0</ele></trkpt>
    <trkpt lat="33.73885" lon="-116.75393"><ele>1513.0</ele></trkpt>
    <trkpt lat="33.73883" lon="-116.75410"><ele>1513.0</ele></trkpt>
    <trkpt lat="33.73882" lon="-116.75417"><ele>1513.0</ele></trkpt>
    <trkpt lat="33.73880" lon="-116.75425"><ele>1513.0</ele></trkpt>
    <trkpt lat="33.73878" lon="-116.75434"><ele>1513.0</ele></trkpt>
    <trkpt lat="33.73874" lon="-116.75447"><ele>1513.0</ele></trkpt>
    <trkpt lat="33.73870" lon="-116.75459"><ele>1513.0</ele></trkpt>
    <trkpt lat="33.73865" lon="-116.75471"><ele>1513.0</ele></trkpt>
    <trkpt lat="33.73863" lon="-116.75479"><ele>1513.0</ele></trkpt>
    <trkpt lat="33.73861" lon="-116.75486"><ele>1513.0</ele></trkpt>
    <trkpt lat="33.73860" lon="-116.75493"><ele>1513.0</ele></trkpt>
    <trkpt lat="33.73861" lon="-116.75502"><ele>1513.0</ele></trkpt>
    <trkpt lat="33.73862" lon="-116.75512"><ele>1513.0</ele></trkpt>
    <trkpt lat="33.73862" lon="-116.75522"><ele>1513.0</ele></trkpt>
    <trkpt lat="33.73862" lon="-116.75531"><ele>1503.0</ele></trkpt>
    <trkpt lat="33.73862" lon="-116.75539"><ele>1503.0</ele></trkpt>
    <trkpt lat="33.73860" lon="-116.75547"><ele>1503.0</ele></trkpt>
    <trkpt lat="33.73857" lon="-116.75553"><ele>1503.0</ele></trkpt>
    <trkpt lat="33.73855" lon="-116.75560"><ele>1503.0</ele></trkpt>
    <trkpt lat="33.73851" lon="-116.75566"><ele>1503.0</ele></trkpt>
    <trkpt lat="33.73847" lon="-116.75571"><ele>1503.0</ele></trkpt>
    <trkpt lat="33.73843" lon="-116.75577"><ele>1503.0</ele></trkpt>
    <trkpt lat="33.73839" lon="-116.75584"><ele>1503.0</ele></trkpt>
    <trkpt lat="33.73836" lon="-116.75590"><ele>1503.0</ele></trkpt>
    <trkpt lat="33.73833" lon="-116.75598"><ele>1503.0</ele></trkpt>
    <trkpt lat="33.73830" lon="-116.75606"><ele>1503.0</ele></trkpt>
    <trkpt lat="33.73826" lon="-116.75614"><ele>1503.0</ele></trkpt>
    <trkpt lat="33.73822" lon="-116.75622"><ele>1503.0</ele></trkpt>
    <trkpt lat="33.73819" lon="-116.75628"><ele>1503.0</ele></trkpt>
    <trkpt lat="33.73814" lon="-116.75636"><ele>1500.0</ele></trkpt>
    <trkpt lat="33.73810" lon="-116.75644"><ele>1500.0</ele></trkpt>
    <trkpt lat="33.73807" lon="-116.75652"><ele>1500.0</ele></trkpt>
    <trkpt lat="33.73806" lon="-116.75657"><ele>1500.0</ele></trkpt>
    <trkpt lat="33.73807" lon="-116.75666"><ele>1500.0</ele></trkpt>
    <trkpt lat="33.73806" lon="-116.75673"><ele>1500.0</ele></trkpt>
    <trkpt lat="33.73806" lon="-116.75674"><ele>1500.0</ele></trkpt>
    <trkpt lat="33.73806" lon="-116.75682"><ele>1500.0</ele></trkpt>
    <trkpt lat="33.73806" lon="-116.75687"><ele>1500.0</ele></trkpt>
    <trkpt lat="33.73806" lon="-116.75691"><ele>1500.0</ele></trkpt>
    <trkpt lat="33.73806" lon="-116.75699"><ele>1500.0</ele></trkpt>
    <trkpt lat="33.73805" lon="-116.75708"><ele>1500.0</ele></trkpt>
    <trkpt lat="33.73805" lon="-116.75716"><ele>1500.0</ele></trkpt>
    <trkpt lat="33.73801" lon="-116.75727"><ele>1500.0</ele></trkpt>
    <trkpt lat="33.73798" lon="-116.75738"><ele>1500.0</ele></trkpt>
    <trkpt lat="33.73796" lon="-116.75747"><ele>1500.0</ele></trkpt>
    <trkpt lat="33.73793" lon="-116.75758"><ele>1495.0</ele></trkpt>
    <trkpt lat="33.73791" lon="-116.75770"><ele>1495.0</ele></trkpt>
    <trkpt lat="33.73790" lon="-116.75779"><ele>1495.0</ele></trkpt>
    <trkpt lat="33.73790" lon="-116.75789"><ele>1495.0</ele></trkpt>
    <trkpt lat="33.73792" lon="-116.75798"><ele>1495.0</ele></trkpt>
    <trkpt lat="33.73795" lon="-116.75806"><ele>1495.0</ele></trkpt>
    <trkpt lat="33.73799" lon="-116.75816"><ele>1495.0</ele></trkpt>
    <trkpt lat="33.73806" lon="-116.75832"><ele>1495.0</ele></trkpt>
    <trkpt lat="33.73819" lon="-116.75862"><ele>1495.0</ele></trkpt>
    <trkpt lat="33.73829" lon="-116.75887"><ele>1495.0</ele></trkpt>
    <trkpt lat="33.73835" lon="-116.75901"><ele>1495.0</ele></trkpt>
    <trkpt lat="33.73837" lon="-116.75908"><ele>1495.0</ele></trkpt>
    <trkpt lat="33.73840" lon="-116.75916"><ele>1495.0</ele></trkpt>
    <trkpt lat="33.73840" lon="-116.75924"><ele>1495.0</ele></trkpt>
    <trkpt lat="33.73840" lon="-116.75932"><ele>1495.0</ele></trkpt>
    <trkpt lat="33.73841" lon="-116.75939"><ele>1483.0</ele></trkpt>
    <trkpt lat="33.73841" lon="-116.75947"><ele>1483.0</ele></trkpt>
    <trkpt lat="33.73842" lon="-116.75956"><ele>1483.0</ele></trkpt>
    <trkpt lat="33.73844" lon="-116.75964"><ele>1483.0</ele></trkpt>
    <trkpt lat="33.73846" lon="-116.75975"><ele>1483.0</ele></trkpt>
    <trkpt lat="33.73843" lon="-116.75980"><ele>1483.0</ele></trkpt>
    <trkpt lat="33.73835" lon="-116.75996"><ele>1483.0</ele></trkpt>
    <trkpt lat="33.73830" lon="-116.76009"><ele>1483.0</ele></trkpt>
    <trkpt lat="33.73823" lon="-116.76024"><ele>1483.0</ele></trkpt>
    <trkpt lat="33.73817" lon="-116.76035"><ele>1483.0</ele></trkpt>
    <trkpt lat="33.73810" lon="-116.76045"><ele>1483.0</ele></trkpt>
    <trkpt lat="33.73803" lon="-116.76052"><ele>1483.0</ele></trkpt>
    <trkpt lat="33.73797" lon="-116.76059"><ele>1483.0</ele></trkpt>
    <trkpt lat="33.73792" lon="-116.76067"><ele>1483.0</ele></trkpt>
    <trkpt lat="33.73788" lon="-116.76077"><ele>1483.0</ele></trkpt>
    <trkpt lat="33.73784" lon="-116.76090"><ele>1483.0</ele></trkpt>
    <trkpt lat="33.73779" lon="-116.76101"><ele>1475.0</ele></trkpt>
    <trkpt lat="33.73776" lon="-116.76112"><ele>1475.0</ele></trkpt>
    <trkpt lat="33.73773" lon="-116.76120"><ele>1475.0</ele></trkpt>
    <trkpt lat="33.73770" lon="-116.76123"><ele>1475.0</ele></trkpt>
    <trkpt lat="33.73767" lon="-116.76127"><ele>1475.0</ele></trkpt>
    <trkpt lat="33.73760" lon="-116.76131"><ele>1475.0</ele></trkpt>
    <trkpt lat="33.73750" lon="-116.76139"><ele>1475.0</ele></trkpt>
    <trkpt lat="33.73737" lon="-116.76148"><ele>1475.0</ele></trkpt>
    <trkpt lat="33.73727" lon="-116.76154"><ele>1475.0</ele></trkpt>
    <trkpt lat="33.73719" lon="-116.76158"><ele>1475.0</ele></trkpt>
    <trkpt lat="33.73711" lon="-116.76163"><ele>1475.0</ele></trkpt>
    <trkpt lat="33.73705" lon="-116.76166"><ele>1475.0</ele></trkpt>
    <trkpt lat="33.73697" lon="-116.76168"><ele>1475.0</ele></trkpt>
    <trkpt lat="33.73692" lon="-116.76168"><ele>1475.0</ele></trkpt>
    <trkpt lat="33.73687" lon="-116.76165"><ele>1475.0</ele></trkpt>
    <trkpt lat="33.73683" lon="-116.76164"><ele>1464.0</ele></trkpt>
    <trkpt lat="33.73680" lon="-116.76163"><ele>1464.0</ele></trkpt>
    <trkpt lat="33.73677" lon="-116.76164"><ele>1464.0</ele></trkpt>
    <trkpt lat="33.73673" lon="-116.76165"><ele>1464.0</ele></trkpt>
    <trkpt lat="33.73669" lon="-116.76168"><ele>1464.0</ele></trkpt>
    <trkpt lat="33.73664" lon="-116.76173"><ele>1464.0</ele></trkpt>
    <trkpt lat="33.73659" lon="-116.76180"><ele>1464.0</ele></trkpt>
    <trkpt lat="33.73654" lon="-116.76188"><ele>1464.0</ele></trkpt>
    <trkpt lat="33.73652" lon="-116.76194"><ele>1464.0</ele></trkpt>
    <trkpt lat="33.73650" lon="-116.76200"><ele>1464.0</ele></trkpt>
    <trkpt lat="33.73648" lon="-116.76204"><ele>1464.0</ele></trkpt>
    <trkpt lat="33.73646" lon="-116.76208"><ele>1464.0</ele></trkpt>
    <trkpt lat="33.73642" lon="-116.76211"><ele>1464.0</ele></trkpt>
    <trkpt lat="33.73638" lon="-116.76215"><ele>1464.0</ele></trkpt>
    <trkpt lat="33.73632" lon="-116.76221"><ele>1464.0</ele></trkpt>
    <trkpt lat="33.73627" lon="-116.76224"><ele>1464.0</ele></trkpt>
    <trkpt lat="33.73623" lon="-116.76226"><ele>1454.0</ele></trkpt>
    <trkpt lat="33.73619" lon="-116.76230"><ele>1454.0</ele></trkpt>
    <trkpt lat="33.73616" lon="-116.76234"><ele>1454.0</ele></trkpt>
    <trkpt lat="33.73612" lon="-116.76239"><ele>1454.0</ele></trkpt>
    <trkpt lat="33.73608" lon="-116.76245"><ele>1454.0</ele></trkpt>
    <trkpt lat="33.73605" lon="-116.76253"><ele>1454.0</ele></trkpt>
    <trkpt lat="33.73601" lon="-116.76259"><ele>1454.0</ele></trkpt>
    <trkpt lat="33.73596" lon="-116.76265"><ele>1454.0</ele></trkpt>
    <trkpt lat="33.73590" lon="-116.76270"><ele>1454.0</ele></trkpt>
    <trkpt lat="33.73583" lon="-116.76276"><ele>1454.0</ele></trkpt>
    <trkpt lat="33.73577" lon="-116.76281"><ele>1454.0</ele></trkpt>
    <trkpt lat="33.73572" lon="-116.76286"><ele>1454.0</ele></trkpt>
    <trkpt lat="33.73569" lon="-116.76293"><ele>1454.0</ele></trkpt>
    <trkpt lat="33.73566" lon="-116.76300"><ele>1454.0</ele></trkpt>
    <trkpt lat="33.73564" lon="-116.76307"><ele>1454.0</ele></trkpt>
    <trkpt lat="33.73563" lon="-116.76314"><ele>1445.0</ele></trkpt>
    <trkpt lat="33.73559" lon="-116.76320"><ele>1445.0</ele></trkpt>
    <trkpt lat="33.73555" lon="-116.76326"><ele>1445.0</ele></trkpt>
    <trkpt lat="33.73551" lon="-116.76332"><ele>1445.0</ele></trkpt>
    <trkpt lat="33.73548" lon="-116.76336"><ele>1445.0</ele></trkpt>
    <trkpt lat="33.73546" lon="-116.76338"><ele>1445.0</ele></trkpt>
    <trkpt lat="33.73544" lon="-116.76340"><ele>1445.0</ele></trkpt>
    <trkpt lat="33.73541" lon="-116.76344"><ele>1445.0</ele></trkpt>
    <trkpt lat="33.73536" lon="-116.76351"><ele>1445.0</ele></trkpt>
    <trkpt lat="33.73531" lon="-116.76355"><ele>1445.0</ele></trkpt>
    <trkpt lat="33.73526" lon="-116.76359"><ele>1445.0</ele></trkpt>
    <trkpt lat="33.73521" lon="-116.76363"><ele>1445.0</ele></trkpt>
    <trkpt lat="33.73517" lon="-116.76367"><ele>1445.0</ele></trkpt>
    <trkpt lat="33.73515" lon="-116.76370"><ele>1445.0</ele></trkpt>
    <trkpt lat="33.73513" lon="-116.76375"><ele>1445.0</ele></trkpt>
    <trkpt lat="33.73512" lon="-116.76379"><ele>1445.0</ele></trkpt>
    <trkpt lat="33.73512" lon="-116.76384"><ele>1440.0</ele></trkpt>
    <trkpt lat="33.73514" lon="-116.76389"><ele>1440.0</ele></trkpt>
    <trkpt lat="33.73515" lon="-116.76394"><ele>1440.0</ele></trkpt>
    <trkpt lat="33.73517" lon="-116.76402"><ele>1440.0</ele></trkpt>
    <trkpt lat="33.73522" lon="-116.76414"><ele>1440.0</ele></trkpt>
    <trkpt lat="33.73528" lon="-116.76423"><ele>1440.0</ele></trkpt>
    <trkpt lat="33.73530" lon="-116.76430"><ele>1440.0</ele></trkpt>
    <trkpt lat="33.73533" lon="-116.76438"><ele>1440.0</ele></trkpt>
    <trkpt lat="33.73534" lon="-116.76444"><ele>1440.0</ele></trkpt>
    <trkpt lat="33.73537" lon="-116.76453"><ele>1440.0</ele></trkpt>
    <trkpt lat="33.73538" lon="-116.76466"><ele>1440.0</ele></trkpt>
    <trkpt lat="33.73540" lon="-116.76483"><ele>1440.0</ele></trkpt>
    <trkpt lat="33.73544" lon="-116.76499"><ele>1440.0</ele></trkpt>
    <trkpt lat="33.73548" lon="-116.76516"><ele>1440.0</ele></trkpt>
    <trkpt lat="33.73552" lon="-116.76540"><ele>1440.0</ele></trkpt>
    <trkpt lat="33.73555" lon="-116.76561"><ele>1415.0</ele></trkpt>
    <trkpt lat="33.73557" lon="-116.76575"><ele>1415.0</ele></trkpt>
    <trkpt lat="33.73559" lon="-116.76583"><ele>1415.0</ele></trkpt>
    <trkpt lat="33.73562" lon="-116.76588"><ele>1415.0</ele></trkpt>
    <trkpt lat="33.73570" lon="-116.76602"><ele>1415.0</ele></trkpt>
    <trkpt lat="33.73575" lon="-116.76612"><ele>1415.0</ele></trkpt>
    <trkpt lat="33.73579" lon="-116.76627"><ele>1415.0</ele></trkpt>
    <trkpt lat="33.73581" lon="-116.76644"><ele>1415.0</ele></trkpt>
    <trkpt lat="33.73584" lon="-116.76661"><ele>1415.0</ele></trkpt>
    <trkpt lat="33.73586" lon="-116.76677"><ele>1415.0</ele></trkpt>
    <trkpt lat="33.73586" lon="-116.76700"><ele>1415.0</ele></trkpt>
    <trkpt lat="33.73586" lon="-116.76720"><ele>1415.0</ele></trkpt>
    <trkpt lat="33.73584" lon="-116.76738"><ele>1415.0</ele></trkpt>
    <trkpt lat="33.73582" lon="-116.76751"><ele>1415.0</ele></trkpt>
    <trkpt lat="33.73580" lon="-116.76773"><ele>1415.0</ele></trkpt>
    <trkpt lat="33.73577" lon="-116.76801"><ele>1415.0</ele></trkpt>
    <trkpt lat="33.73575" lon="-116.76824"><ele>1393.0</ele></trkpt>
    <trkpt lat="33.73575" lon="-116.76844"><ele>1393.0</ele></trkpt>
    <trkpt lat="33.73575" lon="-116.76860"><ele>1393.0</ele></trkpt>
    <trkpt lat="33.73577" lon="-116.76873"><ele>1393.0</ele></trkpt>
    <trkpt lat="33.73582" lon="-116.76889"><ele>1393.0</ele></trkpt>
    <trkpt lat="33.73586" lon="-116.76899"><ele>1393.0</ele></trkpt>
    <trkpt lat="33.73590" lon="-116.76907"><ele>1393.0</ele></trkpt>
    <trkpt lat="33.73597" lon="-116.76915"><ele>1393.0</ele></trkpt>
    <trkpt lat="33.73604" lon="-116.76923"><ele>1393.0</ele></trkpt>
    <trkpt lat="33.73609" lon="-116.76929"><ele>1393.0</ele></trkpt>
    <trkpt lat="33.73612" lon="-116.76933"><ele>1393.0</ele></trkpt>
    <trkpt lat="33.73615" lon="-116.76941"><ele>1393.0</ele></trkpt>
    <trkpt lat="33.73615" lon="-116.76948"><ele>1393.0</ele></trkpt>
    <trkpt lat="33.73614" lon="-116.76953"><ele>1393.0</ele></trkpt>
    <trkpt lat="33.73612" lon="-116.76959"><ele>1393.0</ele></trkpt>
    <trkpt lat="33.73609" lon="-116.76964"><ele>1389.0</ele></trkpt>
    <trkpt lat="33.73606" lon="-116.76970"><ele>1389.0</ele></trkpt>
    <trkpt lat="33.73603" lon="-116.76978"><ele>1389.0</ele></trkpt>
    <trkpt lat="33.73601" lon="-116.76987"><ele>1389.0</ele></trkpt>
    <trkpt lat="33.73600" lon="-116.76993"><ele>1389.0</ele></trkpt>
    <trkpt lat="33.73600" lon="-116.77002"><ele>1389.0</ele></trkpt>
    <trkpt lat="33.73600" lon="-116.77010"><ele>1389.0</ele></trkpt>
    <trkpt lat="33.73600" lon="-116.77019"><ele>1389.0</ele></trkpt>
    <trkpt lat="33.73601" lon="-116.77027"><ele>1389.0</ele></trkpt>
    <trkpt lat="33.73601" lon="-116.77035"><ele>1389.0</ele></trkpt>
    <trkpt lat="33.73601" lon="-116.77042"><ele>1389.0</ele></trkpt>
    <trkpt lat="33.73601" lon="-116.77049"><ele>1389.0</ele></trkpt>
    <trkpt lat="33.73602" lon="-116.77059"><ele>1389.0</ele></trkpt>
    <trkpt lat="33.73602" lon="-116.77067"><ele>1389.0</ele></trkpt>
    <trkpt lat="33.73605" lon="-116.77073"><ele>1389.0</ele></trkpt>
    <trkpt lat="33.73608" lon="-116.77079"><ele>1389.0</ele></trkpt>
    <trkpt lat="33.73613" lon="-116.77090"><ele>1379.0</ele></trkpt>
    <trkpt lat="33.73617" lon="-116.77098"><ele>1379.0</ele></trkpt>
    <trkpt lat="33.73620" lon="-116.77105"><ele>1379.0</ele></trkpt>
    <trkpt lat="33.73623" lon="-116.77113"><ele>1379.0</ele></trkpt>
    <trkpt lat="33.73627" lon="-116.77122"><ele>1379.0</ele></trkpt>
    <trkpt lat="33.73631" lon="-116.77128"><ele>1379.0</ele></trkpt>
    <trkpt lat="33.73635" lon="-116.77136"><ele>1379.0</ele></trkpt>
    <trkpt lat="33.73639" lon="-116.77142"><ele>1379.0</ele></trkpt>
    <trkpt lat="33.73644" lon="-116.77147"><ele>1379.0</ele></trkpt>
    <trkpt lat="33.73648" lon="-116.77152"><ele>1379.0</ele></trkpt>
    <trkpt lat="33.73652" lon="-116.77158"><ele>1379.0</ele></trkpt>
    <trkpt lat="33.73656" lon="-116.77163"><ele>1379.0</ele></trkpt>
    <trkpt lat="33.73660" lon="-116.77170"><ele>1379.0</ele></trkpt>
    <trkpt lat="33.73664" lon="-116.77176"><ele>1379.0</ele></trkpt>
    <trkpt lat="33.73670" lon="-116.77184"><ele>1379.0</ele></trkpt>
    <trkpt lat="33.73674" lon="-116.77191"><ele>1369.0</ele></trkpt>
    <trkpt lat="33.73679" lon="-116.77199"><ele>1369.0</ele></trkpt>
    <trkpt lat="33.73684" lon="-116.77206"><ele>1369.0</ele></trkpt>
    <trkpt lat="33.73689" lon="-116.77215"><ele>1369.0</ele></trkpt>
    <trkpt lat="33.73693" lon="-116.77223"><ele>1369.0</ele></trkpt>
    <trkpt lat="33.73698" lon="-116.77233"><ele>1369.0</ele></trkpt>
    <trkpt lat="33.73703" lon="-116.77242"><ele>1369.0</ele></trkpt>
    <trkpt lat="33.73708" lon="-116.77247"><ele>1369.0</ele></trkpt>
    <trkpt lat="33.73713" lon="-116.77248"><ele>1369.0</ele></trkpt>
    <trkpt lat="33.73719" lon="-116.77247"><ele>1369.0</ele></trkpt>
    <trkpt lat="33.73724" lon="-116.77246"><ele>1369.0</ele></trkpt>
    <trkpt lat="33.73728" lon="-116.77245"><ele>1369.0</ele></trkpt>
    <trkpt lat="33.73734" lon="-116.77242"><ele>1369.0</ele></trkpt>
    <trkpt lat="33.73739" lon="-116.77238"><ele>1369.0</ele></trkpt>
    <trkpt lat="33.73745" lon="-116.77235"><ele>1369.0</ele></trkpt>
    <trkpt lat="33.73751" lon="-116.77231"><ele>1369.0</ele></trkpt>
    <trkpt lat="33.73756" lon="-116.77228"><ele>1364.0</ele></trkpt>
    <trkpt lat="33.73761" lon="-116.77227"><ele>1364.0</ele></trkpt>
    <trkpt lat="33.73766" lon="-116.77226"><ele>1364.0</ele></trkpt>
    <trkpt lat="33.73771" lon="-116.77226"><ele>1364.0</ele></trkpt>
    <trkpt lat="33.73775" lon="-116.77227"><ele>1364.0</ele></trkpt>
    <trkpt lat="33.73780" lon="-116.77229"><ele>1364.0</ele></trkpt>
    <trkpt lat="33.73785" lon="-116.77233"><ele>1364.0</ele></trkpt>
    <trkpt lat="33.73793" lon="-116.77238"><ele>1364.0</ele></trkpt>
    <trkpt lat="33.73801" lon="-116.77245"><ele>1364.0</ele></trkpt>
    <trkpt lat="33.73807" lon="-116.77252"><ele>1364.0</ele></trkpt>
    <trkpt lat="33.73812" lon="-116.77259"><ele>1364.0</ele></trkpt>
    <trkpt lat="33.73816" lon="-116.77265"><ele>1364.0</ele></trkpt>
    <trkpt lat="33.73819" lon="-116.77273"><ele>1364.0</ele></trkpt>
    <trkpt lat="33.73821" lon="-116.77279"><ele>1364.0</ele></trkpt>
    <trkpt lat="33.73824" lon="-116.77287"><ele>1364.0</ele></trkpt>
    <trkpt lat="33.73827" lon="-116.77293"><ele>1357.0</ele></trkpt>
    <trkpt lat="33.73832" lon="-116.77299"><ele>1357.0</ele></trkpt>
    <trkpt lat="33.73835" lon="-116.77304"><ele>1357.0</ele></trkpt>
    <trkpt lat="33.73837" lon="-116.77309"><ele>1357.0</ele></trkpt>
    <trkpt lat="33.73839" lon="-116.77314"><ele>1357.0</ele></trkpt>
    <trkpt lat="33.73843" lon="-116.77319"><ele>1357.0</ele></trkpt>
    <trkpt lat="33.73848" lon="-116.77324"><ele>1357.0</ele></trkpt>
    <trkpt lat="33.73852" lon="-116.77329"><ele>1357.0</ele></trkpt>
    <trkpt lat="33.73856" lon="-116.77333"><ele>1357.0</ele></trkpt>
    <trkpt lat="33.73858" lon="-116.77338"><ele>1357.0</ele></trkpt>
    <trkpt lat="33.73860" lon="-116.77343"><ele>1357.0</ele></trkpt>
    <trkpt lat="33.73862" lon="-116.77348"><ele>1357.0</ele></trkpt>
    <trkpt lat="33.73863" lon="-116.77354"><ele>1357.0</ele></trkpt>
    <trkpt lat="33.73865" lon="-116.77359"><ele>1357.0</ele></trkpt>
    <trkpt lat="33.73868" lon="-116.77366"><ele>1357.0</ele></trkpt>
    <trkpt lat="33.73871" lon="-116.77377"><ele>1357.0</ele></trkpt>
    <trkpt lat="33.73874" lon="-116.77385"><ele>1344.0</ele></trkpt>
    <trkpt lat="33.73877" lon="-116.77394"><ele>1344.0</ele></trkpt>
    <trkpt lat="33.73879" lon="-116.77401"><ele>1344.0</ele></trkpt>
    <trkpt lat="33.73881" lon="-116.77409"><ele>1344.0</ele></trkpt>
    <trkpt lat="33.73882" lon="-116.77416"><ele>1344.0</ele></trkpt>
    <trkpt lat="33.73885" lon="-116.77427"><ele>1344.0</ele></trkpt>
    <trkpt lat="33.73888" lon="-116.77435"><ele>1344.0</ele></trkpt>
    <trkpt lat="33.73893" lon="-116.77442"><ele>1344.0</ele></trkpt>
    <trkpt lat="33.73898" lon="-116.77450"><ele>1344.0</ele></trkpt>
    <trkpt lat="33.73903" lon="-116.77457"><ele>1344.0</ele></trkpt>
    <trkpt lat="33.73906" lon="-116.77463"><ele>1344.0</ele></trkpt>
    <trkpt lat="33.73907" lon="-116.77469"><ele>1344.0</ele></trkpt>
    <trkpt lat="33.73909" lon="-116.77476"><ele>1344.0</ele></trkpt>
    <trkpt lat="33.73910" lon="-116.77484"><ele>1344.0</ele></trkpt>
    <trkpt lat="33.73909" lon="-116.77490"><ele>1344.0</ele></trkpt>
    <trkpt lat="33.73909" lon="-116.77495"><ele>1335.0</ele></trkpt>
    <trkpt lat="33.73913" lon="-116.77499"><ele>1335.0</ele></trkpt>
    <trkpt lat="33.73916" lon="-116.77502"><ele>1335.0</ele></trkpt>
    <trkpt lat="33.73920" lon="-116.77504"><ele>1335.0</ele></trkpt>
    <trkpt lat="33.73925" lon="-116.77506"><ele>1335.0</ele></trkpt>
    <trkpt lat="33.73932" lon="-116.77508"><ele>1335.0</ele></trkpt>
    <trkpt lat="33.73937" lon="-116.77511"><ele>1335.0</ele></trkpt>
    <trkpt lat="33.73940" lon="-116.77514"><ele>1335.0</ele></trkpt>
    <trkpt lat="33.73942" lon="-116.77518"><ele>1335.0</ele></trkpt>
    <trkpt lat="33.73944" lon="-116.77523"><ele>1335.0</ele></trkpt>
    <trkpt lat="33.73945" lon="-116.77528"><ele>1335.0</ele></trkpt>
    <trkpt lat="33.73946" lon="-116.77534"><ele>1335.0</ele></trkpt>
    <trkpt lat="33.73947" lon="-116.77541"><ele>1335.0</ele></trkpt>
    <trkpt lat="33.73947" lon="-116.77547"><ele>1335.0</ele></trkpt>
    <trkpt lat="33.73947" lon="-116.77554"><ele>1335.0</ele></trkpt>
    <trkpt lat="33.73948" lon="-116.77561"><ele>1335.0</ele></trkpt>
    <trkpt lat="33.73948" lon="-116.77569"><ele>1333.0</ele></trkpt>
    <trkpt lat="33.73949" lon="-116.77577"><ele>1333.0</ele></trkpt>
    <trkpt lat="33.73950" lon="-116.77584"><ele>1333.0</ele></trkpt>
    <trkpt lat="33.73950" lon="-116.77589"><ele>1333.0</ele></trkpt>
    <trkpt lat="33.73952" lon="-116.77593"><ele>1333.0</ele></trkpt>
    <trkpt lat="33.73954" lon="-116.77599"><ele>1333.0</ele></trkpt>
    <trkpt lat="33.73957" lon="-116.77602"><ele>1333.0</ele></trkpt>
    <trkpt lat="33.73960" lon="-116.77606"><ele>1333.0</ele></trkpt>
    <trkpt lat="33.73965" lon="-116.77610"><ele>1333.0</ele></trkpt>
    <trkpt lat="33.73970" lon="-116.77613"><ele>1333.0</ele></trkpt>
    <trkpt lat="33.73975" lon="-116.77617"><ele>1333.0</ele></trkpt>
    <trkpt lat="33.73980" lon="-116.77623"><ele>1333.0</ele></trkpt>
    <trkpt lat="33.73983" lon="-116.77627"><ele>1333.0</ele></trkpt>
    <trkpt lat="33.73986" lon="-116.77633"><ele>1333.0</ele></trkpt>
    <trkpt lat="33.73987" lon="-116.77637"><ele>1333.0</ele></trkpt>
    <trkpt lat="33.73988" lon="-116.77642"><ele>1322.0</ele></trkpt>
    <trkpt lat="33.73991" lon="-116.77647"><ele>1322.0</ele></trkpt>
    <trkpt lat="33.73993" lon="-116.77651"><ele>1322.0</ele></trkpt>
    <trkpt lat="33.73997" lon="-116.77655"><ele>1322.0</ele></trkpt>
    <trkpt lat="33.74000" lon="-116.77658"><ele>1322.0</ele></trkpt>
    <trkpt lat="33.74003" lon="-116.77661"><ele>1322.0</ele></trkpt>
    <trkpt lat="33.74007" lon="-116.77665"><ele>1322.0</ele></trkpt>
    <trkpt lat="33.74010" lon="-116.77670"><ele>1322.0</ele></trkpt>
    <trkpt lat="33.74013" lon="-116.77674"><ele>1322.0</ele></trkpt>
    <trkpt lat="33.74016" lon="-116.77679"><ele>1322.0</ele></trkpt>
    <trkpt lat="33.74019" lon="-116.77684"><ele>1322.0</ele></trkpt>
    <trkpt lat="33.74020" lon="-116.77689"><ele>1322.0</ele></trkpt>
    <trkpt lat="33.74023" lon="-116.77694"><ele>1322.0</ele></trkpt>
    <trkpt lat="33.74024" lon="-116.77700"><ele>1322.0</ele></trkpt>
    <trkpt lat="33.74027" lon="-116.77709"><ele>1322.0</ele></trkpt>
    <trkpt lat="33.74031" lon="-116.77717"><ele>1322.0</ele></trkpt>
    <trkpt lat="33.74035" lon="-116.77727"><ele>1323.0</ele></trkpt>
    <trkpt lat="33.74037" lon="-116.77735"><ele>1323.0</ele></trkpt>
    <trkpt lat="33.74037" lon="-116.77739"><ele>1323.0</ele></trkpt>
    <trkpt lat="33.74037" lon="-116.77745"><ele>1323.0</ele></trkpt>
    <trkpt lat="33.74036" lon="-116.77750"><ele>1323.0</ele></trkpt>
    <trkpt lat="33.74033" lon="-116.77755"><ele>1323.0</ele></trkpt>
    <trkpt lat="33.74033" lon="-116.77761"><ele>1323.0</ele></trkpt>
    <trkpt lat="33.74035" lon="-116.77765"><ele>1323.0</ele></trkpt>
    <trkpt lat="33.74036" lon="-116.77769"><ele>1323.0</ele></trkpt>
    <trkpt lat="33.74039" lon="-116.77772"><ele>1323.0</ele></trkpt>
    <trkpt lat="33.74043" lon="-116.77775"><ele>1323.0</ele></trkpt>
    <trkpt lat="33.74046" lon="-116.77777"><ele>1323.0</ele></trkpt>
    <trkpt lat="33.74050" lon="-116.77779"><ele>1323.0</ele></trkpt>
    <trkpt lat="33.74055" lon="-116.77781"><ele>1323.0</ele></trkpt>
    <trkpt lat="33.74061" lon="-116.77783"><ele>1323.0</ele></trkpt>
    <trkpt lat="33.74066" lon="-116.77785"><ele>1310.0</ele></trkpt>
    <trkpt lat="33.74070" lon="-116.77787"><ele>1310.0</ele></trkpt>
    <trkpt lat="33.74074" lon="-116.77791"><ele>1310.0</ele></trkpt>
    <trkpt lat="33.74079" lon="-116.77795"><ele>1310.0</ele></trkpt>
    <trkpt lat="33.74083" lon="-116.77799"><ele>1310.0</ele></trkpt>
    <trkpt lat="33.74086" lon="-116.77803"><ele>1310.0</ele></trkpt>
    <trkpt lat="33.74090" lon="-116.77808"><ele>1310.0</ele></trkpt>
    <trkpt lat="33.74094" lon="-116.77812"><ele>1310.0</ele></trkpt>
    <trkpt lat="33.74097" lon="-116.77815"><ele>1310.0</ele></trkpt>
    <trkpt lat="33.74102" lon="-116.77818"><ele>1310.0</ele></trkpt>
    <trkpt lat="33.74106" lon="-116.77822"><ele>1310.0</ele></trkpt>
    <trkpt lat="33.74110" lon="-116.77825"><ele>1310.0</ele></trkpt>
    <trkpt lat="33.74113" lon="-116.77828"><ele>1310.0</ele></trkpt>
    <trkpt lat="33.74116" lon="-116.77832"><ele>1310.0</ele></trkpt>
    <trkpt lat="33.74119" lon="-116.77836"><ele>1310.0</ele></trkpt>
    <trkpt lat="33.74122" lon="-116.77840"><ele>1310.0</ele></trkpt>
    <trkpt lat="33.74125" lon="-116.77846"><ele>1298.0</ele></trkpt>
    <trkpt lat="33.74129" lon="-116.77851"><ele>1298.0</ele></trkpt>
    <trkpt lat="33.74132" lon="-116.77854"><ele>1298.0</ele></trkpt>
    <trkpt lat="33.74137" lon="-116.77860"><ele>1298.0</ele></trkpt>
    <trkpt lat="33.74140" lon="-116.77865"><ele>1298.0</ele></trkpt>
    <trkpt lat="33.74144" lon="-116.77871"><ele>1298.0</ele></trkpt>
    <trkpt lat="33.74149" lon="-116.77876"><ele>1298.0</ele></trkpt>
    <trkpt lat="33.74151" lon="-116.77881"><ele>1298.0</ele></trkpt>
    <trkpt lat="33.74152" lon="-116.77888"><ele>1298.0</ele></trkpt>
    <trkpt lat="33.74152" lon="-116.77894"><ele>1298.0</ele></trkpt>
    <trkpt lat="33.74152" lon="-116.77902"><ele>1298.0</ele></trkpt>
    <trkpt lat="33.74151" lon="-116.77907"><ele>1298.0</ele></trkpt>
    <trkpt lat="33.74151" lon="-116.77914"><ele>1298.0</ele></trkpt>
    <trkpt lat="33.74152" lon="-116.77919"><ele>1298.0</ele></trkpt>
    <trkpt lat="33.74154" lon="-116.77924"><ele>1298.0</ele></trkpt>
    <trkpt lat="33.74157" lon="-116.77928"><ele>1295.0</ele></trkpt>
    <trkpt lat="33.74160" lon="-116.77930"><ele>1295.0</ele></trkpt>
    <trkpt lat="33.74163" lon="-116.77933"><ele>1295.0</ele></trkpt>
    <trkpt lat="33.74167" lon="-116.77935"><ele>1295.0</ele></trkpt>
    <trkpt lat="33.74171" lon="-116.77937"><ele>1295.0</ele></trkpt>
    <trkpt lat="33.74175" lon="-116.77938"><ele>1295.0</ele></trkpt>
    <trkpt lat="33.74179" lon="-116.77937"><ele>1295.0</ele></trkpt>
    <trkpt lat="33.74183" lon="-116.77936"><ele>1295.0</ele></trkpt>
    <trkpt lat="33.74186" lon="-116.77935"><ele>1295.0</ele></trkpt>
    <trkpt lat="33.74191" lon="-116.77934"><ele>1295.0</ele></trkpt>
    <trkpt lat="33.74197" lon="-116.77934"><ele>1295.0</ele></trkpt>
    <trkpt lat="33.74201" lon="-116.77934"><ele>1295.0</ele></trkpt>
    <trkpt lat="33.74205" lon="-116.77934"><ele>1295.0</ele></trkpt>
    <trkpt lat="33.74209" lon="-116.77935"><ele>1295.0</ele></trkpt>
    <trkpt lat="33.74212" lon="-116.77936"><ele>1295.0</ele></trkpt>
    <trkpt lat="33.74214" lon="-116.77939"><ele>1295.0</ele></trkpt>
    <trkpt lat="33.74216" lon="-116.77942"><ele>1287.0</ele></trkpt>
    <trkpt lat="33.74218" lon="-116.77946"><ele>1287.0</ele></trkpt>
    <trkpt lat="33.74219" lon="-116.77952"><ele>1287.0</ele></trkpt>
    <trkpt lat="33.74220" lon="-116.77957"><ele>1287.0</ele></trkpt>
    <trkpt lat="33.74221" lon="-116.77962"><ele>1287.0</ele></trkpt>
    <trkpt lat="33.74222" lon="-116.77967"><ele>1287.0</ele></trkpt>
    <trkpt lat="33.74224" lon="-116.77970"><ele>1287.0</ele></trkpt>
    <trkpt lat="33.74226" lon="-116.77972"><ele>1287.0</ele></trkpt>
    <trkpt lat="33.74229" lon="-116.77974"><ele>1287.0</ele></trkpt>
    <trkpt lat="33.74232" lon="-116.77975"><ele>1287.0</ele></trkpt>
    <trkpt lat="33.74235" lon="-116.77976"><ele>1287.0</ele></trkpt>
    <trkpt lat="33.74239" lon="-116.77978"><ele>1287.0</ele></trkpt>
    <trkpt lat="33.74242" lon="-116.77978"><ele>1287.0</ele></trkpt>
    <trkpt lat="33.74245" lon="-116.77980"><ele>1287.0</ele></trkpt>
    <trkpt lat="33.74248" lon="-116.77981"><ele>1287.0</ele></trkpt>
    <trkpt lat="33.74253" lon="-116.77982"><ele>1276.0</ele></trkpt>
    <trkpt lat="33.74257" lon="-116.77985"><ele>1276.0</ele></trkpt>
    <trkpt lat="33.74261" lon="-116.77987"><ele>1276.0</ele></trkpt>
    <trkpt lat="33.74266" lon="-116.77990"><ele>1276.0</ele></trkpt>
    <trkpt lat="33.74271" lon="-116.77994"><ele>1276.0</ele></trkpt>
    <trkpt lat="33.74276" lon="-116.77998"><ele>1276.0</ele></trkpt>
    <trkpt lat="33.74280" lon="-116.78001"><ele>1276.0</ele></trkpt>
    <trkpt lat="33.74285" lon="-116.78003"><ele>1276.0</ele></trkpt>
    <trkpt lat="33.74290" lon="-116.78004"><ele>1276.0</ele></trkpt>
    <trkpt lat="33.74295" lon="-116.78004"><ele>1276.0</ele></trkpt>
    <trkpt lat="33.74302" lon="-116.77998"><ele>1276.0</ele></trkpt>
    <trkpt lat="33.74310" lon="-116.77981"><ele>1276.0</ele></trkpt>
    <trkpt lat="33.74315" lon="-116.77966"><ele>1276.0</ele></trkpt>
    <trkpt lat="33.74319" lon="-116.77961"><ele>1276.0</ele></trkpt>
    <trkpt lat="33.74323" lon="-116.77957"><ele>1276.0</ele></trkpt>
    <trkpt lat="33.74327" lon="-116.77955"><ele>1276.0</ele></trkpt>
    <trkpt lat="33.74330" lon="-116.77954"><ele>1264.0</ele></trkpt>
    <trkpt lat="33.74336" lon="-116.77955"><ele>1264.0</ele></trkpt>
    <trkpt lat="33.74341" lon="-116.77956"><ele>1264.0</ele></trkpt>
    <trkpt lat="33.74346" lon="-116.77958"><ele>1264.0</ele></trkpt>
    <trkpt lat="33.74350" lon="-116.77958"><ele>1264.0</ele></trkpt>
    <trkpt lat="33.74355" lon="-116.77959"><ele>1264.0</ele></trkpt>
    <trkpt lat="33.74360" lon="-116.77960"><ele>1264.0</ele></trkpt>
    <trkpt lat="33.74366" lon="-116.77960"><ele>1264.0</ele></trkpt>
    <trkpt lat="33.74372" lon="-116.77960"><ele>1264.0</ele></trkpt>
    <trkpt lat="33.74377" lon="-116.77961"><ele>1264.0</ele></trkpt>
    <trkpt lat="33.74382" lon="-116.77964"><ele>1264.0</ele></trkpt>
    <trkpt lat="33.74387" lon="-116.77967"><ele>1264.0</ele></trkpt>
    <trkpt lat="33.74391" lon="-116.77973"><ele>1264.0</ele></trkpt>
    <trkpt lat="33.74395" lon="-116.77977"><ele>1264.0</ele></trkpt>
    <trkpt lat="33.74399" lon="-116.77984"><ele>1264.0</ele></trkpt>
    <trkpt lat="33.74401" lon="-116.77989"><ele>1258.0</ele></trkpt>
    <trkpt lat="33.74402" lon="-116.77994"><ele>1258.0</ele></trkpt>
    <trkpt lat="33.74403" lon="-116.78001"><ele>1258.0</ele></trkpt>
    <trkpt lat="33.74406" lon="-116.78005"><ele>1258.0</ele></trkpt>
    <trkpt lat="33.74409" lon="-116.78010"><ele>1258.0</ele></trkpt>
    <trkpt lat="33.74412" lon="-116.78012"><ele>1258.0</ele></trkpt>
    <trkpt lat="33.74416" lon="-116.78015"><ele>1258.0</ele></trkpt>
    <trkpt lat="33.74420" lon="-116.78017"><ele>1258.0</ele></trkpt>
    <trkpt lat="33.74425" lon="-116.78020"><ele>1258.0</ele></trkpt>
    <trkpt lat="33.74429" lon="-116.78023"><ele>1258.0</ele></trkpt>
    <trkpt lat="33.74432" lon="-116.78028"><ele>1258.0</ele></trkpt>
    <trkpt lat="33.74435" lon="-116.78033"><ele>1258.0</ele></trkpt>
    <trkpt lat="33.74437" lon="-116.78041"><ele>1258.0</ele></trkpt>
    <trkpt lat="33.74438" lon="-116.78049"><ele>1258.0</ele></trkpt>
    <trkpt lat="33.74439" lon="-116.78058"><ele>1258.0</ele></trkpt>
    <trkpt lat="33.74440" lon="-116.78067"><ele>1258.0</ele></trkpt>
    <trkpt lat="33.74441" lon="-116.78075"><ele>1245.0</ele></trkpt>
    <trkpt lat="33.74443" lon="-116.78082"><ele>1245.0</ele></trkpt>
    <trkpt lat="33.74447" lon="-116.78087"><ele>1245.0</ele></trkpt>
    <trkpt lat="33.74451" lon="-116.78091"><ele>1245.0</ele></trkpt>
    <trkpt lat="33.74455" lon="-116.78095"><ele>1245.0</ele></trkpt>
    <trkpt lat="33.74461" lon="-116.78097"><ele>1245.0</ele></trkpt>
    <trkpt lat="33.74466" lon="-116.78097"><ele>1245.0</ele></trkpt>
    <trkpt lat="33.74470" lon="-116.78096"><ele>1245.0</ele></trkpt>
    <trkpt lat="33.74475" lon="-116.78095"><ele>1245.0</ele></trkpt>
    <trkpt lat="33.74479" lon="-116.78095"><ele>1245.0</ele></trkpt>
    <trkpt lat="33.74484" lon="-116.78096"><ele>1245.0</ele></trkpt>
    <trkpt lat="33.74489" lon="-116.78098"><ele>1245.0</ele></trkpt>
    <trkpt lat="33.74494" lon="-116.78101"><ele>1245.0</ele></trkpt>
    <trkpt lat="33.74499" lon="-116.78104"><ele>1245.0</ele></trkpt>
    <trkpt lat="33.74503" lon="-116.78106"><ele>1245.0</ele></trkpt>
    <trkpt lat="33.74507" lon="-116.78110"><ele>1236.0</ele></trkpt>
    <trkpt lat="33.74512" lon="-116.78115"><ele>1236.0</ele></trkpt>
    <trkpt lat="33.74516" lon="-116.78119"><ele>1236.0</ele></trkpt>
    <trkpt lat="33.74519" lon="-116.78124"><ele>1236.0</ele></trkpt>
    <trkpt lat="33.74523" lon="-116.78129"><ele>1236.0</ele></trkpt>
    <trkpt lat="33.74525" lon="-116.78133"><ele>1236.0</ele></trkpt>
    <trkpt lat="33.74527" lon="-116.78138"><ele>1236.0</ele></trkpt>
    <trkpt lat="33.74530" lon="-116.78144"><ele>1236.0</ele></trkpt>
    <trkpt lat="33.74533" lon="-116.78148"><ele>1236.0</ele></trkpt>
    <trkpt lat="33.74536" lon="-116.78152"><ele>1236.0</ele></trkpt>
    <trkpt lat="33.74539" lon="-116.78155"><ele>1236.0</ele></trkpt>
    <trkpt lat="33.74542" lon="-116.78159"><ele>1236.0</ele></trkpt>
    <trkpt lat="33.74545" lon="-116.78162"><ele>1236.0</ele></trkpt>
    <trkpt lat="33.74548" lon="-116.78166"><ele>1236.0</ele></trkpt>
    <trkpt lat="33.74550" lon="-116.78170"><ele>1236.0</ele></trkpt>
    <trkpt lat="33.74552" lon="-116.78174"><ele>1236.0</ele></trkpt>
    <trkpt lat="33.74555" lon="-116.78180"><ele>1225.0</ele></trkpt>
    <trkpt lat="33.74557" lon="-116.78185"><ele>1225.0</ele></trkpt>
    <trkpt lat="33.74560" lon="-116.78191"><ele>1225.0</ele></trkpt>
    <trkpt lat="33.74563" lon="-116.78197"><ele>1225.0</ele></trkpt>
    <trkpt lat="33.74565" lon="-116.78205"><ele>1225.0</ele></trkpt>
    <trkpt lat="33.74567" lon="-116.78212"><ele>1225.0</ele></trkpt>
    <trkpt lat="33.74568" lon="-116.78218"><ele>1225.0</ele></trkpt>
    <trkpt lat="33.74568" lon="-116.78224"><ele>1225.0</ele></trkpt>
    <trkpt lat="33.74568" lon="-116.78231"><ele>1225.0</ele></trkpt>
    <trkpt lat="33.74566" lon="-116.78237"><ele>1225.0</ele></trkpt>
    <trkpt lat="33.74565" lon="-116.78240"><ele>1225.0</ele></trkpt>
    <trkpt lat="33.74564" lon="-116.78242"><ele>1225.0</ele></trkpt>
    <trkpt lat="33.74560" lon="-116.78244"><ele>1225.0</ele></trkpt>
    <trkpt lat="33.74556" lon="-116.78246"><ele>1225.0</ele></trkpt>
    <trkpt lat="33.74552" lon="-116.78247"><ele>1225.0</ele></trkpt>
    <trkpt lat="33.74547" lon="-116.78245"><ele>1231.0</ele></trkpt>
    <trkpt lat="33.74544" lon="-116.78243"><ele>1231.0</ele></trkpt>
    <trkpt lat="33.74540" lon="-116.78241"><ele>1231.0</ele></trkpt>
    <trkpt lat="33.74536" lon="-116.78240"><ele>1231.0</ele></trkpt>
    <trkpt lat="33.74532" lon="-116.78240"><ele>1231.0</ele></trkpt>
    <trkpt lat="33.74528" lon="-116.78242"><ele>1231.0</ele></trkpt>
    <trkpt lat="33.74524" lon="-116.78244"><ele>1231.0</ele></trkpt>
    <trkpt lat="33.74520" lon="-116.78249"><ele>1231.0</ele></trkpt>
    <trkpt lat="33.74516" lon="-116.78252"><ele>1231.0</ele></trkpt>
    <trkpt lat="33.74513" lon="-116.78257"><ele>1231.0</ele></trkpt>
    <trkpt lat="33.74510" lon="-116.78262"><ele>1231.0</ele></trkpt>
    <trkpt lat="33.74507" lon="-116.78267"><ele>1231.0</ele></trkpt>
    <trkpt lat="33.74505" lon="-116.78272"><ele>1231.0</ele></trkpt>
    <trkpt lat="33.74504" lon="-116.78278"><ele>1231.0</ele></trkpt>
    <trkpt lat="33.74504" lon="-116.78283"><ele>1231.0</ele></trkpt>
    <trkpt lat="33.74504" lon="-116.78290"><ele>1231.0</ele></trkpt>
    <trkpt lat="33.74504" lon="-116.78297"><ele>1215.0</ele></trkpt>
    <trkpt lat="33.74504" lon="-116.78305"><ele>1215.0</ele></trkpt>
    <trkpt lat="33.74502" lon="-116.78311"><ele>1215.0</ele></trkpt>
    <trkpt lat="33.74501" lon="-116.78316"><ele>1215.0</ele></trkpt>
    <trkpt lat="33.74498" lon="-116.78319"><ele>1215.0</ele></trkpt>
    <trkpt lat="33.74496" lon="-116.78323"><ele>1215.0</ele></trkpt>
    <trkpt lat="33.74492" lon="-116.78325"><ele>1215.0</ele></trkpt>
    <trkpt lat="33.74488" lon="-116.78327"><ele>1215.0</ele></trkpt>
    <trkpt lat="33.74484" lon="-116.78328"><ele>1215.0</ele></trkpt>
    <trkpt lat="33.74479" lon="-116.78327"><ele>1215.0</ele></trkpt>
    <trkpt lat="33.74475" lon="-116.78325"><ele>1215.0</ele></trkpt>
    <trkpt lat="33.74470" lon="-116.78321"><ele>1215.0</ele></trkpt>
    <trkpt lat="33.74463" lon="-116.78315"><ele>1215.0</ele></trkpt>
    <trkpt lat="33.74458" lon="-116.78312"><ele>1215.0</ele></trkpt>
    <trkpt lat="33.74452" lon="-116.78309"><ele>1215.0</ele></trkpt>
    <trkpt lat="33.74442" lon="-116.78304"><ele>1220.0</ele></trkpt>
    <trkpt lat="33.74438" lon="-116.78302"><ele>1220.0</ele></trkpt>
    <trkpt lat="33.74434" lon="-116.78303"><ele>1220.0</ele></trkpt>
    <trkpt lat="33.74430" lon="-116.78305"><ele>1220.0</ele></trkpt>
    <trkpt lat="33.74428" lon="-116.78309"><ele>1220.0</ele></trkpt>
    <trkpt lat="33.74427" lon="-116.78315"><ele>1220.0</ele></trkpt>
    <trkpt lat="33.74427" lon="-116.78322"><ele>1220.0</ele></trkpt>
    <trkpt lat="33.74428" lon="-116.78331"><ele>1220.0</ele></trkpt>
    <trkpt lat="33.74427" lon="-116.78337"><ele>1220.0</ele></trkpt>
    <trkpt lat="33.74427" lon="-116.78343"><ele>1220.0</ele></trkpt>
    <trkpt lat="33.74427" lon="-116.78353"><ele>1220.0</ele></trkpt>
    <trkpt lat="33.74427" lon="-116.78359"><ele>1220.0</ele></trkpt>
    <trkpt lat="33.74430" lon="-116.78365"><ele>1220.0</ele></trkpt>
    <trkpt lat="33.74433" lon="-116.78370"><ele>1220.0</ele></trkpt>
    <trkpt lat="33.74436" lon="-116.78375"><ele>1220.0</ele></trkpt>
    <trkpt lat="33.74437" lon="-116.78379"><ele>1220.0</ele></trkpt>
    <trkpt lat="33.74437" lon="-116.78383"><ele>1205.0</ele></trkpt>
    <trkpt lat="33.74436" lon="-116.78389"><ele>1205.0</ele></trkpt>
    <trkpt lat="33.74436" lon="-116.78396"><ele>1205.0</ele></trkpt>
    <trkpt lat="33.74434" lon="-116.78403"><ele>1205.0</ele></trkpt>
    <trkpt lat="33.74434" lon="-116.78409"><ele>1205.0</ele></trkpt>
    <trkpt lat="33.74435" lon="-116.78414"><ele>1205.0</ele></trkpt>
    <trkpt lat="33.74438" lon="-116.78419"><ele>1205.0</ele></trkpt>
    <trkpt lat="33.74441" lon="-116.78422"><ele>1205.0</ele></trkpt>
    <trkpt lat="33.74444" lon="-116.78427"><ele>1205.0</ele></trkpt>
    <trkpt lat="33.74447" lon="-116.78432"><ele>1205.0</ele></trkpt>
    <trkpt lat="33.74449" lon="-116.78439"><ele>1205.0</ele></trkpt>
    <trkpt lat="33.74452" lon="-116.78445"><ele>1205.0</ele></trkpt>
    <trkpt lat="33.74454" lon="-116.78454"><ele>1205.0</ele></trkpt>
    <trkpt lat="33.74455" lon="-116.78461"><ele>1205.0</ele></trkpt>
    <trkpt lat="33.74456" lon="-116.78469"><ele>1205.0</ele></trkpt>
    <trkpt lat="33.74457" lon="-116.78476"><ele>1187.0</ele></trkpt>
    <trkpt lat="33.74457" lon="-116.78483"><ele>1187.0</ele></trkpt>
    <trkpt lat="33.74456" lon="-116.78489"><ele>1187.0</ele></trkpt>
    <trkpt lat="33.74453" lon="-116.78494"><ele>1187.0</ele></trkpt>
    <trkpt lat="33.74450" lon="-116.78498"><ele>1187.0</ele></trkpt>
    <trkpt lat="33.74446" lon="-116.78502"><ele>1187.0</ele></trkpt>
    <trkpt lat="33.74442" lon="-116.78504"><ele>1187.0</ele></trkpt>
    <trkpt lat="33.74438" lon="-116.78504"><ele>1187.0</ele></trkpt>
    <trkpt lat="33.74434" lon="-116.78505"><ele>1187.0</ele></trkpt>
    <trkpt lat="33.74429" lon="-116.78504"><ele>1187.0</ele></trkpt>
    <trkpt lat="33.74424" lon="-116.78504"><ele>1187.0</ele></trkpt>
    <trkpt lat="33.74420" lon="-116.78504"><ele>1187.0</ele></trkpt>
    <trkpt lat="33.74417" lon="-116.78505"><ele>1187.0</ele></trkpt>
    <trkpt lat="33.74414" lon="-116.78507"><ele>1187.0</ele></trkpt>
    <trkpt lat="33.74411" lon="-116.78512"><ele>1187.0</ele></trkpt>
    <trkpt lat="33.74409" lon="-116.78517"><ele>1187.0</ele></trkpt>
    <trkpt lat="33.74408" lon="-116.78523"><ele>1178.0</ele></trkpt>
    <trkpt lat="33.74407" lon="-116.78528"><ele>1178.0</ele></trkpt>
    <trkpt lat="33.74400" lon="-116.78543"><ele>1178.0</ele></trkpt>
    <trkpt lat="33.74388" lon="-116.78556"><ele>1178.0</ele></trkpt>
    <trkpt lat="33.74382" lon="-116.78567"><ele>1178.0</ele></trkpt>
    <trkpt lat="33.74372" lon="-116.78581"><ele>1178.0</ele></trkpt>
    <trkpt lat="33.74365" lon="-116.78590"><ele>1178.0</ele></trkpt>
    <trkpt lat="33.74355" lon="-116.78597"><ele>1178.0</ele></trkpt>
    <trkpt lat="33.74340" lon="-116.78603"><ele>1178.0</ele></trkpt>
    <trkpt lat="33.74316" lon="-116.78611"><ele>1178.0</ele></trkpt>
    <trkpt lat="33.74310" lon="-116.78613"><ele>1178.0</ele></trkpt>
    <trkpt lat="33.74304" lon="-116.78614"><ele>1178.0</ele></trkpt>
    <trkpt lat="33.74298" lon="-116.78614"><ele>1178.0</ele></trkpt>
    <trkpt lat="33.74293" lon="-116.78615"><ele>1178.0</ele></trkpt>
    <trkpt lat="33.74288" lon="-116.78615"><ele>1178.0</ele></trkpt>
    <trkpt lat="33.74284" lon="-116.78616"><ele>1170.0</ele></trkpt>
    <trkpt lat="33.74280" lon="-116.78618"><ele>1170.0</ele></trkpt>
    <trkpt lat="33.74276" lon="-116.78621"><ele>1170.0</ele></trkpt>
    <trkpt lat="33.74272" lon="-116.78626"><ele>1170.0</ele></trkpt>
    <trkpt lat="33.74269" lon="-116.78628"><ele>1170.0</ele></trkpt>
    <trkpt lat="33.74266" lon="-116.78631"><ele>1170.0</ele></trkpt>
    <trkpt lat="33.74263" lon="-116.78634"><ele>1170.0</ele></trkpt>
    <trkpt lat="33.74259" lon="-116.78635"><ele>1170.0</ele></trkpt>
    <trkpt lat="33.74255" lon="-116.78636"><ele>1170.0</ele></trkpt>
    <trkpt lat="33.74250" lon="-116.78637"><ele>1170.0</ele></trkpt>
    <trkpt lat="33.74245" lon="-116.78637"><ele>1170.0</ele></trkpt>
    <trkpt lat="33.74240" lon="-116.78638"><ele>1170.0</ele></trkpt>
    <trkpt lat="33.74235" lon="-116.78639"><ele>1170.0</ele></trkpt>
    <trkpt lat="33.74229" lon="-116.78641"><ele>1170.0</ele></trkpt>
    <trkpt lat="33.74220" lon="-116.78647"><ele>1170.0</ele></trkpt>
    <trkpt lat="33.74214" lon="-116.78650"><ele>1170.0</ele></trkpt>
    <trkpt lat="33.74206" lon="-116.78653"><ele>1165.0</ele></trkpt>
    <trkpt lat="33.74198" lon="-116.78654"><ele>1165.0</ele></trkpt>
    <trkpt lat="33.74193" lon="-116.78654"><ele>1165.0</ele></trkpt>
    <trkpt lat="33.74186" lon="-116.78656"><ele>1165.0</ele></trkpt>
    <trkpt lat="33.74177" lon="-116.78661"><ele>1165.0</ele></trkpt>
    <trkpt lat="33.74170" lon="-116.78664"><ele>1165.0</ele></trkpt>
    <trkpt lat="33.74163" lon="-116.78665"><ele>1165.0</ele></trkpt>
    <trkpt lat="33.74159" lon="-116.78664"><ele>1165.0</ele></trkpt>
    <trkpt lat="33.74154" lon="-116.78660"><ele>1165.0</ele></trkpt>
    <trkpt lat="33.74147" lon="-116.78661"><ele>1165.0</ele></trkpt>
    <trkpt lat="33.74141" lon="-116.78666"><ele>1165.0</ele></trkpt>
    <trkpt lat="33.74136" lon="-116.78673"><ele>1165.0</ele></trkpt>
    <trkpt lat="33.74130" lon="-116.78677"><ele>1165.0</ele></trkpt>
    <trkpt lat="33.74121" lon="-116.78678"><ele>1165.0</ele></trkpt>
    <trkpt lat="33.74110" lon="-116.78676"><ele>1165.0</ele></trkpt>
    <trkpt lat="33.74098" lon="-116.78673"><ele>1156.0</ele></trkpt>
    <trkpt lat="33.74090" lon="-116.78672"><ele>1156.0</ele></trkpt>
    <trkpt lat="33.74086" lon="-116.78675"><ele>1156.0</ele></trkpt>
    <trkpt lat="33.74083" lon="-116.78681"><ele>1156.0</ele></trkpt>
    <trkpt lat="33.74082" lon="-116.78689"><ele>1156.0</ele></trkpt>
    <trkpt lat="33.74083" lon="-116.78698"><ele>1156.0</ele></trkpt>
    <trkpt lat="33.74085" lon="-116.78708"><ele>1156.0</ele></trkpt>
    <trkpt lat="33.74085" lon="-116.78716"><ele>1156.0</ele></trkpt>
    <trkpt lat="33.74085" lon="-116.78727"><ele>1156.0</ele></trkpt>
    <trkpt lat="33.74089" lon="-116.78748"><ele>1156.0</ele></trkpt>
    <trkpt lat="33.74090" lon="-116.78754"><ele>1156.0</ele></trkpt>
    <trkpt lat="33.74091" lon="-116.78761"><ele>1156.0</ele></trkpt>
    <trkpt lat="33.74092" lon="-116.78768"><ele>1156.0</ele></trkpt>
    <trkpt lat="33.74092" lon="-116.78774"><ele>1156.0</ele></trkpt>
    <trkpt lat="33.74092" lon="-116.78783"><ele>1156.0</ele></trkpt>
    <trkpt lat="33.74091" lon="-116.78792"><ele>1156.0</ele></trkpt>
    <trkpt lat="33.74089" lon="-116.78800"><ele>1126.0</ele></trkpt>
    <trkpt lat="33.74087" lon="-116.78808"><ele>1126.0</ele></trkpt>
    <trkpt lat="33.74084" lon="-116.78814"><ele>1126.0</ele></trkpt>
    <trkpt lat="33.74080" lon="-116.78817"><ele>1126.0</ele></trkpt>
    <trkpt lat="33.74075" lon="-116.78819"><ele>1126.0</ele></trkpt>
    <trkpt lat="33.74067" lon="-116.78819"><ele>1126.0</ele></trkpt>
    <trkpt lat="33.74061" lon="-116.78818"><ele>1126.0</ele></trkpt>
    <trkpt lat="33.74053" lon="-116.78815"><ele>1126.0</ele></trkpt>
    <trkpt lat="33.74044" lon="-116.78813"><ele>1126.0</ele></trkpt>
    <trkpt lat="33.74037" lon="-116.78810"><ele>1126.0</ele></trkpt>
    <trkpt lat="33.74030" lon="-116.78809"><ele>1126.0</ele></trkpt>
    <trkpt lat="33.74023" lon="-116.78808"><ele>1126.0</ele></trkpt>
    <trkpt lat="33.74015" lon="-116.78806"><ele>1126.0</ele></trkpt>
    <trkpt lat="33.74006" lon="-116.78806"><ele>1126.0</ele></trkpt>
    <trkpt lat="33.73997" lon="-116.78806"><ele>1126.0</ele></trkpt>
    <trkpt lat="33.73989" lon="-116.78805"><ele>1120.0</ele></trkpt>
    <trkpt lat="33.73984" lon="-116.78807"><ele>1120.0</ele></trkpt>
    <trkpt lat="33.73976" lon="-116.78813"><ele>1120.0</ele></trkpt>
    <trkpt lat="33.73968" lon="-116.78817"><ele>1120.0</ele></trkpt>
    <trkpt lat="33.73961" lon="-116.78820"><ele>1120.0</ele></trkpt>
    <trkpt lat="33.73952" lon="-116.78820"><ele>1120.0</ele></trkpt>
    <trkpt lat="33.73946" lon="-116.78820"><ele>1120.0</ele></trkpt>
    <trkpt lat="33.73938" lon="-116.78818"><ele>1120.0</ele></trkpt>
    <trkpt lat="33.73932" lon="-116.78816"><ele>1120.0</ele></trkpt>
    <trkpt lat="33.73925" lon="-116.78815"><ele>1120.0</ele></trkpt>
    <trkpt lat="33.73919" lon="-116.78814"><ele>1120.0</ele></trkpt>
    <trkpt lat="33.73915" lon="-116.78809"><ele>1120.0</ele></trkpt>
    <trkpt lat="33.73910" lon="-116.78804"><ele>1120.0</ele></trkpt>
    <trkpt lat="33.73906" lon="-116.78799"><ele>1120.0</ele></trkpt>
    <trkpt lat="33.73901" lon="-116.78796"><ele>1120.0</ele></trkpt>
    <trkpt lat="33.73896" lon="-116.78794"><ele>1120.0</ele></trkpt>
    <trkpt lat="33.73892" lon="-116.78793"><ele>1121.0</ele></trkpt>
    <trkpt lat="33.73888" lon="-116.78794"><ele>1121.0</ele></trkpt>
    <trkpt lat="33.73885" lon="-116.78798"><ele>1121.0</ele></trkpt>
    <trkpt lat="33.73885" lon="-116.78804"><ele>1121.0</ele></trkpt>
    <trkpt lat="33.73887" lon="-116.78812"><ele>1121.0</ele></trkpt>
    <trkpt lat="33.73888" lon="-116.78823"><ele>1121.0</ele></trkpt>
    <trkpt lat="33.73888" lon="-116.78839"><ele>1121.0</ele></trkpt>
    <trkpt lat="33.73886" lon="-116.78849"><ele>1121.0</ele></trkpt>
    <trkpt lat="33.73886" lon="-116.78856"><ele>1121.0</ele></trkpt>
    <trkpt lat="33.73889" lon="-116.78889"><ele>1121.0</ele></trkpt>
    <trkpt lat="33.73892" lon="-116.78921"><ele>1121.0</ele></trkpt>
    <trkpt lat="33.73891" lon="-116.78927"><ele>1121.0</ele></trkpt>
    <trkpt lat="33.73887" lon="-116.78935"><ele>1121.0</ele></trkpt>
    <trkpt lat="33.73886" lon="-116.78941"><ele>1121.0</ele></trkpt>
    <trkpt lat="33.73887" lon="-116.78946"><ele>1121.0</ele></trkpt>
    <trkpt lat="33.73890" lon="-116.78953"><ele>1089.0</ele></trkpt>
    <trkpt lat="33.73896" lon="-116.78960"><ele>1089.0</ele></trkpt>
    <trkpt lat="33.73897" lon="-116.78967"><ele>1089.0</ele></trkpt>
    <trkpt lat="33.73896" lon="-116.78973"><ele>1089.0</ele></trkpt>
    <trkpt lat="33.73893" lon="-116.78981"><ele>1089.0</ele></trkpt>
    <trkpt lat="33.73891" lon="-116.78988"><ele>1089.0</ele></trkpt>
    <trkpt lat="33.73889" lon="-116.78997"><ele>1089.0</ele></trkpt>
    <trkpt lat="33.73886" lon="-116.79002"><ele>1089.0</ele></trkpt>
    <trkpt lat="33.73883" lon="-116.79006"><ele>1089.0</ele></trkpt>
    <trkpt lat="33.73880" lon="-116.79009"><ele>1089.0</ele></trkpt>
    <trkpt lat="33.73876" lon="-116.79012"><ele>1089.0</ele></trkpt>
    <trkpt lat="33.73872" lon="-116.79016"><ele>1089.0</ele></trkpt>
    <trkpt lat="33.73867" lon="-116.79021"><ele>1089.0</ele></trkpt>
    <trkpt lat="33.73863" lon="-116.79027"><ele>1089.0</ele></trkpt>
    <trkpt lat="33.73858" lon="-116.79031"><ele>1089.0</ele></trkpt>
    <trkpt lat="33.73855" lon="-116.79035"><ele>1089.0</ele></trkpt>
    <trkpt lat="33.73853" lon="-116.79039"><ele>1091.0</ele></trkpt>
    <trkpt lat="33.73851" lon="-116.79046"><ele>1091.0</ele></trkpt>
    <trkpt lat="33.73849" lon="-116.79054"><ele>1091.0</ele></trkpt>
    <trkpt lat="33.73847" lon="-116.79061"><ele>1091.0</ele></trkpt>
    <trkpt lat="33.73845" lon="-116.79067"><ele>1091.0</ele></trkpt>
    <trkpt lat="33.73843" lon="-116.79074"><ele>1091.0</ele></trkpt>
    <trkpt lat="33.73840" lon="-116.79079"><ele>1091.0</ele></trkpt>
    <trkpt lat="33.73838" lon="-116.79086"><ele>1091.0</ele></trkpt>
    <trkpt lat="33.73836" lon="-116.79094"><ele>1091.0</ele></trkpt>
    <trkpt lat="33.73835" lon="-116.79101"><ele>1091.0</ele></trkpt>
    <trkpt lat="33.73833" lon="-116.79110"><ele>1091.0</ele></trkpt>
    <trkpt lat="33.73832" lon="-116.79118"><ele>1091.0</ele></trkpt>
    <trkpt lat="33.73831" lon="-116.79126"><ele>1091.0</ele></trkpt>
    <trkpt lat="33.73829" lon="-116.79134"><ele>1091.0</ele></trkpt>
    <trkpt lat="33.73829" lon="-116.79140"><ele>1091.0</ele></trkpt>
    <trkpt lat="33.73828" lon="-116.79147"><ele>1072.0</ele></trkpt>
    <trkpt lat="33.73827" lon="-116.79155"><ele>1072.0</ele></trkpt>
    <trkpt lat="33.73825" lon="-116.79162"><ele>1072.0</ele></trkpt>
    <trkpt lat="33.73822" lon="-116.79169"><ele>1072.0</ele></trkpt>
    <trkpt lat="33.73821" lon="-116.79175"><ele>1072.0</ele></trkpt>
    <trkpt lat="33.73822" lon="-116.79181"><ele>1072.0</ele></trkpt>
    <trkpt lat="33.73823" lon="-116.79187"><ele>1072.0</ele></trkpt>
    <trkpt lat="33.73824" lon="-116.79194"><ele>1072.0</ele></trkpt>
    <trkpt lat="33.73824" lon="-116.79201"><ele>1072.0</ele></trkpt>
    <trkpt lat="33.73824" lon="-116.79209"><ele>1072.0</ele></trkpt>
    <trkpt lat="33.73822" lon="-116.79217"><ele>1072.0</ele></trkpt>
    <trkpt lat="33.73820" lon="-116.79224"><ele>1072.0</ele></trkpt>
    <trkpt lat="33.73818" lon="-116.79231"><ele>1072.0</ele></trkpt>
    <trkpt lat="33.73815" lon="-116.79238"><ele>1072.0</ele></trkpt>
    <trkpt lat="33.73814" lon="-116.79246"><ele>1072.0</ele></trkpt>
    <trkpt lat="33.73812" lon="-116.79253"><ele>1072.0</ele></trkpt>
    <trkpt lat="33.73810" lon="-116.79263"><ele>1058.0</ele></trkpt>
    <trkpt lat="33.73809" lon="-116.79270"><ele>1058.0</ele></trkpt>
    <trkpt lat="33.73807" lon="-116.79277"><ele>1058.0</ele></trkpt>
    <trkpt lat="33.73804" lon="-116.79283"><ele>1058.0</ele></trkpt>
    <trkpt lat="33.73801" lon="-116.79287"><ele>1058.0</ele></trkpt>
    <trkpt lat="33.73797" lon="-116.79288"><ele>1058.0</ele></trkpt>
    <trkpt lat="33.73794" lon="-116.79288"><ele>1058.0</ele></trkpt>
    <trkpt lat="33.73788" lon="-116.79286"><ele>1058.0</ele></trkpt>
    <trkpt lat="33.73782" lon="-116.79284"><ele>1058.0</ele></trkpt>
    <trkpt lat="33.73778" lon="-116.79283"><ele>1058.0</ele></trkpt>
    <trkpt lat="33.73774" lon="-116.79284"><ele>1058.0</ele></trkpt>
    <trkpt lat="33.73771" lon="-116.79286"><ele>1058.0</ele></trkpt>
    <trkpt lat="33.73768" lon="-116.79289"><ele>1058.0</ele></trkpt>
    <trkpt lat="33.73766" lon="-116.79292"><ele>1058.0</ele></trkpt>
    <trkpt lat="33.73764" lon="-116.79296"><ele>1058.0</ele></trkpt>
    <trkpt lat="33.73764" lon="-116.79301"><ele>1054.0</ele></trkpt>
    <trkpt lat="33.73764" lon="-116.79306"><ele>1054.0</ele></trkpt>
    <trkpt lat="33.73764" lon="-116.79313"><ele>1054.0</ele></trkpt>
    <trkpt lat="33.73762" lon="-116.79318"><ele>1054.0</ele></trkpt>
    <trkpt lat="33.73761" lon="-116.79323"><ele>1054.0</ele></trkpt>
    <trkpt lat="33.73758" lon="-116.79327"><ele>1054.0</ele></trkpt>
    <trkpt lat="33.73755" lon="-116.79331"><ele>1054.0</ele></trkpt>
    <trkpt lat="33.73752" lon="-116.79337"><ele>1054.0</ele></trkpt>
    <trkpt lat="33.73749" lon="-116.79341"><ele>1054.0</ele></trkpt>
    <trkpt lat="33.73745" lon="-116.79345"><ele>1054.0</ele></trkpt>
    <trkpt lat="33.73741" lon="-116.79348"><ele>1054.0</ele></trkpt>
    <trkpt lat="33.73738" lon="-116.79351"><ele>1054.0</ele></trkpt>
    <trkpt lat="33.73733" lon="-116.79352"><ele>1054.0</ele></trkpt>
    <trkpt lat="33.73728" lon="-116.79352"><ele>1054.0</ele></trkpt>
    <trkpt lat="33.73722" lon="-116.79351"><ele>1054.0</ele></trkpt>
    <trkpt lat="33.73718" lon="-116.79350"><ele>1054.0</ele></trkpt>
    <trkpt lat="33.73712" lon="-116.79347"><ele>1052.0</ele></trkpt>
    <trkpt lat="33.73706" lon="-116.79346"><ele>1052.0</ele></trkpt>
    <trkpt lat="33.73700" lon="-116.79346"><ele>1052.0</ele></trkpt>
    <trkpt lat="33.73695" lon="-116.79343"><ele>1052.0</ele></trkpt>
    <trkpt lat="33.73688" lon="-116.79338"><ele>1052.0</ele></trkpt>
    <trkpt lat="33.73682" lon="-116.79333"><ele>1052.0</ele></trkpt>
    <trkpt lat="33.73677" lon="-116.79325"><ele>1052.0</ele></trkpt>
    <trkpt lat="33.73672" lon="-116.79321"><ele>1052.0</ele></trkpt>
    <trkpt lat="33.73667" lon="-116.79318"><ele>1052.0</ele></trkpt>
    <trkpt lat="33.73663" lon="-116.79315"><ele>1052.0</ele></trkpt>
    <trkpt lat="33.73659" lon="-116.79314"><ele>1052.0</ele></trkpt>
    <trkpt lat="33.73656" lon="-116.79314"><ele>1052.0</ele></trkpt>
    <trkpt lat="33.73653" lon="-116.79316"><ele>1052.0</ele></trkpt>
    <trkpt lat="33.73650" lon="-116.79321"><ele>1052.0</ele></trkpt>
    <trkpt lat="33.73648" lon="-116.79325"><ele>1052.0</ele></trkpt>
    <trkpt lat="33.73647" lon="-116.79333"><ele>1038.0</ele></trkpt>
    <trkpt lat="33.73647" lon="-116.79341"><ele>1038.0</ele></trkpt>
    <trkpt lat="33.73646" lon="-116.79348"><ele>1038.0</ele></trkpt>
    <trkpt lat="33.73645" lon="-116.79356"><ele>1038.0</ele></trkpt>
    <trkpt lat="33.73645" lon="-116.79365"><ele>1038.0</ele></trkpt>
    <trkpt lat="33.73646" lon="-116.79372"><ele>1038.0</ele></trkpt>
    <trkpt lat="33.73648" lon="-116.79379"><ele>1038.0</ele></trkpt>
    <trkpt lat="33.73650" lon="-116.79385"><ele>1038.0</ele></trkpt>
    <trkpt lat="33.73653" lon="-116.79390"><ele>1038.0</ele></trkpt>
    <trkpt lat="33.73656" lon="-116.79395"><ele>1038.0</ele></trkpt>
    <trkpt lat="33.73660" lon="-116.79399"><ele>1038.0</ele></trkpt>
    <trkpt lat="33.73664" lon="-116.79402"><ele>1038.0</ele></trkpt>
    <trkpt lat="33.73667" lon="-116.79405"><ele>1038.0</ele></trkpt>
    <trkpt lat="33.73668" lon="-116.79408"><ele>1038.0</ele></trkpt>
    <trkpt lat="33.73669" lon="-116.79413"><ele>1038.0</ele></trkpt>
    <trkpt lat="33.73668" lon="-116.79417"><ele>1038.0</ele></trkpt>
    <trkpt lat="33.73666" lon="-116.79422"><ele>1025.0</ele></trkpt>
    <trkpt lat="33.73664" lon="-116.79425"><ele>1025.0</ele></trkpt>
    <trkpt lat="33.73659" lon="-116.79428"><ele>1025.0</ele></trkpt>
    <trkpt lat="33.73654" lon="-116.79429"><ele>1025.0</ele></trkpt>
    <trkpt lat="33.73648" lon="-116.79430"><ele>1025.0</ele></trkpt>
    <trkpt lat="33.73640" lon="-116.79429"><ele>1025.0</ele></trkpt>
    <trkpt lat="33.73633" lon="-116.79428"><ele>1025.0</ele></trkpt>
    <trkpt lat="33.73626" lon="-116.79427"><ele>1025.0</ele></trkpt>
    <trkpt lat="33.73621" lon="-116.79427"><ele>1025.0</ele></trkpt>
    <trkpt lat="33.73616" lon="-116.79429"><ele>1025.0</ele></trkpt>
    <trkpt lat="33.73610" lon="-116.79431"><ele>1025.0</ele></trkpt>
    <trkpt lat="33.73606" lon="-116.79432"><ele>1025.0</ele></trkpt>
    <trkpt lat="33.73602" lon="-116.79433"><ele>1025.0</ele></trkpt>
    <trkpt lat="33.73598" lon="-116.79431"><ele>1025.0</ele></trkpt>
    <trkpt lat="33.73593" lon="-116.79429"><ele>1025.0</ele></trkpt>
    <trkpt lat="33.73586" lon="-116.79425"><ele>1007.0</ele></trkpt>
    <trkpt lat="33.73577" lon="-116.79421"><ele>1007.0</ele></trkpt>
    <trkpt lat="33.73568" lon="-116.79417"><ele>1007.0</ele></trkpt>
    <trkpt lat="33.73560" lon="-116.79411"><ele>1007.0</ele></trkpt>
    <trkpt lat="33.73552" lon="-116.79407"><ele>1007.0</ele></trkpt>
    <trkpt lat="33.73545" lon="-116.79402"><ele>1007.0</ele></trkpt>
    <trkpt lat="33.73537" lon="-116.79395"><ele>1007.0</ele></trkpt>
    <trkpt lat="33.73529" lon="-116.79386"><ele>1007.0</ele></trkpt>
    <trkpt lat="33.73523" lon="-116.79380"><ele>1007.0</ele></trkpt>
    <trkpt lat="33.73518" lon="-116.79371"><ele>1007.0</ele></trkpt>
    <trkpt lat="33.73513" lon="-116.79361"><ele>1007.0</ele></trkpt>
    <trkpt lat="33.73509" lon="-116.79350"><ele>1007.0</ele></trkpt>
    <trkpt lat="33.73507" lon="-116.79339"><ele>1007.0</ele></trkpt>
    <trkpt lat="33.73505" lon="-116.79328"><ele>1007.0</ele></trkpt>
    <trkpt lat="33.73503" lon="-116.79318"><ele>1007.0</ele></trkpt>
    <trkpt lat="33.73500" lon="-116.79308"><ele>1007.0</ele></trkpt>
    <trkpt lat="33.73497" lon="-116.79299"><ele>1028.0</ele></trkpt>
    <trkpt lat="33.73491" lon="-116.79288"><ele>1028.0</ele></trkpt>
    <trkpt lat="33.73484" lon="-116.79277"><ele>1028.0</ele></trkpt>
    <trkpt lat="33.73478" lon="-116.79271"><ele>1028.0</ele></trkpt>
    <trkpt lat="33.73475" lon="-116.79269"><ele>1028.0</ele></trkpt>
    <trkpt lat="33.73472" lon="-116.79268"><ele>1028.0</ele></trkpt>
    <trkpt lat="33.73469" lon="-116.79269"><ele>1028.0</ele></trkpt>
    <trkpt lat="33.73465" lon="-116.79271"><ele>1028.0</ele></trkpt>
    <trkpt lat="33.73461" lon="-116.79275"><ele>1028.0</ele></trkpt>
    <trkpt lat="33.73452" lon="-116.79283"><ele>1028.0</ele></trkpt>
    <trkpt lat="33.73443" lon="-116.79291"><ele>1028.0</ele></trkpt>
    <trkpt lat="33.73436" lon="-116.79298"><ele>1028.0</ele></trkpt>
    <trkpt lat="33.73432" lon="-116.79306"><ele>1028.0</ele></trkpt>
    <trkpt lat="33.73430" lon="-116.79313"><ele>1028.0</ele></trkpt>
    <trkpt lat="33.73427" lon="-116.79319"><ele>1028.0</ele></trkpt>
    <trkpt lat="33.73423" lon="-116.79325"><ele>994.0</ele></trkpt>
    <trkpt lat="33.73420" lon="-116.79331"><ele>994.0</ele></trkpt>
    <trkpt lat="33.73414" lon="-116.79338"><ele>994.0</ele></trkpt>
    <trkpt lat="33.73409" lon="-116.79345"><ele>994.0</ele></trkpt>
    <trkpt lat="33.73404" lon="-116.79352"><ele>994.0</ele></trkpt>
    <trkpt lat="33.73399" lon="-116.79354"><ele>994.0</ele></trkpt>
    <trkpt lat="33.73393" lon="-116.79356"><ele>994.0</ele></trkpt>
    <trkpt lat="33.73388" lon="-116.79359"><ele>994.0</ele></trkpt>
    <trkpt lat="33.73385" lon="-116.79364"><ele>994.0</ele></trkpt>
    <trkpt lat="33.73382" lon="-116.79371"><ele>994.0</ele></trkpt>
    <trkpt lat="33.73379" lon="-116.79377"><ele>994.0</ele></trkpt>
    <trkpt lat="33.73374" lon="-116.79382"><ele>994.0</ele></trkpt>
    <trkpt lat="33.73369" lon="-116.79388"><ele>994.0</ele></trkpt>
    <trkpt lat="33.73363" lon="-116.79390"><ele>994.0</ele></trkpt>
    <trkpt lat="33.73356" lon="-116.79392"><ele>994.0</ele></trkpt>
    <trkpt lat="33.73350" lon="-116.79393"><ele>994.0</ele></trkpt>
    <trkpt lat="33.73344" lon="-116.79396"><ele>987.0</ele></trkpt>
    <trkpt lat="33.73338" lon="-116.79400"><ele>987.0</ele></trkpt>
    <trkpt lat="33.73332" lon="-116.79402"><ele>987.0</ele></trkpt>
    <trkpt lat="33.73326" lon="-116.79404"><ele>987.0</ele></trkpt>
    <trkpt lat="33.73320" lon="-116.79404"><ele>987.0</ele></trkpt>
    <trkpt lat="33.73313" lon="-116.79404"><ele>987.0</ele></trkpt>
    <trkpt lat="33.73306" lon="-116.79404"><ele>987.0</ele></trkpt>
    <trkpt lat="33.73302" lon="-116.79406"><ele>987.0</ele></trkpt>
    <trkpt lat="33.73297" lon="-116.79409"><ele>987.0</ele></trkpt>
    <trkpt lat="33.73292" lon="-116.79411"><ele>987.0</ele></trkpt>
    <trkpt lat="33.73288" lon="-116.79414"><ele>987.0</ele></trkpt>
    <trkpt lat="33.73283" lon="-116.79416"><ele>987.0</ele></trkpt>
    <trkpt lat="33.73280" lon="-116.79420"><ele>987.0</ele></trkpt>
    <trkpt lat="33.73278" lon="-116.79426"><ele>987.0</ele></trkpt>
    <trkpt lat="33.73276" lon="-116.79432"><ele>987.0</ele></trkpt>
    <trkpt lat="33.73274" lon="-116.79437"><ele>966.0</ele></trkpt>
    <trkpt lat="33.73270" lon="-116.79443"><ele>966.0</ele></trkpt>
    <trkpt lat="33.73266" lon="-116.79449"><ele>966.0</ele></trkpt>
    <trkpt lat="33.73260" lon="-116.79454"><ele>966.0</ele></trkpt>
    <trkpt lat="33.73255" lon="-116.79460"><ele>966.0</ele></trkpt>
    <trkpt lat="33.73250" lon="-116.79464"><ele>966.0</ele></trkpt>
    <trkpt lat="33.73244" lon="-116.79467"><ele>966.0</ele></trkpt>
    <trkpt lat="33.73238" lon="-116.79467"><ele>966.0</ele></trkpt>
    <trkpt lat="33.73230" lon="-116.79467"><ele>966.0</ele></trkpt>
    <trkpt lat="33.73224" lon="-116.79466"><ele>966.0</ele></trkpt>
    <trkpt lat="33.73216" lon="-116.79465"><ele>966.0</ele></trkpt>
    <trkpt lat="33.73208" lon="-116.79462"><ele>966.0</ele></trkpt>
    <trkpt lat="33.73201" lon="-116.79458"><ele>966.0</ele></trkpt>
    <trkpt lat="33.73196" lon="-116.79456"><ele>966.0</ele></trkpt>
    <trkpt lat="33.73191" lon="-116.79456"><ele>966.0</ele></trkpt>
    <trkpt lat="33.73186" lon="-116.79458"><ele>966.0</ele></trkpt>
    <trkpt lat="33.73180" lon="-116.79460"><ele>964.0</ele></trkpt>
    <trkpt lat="33.73175" lon="-116.79460"><ele>964.0</ele></trkpt>
    <trkpt lat="33.73169" lon="-116.79458"><ele>964.0</ele></trkpt>
    <trkpt lat="33.73163" lon="-116.79456"><ele>964.0</ele></trkpt>
    <trkpt lat="33.73155" lon="-116.79450"><ele>964.0</ele></trkpt>
    <trkpt lat="33.73149" lon="-116.79447"><ele>964.0</ele></trkpt>
    <trkpt lat="33.73142" lon="-116.79444"><ele>964.0</ele></trkpt>
    <trkpt lat="33.73135" lon="-116.79443"><ele>964.0</ele></trkpt>
    <trkpt lat="33.73128" lon="-116.79442"><ele>964.0</ele></trkpt>
    <trkpt lat="33.73121" lon="-116.79440"><ele>964.0</ele></trkpt>
    <trkpt lat="33.73112" lon="-116.79437"><ele>964.0</ele></trkpt>
    <trkpt lat="33.73102" lon="-116.79432"><ele>964.0</ele></trkpt>
    <trkpt lat="33.73092" lon="-116.79429"><ele>964.0</ele></trkpt>
    <trkpt lat="33.73083" lon="-116.79427"><ele>964.0</ele></trkpt>
    <trkpt lat="33.73077" lon="-116.79428"><ele>964.0</ele></trkpt>
    <trkpt lat="33.73070" lon="-116.79431"><ele>947.0</ele></trkpt>
    <trkpt lat="33.73062" lon="-116.79433"><ele>947.0</ele></trkpt>
    <trkpt lat="33.73056" lon="-116.79436"><ele>947.0</ele></trkpt>
    <trkpt lat="33.73050" lon="-116.79437"><ele>947.0</ele></trkpt>
    <trkpt lat="33.73045" lon="-116.79439"><ele>947.0</ele></trkpt>
    <trkpt lat="33.73041" lon="-116.79438"><ele>947.0</ele></trkpt>
    <trkpt lat="33.73038" lon="-116.79436"><ele>947.0</ele></trkpt>
    <trkpt lat="33.73036" lon="-116.79432"><ele>947.0</ele></trkpt>
    <trkpt lat="33.73031" lon="-116.79422"><ele>947.0</ele></trkpt>
    <trkpt lat="33.73027" lon="-116.79410"><ele>947.0</ele></trkpt>
    <trkpt lat="33.73025" lon="-116.79401"><ele>947.0</ele></trkpt>
    <trkpt lat="33.73023" lon="-116.79393"><ele>947.0</ele></trkpt>
    <trkpt lat="33.73019" lon="-116.79389"><ele>947.0</ele></trkpt>
    <trkpt lat="33.73014" lon="-116.79389"><ele>947.0</ele></trkpt>
    <trkpt lat="33.73010" lon="-116.79389"><ele>947.0</ele></trkpt>
    <trkpt lat="33.73006" lon="-116.79392"><ele>947.0</ele></trkpt>
    <trkpt lat="33.72998" lon="-116.79398"><ele>930.0</ele></trkpt>
    <trkpt lat="33.72988" lon="-116.79408"><ele>930.0</ele></trkpt>
    <trkpt lat="33.72980" lon="-116.79417"><ele>930.0</ele></trkpt>
    <trkpt lat="33.72970" lon="-116.79424"><ele>930.0</ele></trkpt>
    <trkpt lat="33.72957" lon="-116.79430"><ele>930.0</ele></trkpt>
    <trkpt lat="33.72947" lon="-116.79435"><ele>930.0</ele></trkpt>
    <trkpt lat="33.72938" lon="-116.79438"><ele>930.0</ele></trkpt>
    <trkpt lat="33.72932" lon="-116.79441"><ele>930.0</ele></trkpt>
    <trkpt lat="33.72926" lon="-116.79442"><ele>930.0</ele></trkpt>
    <trkpt lat="33.72918" lon="-116.79444"><ele>930.0</ele></trkpt>
    <trkpt lat="33.72910" lon="-116.79445"><ele>930.0</ele></trkpt>
    <trkpt lat="33.72902" lon="-116.79446"><ele>930.0</ele></trkpt>
    <trkpt lat="33.72895" lon="-116.79445"><ele>930.0</ele></trkpt>
    <trkpt lat="33.72886" lon="-116.79444"><ele>930.0</ele></trkpt>
    <trkpt lat="33.72880" lon="-116.79443"><ele>930.0</ele></trkpt>
    <trkpt lat="33.72875" lon="-116.79443"><ele>915.0</ele></trkpt>
    <trkpt lat="33.72868" lon="-116.79443"><ele>915.0</ele></trkpt>
    <trkpt lat="33.72859" lon="-116.79443"><ele>915.0</ele></trkpt>
    <trkpt lat="33.72853" lon="-116.79440"><ele>915.0</ele></trkpt>
    <trkpt lat="33.72846" lon="-116.79438"><ele>915.0</ele></trkpt>
    <trkpt lat="33.72841" lon="-116.79437"><ele>915.0</ele></trkpt>
    <trkpt lat="33.72835" lon="-116.79437"><ele>915.0</ele></trkpt>
    <trkpt lat="33.72829" lon="-116.79434"><ele>915.0</ele></trkpt>
    <trkpt lat="33.72825" lon="-116.79432"><ele>915.0</ele></trkpt>
    <trkpt lat="33.72820" lon="-116.79427"><ele>915.0</ele></trkpt>
    <trkpt lat="33.72817" lon="-116.79422"><ele>915.0</ele></trkpt>
    <trkpt lat="33.72816" lon="-116.79418"><ele>915.0</ele></trkpt>
    <trkpt lat="33.72814" lon="-116.79412"><ele>915.0</ele></trkpt>
    <trkpt lat="33.72813" lon="-116.79406"><ele>915.0</ele></trkpt>
    <trkpt lat="33.72811" lon="-116.79401"><ele>915.0</ele></trkpt>
    <trkpt lat="33.72807" lon="-116.79398"><ele>915.0</ele></trkpt>
    <trkpt lat="33.72803" lon="-116.79399"><ele>908.0</ele></trkpt>
    <trkpt lat="33.72800" lon="-116.79401"><ele>908.0</ele></trkpt>
    <trkpt lat="33.72800" lon="-116.79406"><ele>908.0</ele></trkpt>
    <trkpt lat="33.72801" lon="-116.79411"><ele>908.0</ele></trkpt>
    <trkpt lat="33.72803" lon="-116.79417"><ele>908.0</ele></trkpt>
    <trkpt lat="33.72805" lon="-116.79421"><ele>908.0</ele></trkpt>
    <trkpt lat="33.72808" lon="-116.79428"><ele>908.0</ele></trkpt>
    <trkpt lat="33.72810" lon="-116.79432"><ele>908.0</ele></trkpt>
    <trkpt lat="33.72813" lon="-116.79437"><ele>908.0</ele></trkpt>
    <trkpt lat="33.72816" lon="-116.79441"><ele>908.0</ele></trkpt>
    <trkpt lat="33.72819" lon="-116.79445"><ele>908.0</ele></trkpt>
    <trkpt lat="33.72822" lon="-116.79449"><ele>908.0</ele></trkpt>
    <trkpt lat="33.72825" lon="-116.79451"><ele>908.0</ele></trkpt>
    <trkpt lat="33.72828" lon="-116.79454"><ele>908.0</ele></trkpt>
    <trkpt lat="33.72833" lon="-116.79456"><ele>908.0</ele></trkpt>
    <trkpt lat="33.72836" lon="-116.79458"><ele>908.0</ele></trkpt>
    <trkpt lat="33.72841" lon="-116.79458"><ele>908.0</ele></trkpt>
    <trkpt lat="33.72845" lon="-116.79458"><ele>908.0</ele></trkpt>
    <trkpt lat="33.72850" lon="-116.79459"><ele>908.0</ele></trkpt>
    <trkpt lat="33.72854" lon="-116.79461"><ele>908.0</ele></trkpt>
    <trkpt lat="33.72859" lon="-116.79463"><ele>908.0</ele></trkpt>
    <trkpt lat="33.72862" lon="-116.79466"><ele>908.0</ele></trkpt>
    <trkpt lat="33.72867" lon="-116.79468"><ele>908.0</ele></trkpt>
    <trkpt lat="33.72871" lon="-116.79469"><ele>908.0</ele></trkpt>
    <trkpt lat="33.72874" lon="-116.79472"><ele>908.0</ele></trkpt>
    <trkpt lat="33.72878" lon="-116.79475"><ele>908.0</ele></trkpt>
    <trkpt lat="33.72882" lon="-116.79479"><ele>908.0</ele></trkpt>
    <trkpt lat="33.72887" lon="-116.79484"><ele>908.0</ele></trkpt>
    <trkpt lat="33.72890" lon="-116.79486"><ele>908.0</ele></trkpt>
    <trkpt lat="33.72894" lon="-116.79487"><ele>908.0</ele></trkpt>
    <trkpt lat="33.72899" lon="-116.79486"><ele>908.0</ele></trkpt>
    <trkpt lat="33.72903" lon="-116.79486"><ele>913.0</ele></trkpt>
    <trkpt lat="33.72907" lon="-116.79484"><ele>913.0</ele></trkpt>
    <trkpt lat="33.72913" lon="-116.79482"><ele>913.0</ele></trkpt>
    <trkpt lat="33.72917" lon="-116.79481"><ele>913.0</ele></trkpt>
    <trkpt lat="33.72921" lon="-116.79480"><ele>913.0</ele></trkpt>
    <trkpt lat="33.72926" lon="-116.79480"><ele>913.0</ele></trkpt>
    <trkpt lat="33.72930" lon="-116.79481"><ele>913.0</ele></trkpt>
    <trkpt lat="33.72933" lon="-116.79482"><ele>913.0</ele></trkpt>
    <trkpt lat="33.72937" lon="-116.79484"><ele>913.0</ele></trkpt>
    <trkpt lat="33.72940" lon="-116.79486"><ele>913.0</ele></trkpt>
    <trkpt lat="33.72944" lon="-116.79487"><ele>913.0</ele></trkpt>
    <trkpt lat="33.72947" lon="-116.79490"><ele>913.0</ele></trkpt>
    <trkpt lat="33.72949" lon="-116.79492"><ele>913.0</ele></trkpt>
    <trkpt lat="33.72950" lon="-116.79496"><ele>913.0</ele></trkpt>
    <trkpt lat="33.72950" lon="-116.79501"><ele>913.0</ele></trkpt>
    <trkpt lat="33.72948" lon="-116.79505"><ele>895.0</ele></trkpt>
    <trkpt lat="33.72946" lon="-116.79510"><ele>895.0</ele></trkpt>
    <trkpt lat="33.72944" lon="-116.79514"><ele>895.0</ele></trkpt>
    <trkpt lat="33.72942" lon="-116.79519"><ele>895.0</ele></trkpt>
    <trkpt lat="33.72941" lon="-116.79525"><ele>895.0</ele></trkpt>
    <trkpt lat="33.72939" lon="-116.79529"><ele>895.0</ele></trkpt>
    <trkpt lat="33.72938" lon="-116.79535"><ele>895.0</ele></trkpt>
    <trkpt lat="33.72936" lon="-116.79541"><ele>895.0</ele></trkpt>
    <trkpt lat="33.72935" lon="-116.79546"><ele>895.0</ele></trkpt>
    <trkpt lat="33.72934" lon="-116.79552"><ele>895.0</ele></trkpt>
    <trkpt lat="33.72933" lon="-116.79559"><ele>895.0</ele></trkpt>
    <trkpt lat="33.72932" lon="-116.79565"><ele>895.0</ele></trkpt>
    <trkpt lat="33.72932" lon="-116.79570"><ele>895.0</ele></trkpt>
    <trkpt lat="33.72933" lon="-116.79574"><ele>895.0</ele></trkpt>
    <trkpt lat="33.72933" lon="-116.79581"><ele>895.0</ele></trkpt>
    <trkpt lat="33.72933" lon="-116.79585"><ele>895.0</ele></trkpt>
    <trkpt lat="33.72931" lon="-116.79589"><ele>876.0</ele></trkpt>
    <trkpt lat="33.72927" lon="-116.79593"><ele>876.0</ele></trkpt>
    <trkpt lat="33.72924" lon="-116.79594"><ele>876.0</ele></trkpt>
    <trkpt lat="33.72920" lon="-116.79595"><ele>876.0</ele></trkpt>
    <trkpt lat="33.72916" lon="-116.79595"><ele>876.0</ele></trkpt>
    <trkpt lat="33.72912" lon="-116.79595"><ele>876.0</ele></trkpt>
    <trkpt lat="33.72908" lon="-116.79594"><ele>876.0</ele></trkpt>
    <trkpt lat="33.72905" lon="-116.79592"><ele>876.0</ele></trkpt>
    <trkpt lat="33.72904" lon="-116.79589"><ele>876.0</ele></trkpt>
    <trkpt lat="33.72903" lon="-116.79586"><ele>876.0</ele></trkpt>
    <trkpt lat="33.72902" lon="-116.79582"><ele>876.0</ele></trkpt>
    <trkpt lat="33.72904" lon="-116.79578"><ele>876.0</ele></trkpt>
    <trkpt lat="33.72907" lon="-116.79573"><ele>876.0</ele></trkpt>
    <trkpt lat="33.72911" lon="-116.79568"><ele>876.0</ele></trkpt>
    <trkpt lat="33.72913" lon="-116.79563"><ele>876.0</ele></trkpt>
    <trkpt lat="33.72915" lon="-116.79558"><ele>889.0</ele></trkpt>
    <trkpt lat="33.72917" lon="-116.79554"><ele>889.0</ele></trkpt>
    <trkpt lat="33.72917" lon="-116.79549"><ele>889.0</ele></trkpt>
    <trkpt lat="33.72916" lon="-116.79544"><ele>889.0</ele></trkpt>
    <trkpt lat="33.72913" lon="-116.79542"><ele>889.0</ele></trkpt>
    <trkpt lat="33.72909" lon="-116.79540"><ele>889.0</ele></trkpt>
    <trkpt lat="33.72905" lon="-116.79538"><ele>889.0</ele></trkpt>
    <trkpt lat="33.72898" lon="-116.79537"><ele>889.0</ele></trkpt>
    <trkpt lat="33.72891" lon="-116.79535"><ele>889.0</ele></trkpt>
    <trkpt lat="33.72882" lon="-116.79534"><ele>889.0</ele></trkpt>
    <trkpt lat="33.72870" lon="-116.79531"><ele>889.0</ele></trkpt>
    <trkpt lat="33.72860" lon="-116.79530"><ele>889.0</ele></trkpt>
    <trkpt lat="33.72849" lon="-116.79528"><ele>889.0</ele></trkpt>
    <trkpt lat="33.72844" lon="-116.79528"><ele>889.0</ele></trkpt>
    <trkpt lat="33.72839" lon="-116.79530"><ele>889.0</ele></trkpt>
    <trkpt lat="33.72834" lon="-116.79532"><ele>889.0</ele></trkpt>
    <trkpt lat="33.72828" lon="-116.79538"><ele>861.0</ele></trkpt>
    <trkpt lat="33.72821" lon="-116.79547"><ele>861.0</ele></trkpt>
    <trkpt lat="33.72816" lon="-116.79552"><ele>861.0</ele></trkpt>
    <trkpt lat="33.72809" lon="-116.79560"><ele>861.0</ele></trkpt>
    <trkpt lat="33.72803" lon="-116.79566"><ele>861.0</ele></trkpt>
    <trkpt lat="33.72797" lon="-116.79573"><ele>861.0</ele></trkpt>
    <trkpt lat="33.72792" lon="-116.79578"><ele>861.0</ele></trkpt>
    <trkpt lat="33.72788" lon="-116.79584"><ele>861.0</ele></trkpt>
    <trkpt lat="33.72782" lon="-116.79587"><ele>861.0</ele></trkpt>
    <trkpt lat="33.72777" lon="-116.79590"><ele>861.0</ele></trkpt>
    <trkpt lat="33.72769" lon="-116.79592"><ele>861.0</ele></trkpt>
    <trkpt lat="33.72761" lon="-116.79593"><ele>861.0</ele></trkpt>
    <trkpt lat="33.72756" lon="-116.79594"><ele>861.0</ele></trkpt>
    <trkpt lat="33.72751" lon="-116.79594"><ele>861.0</ele></trkpt>
    <trkpt lat="33.72746" lon="-116.79594"><ele>861.0</ele></trkpt>
    <trkpt lat="33.72741" lon="-116.79597"><ele>843.0</ele></trkpt>
    <trkpt lat="33.72739" lon="-116.79600"><ele>843.0</ele></trkpt>
    <trkpt lat="33.72738" lon="-116.79606"><ele>843.0</ele></trkpt>
    <trkpt lat="33.72739" lon="-116.79613"><ele>843.0</ele></trkpt>
    <trkpt lat="33.72740" lon="-116.79619"><ele>843.0</ele></trkpt>
    <trkpt lat="33.72740" lon="-116.79624"><ele>843.0</ele></trkpt>
    <trkpt lat="33.72741" lon="-116.79632"><ele>843.0</ele></trkpt>
    <trkpt lat="33.72742" lon="-116.79638"><ele>843.0</ele></trkpt>
    <trkpt lat="33.72743" lon="-116.79643"><ele>843.0</ele></trkpt>
    <trkpt lat="33.72746" lon="-116.79645"><ele>843.0</ele></trkpt>
    <trkpt lat="33.72751" lon="-116.79647"><ele>843.0</ele></trkpt>
    <trkpt lat="33.72756" lon="-116.79647"><ele>843.0</ele></trkpt>
    <trkpt lat="33.72759" lon="-116.79647"><ele>843.0</ele></trkpt>
    <trkpt lat="33.72763" lon="-116.79647"><ele>843.0</ele></trkpt>
    <trkpt lat="33.72767" lon="-116.79648"><ele>843.0</ele></trkpt>
    <trkpt lat="33.72772" lon="-116.79651"><ele>843.0</ele></trkpt>
    <trkpt lat="33.72778" lon="-116.79653"><ele>854.0</ele></trkpt>
    <trkpt lat="33.72783" lon="-116.79653"><ele>854.0</ele></trkpt>
    <trkpt lat="33.72789" lon="-116.79651"><ele>854.0</ele></trkpt>
    <trkpt lat="33.72793" lon="-116.79646"><ele>854.0</ele></trkpt>
    <trkpt lat="33.72797" lon="-116.79639"><ele>854.0</ele></trkpt>
    <trkpt lat="33.72802" lon="-116.79634"><ele>854.0</ele></trkpt>
    <trkpt lat="33.72808" lon="-116.79633"><ele>854.0</ele></trkpt>
    <trkpt lat="33.72812" lon="-116.79637"><ele>854.0</ele></trkpt>
    <trkpt lat="33.72814" lon="-116.79644"><ele>854.0</ele></trkpt>
    <trkpt lat="33.72814" lon="-116.79649"><ele>854.0</ele></trkpt>
    <trkpt lat="33.72813" lon="-116.79657"><ele>854.0</ele></trkpt>
    <trkpt lat="33.72810" lon="-116.79663"><ele>854.0</ele></trkpt>
    <trkpt lat="33.72808" lon="-116.79669"><ele>854.0</ele></trkpt>
    <trkpt lat="33.72804" lon="-116.79675"><ele>854.0</ele></trkpt>
    <trkpt lat="33.72800" lon="-116.79680"><ele>854.0</ele></trkpt>
    <trkpt lat="33.72794" lon="-116.79685"><ele>834.0</ele></trkpt>
    <trkpt lat="33.72789" lon="-116.79688"><ele>834.0</ele></trkpt>
    <trkpt lat="33.72783" lon="-116.79689"><ele>834.0</ele></trkpt>
    <trkpt lat="33.72776" lon="-116.79692"><ele>834.0</ele></trkpt>
    <trkpt lat="33.72770" lon="-116.79693"><ele>834.0</ele></trkpt>
    <trkpt lat="33.72764" lon="-116.79697"><ele>834.0</ele></trkpt>
    <trkpt lat="33.72758" lon="-116.79701"><ele>834.0</ele></trkpt>
    <trkpt lat="33.72753" lon="-116.79705"><ele>834.0</ele></trkpt>
    <trkpt lat="33.72749" lon="-116.79710"><ele>834.0</ele></trkpt>
    <trkpt lat="33.72745" lon="-116.79715"><ele>834.0</ele></trkpt>
    <trkpt lat="33.72741" lon="-116.79720"><ele>834.0</ele></trkpt>
    <trkpt lat="33.72735" lon="-116.79724"><ele>834.0</ele></trkpt>
    <trkpt lat="33.72731" lon="-116.79728"><ele>834.0</ele></trkpt>
    <trkpt lat="33.72728" lon="-116.79732"><ele>834.0</ele></trkpt>
    <trkpt lat="33.72726" lon="-116.79738"><ele>834.0</ele></trkpt>
    <trkpt lat="33.72724" lon="-116.79743"><ele>834.0</ele></trkpt>
    <trkpt lat="33.72721" lon="-116.79748"><ele>818.0</ele></trkpt>
    <trkpt lat="33.72718" lon="-116.79753"><ele>818.0</ele></trkpt>
    <trkpt lat="33.72714" lon="-116.79756"><ele>818.0</ele></trkpt>
    <trkpt lat="33.72710" lon="-116.79760"><ele>818.0</ele></trkpt>
    <trkpt lat="33.72705" lon="-116.79764"><ele>818.0</ele></trkpt>
    <trkpt lat="33.72702" lon="-116.79769"><ele>818.0</ele></trkpt>
    <trkpt lat="33.72699" lon="-116.79774"><ele>818.0</ele></trkpt>
    <trkpt lat="33.72695" lon="-116.79779"><ele>818.0</ele></trkpt>
    <trkpt lat="33.72692" lon="-116.79783"><ele>818.0</ele></trkpt>
    <trkpt lat="33.72689" lon="-116.79786"><ele>818.0</ele></trkpt>
    <trkpt lat="33.72686" lon="-116.79790"><ele>818.0</ele></trkpt>
    <trkpt lat="33.72683" lon="-116.79795"><ele>818.0</ele></trkpt>
    <trkpt lat="33.72682" lon="-116.79802"><ele>818.0</ele></trkpt>
    <trkpt lat="33.72681" lon="-116.79807"><ele>818.0</ele></trkpt>
    <trkpt lat="33.72681" lon="-116.79812"><ele>818.0</ele></trkpt>
    <trkpt lat="33.72681" lon="-116.79817"><ele>810.0</ele></trkpt>
    <trkpt lat="33.72682" lon="-116.79822"><ele>810.0</ele></trkpt>
    <trkpt lat="33.72682" lon="-116.79827"><ele>810.0</ele></trkpt>
    <trkpt lat="33.72683" lon="-116.79832"><ele>810.0</ele></trkpt>
    <trkpt lat="33.72682" lon="-116.79838"><ele>810.0</ele></trkpt>
    <trkpt lat="33.72681" lon="-116.79843"><ele>810.0</ele></trkpt>
    <trkpt lat="33.72679" lon="-116.79848"><ele>810.0</ele></trkpt>
    <trkpt lat="33.72676" lon="-116.79852"><ele>810.0</ele></trkpt>
    <trkpt lat="33.72673" lon="-116.79855"><ele>810.0</ele></trkpt>
    <trkpt lat="33.72670" lon="-116.79857"><ele>810.0</ele></trkpt>
    <trkpt lat="33.72667" lon="-116.79860"><ele>810.0</ele></trkpt>
    <trkpt lat="33.72663" lon="-116.79862"><ele>810.0</ele></trkpt>
    <trkpt lat="33.72657" lon="-116.79865"><ele>810.0</ele></trkpt>
    <trkpt lat="33.72653" lon="-116.79866"><ele>810.0</ele></trkpt>
    <trkpt lat="33.72649" lon="-116.79867"><ele>810.0</ele></trkpt>
    <trkpt lat="33.72646" lon="-116.79868"><ele>810.0</ele></trkpt>
    <trkpt lat="33.72640" lon="-116.79869"><ele>804.0</ele></trkpt>
    <trkpt lat="33.72634" lon="-116.79872"><ele>804.0</ele></trkpt>
    <trkpt lat="33.72628" lon="-116.79874"><ele>804.0</ele></trkpt>
    <trkpt lat="33.72623" lon="-116.79878"><ele>804.0</ele></trkpt>
    <trkpt lat="33.72619" lon="-116.79881"><ele>804.0</ele></trkpt>
    <trkpt lat="33.72615" lon="-116.79887"><ele>804.0</ele></trkpt>
    <trkpt lat="33.72611" lon="-116.79892"><ele>804.0</ele></trkpt>
    <trkpt lat="33.72607" lon="-116.79899"><ele>804.0</ele></trkpt>
    <trkpt lat="33.72603" lon="-116.79906"><ele>804.0</ele></trkpt>
    <trkpt lat="33.72600" lon="-116.79913"><ele>804.0</ele></trkpt>
    <trkpt lat="33.72596" lon="-116.79919"><ele>804.0</ele></trkpt>
    <trkpt lat="33.72593" lon="-116.79928"><ele>804.0</ele></trkpt>
    <trkpt lat="33.72591" lon="-116.79936"><ele>804.0</ele></trkpt>
    <trkpt lat="33.72588" lon="-116.79943"><ele>804.0</ele></trkpt>
    <trkpt lat="33.72586" lon="-116.79951"><ele>804.0</ele></trkpt>
    <trkpt lat="33.72584" lon="-116.79958"><ele>793.0</ele></trkpt>
    <trkpt lat="33.72582" lon="-116.79966"><ele>793.0</ele></trkpt>
    <trkpt lat="33.72578" lon="-116.79973"><ele>793.0</ele></trkpt>
    <trkpt lat="33.72575" lon="-116.79975"><ele>793.0</ele></trkpt>
    <trkpt lat="33.72572" lon="-116.79979"><ele>793.0</ele></trkpt>
    <trkpt lat="33.72567" lon="-116.79981"><ele>793.0</ele></trkpt>
    <trkpt lat="33.72563" lon="-116.79983"><ele>793.0</ele></trkpt>
    <trkpt lat="33.72559" lon="-116.79986"><ele>793.0</ele></trkpt>
    <trkpt lat="33.72557" lon="-116.79992"><ele>793.0</ele></trkpt>
    <trkpt lat="33.72556" lon="-116.80009"><ele>793.0</ele></trkpt>
    <trkpt lat="33.72554" lon="-116.80022"><ele>793.0</ele></trkpt>
    <trkpt lat="33.72550" lon="-116.80039"><ele>793.0</ele></trkpt>
    <trkpt lat="33.72549" lon="-116.80050"><ele>793.0</ele></trkpt>
    <trkpt lat="33.72550" lon="-116.80062"><ele>793.0</ele></trkpt>
    <trkpt lat="33.72554" lon="-116.80075"><ele>793.0</ele></trkpt>
    <trkpt lat="33.72554" lon="-116.80081"><ele>793.0</ele></trkpt>
    <trkpt lat="33.72554" lon="-116.80088"><ele>777.0</ele></trkpt>
    <trkpt lat="33.72555" lon="-116.80096"><ele>777.0</ele></trkpt>
    <trkpt lat="33.72557" lon="-116.80103"><ele>777.0</ele></trkpt>
    <trkpt lat="33.72562" lon="-116.80108"><ele>777.0</ele></trkpt>
    <trkpt lat="33.72568" lon="-116.80115"><ele>777.0</ele></trkpt>
    <trkpt lat="33.72574" lon="-116.80123"><ele>777.0</ele></trkpt>
    <trkpt lat="33.72580" lon="-116.80129"><ele>777.0</ele></trkpt>
    <trkpt lat="33.72586" lon="-116.80136"><ele>777.0</ele></trkpt>
    <trkpt lat="33.72592" lon="-116.80141"><ele>777.0</ele></trkpt>
    <trkpt lat="33.72595" lon="-116.80144"><ele>777.0</ele></trkpt>
    <trkpt lat="33.72598" lon="-116.80149"><ele>777.0</ele></trkpt>
    <trkpt lat="33.72599" lon="-116.80154"><ele>777.0</ele></trkpt>
    <trkpt lat="33.72598" lon="-116.80159"><ele>777.0</ele></trkpt>
    <trkpt lat="33.72597" lon="-116.80165"><ele>777.0</ele></trkpt>
    <trkpt lat="33.72596" lon="-116.80171"><ele>777.0</ele></trkpt>
    <trkpt lat="33.72595" lon="-116.80177"><ele>765.0</ele></trkpt>
    <trkpt lat="33.72596" lon="-116.80182"><ele>765.0</ele></trkpt>
    <trkpt lat="33.72597" lon="-116.80189"><ele>765.0</ele></trkpt>
    <trkpt lat="33.72599" lon="-116.80197"><ele>765.0</ele></trkpt>
    <trkpt lat="33.72600" lon="-116.80203"><ele>765.0</ele></trkpt>
    <trkpt lat="33.72602" lon="-116.80209"><ele>765.0</ele></trkpt>
    <trkpt lat="33.72605" lon="-116.80214"><ele>765.0</ele></trkpt>
    <trkpt lat="33.72607" lon="-116.80220"><ele>765.0</ele></trkpt>
    <trkpt lat="33.72610" lon="-116.80225"><ele>765.0</ele></trkpt>
    <trkpt lat="33.72613" lon="-116.80231"><ele>765.0</ele></trkpt>
    <trkpt lat="33.72615" lon="-116.80236"><ele>765.0</ele></trkpt>
    <trkpt lat="33.72616" lon="-116.80242"><ele>765.0</ele></trkpt>
    <trkpt lat="33.72618" lon="-116.80249"><ele>765.0</ele></trkpt>
    <trkpt lat="33.72618" lon="-116.80257"><ele>765.0</ele></trkpt>
    <trkpt lat="33.72617" lon="-116.80262"><ele>765.0</ele></trkpt>
    <trkpt lat="33.72616" lon="-116.80268"><ele>765.0</ele></trkpt>
    <trkpt lat="33.72614" lon="-116.80274"><ele>754.0</ele></trkpt>
    <trkpt lat="33.72611" lon="-116.80278"><ele>754.0</ele></trkpt>
    <trkpt lat="33.72607" lon="-116.80281"><ele>754.0</ele></trkpt>
    <trkpt lat="33.72603" lon="-116.80280"><ele>754.0</ele></trkpt>
    <trkpt lat="33.72595" lon="-116.80279"><ele>754.0</ele></trkpt>
    <trkpt lat="33.72583" lon="-116.80274"><ele>754.0</ele></trkpt>
    <trkpt lat="33.72575" lon="-116.80272"><ele>754.0</ele></trkpt>
    <trkpt lat="33.72565" lon="-116.80269"><ele>754.0</ele></trkpt>
    <trkpt lat="33.72554" lon="-116.80265"><ele>754.0</ele></trkpt>
    <trkpt lat="33.72543" lon="-116.80262"><ele>754.0</ele></trkpt>
    <trkpt lat="33.72535" lon="-116.80259"><ele>754.0</ele></trkpt>
    <trkpt lat="33.72528" lon="-116.80255"><ele>754.0</ele></trkpt>
    <trkpt lat="33.72524" lon="-116.80254"><ele>754.0</ele></trkpt>
    <trkpt lat="33.72520" lon="-116.80255"><ele>754.0</ele></trkpt>
    <trkpt lat="33.72517" lon="-116.80256"><ele>754.0</ele></trkpt>
    <trkpt lat="33.72515" lon="-116.80258"><ele>740.0</ele></trkpt>
    <trkpt lat="33.72512" lon="-116.80261"><ele>740.0</ele></trkpt>
    <trkpt lat="33.72509" lon="-116.80265"><ele>740.0</ele></trkpt>
    <trkpt lat="33.72507" lon="-116.80268"><ele>740.0</ele></trkpt>
    <trkpt lat="33.72504" lon="-116.80271"><ele>740.0</ele></trkpt>
    <trkpt lat="33.72500" lon="-116.80273"><ele>740.0</ele></trkpt>
    <trkpt lat="33.72495" lon="-116.80274"><ele>740.0</ele></trkpt>
    <trkpt lat="33.72491" lon="-116.80275"><ele>740.0</ele></trkpt>
    <trkpt lat="33.72486" lon="-116.80275"><ele>740.0</ele></trkpt>
    <trkpt lat="33.72482" lon="-116.80274"><ele>740.0</ele></trkpt>
    <trkpt lat="33.72477" lon="-116.80271"><ele>740.0</ele></trkpt>
    <trkpt lat="33.72473" lon="-116.80268"><ele>740.0</ele></trkpt>
    <trkpt lat="33.72469" lon="-116.80263"><ele>740.0</ele></trkpt>
    <trkpt lat="33.72465" lon="-116.80256"><ele>740.0</ele></trkpt>
    <trkpt lat="33.72462" lon="-116.80252"><ele>740.0</ele></trkpt>
    <trkpt lat="33.72456" lon="-116.80246"><ele>740.0</ele></trkpt>
    <trkpt lat="33.72450" lon="-116.80240"><ele>740.0</ele></trkpt>
    <trkpt lat="33.72445" lon="-116.80233"><ele>740.0</ele></trkpt>
    <trkpt lat="33.72442" lon="-116.80227"><ele>740.0</ele></trkpt>
    <trkpt lat="33.72440" lon="-116.80220"><ele>740.0</ele></trkpt>
    <trkpt lat="33.72438" lon="-116.80214"><ele>740.0</ele></trkpt>
    <trkpt lat="33.72436" lon="-116.80207"><ele>740.0</ele></trkpt>
    <trkpt lat="33.72433" lon="-116.80197"><ele>740.0</ele></trkpt>
    <trkpt lat="33.72431" lon="-116.80188"><ele>740.0</ele></trkpt>
    <trkpt lat="33.72429" lon="-116.80177"><ele>740.0</ele></trkpt>
    <trkpt lat="33.72429" lon="-116.80170"><ele>740.0</ele></trkpt>
    <trkpt lat="33.72426" lon="-116.80166"><ele>740.0</ele></trkpt>
    <trkpt lat="33.72421" lon="-116.80164"><ele>740.0</ele></trkpt>
    <trkpt lat="33.72417" lon="-116.80163"><ele>740.0</ele></trkpt>
    <trkpt lat="33.72412" lon="-116.80163"><ele>740.0</ele></trkpt>
    <trkpt lat="33.72407" lon="-116.80164"><ele>740.0</ele></trkpt>
    <trkpt lat="33.72402" lon="-116.80167"><ele>725.0</ele></trkpt>
    <trkpt lat="33.72397" lon="-116.80171"><ele>725.0</ele></trkpt>
    <trkpt lat="33.72393" lon="-116.80175"><ele>725.0</ele></trkpt>
    <trkpt lat="33.72388" lon="-116.80176"><ele>725.0</ele></trkpt>
    <trkpt lat="33.72383" lon="-116.80178"><ele>725.0</ele></trkpt>
    <trkpt lat="33.72377" lon="-116.80178"><ele>725.0</ele></trkpt>
    <trkpt lat="33.72372" lon="-116.80180"><ele>725.0</ele></trkpt>
    <trkpt lat="33.72366" lon="-116.80183"><ele>725.0</ele></trkpt>
    <trkpt lat="33.72361" lon="-116.80184"><ele>725.0</ele></trkpt>
    <trkpt lat="33.72357" lon="-116.80184"><ele>725.0</ele></trkpt>
    <trkpt lat="33.72353" lon="-116.80180"><ele>725.0</ele></trkpt>
    <trkpt lat="33.72350" lon="-116.80176"><ele>725.0</ele></trkpt>
    <trkpt lat="33.72346" lon="-116.80172"><ele>725.0</ele></trkpt>
    <trkpt lat="33.72344" lon="-116.80169"><ele>725.0</ele></trkpt>
    <trkpt lat="33.72341" lon="-116.80167"><ele>725.0</ele></trkpt>
    <trkpt lat="33.72337" lon="-116.80164"><ele>725.0</ele></trkpt>
    <trkpt lat="33.72334" lon="-116.80162"><ele>727.0</ele></trkpt>
    <trkpt lat="33.72330" lon="-116.80159"><ele>727.0</ele></trkpt>
    <trkpt lat="33.72328" lon="-116.80155"><ele>727.0</ele></trkpt>
    <trkpt lat="33.72327" lon="-116.80150"><ele>727.0</ele></trkpt>
    <trkpt lat="33.72327" lon="-116.80145"><ele>727.0</ele></trkpt>
    <trkpt lat="33.72326" lon="-116.80140"><ele>727.0</ele></trkpt>
    <trkpt lat="33.72325" lon="-116.80136"><ele>727.0</ele></trkpt>
    <trkpt lat="33.72322" lon="-116.80132"><ele>727.0</ele></trkpt>
    <trkpt lat="33.72319" lon="-116.80130"><ele>727.0</ele></trkpt>
    <trkpt lat="33.72314" lon="-116.80128"><ele>727.0</ele></trkpt>
    <trkpt lat="33.72309" lon="-116.80126"><ele>727.0</ele></trkpt>
    <trkpt lat="33.72303" lon="-116.80126"><ele>727.0</ele></trkpt>
    <trkpt lat="33.72298" lon="-116.80128"><ele>727.0</ele></trkpt>
    <trkpt lat="33.72292" lon="-116.80129"><ele>727.0</ele></trkpt>
    <trkpt lat="33.72288" lon="-116.80132"><ele>727.0</ele></trkpt>
    <trkpt lat="33.72284" lon="-116.80134"><ele>711.0</ele></trkpt>
    <trkpt lat="33.72279" lon="-116.80136"><ele>711.0</ele></trkpt>
    <trkpt lat="33.72274" lon="-116.80139"><ele>711.0</ele></trkpt>
    <trkpt lat="33.72270" lon="-116.80141"><ele>711.0</ele></trkpt>
    <trkpt lat="33.72265" lon="-116.80142"><ele>711.0</ele></trkpt>
    <trkpt lat="33.72260" lon="-116.80141"><ele>711.0</ele></trkpt>
    <trkpt lat="33.72254" lon="-116.80138"><ele>711.0</ele></trkpt>
    <trkpt lat="33.72249" lon="-116.80135"><ele>711.0</ele></trkpt>
    <trkpt lat="33.72244" lon="-116.80132"><ele>711.0</ele></trkpt>
    <trkpt lat="33.72239" lon="-116.80126"><ele>711.0</ele></trkpt>
    <trkpt lat="33.72237" lon="-116.80120"><ele>711.0</ele></trkpt>
    <trkpt lat="33.72237" lon="-116.80114"><ele>711.0</ele></trkpt>
    <trkpt lat="33.72237" lon="-116.80105"><ele>711.0</ele></trkpt>
    <trkpt lat="33.72238" lon="-116.80097"><ele>711.0</ele></trkpt>
    <trkpt lat="33.72236" lon="-116.80090"><ele>711.0</ele></trkpt>
    <trkpt lat="33.72233" lon="-116.80086"><ele>711.0</ele></trkpt>
    <trkpt lat="33.72228" lon="-116.80083"><ele>709.0</ele></trkpt>
    <trkpt lat="33.72221" lon="-116.80079"><ele>709.0</ele></trkpt>
    <trkpt lat="33.72216" lon="-116.80073"><ele>709.0</ele></trkpt>
    <trkpt lat="33.72212" lon="-116.80068"><ele>709.0</ele></trkpt>
    <trkpt lat="33.72207" lon="-116.80065"><ele>709.0</ele></trkpt>
    <trkpt lat="33.72198" lon="-116.80066"><ele>709.0</ele></trkpt>
    <trkpt lat="33.72191" lon="-116.80069"><ele>709.0</ele></trkpt>
    <trkpt lat="33.72174" lon="-116.80089"><ele>709.0</ele></trkpt>
  </trkseg></trk>
</gpx>
