<?xml version="1.0" encoding="UTF-8"?>
<gpx version="1.1" creator="dirt-bikes build-area-routes (MVUM geometry + SRTM elevation)" xmlns="http://www.topografix.com/GPX/1/1">
  <trk><name>Indian Truck Trail</name><trkseg>
    <trkpt lat="33.74219" lon="-117.45881"><ele>390.0</ele></trkpt>
    <trkpt lat="33.74189" lon="-117.45877"><ele>390.0</ele></trkpt>
    <trkpt lat="33.74084" lon="-117.45910"><ele>403.0</ele></trkpt>
    <trkpt lat="33.74047" lon="-117.45928"><ele>403.0</ele></trkpt>
    <trkpt lat="33.73968" lon="-117.45926"><ele>403.0</ele></trkpt>
    <trkpt lat="33.73910" lon="-117.45875"><ele>419.0</ele></trkpt>
    <trkpt lat="33.73887" lon="-117.45864"><ele>419.0</ele></trkpt>
    <trkpt lat="33.73878" lon="-117.45834"><ele>419.0</ele></trkpt>
    <trkpt lat="33.73850" lon="-117.45820"><ele>427.0</ele></trkpt>
    <trkpt lat="33.73803" lon="-117.45846"><ele>427.0</ele></trkpt>
    <trkpt lat="33.73803" lon="-117.45846"><ele>427.0</ele></trkpt>
    <trkpt lat="33.73778" lon="-117.45859"><ele>428.0</ele></trkpt>
    <trkpt lat="33.73749" lon="-117.45850"><ele>428.0</ele></trkpt>
    <trkpt lat="33.73701" lon="-117.45786"><ele>428.0</ele></trkpt>
    <trkpt lat="33.73656" lon="-117.45763"><ele>428.0</ele></trkpt>
    <trkpt lat="33.73620" lon="-117.45761"><ele>443.0</ele></trkpt>
    <trkpt lat="33.73590" lon="-117.45720"><ele>443.0</ele></trkpt>
    <trkpt lat="33.73564" lon="-117.45654"><ele>443.0</ele></trkpt>
    <trkpt lat="33.73504" lon="-117.45594"><ele>447.0</ele></trkpt>
    <trkpt lat="33.73472" lon="-117.45574"><ele>447.0</ele></trkpt>
    <trkpt lat="33.73391" lon="-117.45541"><ele>447.0</ele></trkpt>
    <trkpt lat="33.73352" lon="-117.45509"><ele>466.0</ele></trkpt>
    <trkpt lat="33.73332" lon="-117.45459"><ele>466.0</ele></trkpt>
    <trkpt lat="33.73318" lon="-117.45452"><ele>466.0</ele></trkpt>
    <trkpt lat="33.73316" lon="-117.45450"><ele>466.0</ele></trkpt>
    <trkpt lat="33.73299" lon="-117.45451"><ele>466.0</ele></trkpt>
    <trkpt lat="33.73276" lon="-117.45530"><ele>466.0</ele></trkpt>
    <trkpt lat="33.73261" lon="-117.45569"><ele>480.0</ele></trkpt>
    <trkpt lat="33.73208" lon="-117.45592"><ele>480.0</ele></trkpt>
    <trkpt lat="33.73163" lon="-117.45581"><ele>480.0</ele></trkpt>
    <trkpt lat="33.73118" lon="-117.45510"><ele>492.0</ele></trkpt>
    <trkpt lat="33.73069" lon="-117.45493"><ele>492.0</ele></trkpt>
    <trkpt lat="33.73058" lon="-117.45534"><ele>492.0</ele></trkpt>
    <trkpt lat="33.73039" lon="-117.45532"><ele>502.0</ele></trkpt>
    <trkpt lat="33.73002" lon="-117.45506"><ele>502.0</ele></trkpt>
    <trkpt lat="33.72959" lon="-117.45503"><ele>502.0</ele></trkpt>
    <trkpt lat="33.72940" lon="-117.45528"><ele>511.0</ele></trkpt>
    <trkpt lat="33.72946" lon="-117.45552"><ele>511.0</ele></trkpt>
    <trkpt lat="33.72987" lon="-117.45591"><ele>511.0</ele></trkpt>
    <trkpt lat="33.73025" lon="-117.45611"><ele>520.0</ele></trkpt>
    <trkpt lat="33.73047" lon="-117.45619"><ele>520.0</ele></trkpt>
    <trkpt lat="33.73072" lon="-117.45657"><ele>520.0</ele></trkpt>
    <trkpt lat="33.73077" lon="-117.45671"><ele>526.0</ele></trkpt>
    <trkpt lat="33.73078" lon="-117.45674"><ele>526.0</ele></trkpt>
    <trkpt lat="33.73081" lon="-117.45686"><ele>526.0</ele></trkpt>
    <trkpt lat="33.73064" lon="-117.45689"><ele>526.0</ele></trkpt>
    <trkpt lat="33.73047" lon="-117.45663"><ele>531.0</ele></trkpt>
    <trkpt lat="33.73012" lon="-117.45654"><ele>531.0</ele></trkpt>
    <trkpt lat="33.72979" lon="-117.45643"><ele>531.0</ele></trkpt>
    <trkpt lat="33.72970" lon="-117.45658"><ele>535.0</ele></trkpt>
    <trkpt lat="33.72990" lon="-117.45682"><ele>535.0</ele></trkpt>
    <trkpt lat="33.72968" lon="-117.45746"><ele>535.0</ele></trkpt>
    <trkpt lat="33.72977" lon="-117.45804"><ele>546.0</ele></trkpt>
    <trkpt lat="33.72965" lon="-117.45876"><ele>546.0</ele></trkpt>
    <trkpt lat="33.72925" lon="-117.45894"><ele>546.0</ele></trkpt>
    <trkpt lat="33.72856" lon="-117.45932"><ele>575.0</ele></trkpt>
    <trkpt lat="33.72822" lon="-117.45980"><ele>575.0</ele></trkpt>
    <trkpt lat="33.72851" lon="-117.46050"><ele>575.0</ele></trkpt>
    <trkpt lat="33.72829" lon="-117.46100"><ele>585.0</ele></trkpt>
    <trkpt lat="33.72810" lon="-117.46110"><ele>585.0</ele></trkpt>
    <trkpt lat="33.72785" lon="-117.46105"><ele>585.0</ele></trkpt>
    <trkpt lat="33.72782" lon="-117.46136"><ele>591.0</ele></trkpt>
    <trkpt lat="33.72763" lon="-117.46140"><ele>591.0</ele></trkpt>
    <trkpt lat="33.72752" lon="-117.46128"><ele>591.0</ele></trkpt>
    <trkpt lat="33.72737" lon="-117.46142"><ele>598.0</ele></trkpt>
    <trkpt lat="33.72739" lon="-117.46178"><ele>598.0</ele></trkpt>
    <trkpt lat="33.72720" lon="-117.46219"><ele>598.0</ele></trkpt>
    <trkpt lat="33.72686" lon="-117.46238"><ele>620.0</ele></trkpt>
    <trkpt lat="33.72680" lon="-117.46312"><ele>620.0</ele></trkpt>
    <trkpt lat="33.72652" lon="-117.46321"><ele>620.0</ele></trkpt>
    <trkpt lat="33.72641" lon="-117.46367"><ele>653.0</ele></trkpt>
    <trkpt lat="33.72607" lon="-117.46429"><ele>653.0</ele></trkpt>
    <trkpt lat="33.72588" lon="-117.46446"><ele>653.0</ele></trkpt>
    <trkpt lat="33.72588" lon="-117.46396"><ele>640.0</ele></trkpt>
    <trkpt lat="33.72593" lon="-117.46376"><ele>640.0</ele></trkpt>
    <trkpt lat="33.72584" lon="-117.46349"><ele>640.0</ele></trkpt>
    <trkpt lat="33.72555" lon="-117.46328"><ele>640.0</ele></trkpt>
    <trkpt lat="33.72531" lon="-117.46346"><ele>651.0</ele></trkpt>
    <trkpt lat="33.72519" lon="-117.46323"><ele>651.0</ele></trkpt>
    <trkpt lat="33.72505" lon="-117.46315"><ele>651.0</ele></trkpt>
    <trkpt lat="33.72452" lon="-117.46217"><ele>653.0</ele></trkpt>
    <trkpt lat="33.72427" lon="-117.46253"><ele>653.0</ele></trkpt>
    <trkpt lat="33.72426" lon="-117.46291"><ele>653.0</ele></trkpt>
    <trkpt lat="33.72425" lon="-117.46330"><ele>657.0</ele></trkpt>
    <trkpt lat="33.72445" lon="-117.46353"><ele>657.0</ele></trkpt>
    <trkpt lat="33.72474" lon="-117.46345"><ele>657.0</ele></trkpt>
    <trkpt lat="33.72502" lon="-117.46356"><ele>658.0</ele></trkpt>
    <trkpt lat="33.72525" lon="-117.46402"><ele>658.0</ele></trkpt>
    <trkpt lat="33.72490" lon="-117.46464"><ele>658.0</ele></trkpt>
    <trkpt lat="33.72486" lon="-117.46505"><ele>668.0</ele></trkpt>
    <trkpt lat="33.72471" lon="-117.46551"><ele>668.0</ele></trkpt>
    <trkpt lat="33.72473" lon="-117.46579"><ele>668.0</ele></trkpt>
    <trkpt lat="33.72459" lon="-117.46600"><ele>686.0</ele></trkpt>
    <trkpt lat="33.72499" lon="-117.46641"><ele>686.0</ele></trkpt>
    <trkpt lat="33.72530" lon="-117.46644"><ele>686.0</ele></trkpt>
    <trkpt lat="33.72541" lon="-117.46673"><ele>707.0</ele></trkpt>
    <trkpt lat="33.72567" lon="-117.46661"><ele>707.0</ele></trkpt>
    <trkpt lat="33.72581" lon="-117.46644"><ele>707.0</ele></trkpt>
    <trkpt lat="33.72602" lon="-117.46640"><ele>696.0</ele></trkpt>
    <trkpt lat="33.72604" lon="-117.46569"><ele>696.0</ele></trkpt>
    <trkpt lat="33.72609" lon="-117.46558"><ele>696.0</ele></trkpt>
    <trkpt lat="33.72658" lon="-117.46583"><ele>716.0</ele></trkpt>
    <trkpt lat="33.72672" lon="-117.46619"><ele>716.0</ele></trkpt>
    <trkpt lat="33.72658" lon="-117.46636"><ele>716.0</ele></trkpt>
    <trkpt lat="33.72645" lon="-117.46640"><ele>719.0</ele></trkpt>
    <trkpt lat="33.72664" lon="-117.46692"><ele>719.0</ele></trkpt>
    <trkpt lat="33.72657" lon="-117.46709"><ele>719.0</ele></trkpt>
    <trkpt lat="33.72616" lon="-117.46730"><ele>719.0</ele></trkpt>
    <trkpt lat="33.72604" lon="-117.46767"><ele>721.0</ele></trkpt>
    <trkpt lat="33.72549" lon="-117.46799"><ele>721.0</ele></trkpt>
    <trkpt lat="33.72551" lon="-117.46835"><ele>721.0</ele></trkpt>
    <trkpt lat="33.72538" lon="-117.46862"><ele>723.0</ele></trkpt>
    <trkpt lat="33.72539" lon="-117.46909"><ele>723.0</ele></trkpt>
    <trkpt lat="33.72504" lon="-117.46971"><ele>723.0</ele></trkpt>
    <trkpt lat="33.72478" lon="-117.46979"><ele>741.0</ele></trkpt>
    <trkpt lat="33.72487" lon="-117.47017"><ele>741.0</ele></trkpt>
    <trkpt lat="33.72517" lon="-117.47030"><ele>741.0</ele></trkpt>
    <trkpt lat="33.72530" lon="-117.47065"><ele>756.0</ele></trkpt>
    <trkpt lat="33.72563" lon="-117.47090"><ele>756.0</ele></trkpt>
    <trkpt lat="33.72599" lon="-117.47091"><ele>756.0</ele></trkpt>
    <trkpt lat="33.72597" lon="-117.47132"><ele>781.0</ele></trkpt>
    <trkpt lat="33.72621" lon="-117.47174"><ele>781.0</ele></trkpt>
    <trkpt lat="33.72663" lon="-117.47214"><ele>781.0</ele></trkpt>
    <trkpt lat="33.72706" lon="-117.47220"><ele>773.0</ele></trkpt>
    <trkpt lat="33.72727" lon="-117.47279"><ele>773.0</ele></trkpt>
    <trkpt lat="33.72709" lon="-117.47278"><ele>773.0</ele></trkpt>
    <trkpt lat="33.72687" lon="-117.47250"><ele>799.0</ele></trkpt>
    <trkpt lat="33.72646" lon="-117.47233"><ele>799.0</ele></trkpt>
    <trkpt lat="33.72579" lon="-117.47191"><ele>799.0</ele></trkpt>
    <trkpt lat="33.72563" lon="-117.47204"><ele>820.0</ele></trkpt>
    <trkpt lat="33.72545" lon="-117.47233"><ele>820.0</ele></trkpt>
    <trkpt lat="33.72516" lon="-117.47231"><ele>820.0</ele></trkpt>
    <trkpt lat="33.72488" lon="-117.47225"><ele>837.0</ele></trkpt>
    <trkpt lat="33.72435" lon="-117.47273"><ele>837.0</ele></trkpt>
    <trkpt lat="33.72404" lon="-117.47268"><ele>837.0</ele></trkpt>
    <trkpt lat="33.72345" lon="-117.47297"><ele>839.0</ele></trkpt>
    <trkpt lat="33.72362" lon="-117.47326"><ele>839.0</ele></trkpt>
    <trkpt lat="33.72371" lon="-117.47361"><ele>839.0</ele></trkpt>
    <trkpt lat="33.72367" lon="-117.47395"><ele>839.0</ele></trkpt>
    <trkpt lat="33.72353" lon="-117.47411"><ele>857.0</ele></trkpt>
    <trkpt lat="33.72362" lon="-117.47433"><ele>857.0</ele></trkpt>
    <trkpt lat="33.72353" lon="-117.47462"><ele>857.0</ele></trkpt>
    <trkpt lat="33.72296" lon="-117.47491"><ele>839.0</ele></trkpt>
    <trkpt lat="33.72292" lon="-117.47509"><ele>839.0</ele></trkpt>
    <trkpt lat="33.72310" lon="-117.47530"><ele>839.0</ele></trkpt>
    <trkpt lat="33.72354" lon="-117.47533"><ele>865.0</ele></trkpt>
    <trkpt lat="33.72359" lon="-117.47550"><ele>865.0</ele></trkpt>
    <trkpt lat="33.72342" lon="-117.47585"><ele>865.0</ele></trkpt>
    <trkpt lat="33.72345" lon="-117.47620"><ele>863.0</ele></trkpt>
    <trkpt lat="33.72366" lon="-117.47658"><ele>863.0</ele></trkpt>
    <trkpt lat="33.72324" lon="-117.47739"><ele>863.0</ele></trkpt>
    <trkpt lat="33.72324" lon="-117.47807"><ele>891.0</ele></trkpt>
    <trkpt lat="33.72281" lon="-117.47944"><ele>891.0</ele></trkpt>
    <trkpt lat="33.72288" lon="-117.48017"><ele>891.0</ele></trkpt>
    <trkpt lat="33.72268" lon="-117.48052"><ele>907.0</ele></trkpt>
    <trkpt lat="33.72246" lon="-117.48077"><ele>907.0</ele></trkpt>
    <trkpt lat="33.72214" lon="-117.48173"><ele>907.0</ele></trkpt>
    <trkpt lat="33.72189" lon="-117.48201"><ele>924.0</ele></trkpt>
    <trkpt lat="33.72178" lon="-117.48257"><ele>924.0</ele></trkpt>
    <trkpt lat="33.72157" lon="-117.48298"><ele>924.0</ele></trkpt>
    <trkpt lat="33.72151" lon="-117.48349"><ele>977.0</ele></trkpt>
    <trkpt lat="33.72161" lon="-117.48409"><ele>977.0</ele></trkpt>
    <trkpt lat="33.72202" lon="-117.48419"><ele>977.0</ele></trkpt>
    <trkpt lat="33.72256" lon="-117.48414"><ele>936.0</ele></trkpt>
    <trkpt lat="33.72318" lon="-117.48402"><ele>936.0</ele></trkpt>
    <trkpt lat="33.72360" lon="-117.48404"><ele>936.0</ele></trkpt>
    <trkpt lat="33.72369" lon="-117.48420"><ele>941.0</ele></trkpt>
    <trkpt lat="33.72362" lon="-117.48454"><ele>941.0</ele></trkpt>
    <trkpt lat="33.72350" lon="-117.48484"><ele>941.0</ele></trkpt>
    <trkpt lat="33.72357" lon="-117.48519"><ele>941.0</ele></trkpt>
    <trkpt lat="33.72391" lon="-117.48543"><ele>956.0</ele></trkpt>
    <trkpt lat="33.72408" lon="-117.48572"><ele>956.0</ele></trkpt>
    <trkpt lat="33.72425" lon="-117.48642"><ele>956.0</ele></trkpt>
    <trkpt lat="33.72443" lon="-117.48671"><ele>960.0</ele></trkpt>
    <trkpt lat="33.72467" lon="-117.48681"><ele>960.0</ele></trkpt>
    <trkpt lat="33.72461" lon="-117.48693"><ele>960.0</ele></trkpt>
    <trkpt lat="33.72429" lon="-117.48729"><ele>982.0</ele></trkpt>
    <trkpt lat="33.72406" lon="-117.48735"><ele>982.0</ele></trkpt>
    <trkpt lat="33.72392" lon="-117.48751"><ele>982.0</ele></trkpt>
    <trkpt lat="33.72377" lon="-117.48788"><ele>983.0</ele></trkpt>
    <trkpt lat="33.72358" lon="-117.48800"><ele>983.0</ele></trkpt>
    <trkpt lat="33.72323" lon="-117.48787"><ele>983.0</ele></trkpt>
    <trkpt lat="33.72307" lon="-117.48789"><ele>1006.0</ele></trkpt>
    <trkpt lat="33.72295" lon="-117.48813"><ele>1006.0</ele></trkpt>
    <trkpt lat="33.72286" lon="-117.48857"><ele>1006.0</ele></trkpt>
    <trkpt lat="33.72258" lon="-117.48875"><ele>1002.0</ele></trkpt>
    <trkpt lat="33.72222" lon="-117.48864"><ele>1002.0</ele></trkpt>
    <trkpt lat="33.72203" lon="-117.48849"><ele>1002.0</ele></trkpt>
    <trkpt lat="33.72178" lon="-117.48864"><ele>1018.0</ele></trkpt>
    <trkpt lat="33.72154" lon="-117.48841"><ele>1018.0</ele></trkpt>
    <trkpt lat="33.72138" lon="-117.48815"><ele>1018.0</ele></trkpt>
    <trkpt lat="33.72124" lon="-117.48804"><ele>1029.0</ele></trkpt>
    <trkpt lat="33.72110" lon="-117.48833"><ele>1029.0</ele></trkpt>
    <trkpt lat="33.72093" lon="-117.48848"><ele>1029.0</ele></trkpt>
    <trkpt lat="33.72061" lon="-117.48860"><ele>1029.0</ele></trkpt>
    <trkpt lat="33.72052" lon="-117.48889"><ele>1029.0</ele></trkpt>
    <trkpt lat="33.72009" lon="-117.48910"><ele>1029.0</ele></trkpt>
    <trkpt lat="33.71991" lon="-117.48954"><ele>1036.0</ele></trkpt>
    <trkpt lat="33.71988" lon="-117.48991"><ele>1036.0</ele></trkpt>
    <trkpt lat="33.71948" lon="-117.49015"><ele>1036.0</ele></trkpt>
    <trkpt lat="33.71935" lon="-117.49037"><ele>1036.0</ele></trkpt>
    <trkpt lat="33.71927" lon="-117.49104"><ele>1058.0</ele></trkpt>
    <trkpt lat="33.71907" lon="-117.49118"><ele>1058.0</ele></trkpt>
    <trkpt lat="33.71894" lon="-117.49151"><ele>1058.0</ele></trkpt>
    <trkpt lat="33.71871" lon="-117.49155"><ele>1065.0</ele></trkpt>
    <trkpt lat="33.71867" lon="-117.49199"><ele>1065.0</ele></trkpt>
    <trkpt lat="33.71842" lon="-117.49246"><ele>1065.0</ele></trkpt>
    <trkpt lat="33.71844" lon="-117.49279"><ele>1076.0</ele></trkpt>
    <trkpt lat="33.71821" lon="-117.49297"><ele>1076.0</ele></trkpt>
    <trkpt lat="33.71791" lon="-117.49326"><ele>1076.0</ele></trkpt>
    <trkpt lat="33.71793" lon="-117.49376"><ele>1091.0</ele></trkpt>
    <trkpt lat="33.71778" lon="-117.49396"><ele>1091.0</ele></trkpt>
    <trkpt lat="33.71770" lon="-117.49480"><ele>1091.0</ele></trkpt>
    <trkpt lat="33.71744" lon="-117.49520"><ele>1095.0</ele></trkpt>
    <trkpt lat="33.71701" lon="-117.49515"><ele>1095.0</ele></trkpt>
    <trkpt lat="33.71681" lon="-117.49556"><ele>1095.0</ele></trkpt>
    <trkpt lat="33.71653" lon="-117.49561"><ele>1087.0</ele></trkpt>
    <trkpt lat="33.71618" lon="-117.49528"><ele>1087.0</ele></trkpt>
    <trkpt lat="33.71578" lon="-117.49525"><ele>1087.0</ele></trkpt>
    <trkpt lat="33.71493" lon="-117.49608"><ele>1052.0</ele></trkpt>
    <trkpt lat="33.71424" lon="-117.49629"><ele>1052.0</ele></trkpt>
    <trkpt lat="33.71385" lon="-117.49641"><ele>1052.0</ele></trkpt>
    <trkpt lat="33.71366" lon="-117.49653"><ele>1056.0</ele></trkpt>
    <trkpt lat="33.71347" lon="-117.49638"><ele>1056.0</ele></trkpt>
    <trkpt lat="33.71333" lon="-117.49636"><ele>1056.0</ele></trkpt>
    <trkpt lat="33.71315" lon="-117.49656"><ele>1067.0</ele></trkpt>
    <trkpt lat="33.71293" lon="-117.49624"><ele>1067.0</ele></trkpt>
    <trkpt lat="33.71267" lon="-117.49627"><ele>1067.0</ele></trkpt>
    <trkpt lat="33.71230" lon="-117.49716"><ele>1064.0</ele></trkpt>
    <trkpt lat="33.71216" lon="-117.49761"><ele>1064.0</ele></trkpt>
    <trkpt lat="33.71207" lon="-117.49776"><ele>1064.0</ele></trkpt>
    <trkpt lat="33.71176" lon="-117.49775"><ele>1064.0</ele></trkpt>
    <trkpt lat="33.71179" lon="-117.49826"><ele>1059.0</ele></trkpt>
    <trkpt lat="33.71164" lon="-117.49850"><ele>1059.0</ele></trkpt>
    <trkpt lat="33.71145" lon="-117.49850"><ele>1059.0</ele></trkpt>
    <trkpt lat="33.71095" lon="-117.49854"><ele>1071.0</ele></trkpt>
    <trkpt lat="33.71079" lon="-117.49847"><ele>1071.0</ele></trkpt>
    <trkpt lat="33.71062" lon="-117.49877"><ele>1071.0</ele></trkpt>
    <trkpt lat="33.71069" lon="-117.49921"><ele>1054.0</ele></trkpt>
    <trkpt lat="33.71060" lon="-117.49930"><ele>1054.0</ele></trkpt>
    <trkpt lat="33.71021" lon="-117.49901"><ele>1054.0</ele></trkpt>
    <trkpt lat="33.71023" lon="-117.49863"><ele>1066.0</ele></trkpt>
    <trkpt lat="33.71008" lon="-117.49848"><ele>1066.0</ele></trkpt>
    <trkpt lat="33.70934" lon="-117.49882"><ele>1066.0</ele></trkpt>
    <trkpt lat="33.70922" lon="-117.49915"><ele>1101.0</ele></trkpt>
    <trkpt lat="33.70879" lon="-117.49937"><ele>1101.0</ele></trkpt>
    <trkpt lat="33.70878" lon="-117.49960"><ele>1101.0</ele></trkpt>
    <trkpt lat="33.70907" lon="-117.49975"><ele>1082.0</ele></trkpt>
    <trkpt lat="33.70931" lon="-117.49994"><ele>1082.0</ele></trkpt>
    <trkpt lat="33.70926" lon="-117.50010"><ele>1082.0</ele></trkpt>
    <trkpt lat="33.70902" lon="-117.50036"><ele>1109.0</ele></trkpt>
    <trkpt lat="33.70900" lon="-117.50063"><ele>1109.0</ele></trkpt>
    <trkpt lat="33.70937" lon="-117.50084"><ele>1109.0</ele></trkpt>
    <trkpt lat="33.70957" lon="-117.50115"><ele>1103.0</ele></trkpt>
    <trkpt lat="33.70970" lon="-117.50151"><ele>1103.0</ele></trkpt>
    <trkpt lat="33.70963" lon="-117.50165"><ele>1103.0</ele></trkpt>
    <trkpt lat="33.70973" lon="-117.50188"><ele>1104.0</ele></trkpt>
    <trkpt lat="33.70987" lon="-117.50210"><ele>1104.0</ele></trkpt>
    <trkpt lat="33.70982" lon="-117.50248"><ele>1104.0</ele></trkpt>
    <trkpt lat="33.70945" lon="-117.50339"><ele>1124.0</ele></trkpt>
    <trkpt lat="33.70928" lon="-117.50403"><ele>1124.0</ele></trkpt>
    <trkpt lat="33.70921" lon="-117.50459"><ele>1124.0</ele></trkpt>
    <trkpt lat="33.70931" lon="-117.50489"><ele>1124.0</ele></trkpt>
    <trkpt lat="33.70939" lon="-117.50521"><ele>1124.0</ele></trkpt>
    <trkpt lat="33.70940" lon="-117.50540"><ele>1124.0</ele></trkpt>
    <trkpt lat="33.70929" lon="-117.50549"><ele>1124.0</ele></trkpt>
    <trkpt lat="33.70924" lon="-117.50537"><ele>1128.0</ele></trkpt>
    <trkpt lat="33.70923" lon="-117.50505"><ele>1128.0</ele></trkpt>
    <trkpt lat="33.70914" lon="-117.50481"><ele>1128.0</ele></trkpt>
    <trkpt lat="33.70901" lon="-117.50454"><ele>1142.0</ele></trkpt>
    <trkpt lat="33.70892" lon="-117.50355"><ele>1142.0</ele></trkpt>
    <trkpt lat="33.70899" lon="-117.50268"><ele>1142.0</ele></trkpt>
    <trkpt lat="33.70909" lon="-117.50216"><ele>1141.0</ele></trkpt>
    <trkpt lat="33.70893" lon="-117.50193"><ele>1141.0</ele></trkpt>
    <trkpt lat="33.70875" lon="-117.50180"><ele>1141.0</ele></trkpt>
    <trkpt lat="33.70866" lon="-117.50157"><ele>1148.0</ele></trkpt>
    <trkpt lat="33.70822" lon="-117.50153"><ele>1148.0</ele></trkpt>
  </trkseg></trk>
</gpx>
