<?xml version="1.0" encoding="UTF-8"?>
<gpx version="1.1" creator="dirt-bikes build-area-routes (MVUM geometry + SRTM elevation)" xmlns="http://www.topografix.com/GPX/1/1">
  <trk><name>Indian Flats Road</name><trkseg>
    <trkpt lat="33.28632" lon="-116.66031"><ele>890.0</ele></trkpt>
    <trkpt lat="33.28655" lon="-116.66049"><ele>890.0</ele></trkpt>
    <trkpt lat="33.28675" lon="-116.66040"><ele>890.0</ele></trkpt>
    <trkpt lat="33.28716" lon="-116.65988"><ele>897.0</ele></trkpt>
    <trkpt lat="33.28827" lon="-116.65906"><ele>897.0</ele></trkpt>
    <trkpt lat="33.28944" lon="-116.65861"><ele>897.0</ele></trkpt>
    <trkpt lat="33.29032" lon="-116.65850"><ele>920.0</ele></trkpt>
    <trkpt lat="33.29056" lon="-116.65814"><ele>920.0</ele></trkpt>
    <trkpt lat="33.29065" lon="-116.65817"><ele>920.0</ele></trkpt>
    <trkpt lat="33.29084" lon="-116.65842"><ele>920.0</ele></trkpt>
    <trkpt lat="33.29117" lon="-116.65838"><ele>927.0</ele></trkpt>
    <trkpt lat="33.29166" lon="-116.65821"><ele>927.0</ele></trkpt>
    <trkpt lat="33.29188" lon="-116.65824"><ele>927.0</ele></trkpt>
    <trkpt lat="33.29227" lon="-116.65852"><ele>927.0</ele></trkpt>
    <trkpt lat="33.29222" lon="-116.65872"><ele>928.0</ele></trkpt>
    <trkpt lat="33.29187" lon="-116.65900"><ele>928.0</ele></trkpt>
    <trkpt lat="33.29192" lon="-116.65908"><ele>928.0</ele></trkpt>
    <trkpt lat="33.29209" lon="-116.65906"><ele>934.0</ele></trkpt>
    <trkpt lat="33.29238" lon="-116.65912"><ele>934.0</ele></trkpt>
    <trkpt lat="33.29261" lon="-116.65932"><ele>934.0</ele></trkpt>
    <trkpt lat="33.29274" lon="-116.65918"><ele>934.0</ele></trkpt>
    <trkpt lat="33.29278" lon="-116.65886"><ele>944.0</ele></trkpt>
    <trkpt lat="33.29356" lon="-116.65786"><ele>944.0</ele></trkpt>
    <trkpt lat="33.29406" lon="-116.65673"><ele>944.0</ele></trkpt>
    <trkpt lat="33.29414" lon="-116.65619"><ele>944.0</ele></trkpt>
    <trkpt lat="33.29465" lon="-116.65520"><ele>954.0</ele></trkpt>
    <trkpt lat="33.29518" lon="-116.65458"><ele>954.0</ele></trkpt>
    <trkpt lat="33.29561" lon="-116.65363"><ele>954.0</ele></trkpt>
    <trkpt lat="33.29627" lon="-116.65260"><ele>968.0</ele></trkpt>
    <trkpt lat="33.29715" lon="-116.65184"><ele>968.0</ele></trkpt>
    <trkpt lat="33.29797" lon="-116.65157"><ele>968.0</ele></trkpt>
    <trkpt lat="33.29850" lon="-116.65124"><ele>968.0</ele></trkpt>
    <trkpt lat="33.29935" lon="-116.65082"><ele>966.0</ele></trkpt>
    <trkpt lat="33.29955" lon="-116.65034"><ele>966.0</ele></trkpt>
    <trkpt lat="33.29953" lon="-116.64898"><ele>966.0</ele></trkpt>
    <trkpt lat="33.29970" lon="-116.64859"><ele>966.0</ele></trkpt>
    <trkpt lat="33.30009" lon="-116.64839"><ele>978.0</ele></trkpt>
    <trkpt lat="33.30114" lon="-116.64845"><ele>978.0</ele></trkpt>
    <trkpt lat="33.30137" lon="-116.64832"><ele>978.0</ele></trkpt>
    <trkpt lat="33.30209" lon="-116.64792"><ele>978.0</ele></trkpt>
    <trkpt lat="33.30281" lon="-116.64717"><ele>978.0</ele></trkpt>
    <trkpt lat="33.30342" lon="-116.64669"><ele>978.0</ele></trkpt>
    <trkpt lat="33.30358" lon="-116.64659"><ele>978.0</ele></trkpt>
    <trkpt lat="33.30395" lon="-116.64638"><ele>987.0</ele></trkpt>
    <trkpt lat="33.30399" lon="-116.64642"><ele>987.0</ele></trkpt>
    <trkpt lat="33.30437" lon="-116.64684"><ele>987.0</ele></trkpt>
    <trkpt lat="33.30490" lon="-116.64702"><ele>987.0</ele></trkpt>
    <trkpt lat="33.30515" lon="-116.64741"><ele>1003.0</ele></trkpt>
    <trkpt lat="33.30531" lon="-116.64746"><ele>1003.0</ele></trkpt>
    <trkpt lat="33.30588" lon="-116.64671"><ele>1003.0</ele></trkpt>
    <trkpt lat="33.30621" lon="-116.64671"><ele>1029.0</ele></trkpt>
    <trkpt lat="33.30652" lon="-116.64689"><ele>1029.0</ele></trkpt>
    <trkpt lat="33.30656" lon="-116.64727"><ele>1029.0</ele></trkpt>
    <trkpt lat="33.30644" lon="-116.64751"><ele>1029.0</ele></trkpt>
    <trkpt lat="33.30663" lon="-116.64759"><ele>1026.0</ele></trkpt>
    <trkpt lat="33.30687" lon="-116.64782"><ele>1026.0</ele></trkpt>
    <trkpt lat="33.30701" lon="-116.64827"><ele>1026.0</ele></trkpt>
    <trkpt lat="33.30714" lon="-116.64836"><ele>1026.0</ele></trkpt>
    <trkpt lat="33.30739" lon="-116.64822"><ele>1029.0</ele></trkpt>
    <trkpt lat="33.30775" lon="-116.64763"><ele>1029.0</ele></trkpt>
    <trkpt lat="33.30772" lon="-116.64653"><ele>1029.0</ele></trkpt>
    <trkpt lat="33.30798" lon="-116.64581"><ele>1057.0</ele></trkpt>
    <trkpt lat="33.30847" lon="-116.64543"><ele>1057.0</ele></trkpt>
    <trkpt lat="33.30899" lon="-116.64525"><ele>1057.0</ele></trkpt>
    <trkpt lat="33.30952" lon="-116.64534"><ele>1057.0</ele></trkpt>
    <trkpt lat="33.31007" lon="-116.64526"><ele>1066.0</ele></trkpt>
    <trkpt lat="33.31021" lon="-116.64504"><ele>1066.0</ele></trkpt>
    <trkpt lat="33.31023" lon="-116.64461"><ele>1066.0</ele></trkpt>
    <trkpt lat="33.31010" lon="-116.64444"><ele>1066.0</ele></trkpt>
    <trkpt lat="33.31010" lon="-116.64428"><ele>1076.0</ele></trkpt>
    <trkpt lat="33.31030" lon="-116.64410"><ele>1076.0</ele></trkpt>
    <trkpt lat="33.31027" lon="-116.64371"><ele>1076.0</ele></trkpt>
    <trkpt lat="33.31049" lon="-116.64348"><ele>1082.0</ele></trkpt>
    <trkpt lat="33.31055" lon="-116.64317"><ele>1082.0</ele></trkpt>
    <trkpt lat="33.31081" lon="-116.64321"><ele>1082.0</ele></trkpt>
    <trkpt lat="33.31102" lon="-116.64299"><ele>1082.0</ele></trkpt>
    <trkpt lat="33.31124" lon="-116.64245"><ele>1090.0</ele></trkpt>
    <trkpt lat="33.31108" lon="-116.64204"><ele>1090.0</ele></trkpt>
    <trkpt lat="33.31159" lon="-116.64168"><ele>1090.0</ele></trkpt>
    <trkpt lat="33.31212" lon="-116.64154"><ele>1090.0</ele></trkpt>
    <trkpt lat="33.31244" lon="-116.64172"><ele>1106.0</ele></trkpt>
    <trkpt lat="33.31285" lon="-116.64153"><ele>1106.0</ele></trkpt>
    <trkpt lat="33.31335" lon="-116.64107"><ele>1106.0</ele></trkpt>
    <trkpt lat="33.31338" lon="-116.64065"><ele>1106.0</ele></trkpt>
    <trkpt lat="33.31366" lon="-116.64035"><ele>1133.0</ele></trkpt>
    <trkpt lat="33.31434" lon="-116.64013"><ele>1133.0</ele></trkpt>
    <trkpt lat="33.31527" lon="-116.64036"><ele>1133.0</ele></trkpt>
    <trkpt lat="33.31579" lon="-116.64047"><ele>1136.0</ele></trkpt>
    <trkpt lat="33.31595" lon="-116.64036"><ele>1136.0</ele></trkpt>
    <trkpt lat="33.31601" lon="-116.63988"><ele>1136.0</ele></trkpt>
    <trkpt lat="33.31583" lon="-116.63968"><ele>1136.0</ele></trkpt>
    <trkpt lat="33.31588" lon="-116.63909"><ele>1148.0</ele></trkpt>
    <trkpt lat="33.31562" lon="-116.63891"><ele>1148.0</ele></trkpt>
    <trkpt lat="33.31561" lon="-116.63878"><ele>1148.0</ele></trkpt>
    <trkpt lat="33.31589" lon="-116.63850"><ele>1148.0</ele></trkpt>
    <trkpt lat="33.31636" lon="-116.63839"><ele>1153.0</ele></trkpt>
    <trkpt lat="33.31672" lon="-116.63849"><ele>1153.0</ele></trkpt>
    <trkpt lat="33.31705" lon="-116.63886"><ele>1153.0</ele></trkpt>
    <trkpt lat="33.31768" lon="-116.63898"><ele>1155.0</ele></trkpt>
    <trkpt lat="33.31772" lon="-116.63930"><ele>1155.0</ele></trkpt>
    <trkpt lat="33.31783" lon="-116.63969"><ele>1155.0</ele></trkpt>
    <trkpt lat="33.31810" lon="-116.63975"><ele>1155.0</ele></trkpt>
    <trkpt lat="33.31827" lon="-116.63958"><ele>1164.0</ele></trkpt>
    <trkpt lat="33.31822" lon="-116.63910"><ele>1164.0</ele></trkpt>
    <trkpt lat="33.31851" lon="-116.63888"><ele>1164.0</ele></trkpt>
    <trkpt lat="33.31875" lon="-116.63835"><ele>1164.0</ele></trkpt>
    <trkpt lat="33.31874" lon="-116.63756"><ele>1182.0</ele></trkpt>
    <trkpt lat="33.31882" lon="-116.63715"><ele>1182.0</ele></trkpt>
    <trkpt lat="33.31929" lon="-116.63685"><ele>1182.0</ele></trkpt>
    <trkpt lat="33.31929" lon="-116.63667"><ele>1188.0</ele></trkpt>
    <trkpt lat="33.31957" lon="-116.63620"><ele>1188.0</ele></trkpt>
    <trkpt lat="33.31956" lon="-116.63575"><ele>1188.0</ele></trkpt>
    <trkpt lat="33.31961" lon="-116.63544"><ele>1188.0</ele></trkpt>
    <trkpt lat="33.32002" lon="-116.63525"><ele>1196.0</ele></trkpt>
    <trkpt lat="33.32046" lon="-116.63529"><ele>1196.0</ele></trkpt>
    <trkpt lat="33.32047" lon="-116.63527"><ele>1196.0</ele></trkpt>
    <trkpt lat="33.32111" lon="-116.63475"><ele>1196.0</ele></trkpt>
    <trkpt lat="33.32171" lon="-116.63475"><ele>1187.0</ele></trkpt>
    <trkpt lat="33.32240" lon="-116.63444"><ele>1187.0</ele></trkpt>
    <trkpt lat="33.32279" lon="-116.63384"><ele>1187.0</ele></trkpt>
    <trkpt lat="33.32323" lon="-116.63369"><ele>1195.0</ele></trkpt>
    <trkpt lat="33.32336" lon="-116.63379"><ele>1195.0</ele></trkpt>
    <trkpt lat="33.32360" lon="-116.63377"><ele>1195.0</ele></trkpt>
    <trkpt lat="33.32399" lon="-116.63340"><ele>1195.0</ele></trkpt>
    <trkpt lat="33.32468" lon="-116.63346"><ele>1212.0</ele></trkpt>
    <trkpt lat="33.32485" lon="-116.63361"><ele>1212.0</ele></trkpt>
    <trkpt lat="33.32554" lon="-116.63385"><ele>1212.0</ele></trkpt>
    <trkpt lat="33.32571" lon="-116.63478"><ele>1212.0</ele></trkpt>
    <trkpt lat="33.32567" lon="-116.63535"><ele>1226.0</ele></trkpt>
    <trkpt lat="33.32621" lon="-116.63616"><ele>1226.0</ele></trkpt>
    <trkpt lat="33.32621" lon="-116.63676"><ele>1226.0</ele></trkpt>
    <trkpt lat="33.32622" lon="-116.63680"><ele>1222.0</ele></trkpt>
    <trkpt lat="33.32635" lon="-116.63727"><ele>1222.0</ele></trkpt>
    <trkpt lat="33.32660" lon="-116.63745"><ele>1222.0</ele></trkpt>
    <trkpt lat="33.32674" lon="-116.63775"><ele>1222.0</ele></trkpt>
    <trkpt lat="33.32732" lon="-116.63852"><ele>1222.0</ele></trkpt>
    <trkpt lat="33.32794" lon="-116.63884"><ele>1222.0</ele></trkpt>
    <trkpt lat="33.32870" lon="-116.63969"><ele>1222.0</ele></trkpt>
    <trkpt lat="33.32900" lon="-116.63973"><ele>1222.0</ele></trkpt>
    <trkpt lat="33.32937" lon="-116.63998"><ele>1211.0</ele></trkpt>
    <trkpt lat="33.32958" lon="-116.64010"><ele>1211.0</ele></trkpt>
    <trkpt lat="33.32983" lon="-116.64042"><ele>1211.0</ele></trkpt>
    <trkpt lat="33.33006" lon="-116.64072"><ele>1206.0</ele></trkpt>
    <trkpt lat="33.33031" lon="-116.64072"><ele>1206.0</ele></trkpt>
    <trkpt lat="33.33058" lon="-116.64078"><ele>1206.0</ele></trkpt>
    <trkpt lat="33.33122" lon="-116.64113"><ele>1206.0</ele></trkpt>
    <trkpt lat="33.33187" lon="-116.64108"><ele>1206.0</ele></trkpt>
    <trkpt lat="33.33234" lon="-116.64104"><ele>1206.0</ele></trkpt>
    <trkpt lat="33.33451" lon="-116.64079"><ele>1206.0</ele></trkpt>
    <trkpt lat="33.33478" lon="-116.64096"><ele>1206.0</ele></trkpt>
    <trkpt lat="33.33526" lon="-116.64090"><ele>1217.0</ele></trkpt>
    <trkpt lat="33.33578" lon="-116.64097"><ele>1217.0</ele></trkpt>
    <trkpt lat="33.33599" lon="-116.64119"><ele>1217.0</ele></trkpt>
    <trkpt lat="33.33659" lon="-116.64209"><ele>1200.0</ele></trkpt>
    <trkpt lat="33.33716" lon="-116.64256"><ele>1200.0</ele></trkpt>
    <trkpt lat="33.33812" lon="-116.64261"><ele>1200.0</ele></trkpt>
    <trkpt lat="33.33898" lon="-116.64260"><ele>1200.0</ele></trkpt>
    <trkpt lat="33.33972" lon="-116.64328"><ele>1188.0</ele></trkpt>
    <trkpt lat="33.33984" lon="-116.64359"><ele>1188.0</ele></trkpt>
    <trkpt lat="33.33996" lon="-116.64373"><ele>1188.0</ele></trkpt>
    <trkpt lat="33.34017" lon="-116.64411"><ele>1188.0</ele></trkpt>
    <trkpt lat="33.34028" lon="-116.64484"><ele>1178.0</ele></trkpt>
    <trkpt lat="33.34049" lon="-116.64527"><ele>1178.0</ele></trkpt>
    <trkpt lat="33.34066" lon="-116.64592"><ele>1178.0</ele></trkpt>
    <trkpt lat="33.34098" lon="-116.64643"><ele>1173.0</ele></trkpt>
    <trkpt lat="33.34121" lon="-116.64654"><ele>1173.0</ele></trkpt>
    <trkpt lat="33.34148" lon="-116.64692"><ele>1173.0</ele></trkpt>
    <trkpt lat="33.34171" lon="-116.64698"><ele>1173.0</ele></trkpt>
    <trkpt lat="33.34209" lon="-116.64699"><ele>1167.0</ele></trkpt>
    <trkpt lat="33.34247" lon="-116.64700"><ele>1167.0</ele></trkpt>
    <trkpt lat="33.34376" lon="-116.64747"><ele>1167.0</ele></trkpt>
    <trkpt lat="33.34392" lon="-116.64763"><ele>1167.0</ele></trkpt>
    <trkpt lat="33.34410" lon="-116.64821"><ele>1166.0</ele></trkpt>
    <trkpt lat="33.34426" lon="-116.64852"><ele>1166.0</ele></trkpt>
    <trkpt lat="33.34478" lon="-116.64960"><ele>1166.0</ele></trkpt>
    <trkpt lat="33.34495" lon="-116.65036"><ele>1166.0</ele></trkpt>
    <trkpt lat="33.34524" lon="-116.65118"><ele>1166.0</ele></trkpt>
    <trkpt lat="33.34560" lon="-116.65173"><ele>1166.0</ele></trkpt>
    <trkpt lat="33.34565" lon="-116.65197"><ele>1166.0</ele></trkpt>
    <trkpt lat="33.34562" lon="-116.65222"><ele>1159.0</ele></trkpt>
    <trkpt lat="33.34558" lon="-116.65259"><ele>1159.0</ele></trkpt>
    <trkpt lat="33.34574" lon="-116.65291"><ele>1159.0</ele></trkpt>
    <trkpt lat="33.34630" lon="-116.65384"><ele>1159.0</ele></trkpt>
    <trkpt lat="33.34658" lon="-116.65408"><ele>1150.0</ele></trkpt>
    <trkpt lat="33.34666" lon="-116.65417"><ele>1150.0</ele></trkpt>
    <trkpt lat="33.34699" lon="-116.65456"><ele>1150.0</ele></trkpt>
    <trkpt lat="33.34734" lon="-116.65471"><ele>1140.0</ele></trkpt>
    <trkpt lat="33.34765" lon="-116.65533"><ele>1140.0</ele></trkpt>
    <trkpt lat="33.34789" lon="-116.65545"><ele>1140.0</ele></trkpt>
    <trkpt lat="33.34793" lon="-116.65547"><ele>1140.0</ele></trkpt>
    <trkpt lat="33.34804" lon="-116.65552"><ele>1142.0</ele></trkpt>
    <trkpt lat="33.34804" lon="-116.65552"><ele>1142.0</ele></trkpt>
    <trkpt lat="33.34812" lon="-116.65556"><ele>1142.0</ele></trkpt>
    <trkpt lat="33.34834" lon="-116.65554"><ele>1142.0</ele></trkpt>
    <trkpt lat="33.34844" lon="-116.65553"><ele>1145.0</ele></trkpt>
    <trkpt lat="33.34864" lon="-116.65573"><ele>1145.0</ele></trkpt>
    <trkpt lat="33.34887" lon="-116.65567"><ele>1145.0</ele></trkpt>
    <trkpt lat="33.34911" lon="-116.65591"><ele>1147.0</ele></trkpt>
    <trkpt lat="33.34955" lon="-116.65605"><ele>1147.0</ele></trkpt>
    <trkpt lat="33.35012" lon="-116.65605"><ele>1147.0</ele></trkpt>
    <trkpt lat="33.35047" lon="-116.65634"><ele>1147.0</ele></trkpt>
    <trkpt lat="33.35068" lon="-116.65684"><ele>1156.0</ele></trkpt>
    <trkpt lat="33.35073" lon="-116.65686"><ele>1156.0</ele></trkpt>
    <trkpt lat="33.35149" lon="-116.65725"><ele>1156.0</ele></trkpt>
    <trkpt lat="33.35196" lon="-116.65733"><ele>1156.0</ele></trkpt>
    <trkpt lat="33.35216" lon="-116.65762"><ele>1161.0</ele></trkpt>
    <trkpt lat="33.35251" lon="-116.65762"><ele>1161.0</ele></trkpt>
    <trkpt lat="33.35288" lon="-116.65794"><ele>1161.0</ele></trkpt>
    <trkpt lat="33.35355" lon="-116.65819"><ele>1167.0</ele></trkpt>
    <trkpt lat="33.35400" lon="-116.65795"><ele>1167.0</ele></trkpt>
    <trkpt lat="33.35455" lon="-116.65820"><ele>1167.0</ele></trkpt>
    <trkpt lat="33.35481" lon="-116.65841"><ele>1167.0</ele></trkpt>
    <trkpt lat="33.35481" lon="-116.65841"><ele>1168.0</ele></trkpt>
    <trkpt lat="33.35485" lon="-116.65844"><ele>1168.0</ele></trkpt>
    <trkpt lat="33.35512" lon="-116.65833"><ele>1168.0</ele></trkpt>
    <trkpt lat="33.35518" lon="-116.65830"><ele>1168.0</ele></trkpt>
    <trkpt lat="33.35541" lon="-116.65841"><ele>1168.0</ele></trkpt>
    <trkpt lat="33.35577" lon="-116.65926"><ele>1168.0</ele></trkpt>
    <trkpt lat="33.35587" lon="-116.66010"><ele>1168.0</ele></trkpt>
    <trkpt lat="33.35612" lon="-116.66036"><ele>1167.0</ele></trkpt>
    <trkpt lat="33.35637" lon="-116.66098"><ele>1167.0</ele></trkpt>
    <trkpt lat="33.35693" lon="-116.66187"><ele>1167.0</ele></trkpt>
    <trkpt lat="33.35728" lon="-116.66212"><ele>1167.0</ele></trkpt>
    <trkpt lat="33.35754" lon="-116.66275"><ele>1155.0</ele></trkpt>
    <trkpt lat="33.35770" lon="-116.66456"><ele>1155.0</ele></trkpt>
    <trkpt lat="33.35794" lon="-116.66485"><ele>1155.0</ele></trkpt>
    <trkpt lat="33.35819" lon="-116.66550"><ele>1155.0</ele></trkpt>
    <trkpt lat="33.35807" lon="-116.66589"><ele>1154.0</ele></trkpt>
    <trkpt lat="33.35808" lon="-116.66611"><ele>1154.0</ele></trkpt>
    <trkpt lat="33.35803" lon="-116.66660"><ele>1154.0</ele></trkpt>
    <trkpt lat="33.35766" lon="-116.66750"><ele>1155.0</ele></trkpt>
    <trkpt lat="33.35748" lon="-116.66835"><ele>1155.0</ele></trkpt>
    <trkpt lat="33.35787" lon="-116.66896"><ele>1155.0</ele></trkpt>
    <trkpt lat="33.35857" lon="-116.66977"><ele>1155.0</ele></trkpt>
    <trkpt lat="33.35864" lon="-116.67007"><ele>1164.0</ele></trkpt>
    <trkpt lat="33.35858" lon="-116.67141"><ele>1164.0</ele></trkpt>
    <trkpt lat="33.35875" lon="-116.67174"><ele>1164.0</ele></trkpt>
    <trkpt lat="33.35914" lon="-116.67197"><ele>1164.0</ele></trkpt>
    <trkpt lat="33.36013" lon="-116.67227"><ele>1166.0</ele></trkpt>
    <trkpt lat="33.36075" lon="-116.67244"><ele>1166.0</ele></trkpt>
    <trkpt lat="33.36105" lon="-116.67241"><ele>1166.0</ele></trkpt>
    <trkpt lat="33.36140" lon="-116.67213"><ele>1171.0</ele></trkpt>
    <trkpt lat="33.36158" lon="-116.67239"><ele>1171.0</ele></trkpt>
    <trkpt lat="33.36213" lon="-116.67296"><ele>1171.0</ele></trkpt>
    <trkpt lat="33.36258" lon="-116.67307"><ele>1171.0</ele></trkpt>
    <trkpt lat="33.36280" lon="-116.67343"><ele>1183.0</ele></trkpt>
    <trkpt lat="33.36303" lon="-116.67387"><ele>1183.0</ele></trkpt>
    <trkpt lat="33.36312" lon="-116.67426"><ele>1183.0</ele></trkpt>
    <trkpt lat="33.36391" lon="-116.67471"><ele>1183.0</ele></trkpt>
    <trkpt lat="33.36439" lon="-116.67464"><ele>1186.0</ele></trkpt>
    <trkpt lat="33.36508" lon="-116.67393"><ele>1186.0</ele></trkpt>
    <trkpt lat="33.36530" lon="-116.67393"><ele>1186.0</ele></trkpt>
    <trkpt lat="33.36592" lon="-116.67445"><ele>1186.0</ele></trkpt>
    <trkpt lat="33.36609" lon="-116.67491"><ele>1196.0</ele></trkpt>
    <trkpt lat="33.36615" lon="-116.67538"><ele>1196.0</ele></trkpt>
    <trkpt lat="33.36645" lon="-116.67597"><ele>1196.0</ele></trkpt>
    <trkpt lat="33.36662" lon="-116.67722"><ele>1202.0</ele></trkpt>
    <trkpt lat="33.36656" lon="-116.67870"><ele>1202.0</ele></trkpt>
    <trkpt lat="33.36639" lon="-116.67929"><ele>1202.0</ele></trkpt>
    <trkpt lat="33.36669" lon="-116.67979"><ele>1202.0</ele></trkpt>
    <trkpt lat="33.36690" lon="-116.68041"><ele>1229.0</ele></trkpt>
    <trkpt lat="33.36693" lon="-116.68076"><ele>1229.0</ele></trkpt>
    <trkpt lat="33.36738" lon="-116.68105"><ele>1229.0</ele></trkpt>
    <trkpt lat="33.36754" lon="-116.68175"><ele>1229.0</ele></trkpt>
    <trkpt lat="33.36740" lon="-116.68234"><ele>1240.0</ele></trkpt>
    <trkpt lat="33.36737" lon="-116.68265"><ele>1240.0</ele></trkpt>
    <trkpt lat="33.36754" lon="-116.68293"><ele>1240.0</ele></trkpt>
    <trkpt lat="33.36756" lon="-116.68322"><ele>1255.0</ele></trkpt>
    <trkpt lat="33.36744" lon="-116.68355"><ele>1255.0</ele></trkpt>
    <trkpt lat="33.36747" lon="-116.68376"><ele>1255.0</ele></trkpt>
    <trkpt lat="33.36782" lon="-116.68365"><ele>1255.0</ele></trkpt>
    <trkpt lat="33.36800" lon="-116.68385"><ele>1265.0</ele></trkpt>
    <trkpt lat="33.36813" lon="-116.68444"><ele>1265.0</ele></trkpt>
    <trkpt lat="33.36834" lon="-116.68453"><ele>1265.0</ele></trkpt>
    <trkpt lat="33.36843" lon="-116.68486"><ele>1265.0</ele></trkpt>
    <trkpt lat="33.36856" lon="-116.68490"><ele>1259.0</ele></trkpt>
    <trkpt lat="33.36901" lon="-116.68417"><ele>1259.0</ele></trkpt>
    <trkpt lat="33.36988" lon="-116.68443"><ele>1259.0</ele></trkpt>
    <trkpt lat="33.37007" lon="-116.68484"><ele>1278.0</ele></trkpt>
    <trkpt lat="33.37009" lon="-116.68536"><ele>1278.0</ele></trkpt>
    <trkpt lat="33.37025" lon="-116.68536"><ele>1278.0</ele></trkpt>
    <trkpt lat="33.37039" lon="-116.68578"><ele>1278.0</ele></trkpt>
    <trkpt lat="33.37016" lon="-116.68606"><ele>1294.0</ele></trkpt>
    <trkpt lat="33.37007" lon="-116.68668"><ele>1294.0</ele></trkpt>
    <trkpt lat="33.36977" lon="-116.68702"><ele>1294.0</ele></trkpt>
    <trkpt lat="33.36962" lon="-116.68738"><ele>1294.0</ele></trkpt>
    <trkpt lat="33.36967" lon="-116.68748"><ele>1300.0</ele></trkpt>
    <trkpt lat="33.36984" lon="-116.68736"><ele>1300.0</ele></trkpt>
    <trkpt lat="33.37031" lon="-116.68716"><ele>1300.0</ele></trkpt>
    <trkpt lat="33.37041" lon="-116.68678"><ele>1296.0</ele></trkpt>
    <trkpt lat="33.37063" lon="-116.68651"><ele>1296.0</ele></trkpt>
    <trkpt lat="33.37101" lon="-116.68644"><ele>1296.0</ele></trkpt>
    <trkpt lat="33.37123" lon="-116.68670"><ele>1296.0</ele></trkpt>
    <trkpt lat="33.37125" lon="-116.68695"><ele>1304.0</ele></trkpt>
    <trkpt lat="33.37109" lon="-116.68725"><ele>1304.0</ele></trkpt>
    <trkpt lat="33.37119" lon="-116.68743"><ele>1304.0</ele></trkpt>
    <trkpt lat="33.37103" lon="-116.68776"><ele>1304.0</ele></trkpt>
    <trkpt lat="33.37140" lon="-116.68817"><ele>1310.0</ele></trkpt>
    <trkpt lat="33.37157" lon="-116.68861"><ele>1310.0</ele></trkpt>
    <trkpt lat="33.37121" lon="-116.68923"><ele>1310.0</ele></trkpt>
    <trkpt lat="33.37087" lon="-116.68929"><ele>1322.0</ele></trkpt>
    <trkpt lat="33.37109" lon="-116.68997"><ele>1322.0</ele></trkpt>
    <trkpt lat="33.37137" lon="-116.69042"><ele>1322.0</ele></trkpt>
    <trkpt lat="33.37194" lon="-116.69102"><ele>1322.0</ele></trkpt>
    <trkpt lat="33.37256" lon="-116.69105"><ele>1327.0</ele></trkpt>
    <trkpt lat="33.37269" lon="-116.69066"><ele>1327.0</ele></trkpt>
    <trkpt lat="33.37289" lon="-116.69058"><ele>1327.0</ele></trkpt>
    <trkpt lat="33.37303" lon="-116.69066"><ele>1327.0</ele></trkpt>
    <trkpt lat="33.37315" lon="-116.69125"><ele>1326.0</ele></trkpt>
    <trkpt lat="33.37332" lon="-116.69163"><ele>1326.0</ele></trkpt>
    <trkpt lat="33.37314" lon="-116.69194"><ele>1326.0</ele></trkpt>
    <trkpt lat="33.37312" lon="-116.69205"><ele>1327.0</ele></trkpt>
    <trkpt lat="33.37311" lon="-116.69208"><ele>1327.0</ele></trkpt>
    <trkpt lat="33.37337" lon="-116.69238"><ele>1327.0</ele></trkpt>
    <trkpt lat="33.37399" lon="-116.69230"><ele>1327.0</ele></trkpt>
    <trkpt lat="33.37460" lon="-116.69231"><ele>1313.0</ele></trkpt>
    <trkpt lat="33.37484" lon="-116.69225"><ele>1313.0</ele></trkpt>
    <trkpt lat="33.37508" lon="-116.69228"><ele>1313.0</ele></trkpt>
    <trkpt lat="33.37550" lon="-116.69153"><ele>1313.0</ele></trkpt>
    <trkpt lat="33.37578" lon="-116.69071"><ele>1296.0</ele></trkpt>
    <trkpt lat="33.37566" lon="-116.69037"><ele>1296.0</ele></trkpt>
    <trkpt lat="33.37565" lon="-116.69016"><ele>1296.0</ele></trkpt>
    <trkpt lat="33.37623" lon="-116.68974"><ele>1296.0</ele></trkpt>
    <trkpt lat="33.37639" lon="-116.68840"><ele>1296.0</ele></trkpt>
    <trkpt lat="33.37659" lon="-116.68808"><ele>1296.0</ele></trkpt>
    <trkpt lat="33.37690" lon="-116.68676"><ele>1296.0</ele></trkpt>
    <trkpt lat="33.37712" lon="-116.68653"><ele>1293.0</ele></trkpt>
    <trkpt lat="33.37804" lon="-116.68652"><ele>1293.0</ele></trkpt>
  </trkseg></trk>
</gpx>
