<?xml version="1.0" encoding="UTF-8"?>
<gpx version="1.1" creator="dirt-bikes build-area-routes (MVUM geometry + SRTM elevation)" xmlns="http://www.topografix.com/GPX/1/1">
  <trk><name>Indian Mountain OHV Road</name><trkseg>
    <trkpt lat="33.79728" lon="-116.77770"><ele>1657.0</ele></trkpt>
    <trkpt lat="33.79719" lon="-116.77774"><ele>1657.0</ele></trkpt>
    <trkpt lat="33.79708" lon="-116.77779"><ele>1657.0</ele></trkpt>
    <trkpt lat="33.79698" lon="-116.77783"><ele>1657.0</ele></trkpt>
    <trkpt lat="33.79692" lon="-116.77789"><ele>1645.0</ele></trkpt>
    <trkpt lat="33.79684" lon="-116.77799"><ele>1645.0</ele></trkpt>
    <trkpt lat="33.79680" lon="-116.77807"><ele>1645.0</ele></trkpt>
    <trkpt lat="33.79675" lon="-116.77811"><ele>1645.0</ele></trkpt>
    <trkpt lat="33.79669" lon="-116.77810"><ele>1645.0</ele></trkpt>
    <trkpt lat="33.79660" lon="-116.77802"><ele>1645.0</ele></trkpt>
    <trkpt lat="33.79653" lon="-116.77791"><ele>1645.0</ele></trkpt>
    <trkpt lat="33.79647" lon="-116.77779"><ele>1645.0</ele></trkpt>
    <trkpt lat="33.79640" lon="-116.77772"><ele>1645.0</ele></trkpt>
    <trkpt lat="33.79630" lon="-116.77769"><ele>1645.0</ele></trkpt>
    <trkpt lat="33.79620" lon="-116.77765"><ele>1645.0</ele></trkpt>
    <trkpt lat="33.79612" lon="-116.77758"><ele>1645.0</ele></trkpt>
    <trkpt lat="33.79596" lon="-116.77734"><ele>1643.0</ele></trkpt>
    <trkpt lat="33.79579" lon="-116.77705"><ele>1643.0</ele></trkpt>
    <trkpt lat="33.79554" lon="-116.77687"><ele>1643.0</ele></trkpt>
    <trkpt lat="33.79537" lon="-116.77673"><ele>1643.0</ele></trkpt>
    <trkpt lat="33.79522" lon="-116.77659"><ele>1643.0</ele></trkpt>
    <trkpt lat="33.79512" lon="-116.77648"><ele>1643.0</ele></trkpt>
    <trkpt lat="33.79500" lon="-116.77630"><ele>1634.0</ele></trkpt>
    <trkpt lat="33.79490" lon="-116.77615"><ele>1634.0</ele></trkpt>
    <trkpt lat="33.79478" lon="-116.77600"><ele>1634.0</ele></trkpt>
    <trkpt lat="33.79470" lon="-116.77591"><ele>1634.0</ele></trkpt>
    <trkpt lat="33.79463" lon="-116.77586"><ele>1634.0</ele></trkpt>
    <trkpt lat="33.79456" lon="-116.77583"><ele>1634.0</ele></trkpt>
    <trkpt lat="33.79445" lon="-116.77584"><ele>1629.0</ele></trkpt>
    <trkpt lat="33.79435" lon="-116.77580"><ele>1629.0</ele></trkpt>
    <trkpt lat="33.79427" lon="-116.77576"><ele>1629.0</ele></trkpt>
    <trkpt lat="33.79422" lon="-116.77569"><ele>1629.0</ele></trkpt>
    <trkpt lat="33.79418" lon="-116.77561"><ele>1629.0</ele></trkpt>
    <trkpt lat="33.79412" lon="-116.77552"><ele>1629.0</ele></trkpt>
    <trkpt lat="33.79404" lon="-116.77541"><ele>1629.0</ele></trkpt>
    <trkpt lat="33.79397" lon="-116.77531"><ele>1616.0</ele></trkpt>
    <trkpt lat="33.79385" lon="-116.77520"><ele>1616.0</ele></trkpt>
    <trkpt lat="33.79377" lon="-116.77513"><ele>1616.0</ele></trkpt>
    <trkpt lat="33.79369" lon="-116.77507"><ele>1616.0</ele></trkpt>
    <trkpt lat="33.79362" lon="-116.77501"><ele>1616.0</ele></trkpt>
    <trkpt lat="33.79353" lon="-116.77495"><ele>1616.0</ele></trkpt>
    <trkpt lat="33.79342" lon="-116.77490"><ele>1608.0</ele></trkpt>
    <trkpt lat="33.79328" lon="-116.77486"><ele>1608.0</ele></trkpt>
    <trkpt lat="33.79319" lon="-116.77484"><ele>1608.0</ele></trkpt>
    <trkpt lat="33.79312" lon="-116.77481"><ele>1608.0</ele></trkpt>
    <trkpt lat="33.79302" lon="-116.77480"><ele>1608.0</ele></trkpt>
    <trkpt lat="33.79296" lon="-116.77481"><ele>1608.0</ele></trkpt>
    <trkpt lat="33.79289" lon="-116.77489"><ele>1608.0</ele></trkpt>
    <trkpt lat="33.79280" lon="-116.77501"><ele>1608.0</ele></trkpt>
    <trkpt lat="33.79270" lon="-116.77511"><ele>1608.0</ele></trkpt>
    <trkpt lat="33.79260" lon="-116.77520"><ele>1608.0</ele></trkpt>
    <trkpt lat="33.79249" lon="-116.77528"><ele>1608.0</ele></trkpt>
    <trkpt lat="33.79240" lon="-116.77531"><ele>1608.0</ele></trkpt>
    <trkpt lat="33.79217" lon="-116.77535"><ele>1595.0</ele></trkpt>
    <trkpt lat="33.79197" lon="-116.77539"><ele>1595.0</ele></trkpt>
    <trkpt lat="33.79188" lon="-116.77542"><ele>1595.0</ele></trkpt>
    <trkpt lat="33.79179" lon="-116.77546"><ele>1595.0</ele></trkpt>
    <trkpt lat="33.79173" lon="-116.77554"><ele>1595.0</ele></trkpt>
    <trkpt lat="33.79167" lon="-116.77564"><ele>1595.0</ele></trkpt>
    <trkpt lat="33.79162" lon="-116.77581"><ele>1596.0</ele></trkpt>
    <trkpt lat="33.79158" lon="-116.77598"><ele>1596.0</ele></trkpt>
    <trkpt lat="33.79156" lon="-116.77613"><ele>1596.0</ele></trkpt>
    <trkpt lat="33.79154" lon="-116.77626"><ele>1596.0</ele></trkpt>
    <trkpt lat="33.79150" lon="-116.77636"><ele>1596.0</ele></trkpt>
    <trkpt lat="33.79144" lon="-116.77647"><ele>1596.0</ele></trkpt>
    <trkpt lat="33.79138" lon="-116.77653"><ele>1590.0</ele></trkpt>
    <trkpt lat="33.79131" lon="-116.77661"><ele>1590.0</ele></trkpt>
    <trkpt lat="33.79127" lon="-116.77671"><ele>1590.0</ele></trkpt>
    <trkpt lat="33.79125" lon="-116.77682"><ele>1590.0</ele></trkpt>
    <trkpt lat="33.79125" lon="-116.77692"><ele>1590.0</ele></trkpt>
    <trkpt lat="33.79126" lon="-116.77702"><ele>1590.0</ele></trkpt>
    <trkpt lat="33.79128" lon="-116.77713"><ele>1587.0</ele></trkpt>
    <trkpt lat="33.79127" lon="-116.77722"><ele>1587.0</ele></trkpt>
    <trkpt lat="33.79123" lon="-116.77728"><ele>1587.0</ele></trkpt>
    <trkpt lat="33.79116" lon="-116.77735"><ele>1587.0</ele></trkpt>
    <trkpt lat="33.79108" lon="-116.77744"><ele>1587.0</ele></trkpt>
    <trkpt lat="33.79101" lon="-116.77755"><ele>1587.0</ele></trkpt>
    <trkpt lat="33.79095" lon="-116.77764"><ele>1571.0</ele></trkpt>
    <trkpt lat="33.79089" lon="-116.77766"><ele>1571.0</ele></trkpt>
    <trkpt lat="33.79081" lon="-116.77765"><ele>1571.0</ele></trkpt>
    <trkpt lat="33.79077" lon="-116.77761"><ele>1571.0</ele></trkpt>
    <trkpt lat="33.79075" lon="-116.77754"><ele>1571.0</ele></trkpt>
    <trkpt lat="33.79077" lon="-116.77748"><ele>1571.0</ele></trkpt>
    <trkpt lat="33.79079" lon="-116.77743"><ele>1571.0</ele></trkpt>
    <trkpt lat="33.79084" lon="-116.77740"><ele>1579.0</ele></trkpt>
    <trkpt lat="33.79090" lon="-116.77735"><ele>1579.0</ele></trkpt>
    <trkpt lat="33.79094" lon="-116.77730"><ele>1579.0</ele></trkpt>
    <trkpt lat="33.79099" lon="-116.77721"><ele>1579.0</ele></trkpt>
    <trkpt lat="33.79101" lon="-116.77713"><ele>1579.0</ele></trkpt>
    <trkpt lat="33.79100" lon="-116.77704"><ele>1579.0</ele></trkpt>
    <trkpt lat="33.79096" lon="-116.77693"><ele>1578.0</ele></trkpt>
    <trkpt lat="33.79095" lon="-116.77683"><ele>1578.0</ele></trkpt>
    <trkpt lat="33.79093" lon="-116.77667"><ele>1578.0</ele></trkpt>
    <trkpt lat="33.79091" lon="-116.77653"><ele>1578.0</ele></trkpt>
    <trkpt lat="33.79091" lon="-116.77638"><ele>1578.0</ele></trkpt>
    <trkpt lat="33.79092" lon="-116.77627"><ele>1578.0</ele></trkpt>
    <trkpt lat="33.79090" lon="-116.77619"><ele>1571.0</ele></trkpt>
    <trkpt lat="33.79084" lon="-116.77614"><ele>1571.0</ele></trkpt>
    <trkpt lat="33.79077" lon="-116.77613"><ele>1571.0</ele></trkpt>
    <trkpt lat="33.79072" lon="-116.77610"><ele>1571.0</ele></trkpt>
    <trkpt lat="33.79065" lon="-116.77603"><ele>1571.0</ele></trkpt>
    <trkpt lat="33.79061" lon="-116.77596"><ele>1571.0</ele></trkpt>
    <trkpt lat="33.79057" lon="-116.77587"><ele>1562.0</ele></trkpt>
    <trkpt lat="33.79057" lon="-116.77576"><ele>1562.0</ele></trkpt>
    <trkpt lat="33.79060" lon="-116.77567"><ele>1562.0</ele></trkpt>
    <trkpt lat="33.79064" lon="-116.77558"><ele>1562.0</ele></trkpt>
    <trkpt lat="33.79069" lon="-116.77548"><ele>1562.0</ele></trkpt>
    <trkpt lat="33.79074" lon="-116.77543"><ele>1562.0</ele></trkpt>
    <trkpt lat="33.79083" lon="-116.77539"><ele>1568.0</ele></trkpt>
    <trkpt lat="33.79091" lon="-116.77537"><ele>1568.0</ele></trkpt>
    <trkpt lat="33.79098" lon="-116.77534"><ele>1568.0</ele></trkpt>
    <trkpt lat="33.79109" lon="-116.77530"><ele>1568.0</ele></trkpt>
    <trkpt lat="33.79121" lon="-116.77526"><ele>1568.0</ele></trkpt>
    <trkpt lat="33.79125" lon="-116.77522"><ele>1568.0</ele></trkpt>
    <trkpt lat="33.79128" lon="-116.77513"><ele>1573.0</ele></trkpt>
    <trkpt lat="33.79133" lon="-116.77499"><ele>1573.0</ele></trkpt>
    <trkpt lat="33.79137" lon="-116.77486"><ele>1573.0</ele></trkpt>
    <trkpt lat="33.79139" lon="-116.77475"><ele>1573.0</ele></trkpt>
    <trkpt lat="33.79139" lon="-116.77460"><ele>1573.0</ele></trkpt>
    <trkpt lat="33.79135" lon="-116.77446"><ele>1573.0</ele></trkpt>
    <trkpt lat="33.79130" lon="-116.77428"><ele>1560.0</ele></trkpt>
    <trkpt lat="33.79128" lon="-116.77416"><ele>1560.0</ele></trkpt>
    <trkpt lat="33.79129" lon="-116.77401"><ele>1560.0</ele></trkpt>
    <trkpt lat="33.79128" lon="-116.77391"><ele>1560.0</ele></trkpt>
    <trkpt lat="33.79123" lon="-116.77386"><ele>1560.0</ele></trkpt>
    <trkpt lat="33.79118" lon="-116.77385"><ele>1560.0</ele></trkpt>
    <trkpt lat="33.79114" lon="-116.77390"><ele>1563.0</ele></trkpt>
    <trkpt lat="33.79114" lon="-116.77401"><ele>1563.0</ele></trkpt>
    <trkpt lat="33.79118" lon="-116.77422"><ele>1563.0</ele></trkpt>
    <trkpt lat="33.79122" lon="-116.77444"><ele>1563.0</ele></trkpt>
    <trkpt lat="33.79123" lon="-116.77458"><ele>1563.0</ele></trkpt>
    <trkpt lat="33.79120" lon="-116.77470"><ele>1563.0</ele></trkpt>
    <trkpt lat="33.79113" lon="-116.77490"><ele>1563.0</ele></trkpt>
    <trkpt lat="33.79108" lon="-116.77497"><ele>1559.0</ele></trkpt>
    <trkpt lat="33.79100" lon="-116.77502"><ele>1559.0</ele></trkpt>
    <trkpt lat="33.79087" lon="-116.77506"><ele>1559.0</ele></trkpt>
    <trkpt lat="33.79075" lon="-116.77511"><ele>1559.0</ele></trkpt>
    <trkpt lat="33.79063" lon="-116.77517"><ele>1559.0</ele></trkpt>
    <trkpt lat="33.79054" lon="-116.77524"><ele>1559.0</ele></trkpt>
    <trkpt lat="33.79045" lon="-116.77529"><ele>1546.0</ele></trkpt>
    <trkpt lat="33.79034" lon="-116.77535"><ele>1546.0</ele></trkpt>
    <trkpt lat="33.79022" lon="-116.77547"><ele>1546.0</ele></trkpt>
    <trkpt lat="33.79016" lon="-116.77556"><ele>1546.0</ele></trkpt>
    <trkpt lat="33.79011" lon="-116.77564"><ele>1546.0</ele></trkpt>
    <trkpt lat="33.79008" lon="-116.77580"><ele>1546.0</ele></trkpt>
    <trkpt lat="33.79007" lon="-116.77593"><ele>1547.0</ele></trkpt>
    <trkpt lat="33.79004" lon="-116.77604"><ele>1547.0</ele></trkpt>
    <trkpt lat="33.79003" lon="-116.77612"><ele>1547.0</ele></trkpt>
    <trkpt lat="33.79006" lon="-116.77627"><ele>1547.0</ele></trkpt>
    <trkpt lat="33.79007" lon="-116.77637"><ele>1547.0</ele></trkpt>
    <trkpt lat="33.79003" lon="-116.77647"><ele>1547.0</ele></trkpt>
    <trkpt lat="33.78996" lon="-116.77657"><ele>1548.0</ele></trkpt>
    <trkpt lat="33.78989" lon="-116.77664"><ele>1548.0</ele></trkpt>
    <trkpt lat="33.78980" lon="-116.77668"><ele>1548.0</ele></trkpt>
    <trkpt lat="33.78962" lon="-116.77671"><ele>1548.0</ele></trkpt>
    <trkpt lat="33.78951" lon="-116.77672"><ele>1548.0</ele></trkpt>
    <trkpt lat="33.78939" lon="-116.77672"><ele>1548.0</ele></trkpt>
    <trkpt lat="33.78932" lon="-116.77675"><ele>1536.0</ele></trkpt>
    <trkpt lat="33.78925" lon="-116.77680"><ele>1536.0</ele></trkpt>
    <trkpt lat="33.78918" lon="-116.77686"><ele>1536.0</ele></trkpt>
    <trkpt lat="33.78910" lon="-116.77695"><ele>1536.0</ele></trkpt>
    <trkpt lat="33.78902" lon="-116.77701"><ele>1536.0</ele></trkpt>
    <trkpt lat="33.78887" lon="-116.77708"><ele>1536.0</ele></trkpt>
    <trkpt lat="33.78877" lon="-116.77713"><ele>1522.0</ele></trkpt>
    <trkpt lat="33.78865" lon="-116.77723"><ele>1522.0</ele></trkpt>
    <trkpt lat="33.78857" lon="-116.77727"><ele>1522.0</ele></trkpt>
    <trkpt lat="33.78850" lon="-116.77728"><ele>1522.0</ele></trkpt>
    <trkpt lat="33.78839" lon="-116.77726"><ele>1522.0</ele></trkpt>
    <trkpt lat="33.78827" lon="-116.77725"><ele>1522.0</ele></trkpt>
    <trkpt lat="33.78818" lon="-116.77726"><ele>1515.0</ele></trkpt>
    <trkpt lat="33.78807" lon="-116.77730"><ele>1515.0</ele></trkpt>
    <trkpt lat="33.78794" lon="-116.77736"><ele>1515.0</ele></trkpt>
    <trkpt lat="33.78780" lon="-116.77747"><ele>1515.0</ele></trkpt>
    <trkpt lat="33.78767" lon="-116.77759"><ele>1515.0</ele></trkpt>
    <trkpt lat="33.78758" lon="-116.77765"><ele>1515.0</ele></trkpt>
    <trkpt lat="33.78740" lon="-116.77768"><ele>1517.0</ele></trkpt>
    <trkpt lat="33.78729" lon="-116.77771"><ele>1517.0</ele></trkpt>
    <trkpt lat="33.78711" lon="-116.77776"><ele>1517.0</ele></trkpt>
    <trkpt lat="33.78691" lon="-116.77783"><ele>1517.0</ele></trkpt>
    <trkpt lat="33.78676" lon="-116.77788"><ele>1517.0</ele></trkpt>
    <trkpt lat="33.78662" lon="-116.77792"><ele>1517.0</ele></trkpt>
    <trkpt lat="33.78651" lon="-116.77795"><ele>1517.0</ele></trkpt>
    <trkpt lat="33.78635" lon="-116.77792"><ele>1523.0</ele></trkpt>
    <trkpt lat="33.78619" lon="-116.77788"><ele>1523.0</ele></trkpt>
    <trkpt lat="33.78608" lon="-116.77785"><ele>1523.0</ele></trkpt>
    <trkpt lat="33.78601" lon="-116.77785"><ele>1523.0</ele></trkpt>
    <trkpt lat="33.78593" lon="-116.77788"><ele>1523.0</ele></trkpt>
    <trkpt lat="33.78582" lon="-116.77793"><ele>1523.0</ele></trkpt>
    <trkpt lat="33.78572" lon="-116.77796"><ele>1525.0</ele></trkpt>
    <trkpt lat="33.78559" lon="-116.77797"><ele>1525.0</ele></trkpt>
    <trkpt lat="33.78550" lon="-116.77800"><ele>1525.0</ele></trkpt>
    <trkpt lat="33.78543" lon="-116.77805"><ele>1525.0</ele></trkpt>
    <trkpt lat="33.78534" lon="-116.77815"><ele>1525.0</ele></trkpt>
    <trkpt lat="33.78524" lon="-116.77831"><ele>1525.0</ele></trkpt>
    <trkpt lat="33.78515" lon="-116.77843"><ele>1539.0</ele></trkpt>
    <trkpt lat="33.78508" lon="-116.77858"><ele>1539.0</ele></trkpt>
    <trkpt lat="33.78502" lon="-116.77877"><ele>1539.0</ele></trkpt>
    <trkpt lat="33.78499" lon="-116.77893"><ele>1539.0</ele></trkpt>
    <trkpt lat="33.78500" lon="-116.77907"><ele>1539.0</ele></trkpt>
    <trkpt lat="33.78503" lon="-116.77919"><ele>1539.0</ele></trkpt>
    <trkpt lat="33.78504" lon="-116.77933"><ele>1549.0</ele></trkpt>
    <trkpt lat="33.78502" lon="-116.77944"><ele>1549.0</ele></trkpt>
    <trkpt lat="33.78493" lon="-116.77958"><ele>1549.0</ele></trkpt>
    <trkpt lat="33.78486" lon="-116.77970"><ele>1549.0</ele></trkpt>
    <trkpt lat="33.78482" lon="-116.77985"><ele>1549.0</ele></trkpt>
    <trkpt lat="33.78482" lon="-116.78002"><ele>1549.0</ele></trkpt>
    <trkpt lat="33.78484" lon="-116.78023"><ele>1558.0</ele></trkpt>
    <trkpt lat="33.78486" lon="-116.78035"><ele>1558.0</ele></trkpt>
    <trkpt lat="33.78484" lon="-116.78045"><ele>1558.0</ele></trkpt>
    <trkpt lat="33.78474" lon="-116.78052"><ele>1558.0</ele></trkpt>
    <trkpt lat="33.78463" lon="-116.78060"><ele>1558.0</ele></trkpt>
    <trkpt lat="33.78454" lon="-116.78065"><ele>1558.0</ele></trkpt>
    <trkpt lat="33.78445" lon="-116.78065"><ele>1572.0</ele></trkpt>
    <trkpt lat="33.78435" lon="-116.78062"><ele>1572.0</ele></trkpt>
    <trkpt lat="33.78418" lon="-116.78061"><ele>1572.0</ele></trkpt>
    <trkpt lat="33.78408" lon="-116.78058"><ele>1572.0</ele></trkpt>
    <trkpt lat="33.78398" lon="-116.78057"><ele>1572.0</ele></trkpt>
    <trkpt lat="33.78392" lon="-116.78059"><ele>1572.0</ele></trkpt>
    <trkpt lat="33.78380" lon="-116.78064"><ele>1576.0</ele></trkpt>
    <trkpt lat="33.78358" lon="-116.78068"><ele>1576.0</ele></trkpt>
    <trkpt lat="33.78338" lon="-116.78073"><ele>1576.0</ele></trkpt>
    <trkpt lat="33.78328" lon="-116.78079"><ele>1576.0</ele></trkpt>
    <trkpt lat="33.78320" lon="-116.78087"><ele>1576.0</ele></trkpt>
    <trkpt lat="33.78313" lon="-116.78101"><ele>1576.0</ele></trkpt>
    <trkpt lat="33.78308" lon="-116.78113"><ele>1601.0</ele></trkpt>
    <trkpt lat="33.78303" lon="-116.78122"><ele>1601.0</ele></trkpt>
    <trkpt lat="33.78291" lon="-116.78135"><ele>1601.0</ele></trkpt>
    <trkpt lat="33.78280" lon="-116.78144"><ele>1601.0</ele></trkpt>
    <trkpt lat="33.78272" lon="-116.78148"><ele>1601.0</ele></trkpt>
    <trkpt lat="33.78265" lon="-116.78147"><ele>1601.0</ele></trkpt>
    <trkpt lat="33.78253" lon="-116.78137"><ele>1601.0</ele></trkpt>
    <trkpt lat="33.78239" lon="-116.78125"><ele>1591.0</ele></trkpt>
    <trkpt lat="33.78218" lon="-116.78106"><ele>1591.0</ele></trkpt>
    <trkpt lat="33.78207" lon="-116.78097"><ele>1591.0</ele></trkpt>
    <trkpt lat="33.78200" lon="-116.78087"><ele>1591.0</ele></trkpt>
    <trkpt lat="33.78188" lon="-116.78083"><ele>1591.0</ele></trkpt>
    <trkpt lat="33.78177" lon="-116.78082"><ele>1591.0</ele></trkpt>
    <trkpt lat="33.78163" lon="-116.78086"><ele>1598.0</ele></trkpt>
    <trkpt lat="33.78151" lon="-116.78092"><ele>1598.0</ele></trkpt>
    <trkpt lat="33.78142" lon="-116.78102"><ele>1598.0</ele></trkpt>
    <trkpt lat="33.78137" lon="-116.78114"><ele>1598.0</ele></trkpt>
    <trkpt lat="33.78127" lon="-116.78131"><ele>1598.0</ele></trkpt>
    <trkpt lat="33.78118" lon="-116.78150"><ele>1598.0</ele></trkpt>
    <trkpt lat="33.78113" lon="-116.78169"><ele>1625.0</ele></trkpt>
    <trkpt lat="33.78111" lon="-116.78184"><ele>1625.0</ele></trkpt>
    <trkpt lat="33.78103" lon="-116.78209"><ele>1625.0</ele></trkpt>
    <trkpt lat="33.78098" lon="-116.78220"><ele>1625.0</ele></trkpt>
    <trkpt lat="33.78092" lon="-116.78226"><ele>1625.0</ele></trkpt>
    <trkpt lat="33.78080" lon="-116.78233"><ele>1625.0</ele></trkpt>
    <trkpt lat="33.78068" lon="-116.78245"><ele>1635.0</ele></trkpt>
    <trkpt lat="33.78041" lon="-116.78261"><ele>1635.0</ele></trkpt>
    <trkpt lat="33.78009" lon="-116.78279"><ele>1635.0</ele></trkpt>
    <trkpt lat="33.77995" lon="-116.78292"><ele>1635.0</ele></trkpt>
    <trkpt lat="33.77974" lon="-116.78311"><ele>1635.0</ele></trkpt>
    <trkpt lat="33.77961" lon="-116.78329"><ele>1635.0</ele></trkpt>
    <trkpt lat="33.77950" lon="-116.78339"><ele>1652.0</ele></trkpt>
    <trkpt lat="33.77941" lon="-116.78341"><ele>1652.0</ele></trkpt>
    <trkpt lat="33.77927" lon="-116.78338"><ele>1652.0</ele></trkpt>
    <trkpt lat="33.77913" lon="-116.78333"><ele>1652.0</ele></trkpt>
    <trkpt lat="33.77903" lon="-116.78335"><ele>1652.0</ele></trkpt>
    <trkpt lat="33.77896" lon="-116.78342"><ele>1652.0</ele></trkpt>
    <trkpt lat="33.77886" lon="-116.78359"><ele>1662.0</ele></trkpt>
    <trkpt lat="33.77877" lon="-116.78377"><ele>1662.0</ele></trkpt>
    <trkpt lat="33.77868" lon="-116.78384"><ele>1662.0</ele></trkpt>
    <trkpt lat="33.77833" lon="-116.78401"><ele>1662.0</ele></trkpt>
    <trkpt lat="33.77823" lon="-116.78410"><ele>1662.0</ele></trkpt>
    <trkpt lat="33.77807" lon="-116.78427"><ele>1662.0</ele></trkpt>
    <trkpt lat="33.77795" lon="-116.78435"><ele>1667.0</ele></trkpt>
    <trkpt lat="33.77783" lon="-116.78445"><ele>1667.0</ele></trkpt>
    <trkpt lat="33.77776" lon="-116.78456"><ele>1667.0</ele></trkpt>
    <trkpt lat="33.77772" lon="-116.78474"><ele>1667.0</ele></trkpt>
    <trkpt lat="33.77770" lon="-116.78492"><ele>1667.0</ele></trkpt>
    <trkpt lat="33.77773" lon="-116.78512"><ele>1667.0</ele></trkpt>
    <trkpt lat="33.77776" lon="-116.78528"><ele>1676.0</ele></trkpt>
    <trkpt lat="33.77777" lon="-116.78548"><ele>1676.0</ele></trkpt>
    <trkpt lat="33.77780" lon="-116.78557"><ele>1676.0</ele></trkpt>
    <trkpt lat="33.77787" lon="-116.78569"><ele>1676.0</ele></trkpt>
    <trkpt lat="33.77796" lon="-116.78581"><ele>1676.0</ele></trkpt>
    <trkpt lat="33.77799" lon="-116.78589"><ele>1676.0</ele></trkpt>
    <trkpt lat="33.77798" lon="-116.78598"><ele>1676.0</ele></trkpt>
    <trkpt lat="33.77796" lon="-116.78615"><ele>1677.0</ele></trkpt>
    <trkpt lat="33.77796" lon="-116.78628"><ele>1677.0</ele></trkpt>
    <trkpt lat="33.77798" lon="-116.78643"><ele>1677.0</ele></trkpt>
    <trkpt lat="33.77805" lon="-116.78658"><ele>1677.0</ele></trkpt>
    <trkpt lat="33.77812" lon="-116.78671"><ele>1677.0</ele></trkpt>
    <trkpt lat="33.77815" lon="-116.78679"><ele>1677.0</ele></trkpt>
    <trkpt lat="33.77817" lon="-116.78686"><ele>1677.0</ele></trkpt>
    <trkpt lat="33.77814" lon="-116.78699"><ele>1677.0</ele></trkpt>
    <trkpt lat="33.77812" lon="-116.78710"><ele>1677.0</ele></trkpt>
    <trkpt lat="33.77812" lon="-116.78716"><ele>1677.0</ele></trkpt>
    <trkpt lat="33.77816" lon="-116.78723"><ele>1677.0</ele></trkpt>
    <trkpt lat="33.77832" lon="-116.78740"><ele>1677.0</ele></trkpt>
    <trkpt lat="33.77860" lon="-116.78768"><ele>1684.0</ele></trkpt>
    <trkpt lat="33.77867" lon="-116.78770"><ele>1684.0</ele></trkpt>
    <trkpt lat="33.77875" lon="-116.78770"><ele>1684.0</ele></trkpt>
    <trkpt lat="33.77881" lon="-116.78766"><ele>1684.0</ele></trkpt>
    <trkpt lat="33.77887" lon="-116.78760"><ele>1684.0</ele></trkpt>
    <trkpt lat="33.77892" lon="-116.78751"><ele>1684.0</ele></trkpt>
    <trkpt lat="33.77896" lon="-116.78743"><ele>1695.0</ele></trkpt>
    <trkpt lat="33.77901" lon="-116.78737"><ele>1695.0</ele></trkpt>
    <trkpt lat="33.77909" lon="-116.78733"><ele>1695.0</ele></trkpt>
    <trkpt lat="33.77918" lon="-116.78724"><ele>1695.0</ele></trkpt>
    <trkpt lat="33.77933" lon="-116.78711"><ele>1695.0</ele></trkpt>
    <trkpt lat="33.77938" lon="-116.78707"><ele>1695.0</ele></trkpt>
    <trkpt lat="33.77943" lon="-116.78708"><ele>1706.0</ele></trkpt>
    <trkpt lat="33.77949" lon="-116.78711"><ele>1706.0</ele></trkpt>
    <trkpt lat="33.77961" lon="-116.78721"><ele>1706.0</ele></trkpt>
    <trkpt lat="33.77971" lon="-116.78726"><ele>1706.0</ele></trkpt>
    <trkpt lat="33.77980" lon="-116.78728"><ele>1706.0</ele></trkpt>
    <trkpt lat="33.77988" lon="-116.78727"><ele>1706.0</ele></trkpt>
    <trkpt lat="33.77996" lon="-116.78725"><ele>1718.0</ele></trkpt>
    <trkpt lat="33.78005" lon="-116.78721"><ele>1718.0</ele></trkpt>
    <trkpt lat="33.78019" lon="-116.78712"><ele>1718.0</ele></trkpt>
    <trkpt lat="33.78034" lon="-116.78705"><ele>1718.0</ele></trkpt>
    <trkpt lat="33.78039" lon="-116.78702"><ele>1718.0</ele></trkpt>
    <trkpt lat="33.78045" lon="-116.78701"><ele>1718.0</ele></trkpt>
    <trkpt lat="33.78053" lon="-116.78702"><ele>1731.0</ele></trkpt>
    <trkpt lat="33.78062" lon="-116.78701"><ele>1731.0</ele></trkpt>
    <trkpt lat="33.78071" lon="-116.78699"><ele>1731.0</ele></trkpt>
    <trkpt lat="33.78077" lon="-116.78696"><ele>1731.0</ele></trkpt>
    <trkpt lat="33.78096" lon="-116.78693"><ele>1731.0</ele></trkpt>
    <trkpt lat="33.78105" lon="-116.78692"><ele>1731.0</ele></trkpt>
    <trkpt lat="33.78108" lon="-116.78686"><ele>1739.0</ele></trkpt>
    <trkpt lat="33.78108" lon="-116.78677"><ele>1739.0</ele></trkpt>
    <trkpt lat="33.78107" lon="-116.78671"><ele>1739.0</ele></trkpt>
    <trkpt lat="33.78102" lon="-116.78664"><ele>1739.0</ele></trkpt>
    <trkpt lat="33.78100" lon="-116.78656"><ele>1739.0</ele></trkpt>
    <trkpt lat="33.78100" lon="-116.78650"><ele>1739.0</ele></trkpt>
    <trkpt lat="33.78106" lon="-116.78645"><ele>1739.0</ele></trkpt>
    <trkpt lat="33.78115" lon="-116.78643"><ele>1743.0</ele></trkpt>
    <trkpt lat="33.78123" lon="-116.78641"><ele>1743.0</ele></trkpt>
    <trkpt lat="33.78128" lon="-116.78636"><ele>1743.0</ele></trkpt>
    <trkpt lat="33.78132" lon="-116.78629"><ele>1743.0</ele></trkpt>
    <trkpt lat="33.78132" lon="-116.78622"><ele>1743.0</ele></trkpt>
    <trkpt lat="33.78130" lon="-116.78609"><ele>1743.0</ele></trkpt>
    <trkpt lat="33.78132" lon="-116.78604"><ele>1745.0</ele></trkpt>
    <trkpt lat="33.78136" lon="-116.78600"><ele>1745.0</ele></trkpt>
    <trkpt lat="33.78142" lon="-116.78600"><ele>1745.0</ele></trkpt>
    <trkpt lat="33.78147" lon="-116.78605"><ele>1745.0</ele></trkpt>
    <trkpt lat="33.78148" lon="-116.78616"><ele>1745.0</ele></trkpt>
    <trkpt lat="33.78150" lon="-116.78628"><ele>1745.0</ele></trkpt>
    <trkpt lat="33.78155" lon="-116.78639"><ele>1746.0</ele></trkpt>
    <trkpt lat="33.78163" lon="-116.78652"><ele>1746.0</ele></trkpt>
    <trkpt lat="33.78169" lon="-116.78661"><ele>1746.0</ele></trkpt>
    <trkpt lat="33.78172" lon="-116.78668"><ele>1746.0</ele></trkpt>
    <trkpt lat="33.78172" lon="-116.78673"><ele>1746.0</ele></trkpt>
    <trkpt lat="33.78169" lon="-116.78683"><ele>1746.0</ele></trkpt>
    <trkpt lat="33.78162" lon="-116.78694"><ele>1744.0</ele></trkpt>
    <trkpt lat="33.78158" lon="-116.78706"><ele>1744.0</ele></trkpt>
    <trkpt lat="33.78154" lon="-116.78723"><ele>1744.0</ele></trkpt>
    <trkpt lat="33.78154" lon="-116.78743"><ele>1744.0</ele></trkpt>
    <trkpt lat="33.78157" lon="-116.78765"><ele>1744.0</ele></trkpt>
    <trkpt lat="33.78157" lon="-116.78780"><ele>1744.0</ele></trkpt>
    <trkpt lat="33.78153" lon="-116.78789"><ele>1741.0</ele></trkpt>
    <trkpt lat="33.78146" lon="-116.78795"><ele>1741.0</ele></trkpt>
    <trkpt lat="33.78137" lon="-116.78802"><ele>1741.0</ele></trkpt>
    <trkpt lat="33.78133" lon="-116.78812"><ele>1741.0</ele></trkpt>
    <trkpt lat="33.78132" lon="-116.78827"><ele>1741.0</ele></trkpt>
    <trkpt lat="33.78133" lon="-116.78852"><ele>1741.0</ele></trkpt>
    <trkpt lat="33.78131" lon="-116.78867"><ele>1728.0</ele></trkpt>
    <trkpt lat="33.78126" lon="-116.78879"><ele>1728.0</ele></trkpt>
    <trkpt lat="33.78111" lon="-116.78900"><ele>1728.0</ele></trkpt>
    <trkpt lat="33.78087" lon="-116.78925"><ele>1728.0</ele></trkpt>
    <trkpt lat="33.78074" lon="-116.78942"><ele>1728.0</ele></trkpt>
    <trkpt lat="33.78065" lon="-116.78962"><ele>1728.0</ele></trkpt>
    <trkpt lat="33.78060" lon="-116.78975"><ele>1709.0</ele></trkpt>
    <trkpt lat="33.78058" lon="-116.78992"><ele>1709.0</ele></trkpt>
    <trkpt lat="33.78057" lon="-116.79023"><ele>1709.0</ele></trkpt>
    <trkpt lat="33.78055" lon="-116.79045"><ele>1709.0</ele></trkpt>
    <trkpt lat="33.78049" lon="-116.79055"><ele>1709.0</ele></trkpt>
    <trkpt lat="33.78039" lon="-116.79068"><ele>1709.0</ele></trkpt>
    <trkpt lat="33.78031" lon="-116.79081"><ele>1700.0</ele></trkpt>
    <trkpt lat="33.78026" lon="-116.79086"><ele>1700.0</ele></trkpt>
    <trkpt lat="33.78010" lon="-116.79091"><ele>1700.0</ele></trkpt>
    <trkpt lat="33.77997" lon="-116.79097"><ele>1700.0</ele></trkpt>
    <trkpt lat="33.77982" lon="-116.79106"><ele>1700.0</ele></trkpt>
    <trkpt lat="33.77965" lon="-116.79118"><ele>1700.0</ele></trkpt>
    <trkpt lat="33.77951" lon="-116.79129"><ele>1700.0</ele></trkpt>
    <trkpt lat="33.77943" lon="-116.79130"><ele>1693.0</ele></trkpt>
    <trkpt lat="33.77932" lon="-116.79130"><ele>1693.0</ele></trkpt>
    <trkpt lat="33.77923" lon="-116.79128"><ele>1693.0</ele></trkpt>
    <trkpt lat="33.77909" lon="-116.79124"><ele>1693.0</ele></trkpt>
    <trkpt lat="33.77892" lon="-116.79120"><ele>1693.0</ele></trkpt>
    <trkpt lat="33.77881" lon="-116.79118"><ele>1693.0</ele></trkpt>
    <trkpt lat="33.77873" lon="-116.79114"><ele>1685.0</ele></trkpt>
    <trkpt lat="33.77866" lon="-116.79107"><ele>1685.0</ele></trkpt>
    <trkpt lat="33.77861" lon="-116.79102"><ele>1685.0</ele></trkpt>
    <trkpt lat="33.77850" lon="-116.79092"><ele>1685.0</ele></trkpt>
    <trkpt lat="33.77836" lon="-116.79081"><ele>1685.0</ele></trkpt>
    <trkpt lat="33.77822" lon="-116.79071"><ele>1685.0</ele></trkpt>
    <trkpt lat="33.77814" lon="-116.79066"><ele>1679.0</ele></trkpt>
    <trkpt lat="33.77809" lon="-116.79066"><ele>1679.0</ele></trkpt>
    <trkpt lat="33.77802" lon="-116.79067"><ele>1679.0</ele></trkpt>
    <trkpt lat="33.77796" lon="-116.79070"><ele>1679.0</ele></trkpt>
    <trkpt lat="33.77786" lon="-116.79072"><ele>1679.0</ele></trkpt>
    <trkpt lat="33.77779" lon="-116.79074"><ele>1679.0</ele></trkpt>
    <trkpt lat="33.77771" lon="-116.79074"><ele>1672.0</ele></trkpt>
    <trkpt lat="33.77762" lon="-116.79072"><ele>1672.0</ele></trkpt>
    <trkpt lat="33.77753" lon="-116.79066"><ele>1672.0</ele></trkpt>
    <trkpt lat="33.77746" lon="-116.79059"><ele>1672.0</ele></trkpt>
    <trkpt lat="33.77743" lon="-116.79054"><ele>1672.0</ele></trkpt>
    <trkpt lat="33.77738" lon="-116.79047"><ele>1672.0</ele></trkpt>
    <trkpt lat="33.77731" lon="-116.79041"><ele>1665.0</ele></trkpt>
    <trkpt lat="33.77724" lon="-116.79038"><ele>1665.0</ele></trkpt>
    <trkpt lat="33.77718" lon="-116.79037"><ele>1665.0</ele></trkpt>
    <trkpt lat="33.77711" lon="-116.79030"><ele>1665.0</ele></trkpt>
    <trkpt lat="33.77704" lon="-116.79024"><ele>1665.0</ele></trkpt>
    <trkpt lat="33.77691" lon="-116.79014"><ele>1665.0</ele></trkpt>
    <trkpt lat="33.77685" lon="-116.79008"><ele>1657.0</ele></trkpt>
    <trkpt lat="33.77673" lon="-116.78997"><ele>1657.0</ele></trkpt>
    <trkpt lat="33.77668" lon="-116.78990"><ele>1657.0</ele></trkpt>
    <trkpt lat="33.77666" lon="-116.78983"><ele>1657.0</ele></trkpt>
    <trkpt lat="33.77665" lon="-116.78975"><ele>1657.0</ele></trkpt>
    <trkpt lat="33.77665" lon="-116.78965"><ele>1657.0</ele></trkpt>
    <trkpt lat="33.77663" lon="-116.78954"><ele>1647.0</ele></trkpt>
    <trkpt lat="33.77660" lon="-116.78944"><ele>1647.0</ele></trkpt>
    <trkpt lat="33.77657" lon="-116.78934"><ele>1647.0</ele></trkpt>
    <trkpt lat="33.77655" lon="-116.78931"><ele>1647.0</ele></trkpt>
    <trkpt lat="33.77644" lon="-116.78928"><ele>1647.0</ele></trkpt>
    <trkpt lat="33.77634" lon="-116.78925"><ele>1647.0</ele></trkpt>
    <trkpt lat="33.77625" lon="-116.78920"><ele>1632.0</ele></trkpt>
    <trkpt lat="33.77617" lon="-116.78916"><ele>1632.0</ele></trkpt>
    <trkpt lat="33.77610" lon="-116.78913"><ele>1632.0</ele></trkpt>
    <trkpt lat="33.77602" lon="-116.78912"><ele>1632.0</ele></trkpt>
    <trkpt lat="33.77592" lon="-116.78913"><ele>1632.0</ele></trkpt>
    <trkpt lat="33.77579" lon="-116.78915"><ele>1632.0</ele></trkpt>
    <trkpt lat="33.77573" lon="-116.78916"><ele>1632.0</ele></trkpt>
    <trkpt lat="33.77567" lon="-116.78920"><ele>1622.0</ele></trkpt>
    <trkpt lat="33.77561" lon="-116.78920"><ele>1622.0</ele></trkpt>
    <trkpt lat="33.77555" lon="-116.78918"><ele>1622.0</ele></trkpt>
    <trkpt lat="33.77549" lon="-116.78913"><ele>1622.0</ele></trkpt>
    <trkpt lat="33.77543" lon="-116.78905"><ele>1622.0</ele></trkpt>
    <trkpt lat="33.77539" lon="-116.78902"><ele>1622.0</ele></trkpt>
    <trkpt lat="33.77534" lon="-116.78900"><ele>1612.0</ele></trkpt>
    <trkpt lat="33.77528" lon="-116.78901"><ele>1612.0</ele></trkpt>
    <trkpt lat="33.77522" lon="-116.78906"><ele>1612.0</ele></trkpt>
    <trkpt lat="33.77515" lon="-116.78916"><ele>1612.0</ele></trkpt>
    <trkpt lat="33.77510" lon="-116.78921"><ele>1612.0</ele></trkpt>
    <trkpt lat="33.77505" lon="-116.78922"><ele>1612.0</ele></trkpt>
    <trkpt lat="33.77497" lon="-116.78924"><ele>1603.0</ele></trkpt>
    <trkpt lat="33.77491" lon="-116.78927"><ele>1603.0</ele></trkpt>
    <trkpt lat="33.77486" lon="-116.78931"><ele>1603.0</ele></trkpt>
    <trkpt lat="33.77467" lon="-116.78960"><ele>1603.0</ele></trkpt>
    <trkpt lat="33.77459" lon="-116.78970"><ele>1603.0</ele></trkpt>
    <trkpt lat="33.77454" lon="-116.78971"><ele>1603.0</ele></trkpt>
    <trkpt lat="33.77450" lon="-116.78967"><ele>1590.0</ele></trkpt>
    <trkpt lat="33.77447" lon="-116.78962"><ele>1590.0</ele></trkpt>
    <trkpt lat="33.77448" lon="-116.78954"><ele>1590.0</ele></trkpt>
    <trkpt lat="33.77450" lon="-116.78946"><ele>1590.0</ele></trkpt>
    <trkpt lat="33.77455" lon="-116.78934"><ele>1590.0</ele></trkpt>
    <trkpt lat="33.77459" lon="-116.78921"><ele>1590.0</ele></trkpt>
    <trkpt lat="33.77462" lon="-116.78914"><ele>1592.0</ele></trkpt>
    <trkpt lat="33.77461" lon="-116.78906"><ele>1592.0</ele></trkpt>
    <trkpt lat="33.77458" lon="-116.78898"><ele>1592.0</ele></trkpt>
    <trkpt lat="33.77453" lon="-116.78895"><ele>1592.0</ele></trkpt>
    <trkpt lat="33.77445" lon="-116.78896"><ele>1592.0</ele></trkpt>
    <trkpt lat="33.77436" lon="-116.78900"><ele>1592.0</ele></trkpt>
    <trkpt lat="33.77428" lon="-116.78905"><ele>1581.0</ele></trkpt>
    <trkpt lat="33.77419" lon="-116.78911"><ele>1581.0</ele></trkpt>
    <trkpt lat="33.77414" lon="-116.78918"><ele>1581.0</ele></trkpt>
    <trkpt lat="33.77410" lon="-116.78927"><ele>1581.0</ele></trkpt>
    <trkpt lat="33.77405" lon="-116.78939"><ele>1581.0</ele></trkpt>
    <trkpt lat="33.77401" lon="-116.78949"><ele>1581.0</ele></trkpt>
    <trkpt lat="33.77395" lon="-116.78958"><ele>1567.0</ele></trkpt>
    <trkpt lat="33.77388" lon="-116.78967"><ele>1567.0</ele></trkpt>
    <trkpt lat="33.77382" lon="-116.78975"><ele>1567.0</ele></trkpt>
    <trkpt lat="33.77377" lon="-116.78985"><ele>1567.0</ele></trkpt>
    <trkpt lat="33.77371" lon="-116.78988"><ele>1567.0</ele></trkpt>
    <trkpt lat="33.77366" lon="-116.78988"><ele>1567.0</ele></trkpt>
    <trkpt lat="33.77362" lon="-116.78984"><ele>1560.0</ele></trkpt>
    <trkpt lat="33.77362" lon="-116.78978"><ele>1560.0</ele></trkpt>
    <trkpt lat="33.77363" lon="-116.78969"><ele>1560.0</ele></trkpt>
    <trkpt lat="33.77363" lon="-116.78962"><ele>1560.0</ele></trkpt>
    <trkpt lat="33.77360" lon="-116.78951"><ele>1560.0</ele></trkpt>
    <trkpt lat="33.77355" lon="-116.78937"><ele>1560.0</ele></trkpt>
    <trkpt lat="33.77349" lon="-116.78922"><ele>1560.0</ele></trkpt>
    <trkpt lat="33.77343" lon="-116.78913"><ele>1545.0</ele></trkpt>
    <trkpt lat="33.77335" lon="-116.78903"><ele>1545.0</ele></trkpt>
    <trkpt lat="33.77322" lon="-116.78891"><ele>1545.0</ele></trkpt>
    <trkpt lat="33.77315" lon="-116.78886"><ele>1545.0</ele></trkpt>
    <trkpt lat="33.77307" lon="-116.78886"><ele>1545.0</ele></trkpt>
    <trkpt lat="33.77303" lon="-116.78888"><ele>1545.0</ele></trkpt>
    <trkpt lat="33.77301" lon="-116.78894"><ele>1540.0</ele></trkpt>
    <trkpt lat="33.77302" lon="-116.78898"><ele>1540.0</ele></trkpt>
    <trkpt lat="33.77303" lon="-116.78902"><ele>1540.0</ele></trkpt>
    <trkpt lat="33.77305" lon="-116.78910"><ele>1540.0</ele></trkpt>
    <trkpt lat="33.77304" lon="-116.78918"><ele>1540.0</ele></trkpt>
    <trkpt lat="33.77302" lon="-116.78926"><ele>1540.0</ele></trkpt>
    <trkpt lat="33.77298" lon="-116.78933"><ele>1534.0</ele></trkpt>
    <trkpt lat="33.77292" lon="-116.78938"><ele>1534.0</ele></trkpt>
    <trkpt lat="33.77288" lon="-116.78940"><ele>1534.0</ele></trkpt>
    <trkpt lat="33.77280" lon="-116.78940"><ele>1534.0</ele></trkpt>
    <trkpt lat="33.77275" lon="-116.78942"><ele>1534.0</ele></trkpt>
    <trkpt lat="33.77271" lon="-116.78947"><ele>1534.0</ele></trkpt>
    <trkpt lat="33.77267" lon="-116.78957"><ele>1522.0</ele></trkpt>
    <trkpt lat="33.77263" lon="-116.78965"><ele>1522.0</ele></trkpt>
    <trkpt lat="33.77257" lon="-116.78970"><ele>1522.0</ele></trkpt>
    <trkpt lat="33.77240" lon="-116.78979"><ele>1522.0</ele></trkpt>
    <trkpt lat="33.77224" lon="-116.78992"><ele>1522.0</ele></trkpt>
    <trkpt lat="33.77216" lon="-116.78996"><ele>1522.0</ele></trkpt>
    <trkpt lat="33.77190" lon="-116.78997"><ele>1490.0</ele></trkpt>
    <trkpt lat="33.77167" lon="-116.78998"><ele>1490.0</ele></trkpt>
    <trkpt lat="33.77155" lon="-116.79001"><ele>1490.0</ele></trkpt>
    <trkpt lat="33.77146" lon="-116.79006"><ele>1490.0</ele></trkpt>
    <trkpt lat="33.77142" lon="-116.79014"><ele>1490.0</ele></trkpt>
    <trkpt lat="33.77141" lon="-116.79027"><ele>1490.0</ele></trkpt>
    <trkpt lat="33.77140" lon="-116.79041"><ele>1490.0</ele></trkpt>
    <trkpt lat="33.77136" lon="-116.79047"><ele>1490.0</ele></trkpt>
    <trkpt lat="33.77129" lon="-116.79065"><ele>1490.0</ele></trkpt>
    <trkpt lat="33.77127" lon="-116.79073"><ele>1490.0</ele></trkpt>
    <trkpt lat="33.77119" lon="-116.79082"><ele>1490.0</ele></trkpt>
    <trkpt lat="33.77111" lon="-116.79093"><ele>1490.0</ele></trkpt>
    <trkpt lat="33.77108" lon="-116.79102"><ele>1489.0</ele></trkpt>
    <trkpt lat="33.77101" lon="-116.79114"><ele>1489.0</ele></trkpt>
    <trkpt lat="33.77092" lon="-116.79122"><ele>1489.0</ele></trkpt>
    <trkpt lat="33.77083" lon="-116.79125"><ele>1489.0</ele></trkpt>
    <trkpt lat="33.77067" lon="-116.79127"><ele>1489.0</ele></trkpt>
    <trkpt lat="33.77041" lon="-116.79129"><ele>1489.0</ele></trkpt>
    <trkpt lat="33.77026" lon="-116.79129"><ele>1474.0</ele></trkpt>
    <trkpt lat="33.77013" lon="-116.79128"><ele>1474.0</ele></trkpt>
    <trkpt lat="33.77005" lon="-116.79123"><ele>1474.0</ele></trkpt>
    <trkpt lat="33.76994" lon="-116.79120"><ele>1474.0</ele></trkpt>
    <trkpt lat="33.76966" lon="-116.79118"><ele>1474.0</ele></trkpt>
    <trkpt lat="33.76944" lon="-116.79117"><ele>1474.0</ele></trkpt>
    <trkpt lat="33.76935" lon="-116.79114"><ele>1474.0</ele></trkpt>
    <trkpt lat="33.76925" lon="-116.79106"><ele>1460.0</ele></trkpt>
    <trkpt lat="33.76916" lon="-116.79097"><ele>1460.0</ele></trkpt>
    <trkpt lat="33.76912" lon="-116.79091"><ele>1460.0</ele></trkpt>
    <trkpt lat="33.76911" lon="-116.79075"><ele>1460.0</ele></trkpt>
    <trkpt lat="33.76910" lon="-116.79066"><ele>1460.0</ele></trkpt>
    <trkpt lat="33.76899" lon="-116.79052"><ele>1460.0</ele></trkpt>
    <trkpt lat="33.76885" lon="-116.79036"><ele>1450.0</ele></trkpt>
    <trkpt lat="33.76878" lon="-116.79031"><ele>1450.0</ele></trkpt>
    <trkpt lat="33.76868" lon="-116.79031"><ele>1450.0</ele></trkpt>
    <trkpt lat="33.76861" lon="-116.79029"><ele>1450.0</ele></trkpt>
    <trkpt lat="33.76851" lon="-116.79021"><ele>1450.0</ele></trkpt>
    <trkpt lat="33.76842" lon="-116.79017"><ele>1450.0</ele></trkpt>
    <trkpt lat="33.76825" lon="-116.79017"><ele>1444.0</ele></trkpt>
    <trkpt lat="33.76813" lon="-116.79017"><ele>1444.0</ele></trkpt>
    <trkpt lat="33.76804" lon="-116.79015"><ele>1444.0</ele></trkpt>
    <trkpt lat="33.76792" lon="-116.79012"><ele>1444.0</ele></trkpt>
    <trkpt lat="33.76781" lon="-116.79006"><ele>1444.0</ele></trkpt>
    <trkpt lat="33.76772" lon="-116.78996"><ele>1444.0</ele></trkpt>
    <trkpt lat="33.76763" lon="-116.78981"><ele>1431.0</ele></trkpt>
    <trkpt lat="33.76752" lon="-116.78963"><ele>1431.0</ele></trkpt>
    <trkpt lat="33.76742" lon="-116.78950"><ele>1431.0</ele></trkpt>
  </trkseg></trk>
</gpx>
