<?xml version="1.0" encoding="UTF-8"?>
<gpx version="1.1" creator="dirt-bikes build-area-routes (MVUM geometry + SRTM elevation)" xmlns="http://www.topografix.com/GPX/1/1">
  <trk><name>Indian Canyon Road</name><trkseg>
    <trkpt lat="33.83868" lon="-116.81019"><ele>1494.0</ele></trkpt>
    <trkpt lat="33.83860" lon="-116.81025"><ele>1494.0</ele></trkpt>
    <trkpt lat="33.83845" lon="-116.81037"><ele>1494.0</ele></trkpt>
    <trkpt lat="33.83831" lon="-116.81053"><ele>1494.0</ele></trkpt>
    <trkpt lat="33.83818" lon="-116.81073"><ele>1494.0</ele></trkpt>
    <trkpt lat="33.83812" lon="-116.81083"><ele>1499.0</ele></trkpt>
    <trkpt lat="33.83803" lon="-116.81103"><ele>1499.0</ele></trkpt>
    <trkpt lat="33.83795" lon="-116.81121"><ele>1499.0</ele></trkpt>
    <trkpt lat="33.83788" lon="-116.81135"><ele>1499.0</ele></trkpt>
    <trkpt lat="33.83791" lon="-116.81186"><ele>1499.0</ele></trkpt>
    <trkpt lat="33.83790" lon="-116.81262"><ele>1499.0</ele></trkpt>
    <trkpt lat="33.83791" lon="-116.81270"><ele>1499.0</ele></trkpt>
    <trkpt lat="33.83794" lon="-116.81278"><ele>1499.0</ele></trkpt>
    <trkpt lat="33.83800" lon="-116.81286"><ele>1499.0</ele></trkpt>
    <trkpt lat="33.83828" lon="-116.81310"><ele>1499.0</ele></trkpt>
    <trkpt lat="33.83835" lon="-116.81318"><ele>1508.0</ele></trkpt>
    <trkpt lat="33.83839" lon="-116.81324"><ele>1508.0</ele></trkpt>
    <trkpt lat="33.83840" lon="-116.81331"><ele>1508.0</ele></trkpt>
    <trkpt lat="33.83841" lon="-116.81339"><ele>1508.0</ele></trkpt>
    <trkpt lat="33.83841" lon="-116.81344"><ele>1508.0</ele></trkpt>
    <trkpt lat="33.84020" lon="-116.81988"><ele>1508.0</ele></trkpt>
    <trkpt lat="33.84020" lon="-116.81990"><ele>1508.0</ele></trkpt>
    <trkpt lat="33.84021" lon="-116.82001"><ele>1508.0</ele></trkpt>
    <trkpt lat="33.84020" lon="-116.82013"><ele>1508.0</ele></trkpt>
    <trkpt lat="33.84016" lon="-116.82032"><ele>1542.0</ele></trkpt>
    <trkpt lat="33.84012" lon="-116.82056"><ele>1542.0</ele></trkpt>
    <trkpt lat="33.84008" lon="-116.82077"><ele>1542.0</ele></trkpt>
    <trkpt lat="33.84007" lon="-116.82087"><ele>1542.0</ele></trkpt>
    <trkpt lat="33.84008" lon="-116.82095"><ele>1542.0</ele></trkpt>
    <trkpt lat="33.84010" lon="-116.82106"><ele>1542.0</ele></trkpt>
    <trkpt lat="33.84013" lon="-116.82116"><ele>1542.0</ele></trkpt>
    <trkpt lat="33.84025" lon="-116.82140"><ele>1542.0</ele></trkpt>
    <trkpt lat="33.84029" lon="-116.82151"><ele>1542.0</ele></trkpt>
    <trkpt lat="33.84031" lon="-116.82159"><ele>1541.0</ele></trkpt>
    <trkpt lat="33.84033" lon="-116.82169"><ele>1541.0</ele></trkpt>
    <trkpt lat="33.84036" lon="-116.82187"><ele>1541.0</ele></trkpt>
    <trkpt lat="33.84039" lon="-116.82198"><ele>1541.0</ele></trkpt>
    <trkpt lat="33.84043" lon="-116.82217"><ele>1541.0</ele></trkpt>
    <trkpt lat="33.84048" lon="-116.82238"><ele>1541.0</ele></trkpt>
    <trkpt lat="33.84052" lon="-116.82251"><ele>1541.0</ele></trkpt>
    <trkpt lat="33.84059" lon="-116.82270"><ele>1541.0</ele></trkpt>
    <trkpt lat="33.84063" lon="-116.82280"><ele>1541.0</ele></trkpt>
    <trkpt lat="33.84064" lon="-116.82288"><ele>1541.0</ele></trkpt>
    <trkpt lat="33.84063" lon="-116.82296"><ele>1530.0</ele></trkpt>
    <trkpt lat="33.84061" lon="-116.82302"><ele>1530.0</ele></trkpt>
    <trkpt lat="33.84056" lon="-116.82308"><ele>1530.0</ele></trkpt>
    <trkpt lat="33.84051" lon="-116.82312"><ele>1530.0</ele></trkpt>
    <trkpt lat="33.84037" lon="-116.82319"><ele>1530.0</ele></trkpt>
    <trkpt lat="33.84022" lon="-116.82326"><ele>1530.0</ele></trkpt>
    <trkpt lat="33.84014" lon="-116.82330"><ele>1530.0</ele></trkpt>
    <trkpt lat="33.84005" lon="-116.82332"><ele>1530.0</ele></trkpt>
    <trkpt lat="33.83997" lon="-116.82333"><ele>1530.0</ele></trkpt>
    <trkpt lat="33.83991" lon="-116.82331"><ele>1529.0</ele></trkpt>
    <trkpt lat="33.83985" lon="-116.82327"><ele>1529.0</ele></trkpt>
    <trkpt lat="33.83980" lon="-116.82321"><ele>1529.0</ele></trkpt>
    <trkpt lat="33.83979" lon="-116.82312"><ele>1529.0</ele></trkpt>
    <trkpt lat="33.83980" lon="-116.82304"><ele>1529.0</ele></trkpt>
    <trkpt lat="33.83983" lon="-116.82296"><ele>1529.0</ele></trkpt>
    <trkpt lat="33.83985" lon="-116.82290"><ele>1529.0</ele></trkpt>
    <trkpt lat="33.83984" lon="-116.82285"><ele>1529.0</ele></trkpt>
    <trkpt lat="33.83979" lon="-116.82281"><ele>1529.0</ele></trkpt>
    <trkpt lat="33.83973" lon="-116.82280"><ele>1529.0</ele></trkpt>
    <trkpt lat="33.83965" lon="-116.82282"><ele>1524.0</ele></trkpt>
    <trkpt lat="33.83943" lon="-116.82288"><ele>1524.0</ele></trkpt>
    <trkpt lat="33.83933" lon="-116.82290"><ele>1524.0</ele></trkpt>
    <trkpt lat="33.83928" lon="-116.82290"><ele>1524.0</ele></trkpt>
    <trkpt lat="33.83923" lon="-116.82287"><ele>1524.0</ele></trkpt>
    <trkpt lat="33.83916" lon="-116.82281"><ele>1524.0</ele></trkpt>
    <trkpt lat="33.83910" lon="-116.82278"><ele>1524.0</ele></trkpt>
    <trkpt lat="33.83906" lon="-116.82277"><ele>1524.0</ele></trkpt>
    <trkpt lat="33.83901" lon="-116.82279"><ele>1524.0</ele></trkpt>
    <trkpt lat="33.83895" lon="-116.82284"><ele>1513.0</ele></trkpt>
    <trkpt lat="33.83888" lon="-116.82292"><ele>1513.0</ele></trkpt>
    <trkpt lat="33.83882" lon="-116.82297"><ele>1513.0</ele></trkpt>
    <trkpt lat="33.83874" lon="-116.82301"><ele>1513.0</ele></trkpt>
    <trkpt lat="33.83866" lon="-116.82304"><ele>1513.0</ele></trkpt>
    <trkpt lat="33.83858" lon="-116.82305"><ele>1513.0</ele></trkpt>
    <trkpt lat="33.83846" lon="-116.82307"><ele>1513.0</ele></trkpt>
    <trkpt lat="33.83835" lon="-116.82307"><ele>1513.0</ele></trkpt>
    <trkpt lat="33.83826" lon="-116.82307"><ele>1513.0</ele></trkpt>
    <trkpt lat="33.83820" lon="-116.82304"><ele>1508.0</ele></trkpt>
    <trkpt lat="33.83813" lon="-116.82297"><ele>1508.0</ele></trkpt>
    <trkpt lat="33.83810" lon="-116.82287"><ele>1508.0</ele></trkpt>
    <trkpt lat="33.83809" lon="-116.82272"><ele>1508.0</ele></trkpt>
    <trkpt lat="33.83810" lon="-116.82254"><ele>1508.0</ele></trkpt>
    <trkpt lat="33.83809" lon="-116.82248"><ele>1508.0</ele></trkpt>
    <trkpt lat="33.83806" lon="-116.82241"><ele>1508.0</ele></trkpt>
    <trkpt lat="33.83796" lon="-116.82227"><ele>1508.0</ele></trkpt>
    <trkpt lat="33.83789" lon="-116.82218"><ele>1508.0</ele></trkpt>
    <trkpt lat="33.83778" lon="-116.82212"><ele>1508.0</ele></trkpt>
    <trkpt lat="33.83759" lon="-116.82205"><ele>1500.0</ele></trkpt>
    <trkpt lat="33.83740" lon="-116.82198"><ele>1500.0</ele></trkpt>
    <trkpt lat="33.83728" lon="-116.82192"><ele>1500.0</ele></trkpt>
    <trkpt lat="33.83722" lon="-116.82189"><ele>1500.0</ele></trkpt>
    <trkpt lat="33.83708" lon="-116.82187"><ele>1500.0</ele></trkpt>
    <trkpt lat="33.83693" lon="-116.82186"><ele>1500.0</ele></trkpt>
    <trkpt lat="33.83685" lon="-116.82186"><ele>1500.0</ele></trkpt>
    <trkpt lat="33.83682" lon="-116.82184"><ele>1500.0</ele></trkpt>
    <trkpt lat="33.83676" lon="-116.82179"><ele>1500.0</ele></trkpt>
    <trkpt lat="33.83668" lon="-116.82172"><ele>1492.0</ele></trkpt>
    <trkpt lat="33.83661" lon="-116.82168"><ele>1492.0</ele></trkpt>
    <trkpt lat="33.83650" lon="-116.82165"><ele>1492.0</ele></trkpt>
    <trkpt lat="33.83642" lon="-116.82165"><ele>1492.0</ele></trkpt>
    <trkpt lat="33.83634" lon="-116.82169"><ele>1492.0</ele></trkpt>
    <trkpt lat="33.83626" lon="-116.82171"><ele>1492.0</ele></trkpt>
    <trkpt lat="33.83616" lon="-116.82174"><ele>1492.0</ele></trkpt>
    <trkpt lat="33.83608" lon="-116.82175"><ele>1492.0</ele></trkpt>
    <trkpt lat="33.83600" lon="-116.82174"><ele>1492.0</ele></trkpt>
    <trkpt lat="33.83591" lon="-116.82172"><ele>1476.0</ele></trkpt>
    <trkpt lat="33.83584" lon="-116.82171"><ele>1476.0</ele></trkpt>
    <trkpt lat="33.83580" lon="-116.82172"><ele>1476.0</ele></trkpt>
    <trkpt lat="33.83578" lon="-116.82177"><ele>1476.0</ele></trkpt>
    <trkpt lat="33.83579" lon="-116.82181"><ele>1476.0</ele></trkpt>
    <trkpt lat="33.83582" lon="-116.82185"><ele>1476.0</ele></trkpt>
    <trkpt lat="33.83588" lon="-116.82185"><ele>1476.0</ele></trkpt>
    <trkpt lat="33.83604" lon="-116.82183"><ele>1476.0</ele></trkpt>
    <trkpt lat="33.83618" lon="-116.82182"><ele>1476.0</ele></trkpt>
    <trkpt lat="33.83630" lon="-116.82181"><ele>1476.0</ele></trkpt>
    <trkpt lat="33.83640" lon="-116.82182"><ele>1489.0</ele></trkpt>
    <trkpt lat="33.83649" lon="-116.82184"><ele>1489.0</ele></trkpt>
    <trkpt lat="33.83657" lon="-116.82187"><ele>1489.0</ele></trkpt>
    <trkpt lat="33.83667" lon="-116.82192"><ele>1489.0</ele></trkpt>
    <trkpt lat="33.83676" lon="-116.82199"><ele>1489.0</ele></trkpt>
    <trkpt lat="33.83682" lon="-116.82202"><ele>1489.0</ele></trkpt>
    <trkpt lat="33.83690" lon="-116.82205"><ele>1489.0</ele></trkpt>
    <trkpt lat="33.83697" lon="-116.82207"><ele>1489.0</ele></trkpt>
    <trkpt lat="33.83704" lon="-116.82211"><ele>1489.0</ele></trkpt>
    <trkpt lat="33.83709" lon="-116.82216"><ele>1487.0</ele></trkpt>
    <trkpt lat="33.83713" lon="-116.82221"><ele>1487.0</ele></trkpt>
    <trkpt lat="33.83716" lon="-116.82226"><ele>1487.0</ele></trkpt>
    <trkpt lat="33.83719" lon="-116.82234"><ele>1487.0</ele></trkpt>
    <trkpt lat="33.83722" lon="-116.82240"><ele>1487.0</ele></trkpt>
    <trkpt lat="33.83727" lon="-116.82249"><ele>1487.0</ele></trkpt>
    <trkpt lat="33.83729" lon="-116.82254"><ele>1487.0</ele></trkpt>
    <trkpt lat="33.83730" lon="-116.82261"><ele>1487.0</ele></trkpt>
    <trkpt lat="33.83733" lon="-116.82268"><ele>1487.0</ele></trkpt>
    <trkpt lat="33.83738" lon="-116.82276"><ele>1480.0</ele></trkpt>
    <trkpt lat="33.83740" lon="-116.82281"><ele>1480.0</ele></trkpt>
    <trkpt lat="33.83741" lon="-116.82285"><ele>1480.0</ele></trkpt>
    <trkpt lat="33.83740" lon="-116.82291"><ele>1480.0</ele></trkpt>
    <trkpt lat="33.83738" lon="-116.82300"><ele>1480.0</ele></trkpt>
    <trkpt lat="33.83735" lon="-116.82310"><ele>1480.0</ele></trkpt>
    <trkpt lat="33.83732" lon="-116.82322"><ele>1480.0</ele></trkpt>
    <trkpt lat="33.83731" lon="-116.82327"><ele>1480.0</ele></trkpt>
    <trkpt lat="33.83732" lon="-116.82334"><ele>1480.0</ele></trkpt>
    <trkpt lat="33.83735" lon="-116.82344"><ele>1480.0</ele></trkpt>
    <trkpt lat="33.83740" lon="-116.82357"><ele>1472.0</ele></trkpt>
    <trkpt lat="33.83745" lon="-116.82366"><ele>1472.0</ele></trkpt>
    <trkpt lat="33.83750" lon="-116.82371"><ele>1472.0</ele></trkpt>
    <trkpt lat="33.83757" lon="-116.82377"><ele>1472.0</ele></trkpt>
    <trkpt lat="33.83765" lon="-116.82386"><ele>1472.0</ele></trkpt>
    <trkpt lat="33.83770" lon="-116.82392"><ele>1472.0</ele></trkpt>
    <trkpt lat="33.83774" lon="-116.82398"><ele>1472.0</ele></trkpt>
    <trkpt lat="33.83780" lon="-116.82404"><ele>1472.0</ele></trkpt>
    <trkpt lat="33.83788" lon="-116.82409"><ele>1472.0</ele></trkpt>
    <trkpt lat="33.83795" lon="-116.82413"><ele>1472.0</ele></trkpt>
    <trkpt lat="33.83801" lon="-116.82418"><ele>1472.0</ele></trkpt>
    <trkpt lat="33.83803" lon="-116.82424"><ele>1472.0</ele></trkpt>
    <trkpt lat="33.83804" lon="-116.82434"><ele>1472.0</ele></trkpt>
    <trkpt lat="33.83803" lon="-116.82445"><ele>1472.0</ele></trkpt>
    <trkpt lat="33.83804" lon="-116.82455"><ele>1472.0</ele></trkpt>
    <trkpt lat="33.83804" lon="-116.82467"><ele>1472.0</ele></trkpt>
    <trkpt lat="33.83803" lon="-116.82474"><ele>1472.0</ele></trkpt>
    <trkpt lat="33.83788" lon="-116.82491"><ele>1472.0</ele></trkpt>
    <trkpt lat="33.83778" lon="-116.82504"><ele>1454.0</ele></trkpt>
    <trkpt lat="33.83770" lon="-116.82515"><ele>1454.0</ele></trkpt>
    <trkpt lat="33.83765" lon="-116.82525"><ele>1454.0</ele></trkpt>
    <trkpt lat="33.83761" lon="-116.82530"><ele>1454.0</ele></trkpt>
    <trkpt lat="33.83758" lon="-116.82532"><ele>1454.0</ele></trkpt>
    <trkpt lat="33.83751" lon="-116.82533"><ele>1454.0</ele></trkpt>
    <trkpt lat="33.83746" lon="-116.82536"><ele>1454.0</ele></trkpt>
    <trkpt lat="33.83739" lon="-116.82540"><ele>1454.0</ele></trkpt>
    <trkpt lat="33.83727" lon="-116.82551"><ele>1454.0</ele></trkpt>
    <trkpt lat="33.83713" lon="-116.82562"><ele>1454.0</ele></trkpt>
    <trkpt lat="33.83709" lon="-116.82565"><ele>1441.0</ele></trkpt>
    <trkpt lat="33.83703" lon="-116.82566"><ele>1441.0</ele></trkpt>
    <trkpt lat="33.83694" lon="-116.82568"><ele>1441.0</ele></trkpt>
    <trkpt lat="33.83685" lon="-116.82573"><ele>1441.0</ele></trkpt>
    <trkpt lat="33.83679" lon="-116.82577"><ele>1441.0</ele></trkpt>
    <trkpt lat="33.83675" lon="-116.82584"><ele>1441.0</ele></trkpt>
    <trkpt lat="33.83673" lon="-116.82594"><ele>1441.0</ele></trkpt>
    <trkpt lat="33.83673" lon="-116.82602"><ele>1441.0</ele></trkpt>
    <trkpt lat="33.83675" lon="-116.82611"><ele>1441.0</ele></trkpt>
    <trkpt lat="33.83680" lon="-116.82617"><ele>1435.0</ele></trkpt>
    <trkpt lat="33.83685" lon="-116.82622"><ele>1435.0</ele></trkpt>
    <trkpt lat="33.83693" lon="-116.82628"><ele>1435.0</ele></trkpt>
    <trkpt lat="33.83699" lon="-116.82633"><ele>1435.0</ele></trkpt>
    <trkpt lat="33.83705" lon="-116.82641"><ele>1435.0</ele></trkpt>
    <trkpt lat="33.83710" lon="-116.82647"><ele>1435.0</ele></trkpt>
    <trkpt lat="33.83714" lon="-116.82650"><ele>1435.0</ele></trkpt>
    <trkpt lat="33.83719" lon="-116.82652"><ele>1435.0</ele></trkpt>
    <trkpt lat="33.83725" lon="-116.82653"><ele>1435.0</ele></trkpt>
    <trkpt lat="33.83734" lon="-116.82653"><ele>1435.0</ele></trkpt>
    <trkpt lat="33.83748" lon="-116.82651"><ele>1442.0</ele></trkpt>
    <trkpt lat="33.83758" lon="-116.82650"><ele>1442.0</ele></trkpt>
    <trkpt lat="33.83768" lon="-116.82648"><ele>1442.0</ele></trkpt>
    <trkpt lat="33.83782" lon="-116.82643"><ele>1442.0</ele></trkpt>
    <trkpt lat="33.83790" lon="-116.82637"><ele>1442.0</ele></trkpt>
    <trkpt lat="33.83796" lon="-116.82630"><ele>1442.0</ele></trkpt>
    <trkpt lat="33.83801" lon="-116.82623"><ele>1442.0</ele></trkpt>
    <trkpt lat="33.83806" lon="-116.82619"><ele>1442.0</ele></trkpt>
    <trkpt lat="33.83811" lon="-116.82617"><ele>1442.0</ele></trkpt>
    <trkpt lat="33.83817" lon="-116.82619"><ele>1443.0</ele></trkpt>
    <trkpt lat="33.83822" lon="-116.82623"><ele>1443.0</ele></trkpt>
    <trkpt lat="33.83824" lon="-116.82627"><ele>1443.0</ele></trkpt>
    <trkpt lat="33.83826" lon="-116.82634"><ele>1443.0</ele></trkpt>
    <trkpt lat="33.83824" lon="-116.82642"><ele>1443.0</ele></trkpt>
    <trkpt lat="33.83804" lon="-116.82698"><ele>1443.0</ele></trkpt>
    <trkpt lat="33.83800" lon="-116.82705"><ele>1443.0</ele></trkpt>
    <trkpt lat="33.83797" lon="-116.82710"><ele>1443.0</ele></trkpt>
    <trkpt lat="33.83793" lon="-116.82713"><ele>1443.0</ele></trkpt>
    <trkpt lat="33.83790" lon="-116.82716"><ele>1423.0</ele></trkpt>
    <trkpt lat="33.83784" lon="-116.82720"><ele>1423.0</ele></trkpt>
    <trkpt lat="33.83779" lon="-116.82726"><ele>1423.0</ele></trkpt>
    <trkpt lat="33.83774" lon="-116.82733"><ele>1423.0</ele></trkpt>
    <trkpt lat="33.83772" lon="-116.82741"><ele>1423.0</ele></trkpt>
    <trkpt lat="33.83771" lon="-116.82750"><ele>1423.0</ele></trkpt>
    <trkpt lat="33.83773" lon="-116.82759"><ele>1423.0</ele></trkpt>
    <trkpt lat="33.83775" lon="-116.82770"><ele>1423.0</ele></trkpt>
    <trkpt lat="33.83777" lon="-116.82780"><ele>1423.0</ele></trkpt>
    <trkpt lat="33.83777" lon="-116.82788"><ele>1423.0</ele></trkpt>
    <trkpt lat="33.83775" lon="-116.82795"><ele>1407.0</ele></trkpt>
    <trkpt lat="33.83770" lon="-116.82806"><ele>1407.0</ele></trkpt>
    <trkpt lat="33.83769" lon="-116.82813"><ele>1407.0</ele></trkpt>
    <trkpt lat="33.83770" lon="-116.82822"><ele>1407.0</ele></trkpt>
    <trkpt lat="33.83773" lon="-116.82841"><ele>1407.0</ele></trkpt>
    <trkpt lat="33.83773" lon="-116.82850"><ele>1407.0</ele></trkpt>
    <trkpt lat="33.83773" lon="-116.82860"><ele>1407.0</ele></trkpt>
    <trkpt lat="33.83771" lon="-116.82866"><ele>1407.0</ele></trkpt>
    <trkpt lat="33.83766" lon="-116.82872"><ele>1407.0</ele></trkpt>
    <trkpt lat="33.83761" lon="-116.82874"><ele>1397.0</ele></trkpt>
    <trkpt lat="33.83753" lon="-116.82875"><ele>1397.0</ele></trkpt>
    <trkpt lat="33.83744" lon="-116.82874"><ele>1397.0</ele></trkpt>
    <trkpt lat="33.83729" lon="-116.82868"><ele>1397.0</ele></trkpt>
    <trkpt lat="33.83714" lon="-116.82863"><ele>1397.0</ele></trkpt>
    <trkpt lat="33.83699" lon="-116.82860"><ele>1397.0</ele></trkpt>
    <trkpt lat="33.83691" lon="-116.82859"><ele>1397.0</ele></trkpt>
    <trkpt lat="33.83686" lon="-116.82861"><ele>1397.0</ele></trkpt>
    <trkpt lat="33.83681" lon="-116.82864"><ele>1397.0</ele></trkpt>
    <trkpt lat="33.83674" lon="-116.82871"><ele>1386.0</ele></trkpt>
    <trkpt lat="33.83671" lon="-116.82878"><ele>1386.0</ele></trkpt>
    <trkpt lat="33.83668" lon="-116.82887"><ele>1386.0</ele></trkpt>
    <trkpt lat="33.83667" lon="-116.82894"><ele>1386.0</ele></trkpt>
    <trkpt lat="33.83669" lon="-116.82901"><ele>1386.0</ele></trkpt>
    <trkpt lat="33.83672" lon="-116.82905"><ele>1386.0</ele></trkpt>
    <trkpt lat="33.83678" lon="-116.82909"><ele>1386.0</ele></trkpt>
    <trkpt lat="33.83685" lon="-116.82912"><ele>1386.0</ele></trkpt>
    <trkpt lat="33.83689" lon="-116.82916"><ele>1386.0</ele></trkpt>
    <trkpt lat="33.83691" lon="-116.82922"><ele>1386.0</ele></trkpt>
    <trkpt lat="33.83692" lon="-116.82928"><ele>1383.0</ele></trkpt>
    <trkpt lat="33.83694" lon="-116.82935"><ele>1383.0</ele></trkpt>
    <trkpt lat="33.83696" lon="-116.82941"><ele>1383.0</ele></trkpt>
    <trkpt lat="33.83701" lon="-116.82945"><ele>1383.0</ele></trkpt>
    <trkpt lat="33.83711" lon="-116.82951"><ele>1383.0</ele></trkpt>
    <trkpt lat="33.83721" lon="-116.82954"><ele>1383.0</ele></trkpt>
    <trkpt lat="33.83729" lon="-116.82954"><ele>1383.0</ele></trkpt>
    <trkpt lat="33.83735" lon="-116.82951"><ele>1383.0</ele></trkpt>
    <trkpt lat="33.83740" lon="-116.82949"><ele>1383.0</ele></trkpt>
    <trkpt lat="33.83745" lon="-116.82950"><ele>1382.0</ele></trkpt>
    <trkpt lat="33.83748" lon="-116.82953"><ele>1382.0</ele></trkpt>
    <trkpt lat="33.83752" lon="-116.82961"><ele>1382.0</ele></trkpt>
    <trkpt lat="33.83758" lon="-116.82967"><ele>1382.0</ele></trkpt>
    <trkpt lat="33.83764" lon="-116.82973"><ele>1382.0</ele></trkpt>
    <trkpt lat="33.83771" lon="-116.82978"><ele>1382.0</ele></trkpt>
    <trkpt lat="33.83778" lon="-116.82981"><ele>1382.0</ele></trkpt>
    <trkpt lat="33.83785" lon="-116.82982"><ele>1382.0</ele></trkpt>
    <trkpt lat="33.83790" lon="-116.82981"><ele>1382.0</ele></trkpt>
    <trkpt lat="33.83796" lon="-116.82976"><ele>1388.0</ele></trkpt>
    <trkpt lat="33.83804" lon="-116.82966"><ele>1388.0</ele></trkpt>
    <trkpt lat="33.83832" lon="-116.82930"><ele>1388.0</ele></trkpt>
    <trkpt lat="33.83839" lon="-116.82924"><ele>1388.0</ele></trkpt>
    <trkpt lat="33.83846" lon="-116.82922"><ele>1388.0</ele></trkpt>
    <trkpt lat="33.83851" lon="-116.82923"><ele>1388.0</ele></trkpt>
    <trkpt lat="33.83855" lon="-116.82928"><ele>1388.0</ele></trkpt>
    <trkpt lat="33.83858" lon="-116.82933"><ele>1388.0</ele></trkpt>
    <trkpt lat="33.83859" lon="-116.82938"><ele>1388.0</ele></trkpt>
    <trkpt lat="33.83859" lon="-116.82945"><ele>1388.0</ele></trkpt>
    <trkpt lat="33.83857" lon="-116.82961"><ele>1381.0</ele></trkpt>
    <trkpt lat="33.83857" lon="-116.82967"><ele>1381.0</ele></trkpt>
    <trkpt lat="33.83859" lon="-116.82973"><ele>1381.0</ele></trkpt>
    <trkpt lat="33.83863" lon="-116.82979"><ele>1381.0</ele></trkpt>
    <trkpt lat="33.83869" lon="-116.82982"><ele>1381.0</ele></trkpt>
    <trkpt lat="33.83874" lon="-116.82983"><ele>1381.0</ele></trkpt>
    <trkpt lat="33.83882" lon="-116.82983"><ele>1381.0</ele></trkpt>
    <trkpt lat="33.83887" lon="-116.82984"><ele>1381.0</ele></trkpt>
    <trkpt lat="33.83891" lon="-116.82988"><ele>1381.0</ele></trkpt>
    <trkpt lat="33.83893" lon="-116.82994"><ele>1376.0</ele></trkpt>
    <trkpt lat="33.83893" lon="-116.82999"><ele>1376.0</ele></trkpt>
    <trkpt lat="33.83891" lon="-116.83007"><ele>1376.0</ele></trkpt>
    <trkpt lat="33.83890" lon="-116.83018"><ele>1376.0</ele></trkpt>
    <trkpt lat="33.83891" lon="-116.83025"><ele>1376.0</ele></trkpt>
    <trkpt lat="33.83894" lon="-116.83032"><ele>1376.0</ele></trkpt>
    <trkpt lat="33.83898" lon="-116.83036"><ele>1376.0</ele></trkpt>
    <trkpt lat="33.83903" lon="-116.83038"><ele>1376.0</ele></trkpt>
    <trkpt lat="33.83908" lon="-116.83039"><ele>1376.0</ele></trkpt>
    <trkpt lat="33.83913" lon="-116.83038"><ele>1376.0</ele></trkpt>
    <trkpt lat="33.83919" lon="-116.83038"><ele>1378.0</ele></trkpt>
    <trkpt lat="33.83924" lon="-116.83040"><ele>1378.0</ele></trkpt>
    <trkpt lat="33.83927" lon="-116.83044"><ele>1378.0</ele></trkpt>
    <trkpt lat="33.83928" lon="-116.83050"><ele>1378.0</ele></trkpt>
    <trkpt lat="33.83929" lon="-116.83065"><ele>1378.0</ele></trkpt>
    <trkpt lat="33.83930" lon="-116.83072"><ele>1378.0</ele></trkpt>
    <trkpt lat="33.83930" lon="-116.83079"><ele>1378.0</ele></trkpt>
    <trkpt lat="33.83930" lon="-116.83086"><ele>1378.0</ele></trkpt>
    <trkpt lat="33.83932" lon="-116.83094"><ele>1378.0</ele></trkpt>
    <trkpt lat="33.83935" lon="-116.83103"><ele>1369.0</ele></trkpt>
    <trkpt lat="33.83936" lon="-116.83111"><ele>1369.0</ele></trkpt>
    <trkpt lat="33.83937" lon="-116.83130"><ele>1369.0</ele></trkpt>
    <trkpt lat="33.83938" lon="-116.83140"><ele>1369.0</ele></trkpt>
    <trkpt lat="33.83938" lon="-116.83151"><ele>1369.0</ele></trkpt>
    <trkpt lat="33.83936" lon="-116.83158"><ele>1369.0</ele></trkpt>
    <trkpt lat="33.83936" lon="-116.83165"><ele>1369.0</ele></trkpt>
    <trkpt lat="33.83937" lon="-116.83173"><ele>1369.0</ele></trkpt>
    <trkpt lat="33.83940" lon="-116.83182"><ele>1369.0</ele></trkpt>
    <trkpt lat="33.83941" lon="-116.83189"><ele>1356.0</ele></trkpt>
    <trkpt lat="33.83939" lon="-116.83196"><ele>1356.0</ele></trkpt>
    <trkpt lat="33.83937" lon="-116.83201"><ele>1356.0</ele></trkpt>
    <trkpt lat="33.83933" lon="-116.83206"><ele>1356.0</ele></trkpt>
    <trkpt lat="33.83927" lon="-116.83211"><ele>1356.0</ele></trkpt>
    <trkpt lat="33.83921" lon="-116.83220"><ele>1356.0</ele></trkpt>
    <trkpt lat="33.83919" lon="-116.83229"><ele>1356.0</ele></trkpt>
    <trkpt lat="33.83919" lon="-116.83238"><ele>1356.0</ele></trkpt>
    <trkpt lat="33.83922" lon="-116.83246"><ele>1356.0</ele></trkpt>
    <trkpt lat="33.83926" lon="-116.83251"><ele>1356.0</ele></trkpt>
    <trkpt lat="33.83932" lon="-116.83256"><ele>1353.0</ele></trkpt>
    <trkpt lat="33.83939" lon="-116.83259"><ele>1353.0</ele></trkpt>
    <trkpt lat="33.83946" lon="-116.83259"><ele>1353.0</ele></trkpt>
    <trkpt lat="33.83952" lon="-116.83258"><ele>1353.0</ele></trkpt>
    <trkpt lat="33.83957" lon="-116.83260"><ele>1353.0</ele></trkpt>
    <trkpt lat="33.83959" lon="-116.83265"><ele>1353.0</ele></trkpt>
    <trkpt lat="33.83959" lon="-116.83271"><ele>1353.0</ele></trkpt>
    <trkpt lat="33.83957" lon="-116.83278"><ele>1353.0</ele></trkpt>
    <trkpt lat="33.83949" lon="-116.83297"><ele>1353.0</ele></trkpt>
    <trkpt lat="33.83942" lon="-116.83311"><ele>1337.0</ele></trkpt>
    <trkpt lat="33.83940" lon="-116.83317"><ele>1337.0</ele></trkpt>
    <trkpt lat="33.83941" lon="-116.83323"><ele>1337.0</ele></trkpt>
    <trkpt lat="33.83944" lon="-116.83330"><ele>1337.0</ele></trkpt>
    <trkpt lat="33.83948" lon="-116.83336"><ele>1337.0</ele></trkpt>
    <trkpt lat="33.83959" lon="-116.83347"><ele>1337.0</ele></trkpt>
    <trkpt lat="33.83964" lon="-116.83355"><ele>1337.0</ele></trkpt>
    <trkpt lat="33.83970" lon="-116.83366"><ele>1337.0</ele></trkpt>
    <trkpt lat="33.83974" lon="-116.83375"><ele>1337.0</ele></trkpt>
    <trkpt lat="33.83975" lon="-116.83383"><ele>1325.0</ele></trkpt>
    <trkpt lat="33.83975" lon="-116.83391"><ele>1325.0</ele></trkpt>
    <trkpt lat="33.83973" lon="-116.83398"><ele>1325.0</ele></trkpt>
    <trkpt lat="33.83968" lon="-116.83412"><ele>1325.0</ele></trkpt>
    <trkpt lat="33.83961" lon="-116.83429"><ele>1325.0</ele></trkpt>
    <trkpt lat="33.83960" lon="-116.83437"><ele>1325.0</ele></trkpt>
    <trkpt lat="33.83963" lon="-116.83444"><ele>1325.0</ele></trkpt>
    <trkpt lat="33.83968" lon="-116.83453"><ele>1325.0</ele></trkpt>
    <trkpt lat="33.83973" lon="-116.83460"><ele>1325.0</ele></trkpt>
    <trkpt lat="33.83978" lon="-116.83462"><ele>1325.0</ele></trkpt>
    <trkpt lat="33.83984" lon="-116.83461"><ele>1325.0</ele></trkpt>
    <trkpt lat="33.83991" lon="-116.83458"><ele>1325.0</ele></trkpt>
    <trkpt lat="33.84003" lon="-116.83452"><ele>1325.0</ele></trkpt>
    <trkpt lat="33.84013" lon="-116.83449"><ele>1325.0</ele></trkpt>
    <trkpt lat="33.84026" lon="-116.83449"><ele>1325.0</ele></trkpt>
    <trkpt lat="33.84042" lon="-116.83450"><ele>1325.0</ele></trkpt>
    <trkpt lat="33.84048" lon="-116.83453"><ele>1325.0</ele></trkpt>
    <trkpt lat="33.84054" lon="-116.83458"><ele>1325.0</ele></trkpt>
    <trkpt lat="33.84059" lon="-116.83468"><ele>1325.0</ele></trkpt>
    <trkpt lat="33.84065" lon="-116.83488"><ele>1317.0</ele></trkpt>
    <trkpt lat="33.84068" lon="-116.83499"><ele>1317.0</ele></trkpt>
    <trkpt lat="33.84069" lon="-116.83507"><ele>1317.0</ele></trkpt>
    <trkpt lat="33.84068" lon="-116.83534"><ele>1317.0</ele></trkpt>
    <trkpt lat="33.84068" lon="-116.83543"><ele>1317.0</ele></trkpt>
    <trkpt lat="33.84070" lon="-116.83556"><ele>1317.0</ele></trkpt>
    <trkpt lat="33.84073" lon="-116.83577"><ele>1317.0</ele></trkpt>
    <trkpt lat="33.84072" lon="-116.83586"><ele>1317.0</ele></trkpt>
    <trkpt lat="33.84068" lon="-116.83596"><ele>1317.0</ele></trkpt>
    <trkpt lat="33.84041" lon="-116.83637"><ele>1308.0</ele></trkpt>
    <trkpt lat="33.84035" lon="-116.83647"><ele>1308.0</ele></trkpt>
    <trkpt lat="33.84031" lon="-116.83657"><ele>1308.0</ele></trkpt>
    <trkpt lat="33.84027" lon="-116.83669"><ele>1308.0</ele></trkpt>
    <trkpt lat="33.84020" lon="-116.83689"><ele>1308.0</ele></trkpt>
    <trkpt lat="33.84015" lon="-116.83711"><ele>1308.0</ele></trkpt>
    <trkpt lat="33.84012" lon="-116.83726"><ele>1308.0</ele></trkpt>
    <trkpt lat="33.84009" lon="-116.83736"><ele>1308.0</ele></trkpt>
    <trkpt lat="33.84004" lon="-116.83743"><ele>1308.0</ele></trkpt>
    <trkpt lat="33.83995" lon="-116.83749"><ele>1308.0</ele></trkpt>
    <trkpt lat="33.83965" lon="-116.83763"><ele>1302.0</ele></trkpt>
    <trkpt lat="33.83957" lon="-116.83767"><ele>1302.0</ele></trkpt>
    <trkpt lat="33.83950" lon="-116.83775"><ele>1302.0</ele></trkpt>
    <trkpt lat="33.83948" lon="-116.83783"><ele>1302.0</ele></trkpt>
    <trkpt lat="33.83948" lon="-116.83794"><ele>1302.0</ele></trkpt>
    <trkpt lat="33.83952" lon="-116.83829"><ele>1302.0</ele></trkpt>
    <trkpt lat="33.83958" lon="-116.83861"><ele>1302.0</ele></trkpt>
    <trkpt lat="33.83959" lon="-116.83871"><ele>1302.0</ele></trkpt>
    <trkpt lat="33.83958" lon="-116.83882"><ele>1302.0</ele></trkpt>
    <trkpt lat="33.83954" lon="-116.83892"><ele>1311.0</ele></trkpt>
    <trkpt lat="33.83946" lon="-116.83902"><ele>1311.0</ele></trkpt>
    <trkpt lat="33.83919" lon="-116.83929"><ele>1311.0</ele></trkpt>
    <trkpt lat="33.83914" lon="-116.83937"><ele>1311.0</ele></trkpt>
    <trkpt lat="33.83910" lon="-116.83950"><ele>1311.0</ele></trkpt>
    <trkpt lat="33.83906" lon="-116.83961"><ele>1311.0</ele></trkpt>
    <trkpt lat="33.83903" lon="-116.83969"><ele>1311.0</ele></trkpt>
    <trkpt lat="33.83897" lon="-116.83975"><ele>1311.0</ele></trkpt>
    <trkpt lat="33.83894" lon="-116.83983"><ele>1311.0</ele></trkpt>
    <trkpt lat="33.83893" lon="-116.83993"><ele>1312.0</ele></trkpt>
    <trkpt lat="33.83893" lon="-116.84015"><ele>1312.0</ele></trkpt>
    <trkpt lat="33.83892" lon="-116.84030"><ele>1312.0</ele></trkpt>
    <trkpt lat="33.83890" lon="-116.84039"><ele>1312.0</ele></trkpt>
    <trkpt lat="33.83886" lon="-116.84049"><ele>1312.0</ele></trkpt>
    <trkpt lat="33.83882" lon="-116.84055"><ele>1312.0</ele></trkpt>
    <trkpt lat="33.83874" lon="-116.84062"><ele>1312.0</ele></trkpt>
    <trkpt lat="33.83868" lon="-116.84067"><ele>1312.0</ele></trkpt>
    <trkpt lat="33.83863" lon="-116.84073"><ele>1312.0</ele></trkpt>
    <trkpt lat="33.83858" lon="-116.84085"><ele>1312.0</ele></trkpt>
    <trkpt lat="33.83847" lon="-116.84108"><ele>1310.0</ele></trkpt>
    <trkpt lat="33.83840" lon="-116.84117"><ele>1310.0</ele></trkpt>
    <trkpt lat="33.83830" lon="-116.84125"><ele>1310.0</ele></trkpt>
    <trkpt lat="33.83787" lon="-116.84157"><ele>1310.0</ele></trkpt>
    <trkpt lat="33.83779" lon="-116.84161"><ele>1310.0</ele></trkpt>
    <trkpt lat="33.83771" lon="-116.84164"><ele>1310.0</ele></trkpt>
    <trkpt lat="33.83763" lon="-116.84166"><ele>1310.0</ele></trkpt>
    <trkpt lat="33.83755" lon="-116.84168"><ele>1310.0</ele></trkpt>
    <trkpt lat="33.83749" lon="-116.84172"><ele>1310.0</ele></trkpt>
    <trkpt lat="33.83741" lon="-116.84177"><ele>1311.0</ele></trkpt>
    <trkpt lat="33.83730" lon="-116.84186"><ele>1311.0</ele></trkpt>
    <trkpt lat="33.83724" lon="-116.84190"><ele>1311.0</ele></trkpt>
    <trkpt lat="33.83717" lon="-116.84192"><ele>1311.0</ele></trkpt>
    <trkpt lat="33.83710" lon="-116.84193"><ele>1311.0</ele></trkpt>
    <trkpt lat="33.83702" lon="-116.84192"><ele>1311.0</ele></trkpt>
    <trkpt lat="33.83691" lon="-116.84189"><ele>1311.0</ele></trkpt>
    <trkpt lat="33.83684" lon="-116.84187"><ele>1311.0</ele></trkpt>
    <trkpt lat="33.83674" lon="-116.84186"><ele>1311.0</ele></trkpt>
    <trkpt lat="33.83666" lon="-116.84187"><ele>1311.0</ele></trkpt>
    <trkpt lat="33.83654" lon="-116.84190"><ele>1305.0</ele></trkpt>
    <trkpt lat="33.83637" lon="-116.84197"><ele>1305.0</ele></trkpt>
    <trkpt lat="33.83627" lon="-116.84202"><ele>1305.0</ele></trkpt>
    <trkpt lat="33.83619" lon="-116.84208"><ele>1305.0</ele></trkpt>
    <trkpt lat="33.83613" lon="-116.84216"><ele>1305.0</ele></trkpt>
    <trkpt lat="33.83611" lon="-116.84223"><ele>1305.0</ele></trkpt>
    <trkpt lat="33.83609" lon="-116.84230"><ele>1305.0</ele></trkpt>
    <trkpt lat="33.83609" lon="-116.84237"><ele>1305.0</ele></trkpt>
    <trkpt lat="33.83611" lon="-116.84245"><ele>1305.0</ele></trkpt>
    <trkpt lat="33.83615" lon="-116.84250"><ele>1309.0</ele></trkpt>
    <trkpt lat="33.83621" lon="-116.84255"><ele>1309.0</ele></trkpt>
    <trkpt lat="33.83628" lon="-116.84259"><ele>1309.0</ele></trkpt>
    <trkpt lat="33.83632" lon="-116.84263"><ele>1309.0</ele></trkpt>
    <trkpt lat="33.83634" lon="-116.84269"><ele>1309.0</ele></trkpt>
    <trkpt lat="33.83632" lon="-116.84282"><ele>1309.0</ele></trkpt>
    <trkpt lat="33.83630" lon="-116.84291"><ele>1309.0</ele></trkpt>
    <trkpt lat="33.83626" lon="-116.84296"><ele>1309.0</ele></trkpt>
    <trkpt lat="33.83620" lon="-116.84299"><ele>1309.0</ele></trkpt>
    <trkpt lat="33.83609" lon="-116.84301"><ele>1304.0</ele></trkpt>
    <trkpt lat="33.83597" lon="-116.84306"><ele>1304.0</ele></trkpt>
    <trkpt lat="33.83586" lon="-116.84312"><ele>1304.0</ele></trkpt>
    <trkpt lat="33.83579" lon="-116.84316"><ele>1304.0</ele></trkpt>
    <trkpt lat="33.83568" lon="-116.84329"><ele>1304.0</ele></trkpt>
    <trkpt lat="33.83563" lon="-116.84335"><ele>1304.0</ele></trkpt>
    <trkpt lat="33.83558" lon="-116.84338"><ele>1304.0</ele></trkpt>
    <trkpt lat="33.83552" lon="-116.84336"><ele>1304.0</ele></trkpt>
    <trkpt lat="33.83545" lon="-116.84330"><ele>1304.0</ele></trkpt>
    <trkpt lat="33.83539" lon="-116.84326"><ele>1304.0</ele></trkpt>
    <trkpt lat="33.83532" lon="-116.84326"><ele>1295.0</ele></trkpt>
    <trkpt lat="33.83521" lon="-116.84327"><ele>1295.0</ele></trkpt>
    <trkpt lat="33.83516" lon="-116.84331"><ele>1295.0</ele></trkpt>
    <trkpt lat="33.83515" lon="-116.84340"><ele>1295.0</ele></trkpt>
    <trkpt lat="33.83514" lon="-116.84348"><ele>1295.0</ele></trkpt>
    <trkpt lat="33.83511" lon="-116.84355"><ele>1295.0</ele></trkpt>
    <trkpt lat="33.83507" lon="-116.84359"><ele>1295.0</ele></trkpt>
    <trkpt lat="33.83497" lon="-116.84362"><ele>1295.0</ele></trkpt>
    <trkpt lat="33.83488" lon="-116.84363"><ele>1295.0</ele></trkpt>
    <trkpt lat="33.83482" lon="-116.84361"><ele>1283.0</ele></trkpt>
    <trkpt lat="33.83475" lon="-116.84362"><ele>1283.0</ele></trkpt>
    <trkpt lat="33.83464" lon="-116.84365"><ele>1283.0</ele></trkpt>
    <trkpt lat="33.83452" lon="-116.84372"><ele>1283.0</ele></trkpt>
    <trkpt lat="33.83438" lon="-116.84383"><ele>1283.0</ele></trkpt>
    <trkpt lat="33.83426" lon="-116.84393"><ele>1283.0</ele></trkpt>
    <trkpt lat="33.83421" lon="-116.84394"><ele>1283.0</ele></trkpt>
    <trkpt lat="33.83411" lon="-116.84393"><ele>1283.0</ele></trkpt>
    <trkpt lat="33.83400" lon="-116.84392"><ele>1283.0</ele></trkpt>
    <trkpt lat="33.83390" lon="-116.84396"><ele>1273.0</ele></trkpt>
    <trkpt lat="33.83383" lon="-116.84403"><ele>1273.0</ele></trkpt>
    <trkpt lat="33.83380" lon="-116.84411"><ele>1273.0</ele></trkpt>
    <trkpt lat="33.83376" lon="-116.84421"><ele>1273.0</ele></trkpt>
    <trkpt lat="33.83375" lon="-116.84434"><ele>1273.0</ele></trkpt>
    <trkpt lat="33.83374" lon="-116.84449"><ele>1273.0</ele></trkpt>
    <trkpt lat="33.83377" lon="-116.84460"><ele>1273.0</ele></trkpt>
    <trkpt lat="33.83383" lon="-116.84468"><ele>1273.0</ele></trkpt>
    <trkpt lat="33.83393" lon="-116.84477"><ele>1273.0</ele></trkpt>
    <trkpt lat="33.83398" lon="-116.84484"><ele>1273.0</ele></trkpt>
    <trkpt lat="33.83400" lon="-116.84491"><ele>1267.0</ele></trkpt>
    <trkpt lat="33.83389" lon="-116.84491"><ele>1267.0</ele></trkpt>
    <trkpt lat="33.83378" lon="-116.84489"><ele>1267.0</ele></trkpt>
    <trkpt lat="33.83366" lon="-116.84478"><ele>1267.0</ele></trkpt>
    <trkpt lat="33.83355" lon="-116.84464"><ele>1267.0</ele></trkpt>
    <trkpt lat="33.83346" lon="-116.84450"><ele>1267.0</ele></trkpt>
    <trkpt lat="33.83340" lon="-116.84439"><ele>1267.0</ele></trkpt>
    <trkpt lat="33.83339" lon="-116.84427"><ele>1267.0</ele></trkpt>
    <trkpt lat="33.83340" lon="-116.84412"><ele>1267.0</ele></trkpt>
    <trkpt lat="33.83344" lon="-116.84391"><ele>1264.0</ele></trkpt>
    <trkpt lat="33.83350" lon="-116.84364"><ele>1264.0</ele></trkpt>
    <trkpt lat="33.83355" lon="-116.84353"><ele>1264.0</ele></trkpt>
    <trkpt lat="33.83369" lon="-116.84338"><ele>1264.0</ele></trkpt>
    <trkpt lat="33.83385" lon="-116.84322"><ele>1264.0</ele></trkpt>
    <trkpt lat="33.83388" lon="-116.84314"><ele>1264.0</ele></trkpt>
    <trkpt lat="33.83390" lon="-116.84275"><ele>1264.0</ele></trkpt>
    <trkpt lat="33.83390" lon="-116.84263"><ele>1264.0</ele></trkpt>
    <trkpt lat="33.83384" lon="-116.84250"><ele>1264.0</ele></trkpt>
    <trkpt lat="33.83360" lon="-116.84217"><ele>1226.0</ele></trkpt>
    <trkpt lat="33.83350" lon="-116.84213"><ele>1226.0</ele></trkpt>
    <trkpt lat="33.83239" lon="-116.84193"><ele>1226.0</ele></trkpt>
    <trkpt lat="33.83232" lon="-116.84193"><ele>1226.0</ele></trkpt>
    <trkpt lat="33.83169" lon="-116.84213"><ele>1226.0</ele></trkpt>
    <trkpt lat="33.83031" lon="-116.84261"><ele>1226.0</ele></trkpt>
    <trkpt lat="33.83019" lon="-116.84265"><ele>1226.0</ele></trkpt>
    <trkpt lat="33.82950" lon="-116.84307"><ele>1226.0</ele></trkpt>
    <trkpt lat="33.82909" lon="-116.84329"><ele>1226.0</ele></trkpt>
    <trkpt lat="33.82888" lon="-116.84342"><ele>1226.0</ele></trkpt>
    <trkpt lat="33.82858" lon="-116.84365"><ele>1203.0</ele></trkpt>
    <trkpt lat="33.82839" lon="-116.84377"><ele>1203.0</ele></trkpt>
    <trkpt lat="33.82824" lon="-116.84382"><ele>1203.0</ele></trkpt>
    <trkpt lat="33.82813" lon="-116.84386"><ele>1203.0</ele></trkpt>
    <trkpt lat="33.82802" lon="-116.84386"><ele>1203.0</ele></trkpt>
    <trkpt lat="33.82791" lon="-116.84383"><ele>1203.0</ele></trkpt>
    <trkpt lat="33.82784" lon="-116.84374"><ele>1203.0</ele></trkpt>
    <trkpt lat="33.82781" lon="-116.84358"><ele>1203.0</ele></trkpt>
    <trkpt lat="33.82776" lon="-116.84348"><ele>1203.0</ele></trkpt>
    <trkpt lat="33.82751" lon="-116.84314"><ele>1192.0</ele></trkpt>
    <trkpt lat="33.82737" lon="-116.84298"><ele>1192.0</ele></trkpt>
    <trkpt lat="33.82729" lon="-116.84291"><ele>1192.0</ele></trkpt>
    <trkpt lat="33.82720" lon="-116.84290"><ele>1192.0</ele></trkpt>
    <trkpt lat="33.82712" lon="-116.84289"><ele>1192.0</ele></trkpt>
    <trkpt lat="33.82703" lon="-116.84289"><ele>1192.0</ele></trkpt>
    <trkpt lat="33.82696" lon="-116.84286"><ele>1192.0</ele></trkpt>
    <trkpt lat="33.82687" lon="-116.84283"><ele>1192.0</ele></trkpt>
    <trkpt lat="33.82677" lon="-116.84283"><ele>1192.0</ele></trkpt>
    <trkpt lat="33.82667" lon="-116.84287"><ele>1180.0</ele></trkpt>
    <trkpt lat="33.82652" lon="-116.84290"><ele>1180.0</ele></trkpt>
    <trkpt lat="33.82636" lon="-116.84295"><ele>1180.0</ele></trkpt>
    <trkpt lat="33.82623" lon="-116.84301"><ele>1180.0</ele></trkpt>
    <trkpt lat="33.82610" lon="-116.84311"><ele>1180.0</ele></trkpt>
    <trkpt lat="33.82604" lon="-116.84315"><ele>1180.0</ele></trkpt>
    <trkpt lat="33.82597" lon="-116.84315"><ele>1180.0</ele></trkpt>
    <trkpt lat="33.82586" lon="-116.84310"><ele>1180.0</ele></trkpt>
    <trkpt lat="33.82572" lon="-116.84300"><ele>1180.0</ele></trkpt>
    <trkpt lat="33.82569" lon="-116.84295"><ele>1180.0</ele></trkpt>
    <trkpt lat="33.82572" lon="-116.84287"><ele>1175.0</ele></trkpt>
    <trkpt lat="33.82578" lon="-116.84281"><ele>1175.0</ele></trkpt>
    <trkpt lat="33.82588" lon="-116.84276"><ele>1175.0</ele></trkpt>
    <trkpt lat="33.82594" lon="-116.84270"><ele>1175.0</ele></trkpt>
    <trkpt lat="33.82597" lon="-116.84259"><ele>1175.0</ele></trkpt>
    <trkpt lat="33.82597" lon="-116.84249"><ele>1175.0</ele></trkpt>
    <trkpt lat="33.82592" lon="-116.84236"><ele>1175.0</ele></trkpt>
    <trkpt lat="33.82586" lon="-116.84227"><ele>1175.0</ele></trkpt>
    <trkpt lat="33.82578" lon="-116.84218"><ele>1175.0</ele></trkpt>
    <trkpt lat="33.82566" lon="-116.84212"><ele>1160.0</ele></trkpt>
    <trkpt lat="33.82542" lon="-116.84204"><ele>1160.0</ele></trkpt>
    <trkpt lat="33.82531" lon="-116.84203"><ele>1160.0</ele></trkpt>
    <trkpt lat="33.82513" lon="-116.84203"><ele>1160.0</ele></trkpt>
    <trkpt lat="33.82495" lon="-116.84200"><ele>1160.0</ele></trkpt>
    <trkpt lat="33.82484" lon="-116.84197"><ele>1160.0</ele></trkpt>
    <trkpt lat="33.82454" lon="-116.84184"><ele>1160.0</ele></trkpt>
    <trkpt lat="33.82443" lon="-116.84178"><ele>1160.0</ele></trkpt>
    <trkpt lat="33.82436" lon="-116.84167"><ele>1160.0</ele></trkpt>
    <trkpt lat="33.82429" lon="-116.84155"><ele>1160.0</ele></trkpt>
    <trkpt lat="33.82426" lon="-116.84142"><ele>1142.0</ele></trkpt>
    <trkpt lat="33.82421" lon="-116.84133"><ele>1142.0</ele></trkpt>
    <trkpt lat="33.82414" lon="-116.84130"><ele>1142.0</ele></trkpt>
    <trkpt lat="33.82407" lon="-116.84132"><ele>1142.0</ele></trkpt>
    <trkpt lat="33.82399" lon="-116.84137"><ele>1142.0</ele></trkpt>
    <trkpt lat="33.82392" lon="-116.84141"><ele>1142.0</ele></trkpt>
    <trkpt lat="33.82385" lon="-116.84142"><ele>1142.0</ele></trkpt>
    <trkpt lat="33.82374" lon="-116.84140"><ele>1142.0</ele></trkpt>
    <trkpt lat="33.82353" lon="-116.84133"><ele>1142.0</ele></trkpt>
    <trkpt lat="33.82342" lon="-116.84131"><ele>1131.0</ele></trkpt>
    <trkpt lat="33.82323" lon="-116.84130"><ele>1131.0</ele></trkpt>
    <trkpt lat="33.82317" lon="-116.84126"><ele>1131.0</ele></trkpt>
    <trkpt lat="33.82312" lon="-116.84118"><ele>1131.0</ele></trkpt>
    <trkpt lat="33.82302" lon="-116.84100"><ele>1131.0</ele></trkpt>
    <trkpt lat="33.82301" lon="-116.84086"><ele>1131.0</ele></trkpt>
    <trkpt lat="33.82299" lon="-116.84058"><ele>1131.0</ele></trkpt>
    <trkpt lat="33.82295" lon="-116.84051"><ele>1131.0</ele></trkpt>
    <trkpt lat="33.82288" lon="-116.84046"><ele>1131.0</ele></trkpt>
    <trkpt lat="33.82279" lon="-116.84044"><ele>1110.0</ele></trkpt>
    <trkpt lat="33.82264" lon="-116.84041"><ele>1110.0</ele></trkpt>
    <trkpt lat="33.82252" lon="-116.84036"><ele>1110.0</ele></trkpt>
    <trkpt lat="33.82246" lon="-116.84027"><ele>1110.0</ele></trkpt>
    <trkpt lat="33.82242" lon="-116.84011"><ele>1110.0</ele></trkpt>
    <trkpt lat="33.82236" lon="-116.84004"><ele>1110.0</ele></trkpt>
    <trkpt lat="33.82226" lon="-116.83999"><ele>1110.0</ele></trkpt>
    <trkpt lat="33.82215" lon="-116.83999"><ele>1110.0</ele></trkpt>
    <trkpt lat="33.82202" lon="-116.84005"><ele>1110.0</ele></trkpt>
    <trkpt lat="33.82186" lon="-116.84013"><ele>1110.0</ele></trkpt>
    <trkpt lat="33.82178" lon="-116.84013"><ele>1102.0</ele></trkpt>
    <trkpt lat="33.82165" lon="-116.84009"><ele>1102.0</ele></trkpt>
    <trkpt lat="33.82158" lon="-116.84009"><ele>1102.0</ele></trkpt>
    <trkpt lat="33.82135" lon="-116.84011"><ele>1102.0</ele></trkpt>
    <trkpt lat="33.82115" lon="-116.84013"><ele>1102.0</ele></trkpt>
    <trkpt lat="33.82091" lon="-116.84021"><ele>1102.0</ele></trkpt>
    <trkpt lat="33.82072" lon="-116.84027"><ele>1102.0</ele></trkpt>
    <trkpt lat="33.82057" lon="-116.84037"><ele>1102.0</ele></trkpt>
    <trkpt lat="33.82040" lon="-116.84044"><ele>1102.0</ele></trkpt>
    <trkpt lat="33.82018" lon="-116.84052"><ele>1096.0</ele></trkpt>
    <trkpt lat="33.81967" lon="-116.84077"><ele>1096.0</ele></trkpt>
    <trkpt lat="33.81928" lon="-116.84096"><ele>1096.0</ele></trkpt>
    <trkpt lat="33.81910" lon="-116.84102"><ele>1096.0</ele></trkpt>
    <trkpt lat="33.81899" lon="-116.84102"><ele>1096.0</ele></trkpt>
    <trkpt lat="33.81888" lon="-116.84099"><ele>1096.0</ele></trkpt>
    <trkpt lat="33.81876" lon="-116.84095"><ele>1096.0</ele></trkpt>
    <trkpt lat="33.81865" lon="-116.84086"><ele>1096.0</ele></trkpt>
    <trkpt lat="33.81858" lon="-116.84076"><ele>1096.0</ele></trkpt>
    <trkpt lat="33.81856" lon="-116.84063"><ele>1089.0</ele></trkpt>
    <trkpt lat="33.81853" lon="-116.84037"><ele>1089.0</ele></trkpt>
    <trkpt lat="33.81849" lon="-116.84024"><ele>1089.0</ele></trkpt>
    <trkpt lat="33.81835" lon="-116.83990"><ele>1089.0</ele></trkpt>
    <trkpt lat="33.81828" lon="-116.83975"><ele>1089.0</ele></trkpt>
    <trkpt lat="33.81820" lon="-116.83966"><ele>1089.0</ele></trkpt>
    <trkpt lat="33.81804" lon="-116.83947"><ele>1089.0</ele></trkpt>
    <trkpt lat="33.81792" lon="-116.83927"><ele>1089.0</ele></trkpt>
    <trkpt lat="33.81785" lon="-116.83908"><ele>1089.0</ele></trkpt>
    <trkpt lat="33.81773" lon="-116.83874"><ele>1089.0</ele></trkpt>
    <trkpt lat="33.81763" lon="-116.83852"><ele>1084.0</ele></trkpt>
    <trkpt lat="33.81755" lon="-116.83838"><ele>1084.0</ele></trkpt>
    <trkpt lat="33.81742" lon="-116.83824"><ele>1084.0</ele></trkpt>
    <trkpt lat="33.81728" lon="-116.83812"><ele>1084.0</ele></trkpt>
    <trkpt lat="33.81719" lon="-116.83798"><ele>1084.0</ele></trkpt>
    <trkpt lat="33.81710" lon="-116.83779"><ele>1084.0</ele></trkpt>
    <trkpt lat="33.81708" lon="-116.83766"><ele>1084.0</ele></trkpt>
    <trkpt lat="33.81710" lon="-116.83752"><ele>1084.0</ele></trkpt>
    <trkpt lat="33.81714" lon="-116.83732"><ele>1084.0</ele></trkpt>
    <trkpt lat="33.81721" lon="-116.83716"><ele>1082.0</ele></trkpt>
    <trkpt lat="33.81733" lon="-116.83702"><ele>1082.0</ele></trkpt>
    <trkpt lat="33.81743" lon="-116.83685"><ele>1082.0</ele></trkpt>
    <trkpt lat="33.81752" lon="-116.83663"><ele>1082.0</ele></trkpt>
    <trkpt lat="33.81760" lon="-116.83645"><ele>1082.0</ele></trkpt>
    <trkpt lat="33.81764" lon="-116.83625"><ele>1082.0</ele></trkpt>
    <trkpt lat="33.81766" lon="-116.83609"><ele>1082.0</ele></trkpt>
    <trkpt lat="33.81764" lon="-116.83595"><ele>1082.0</ele></trkpt>
    <trkpt lat="33.81759" lon="-116.83585"><ele>1082.0</ele></trkpt>
    <trkpt lat="33.81747" lon="-116.83576"><ele>1080.0</ele></trkpt>
    <trkpt lat="33.81731" lon="-116.83571"><ele>1080.0</ele></trkpt>
    <trkpt lat="33.81707" lon="-116.83560"><ele>1080.0</ele></trkpt>
    <trkpt lat="33.81688" lon="-116.83552"><ele>1080.0</ele></trkpt>
    <trkpt lat="33.81669" lon="-116.83546"><ele>1080.0</ele></trkpt>
    <trkpt lat="33.81653" lon="-116.83544"><ele>1080.0</ele></trkpt>
    <trkpt lat="33.81637" lon="-116.83540"><ele>1080.0</ele></trkpt>
    <trkpt lat="33.81624" lon="-116.83534"><ele>1080.0</ele></trkpt>
    <trkpt lat="33.81612" lon="-116.83521"><ele>1080.0</ele></trkpt>
    <trkpt lat="33.81599" lon="-116.83504"><ele>1080.0</ele></trkpt>
    <trkpt lat="33.81587" lon="-116.83491"><ele>1077.0</ele></trkpt>
    <trkpt lat="33.81574" lon="-116.83485"><ele>1077.0</ele></trkpt>
    <trkpt lat="33.81563" lon="-116.83481"><ele>1077.0</ele></trkpt>
    <trkpt lat="33.81555" lon="-116.83473"><ele>1077.0</ele></trkpt>
    <trkpt lat="33.81545" lon="-116.83461"><ele>1077.0</ele></trkpt>
    <trkpt lat="33.81532" lon="-116.83453"><ele>1077.0</ele></trkpt>
    <trkpt lat="33.81517" lon="-116.83440"><ele>1077.0</ele></trkpt>
    <trkpt lat="33.81501" lon="-116.83430"><ele>1077.0</ele></trkpt>
    <trkpt lat="33.81486" lon="-116.83428"><ele>1077.0</ele></trkpt>
    <trkpt lat="33.81471" lon="-116.83426"><ele>1066.0</ele></trkpt>
    <trkpt lat="33.81452" lon="-116.83425"><ele>1066.0</ele></trkpt>
    <trkpt lat="33.81439" lon="-116.83424"><ele>1066.0</ele></trkpt>
    <trkpt lat="33.81432" lon="-116.83421"><ele>1066.0</ele></trkpt>
    <trkpt lat="33.81425" lon="-116.83416"><ele>1066.0</ele></trkpt>
    <trkpt lat="33.81418" lon="-116.83402"><ele>1066.0</ele></trkpt>
    <trkpt lat="33.81410" lon="-116.83386"><ele>1066.0</ele></trkpt>
    <trkpt lat="33.81406" lon="-116.83372"><ele>1066.0</ele></trkpt>
    <trkpt lat="33.81405" lon="-116.83363"><ele>1066.0</ele></trkpt>
    <trkpt lat="33.81407" lon="-116.83355"><ele>1066.0</ele></trkpt>
    <trkpt lat="33.81413" lon="-116.83345"><ele>1073.0</ele></trkpt>
    <trkpt lat="33.81413" lon="-116.83338"><ele>1073.0</ele></trkpt>
    <trkpt lat="33.81409" lon="-116.83319"><ele>1073.0</ele></trkpt>
    <trkpt lat="33.81406" lon="-116.83298"><ele>1073.0</ele></trkpt>
    <trkpt lat="33.81408" lon="-116.83287"><ele>1073.0</ele></trkpt>
    <trkpt lat="33.81410" lon="-116.83276"><ele>1073.0</ele></trkpt>
    <trkpt lat="33.81407" lon="-116.83265"><ele>1073.0</ele></trkpt>
    <trkpt lat="33.81406" lon="-116.83252"><ele>1073.0</ele></trkpt>
    <trkpt lat="33.81409" lon="-116.83241"><ele>1073.0</ele></trkpt>
    <trkpt lat="33.81427" lon="-116.83206"><ele>1077.0</ele></trkpt>
    <trkpt lat="33.81438" lon="-116.83178"><ele>1077.0</ele></trkpt>
    <trkpt lat="33.81444" lon="-116.83171"><ele>1077.0</ele></trkpt>
    <trkpt lat="33.81454" lon="-116.83167"><ele>1077.0</ele></trkpt>
    <trkpt lat="33.81476" lon="-116.83163"><ele>1077.0</ele></trkpt>
    <trkpt lat="33.81484" lon="-116.83157"><ele>1077.0</ele></trkpt>
    <trkpt lat="33.81488" lon="-116.83147"><ele>1077.0</ele></trkpt>
    <trkpt lat="33.81486" lon="-116.83135"><ele>1077.0</ele></trkpt>
    <trkpt lat="33.81478" lon="-116.83117"><ele>1077.0</ele></trkpt>
    <trkpt lat="33.81473" lon="-116.83104"><ele>1076.0</ele></trkpt>
    <trkpt lat="33.81472" lon="-116.83093"><ele>1076.0</ele></trkpt>
    <trkpt lat="33.81477" lon="-116.83081"><ele>1076.0</ele></trkpt>
    <trkpt lat="33.81485" lon="-116.83074"><ele>1076.0</ele></trkpt>
    <trkpt lat="33.81494" lon="-116.83071"><ele>1076.0</ele></trkpt>
    <trkpt lat="33.81499" lon="-116.83064"><ele>1076.0</ele></trkpt>
    <trkpt lat="33.81506" lon="-116.83048"><ele>1076.0</ele></trkpt>
    <trkpt lat="33.81489" lon="-116.83038"><ele>1076.0</ele></trkpt>
    <trkpt lat="33.81479" lon="-116.83033"><ele>1076.0</ele></trkpt>
    <trkpt lat="33.81465" lon="-116.83032"><ele>1076.0</ele></trkpt>
    <trkpt lat="33.81453" lon="-116.83033"><ele>1068.0</ele></trkpt>
    <trkpt lat="33.81446" lon="-116.83039"><ele>1068.0</ele></trkpt>
    <trkpt lat="33.81435" lon="-116.83050"><ele>1068.0</ele></trkpt>
    <trkpt lat="33.81429" lon="-116.83055"><ele>1068.0</ele></trkpt>
    <trkpt lat="33.81423" lon="-116.83057"><ele>1068.0</ele></trkpt>
    <trkpt lat="33.81414" lon="-116.83056"><ele>1068.0</ele></trkpt>
    <trkpt lat="33.81401" lon="-116.83048"><ele>1068.0</ele></trkpt>
    <trkpt lat="33.81375" lon="-116.83034"><ele>1068.0</ele></trkpt>
    <trkpt lat="33.81365" lon="-116.83027"><ele>1068.0</ele></trkpt>
    <trkpt lat="33.81356" lon="-116.83025"><ele>1052.0</ele></trkpt>
    <trkpt lat="33.81343" lon="-116.83023"><ele>1052.0</ele></trkpt>
    <trkpt lat="33.81330" lon="-116.83023"><ele>1052.0</ele></trkpt>
    <trkpt lat="33.81304" lon="-116.83027"><ele>1052.0</ele></trkpt>
    <trkpt lat="33.81280" lon="-116.83028"><ele>1052.0</ele></trkpt>
    <trkpt lat="33.81266" lon="-116.83029"><ele>1052.0</ele></trkpt>
    <trkpt lat="33.81257" lon="-116.83029"><ele>1052.0</ele></trkpt>
    <trkpt lat="33.81244" lon="-116.83027"><ele>1052.0</ele></trkpt>
    <trkpt lat="33.81231" lon="-116.83023"><ele>1052.0</ele></trkpt>
    <trkpt lat="33.81221" lon="-116.83018"><ele>1044.0</ele></trkpt>
    <trkpt lat="33.81216" lon="-116.83010"><ele>1044.0</ele></trkpt>
    <trkpt lat="33.81211" lon="-116.82989"><ele>1044.0</ele></trkpt>
    <trkpt lat="33.81208" lon="-116.82972"><ele>1044.0</ele></trkpt>
    <trkpt lat="33.81206" lon="-116.82947"><ele>1044.0</ele></trkpt>
    <trkpt lat="33.81201" lon="-116.82924"><ele>1044.0</ele></trkpt>
    <trkpt lat="33.81197" lon="-116.82913"><ele>1044.0</ele></trkpt>
    <trkpt lat="33.81188" lon="-116.82904"><ele>1044.0</ele></trkpt>
    <trkpt lat="33.81180" lon="-116.82897"><ele>1044.0</ele></trkpt>
    <trkpt lat="33.81170" lon="-116.82893"><ele>1044.0</ele></trkpt>
    <trkpt lat="33.81159" lon="-116.82893"><ele>1038.0</ele></trkpt>
    <trkpt lat="33.81151" lon="-116.82895"><ele>1038.0</ele></trkpt>
    <trkpt lat="33.81144" lon="-116.82894"><ele>1038.0</ele></trkpt>
    <trkpt lat="33.81137" lon="-116.82893"><ele>1038.0</ele></trkpt>
    <trkpt lat="33.81130" lon="-116.82896"><ele>1038.0</ele></trkpt>
    <trkpt lat="33.81120" lon="-116.82901"><ele>1038.0</ele></trkpt>
    <trkpt lat="33.81110" lon="-116.82903"><ele>1038.0</ele></trkpt>
    <trkpt lat="33.81089" lon="-116.82907"><ele>1038.0</ele></trkpt>
    <trkpt lat="33.81059" lon="-116.82910"><ele>1038.0</ele></trkpt>
    <trkpt lat="33.81042" lon="-116.82913"><ele>1027.0</ele></trkpt>
    <trkpt lat="33.81031" lon="-116.82918"><ele>1027.0</ele></trkpt>
    <trkpt lat="33.81017" lon="-116.82928"><ele>1027.0</ele></trkpt>
    <trkpt lat="33.81008" lon="-116.82932"><ele>1027.0</ele></trkpt>
    <trkpt lat="33.80989" lon="-116.82933"><ele>1027.0</ele></trkpt>
    <trkpt lat="33.80964" lon="-116.82933"><ele>1027.0</ele></trkpt>
    <trkpt lat="33.80951" lon="-116.82935"><ele>1027.0</ele></trkpt>
    <trkpt lat="33.80938" lon="-116.82940"><ele>1027.0</ele></trkpt>
    <trkpt lat="33.80925" lon="-116.82944"><ele>1027.0</ele></trkpt>
    <trkpt lat="33.80911" lon="-116.82949"><ele>1015.0</ele></trkpt>
    <trkpt lat="33.80904" lon="-116.82949"><ele>1015.0</ele></trkpt>
    <trkpt lat="33.80892" lon="-116.82944"><ele>1015.0</ele></trkpt>
    <trkpt lat="33.80885" lon="-116.82953"><ele>1015.0</ele></trkpt>
    <trkpt lat="33.80881" lon="-116.82963"><ele>1015.0</ele></trkpt>
    <trkpt lat="33.80881" lon="-116.82977"><ele>1015.0</ele></trkpt>
    <trkpt lat="33.80885" lon="-116.82995"><ele>1015.0</ele></trkpt>
    <trkpt lat="33.80891" lon="-116.83019"><ele>1015.0</ele></trkpt>
    <trkpt lat="33.80893" lon="-116.83033"><ele>1015.0</ele></trkpt>
    <trkpt lat="33.80891" lon="-116.83046"><ele>1015.0</ele></trkpt>
    <trkpt lat="33.80888" lon="-116.83056"><ele>1004.0</ele></trkpt>
    <trkpt lat="33.80879" lon="-116.83064"><ele>1004.0</ele></trkpt>
    <trkpt lat="33.80867" lon="-116.83076"><ele>1004.0</ele></trkpt>
    <trkpt lat="33.80854" lon="-116.83090"><ele>1004.0</ele></trkpt>
    <trkpt lat="33.80849" lon="-116.83100"><ele>1004.0</ele></trkpt>
    <trkpt lat="33.80846" lon="-116.83109"><ele>1004.0</ele></trkpt>
    <trkpt lat="33.80846" lon="-116.83119"><ele>1004.0</ele></trkpt>
    <trkpt lat="33.80849" lon="-116.83130"><ele>1004.0</ele></trkpt>
    <trkpt lat="33.80855" lon="-116.83138"><ele>1004.0</ele></trkpt>
    <trkpt lat="33.80867" lon="-116.83146"><ele>1007.0</ele></trkpt>
    <trkpt lat="33.80878" lon="-116.83151"><ele>1007.0</ele></trkpt>
    <trkpt lat="33.80883" lon="-116.83160"><ele>1007.0</ele></trkpt>
    <trkpt lat="33.80885" lon="-116.83172"><ele>1007.0</ele></trkpt>
    <trkpt lat="33.80884" lon="-116.83187"><ele>1007.0</ele></trkpt>
    <trkpt lat="33.80877" lon="-116.83199"><ele>1007.0</ele></trkpt>
    <trkpt lat="33.80869" lon="-116.83208"><ele>1007.0</ele></trkpt>
    <trkpt lat="33.80854" lon="-116.83216"><ele>1007.0</ele></trkpt>
    <trkpt lat="33.80836" lon="-116.83225"><ele>1007.0</ele></trkpt>
    <trkpt lat="33.80814" lon="-116.83233"><ele>1001.0</ele></trkpt>
    <trkpt lat="33.80805" lon="-116.83236"><ele>1001.0</ele></trkpt>
    <trkpt lat="33.80794" lon="-116.83235"><ele>1001.0</ele></trkpt>
    <trkpt lat="33.80784" lon="-116.83231"><ele>1001.0</ele></trkpt>
    <trkpt lat="33.80773" lon="-116.83226"><ele>1001.0</ele></trkpt>
    <trkpt lat="33.80766" lon="-116.83228"><ele>1001.0</ele></trkpt>
    <trkpt lat="33.80754" lon="-116.83236"><ele>1001.0</ele></trkpt>
    <trkpt lat="33.80743" lon="-116.83244"><ele>1001.0</ele></trkpt>
    <trkpt lat="33.80735" lon="-116.83253"><ele>1001.0</ele></trkpt>
    <trkpt lat="33.80722" lon="-116.83273"><ele>1001.0</ele></trkpt>
    <trkpt lat="33.80715" lon="-116.83281"><ele>985.0</ele></trkpt>
    <trkpt lat="33.80706" lon="-116.83288"><ele>985.0</ele></trkpt>
    <trkpt lat="33.80693" lon="-116.83294"><ele>985.0</ele></trkpt>
    <trkpt lat="33.80683" lon="-116.83300"><ele>985.0</ele></trkpt>
    <trkpt lat="33.80676" lon="-116.83305"><ele>985.0</ele></trkpt>
    <trkpt lat="33.80649" lon="-116.83335"><ele>985.0</ele></trkpt>
    <trkpt lat="33.80636" lon="-116.83348"><ele>985.0</ele></trkpt>
    <trkpt lat="33.80632" lon="-116.83359"><ele>985.0</ele></trkpt>
    <trkpt lat="33.80631" lon="-116.83371"><ele>985.0</ele></trkpt>
    <trkpt lat="33.80636" lon="-116.83406"><ele>977.0</ele></trkpt>
    <trkpt lat="33.80637" lon="-116.83418"><ele>977.0</ele></trkpt>
    <trkpt lat="33.80637" lon="-116.83444"><ele>977.0</ele></trkpt>
    <trkpt lat="33.80636" lon="-116.83456"><ele>977.0</ele></trkpt>
    <trkpt lat="33.80634" lon="-116.83468"><ele>977.0</ele></trkpt>
    <trkpt lat="33.80634" lon="-116.83478"><ele>977.0</ele></trkpt>
    <trkpt lat="33.80632" lon="-116.83486"><ele>977.0</ele></trkpt>
    <trkpt lat="33.80626" lon="-116.83490"><ele>977.0</ele></trkpt>
    <trkpt lat="33.80602" lon="-116.83501"><ele>977.0</ele></trkpt>
    <trkpt lat="33.80583" lon="-116.83515"><ele>977.0</ele></trkpt>
    <trkpt lat="33.80551" lon="-116.83534"><ele>969.0</ele></trkpt>
    <trkpt lat="33.80541" lon="-116.83540"><ele>969.0</ele></trkpt>
    <trkpt lat="33.80533" lon="-116.83542"><ele>969.0</ele></trkpt>
    <trkpt lat="33.80519" lon="-116.83542"><ele>969.0</ele></trkpt>
    <trkpt lat="33.80496" lon="-116.83541"><ele>969.0</ele></trkpt>
    <trkpt lat="33.80487" lon="-116.83544"><ele>969.0</ele></trkpt>
    <trkpt lat="33.80475" lon="-116.83549"><ele>969.0</ele></trkpt>
    <trkpt lat="33.80466" lon="-116.83552"><ele>969.0</ele></trkpt>
    <trkpt lat="33.80426" lon="-116.83561"><ele>969.0</ele></trkpt>
    <trkpt lat="33.80418" lon="-116.83561"><ele>963.0</ele></trkpt>
    <trkpt lat="33.80407" lon="-116.83557"><ele>963.0</ele></trkpt>
    <trkpt lat="33.80394" lon="-116.83554"><ele>963.0</ele></trkpt>
    <trkpt lat="33.80381" lon="-116.83555"><ele>963.0</ele></trkpt>
    <trkpt lat="33.80371" lon="-116.83563"><ele>963.0</ele></trkpt>
    <trkpt lat="33.80362" lon="-116.83573"><ele>963.0</ele></trkpt>
    <trkpt lat="33.80356" lon="-116.83588"><ele>963.0</ele></trkpt>
    <trkpt lat="33.80351" lon="-116.83595"><ele>963.0</ele></trkpt>
    <trkpt lat="33.80342" lon="-116.83599"><ele>963.0</ele></trkpt>
    <trkpt lat="33.80328" lon="-116.83602"><ele>964.0</ele></trkpt>
    <trkpt lat="33.80314" lon="-116.83603"><ele>964.0</ele></trkpt>
    <trkpt lat="33.80291" lon="-116.83599"><ele>964.0</ele></trkpt>
    <trkpt lat="33.80282" lon="-116.83598"><ele>964.0</ele></trkpt>
    <trkpt lat="33.80279" lon="-116.83609"><ele>964.0</ele></trkpt>
    <trkpt lat="33.80273" lon="-116.83615"><ele>964.0</ele></trkpt>
    <trkpt lat="33.80262" lon="-116.83621"><ele>964.0</ele></trkpt>
    <trkpt lat="33.80249" lon="-116.83629"><ele>964.0</ele></trkpt>
    <trkpt lat="33.80239" lon="-116.83635"><ele>964.0</ele></trkpt>
    <trkpt lat="33.80233" lon="-116.83642"><ele>964.0</ele></trkpt>
    <trkpt lat="33.80227" lon="-116.83648"><ele>958.0</ele></trkpt>
    <trkpt lat="33.80222" lon="-116.83653"><ele>958.0</ele></trkpt>
    <trkpt lat="33.80214" lon="-116.83657"><ele>958.0</ele></trkpt>
    <trkpt lat="33.80203" lon="-116.83658"><ele>958.0</ele></trkpt>
    <trkpt lat="33.80187" lon="-116.83658"><ele>958.0</ele></trkpt>
    <trkpt lat="33.80173" lon="-116.83659"><ele>958.0</ele></trkpt>
    <trkpt lat="33.80163" lon="-116.83659"><ele>958.0</ele></trkpt>
    <trkpt lat="33.80149" lon="-116.83658"><ele>958.0</ele></trkpt>
    <trkpt lat="33.80136" lon="-116.83656"><ele>958.0</ele></trkpt>
    <trkpt lat="33.80127" lon="-116.83657"><ele>953.0</ele></trkpt>
    <trkpt lat="33.80118" lon="-116.83661"><ele>953.0</ele></trkpt>
    <trkpt lat="33.80109" lon="-116.83669"><ele>953.0</ele></trkpt>
    <trkpt lat="33.80101" lon="-116.83672"><ele>953.0</ele></trkpt>
    <trkpt lat="33.80095" lon="-116.83673"><ele>953.0</ele></trkpt>
  </trkseg></trk>
</gpx>
