<?xml version="1.0" encoding="UTF-8"?>
<gpx version="1.1" creator="dirt-bikes build-blm-routes (BLM GTLF geometry + SRTM elevation)" xmlns="http://www.topografix.com/GPX/1/1">
  <trk><name>Jawbone Motorized Singletrack</name>
    <trkseg>
      <trkpt lat="35.25442" lon="-118.14301"><ele>1296.0</ele></trkpt>
      <trkpt lat="35.25423" lon="-118.14364"><ele>1296.0</ele></trkpt>
      <trkpt lat="35.25410" lon="-118.14410"><ele>1307.0</ele></trkpt>
      <trkpt lat="35.25380" lon="-118.14477"><ele>1307.0</ele></trkpt>
      <trkpt lat="35.25393" lon="-118.14494"><ele>1307.0</ele></trkpt>
      <trkpt lat="35.25406" lon="-118.14516"><ele>1308.0</ele></trkpt>
      <trkpt lat="35.25432" lon="-118.14555"><ele>1308.0</ele></trkpt>
      <trkpt lat="35.25453" lon="-118.14590"><ele>1318.0</ele></trkpt>
      <trkpt lat="35.25473" lon="-118.14614"><ele>1318.0</ele></trkpt>
      <trkpt lat="35.25510" lon="-118.14641"><ele>1318.0</ele></trkpt>
      <trkpt lat="35.25544" lon="-118.14663"><ele>1319.0</ele></trkpt>
      <trkpt lat="35.25564" lon="-118.14684"><ele>1319.0</ele></trkpt>
      <trkpt lat="35.25583" lon="-118.14705"><ele>1319.0</ele></trkpt>
      <trkpt lat="35.25597" lon="-118.14719"><ele>1318.0</ele></trkpt>
      <trkpt lat="35.25613" lon="-118.14739"><ele>1318.0</ele></trkpt>
      <trkpt lat="35.25625" lon="-118.14754"><ele>1324.0</ele></trkpt>
      <trkpt lat="35.25650" lon="-118.14766"><ele>1324.0</ele></trkpt>
      <trkpt lat="35.25681" lon="-118.14786"><ele>1324.0</ele></trkpt>
      <trkpt lat="35.25691" lon="-118.14796"><ele>1324.0</ele></trkpt>
      <trkpt lat="35.25704" lon="-118.14826"><ele>1324.0</ele></trkpt>
      <trkpt lat="35.25713" lon="-118.14851"><ele>1324.0</ele></trkpt>
      <trkpt lat="35.25723" lon="-118.14859"><ele>1323.0</ele></trkpt>
      <trkpt lat="35.25742" lon="-118.14864"><ele>1323.0</ele></trkpt>
      <trkpt lat="35.25769" lon="-118.14866"><ele>1323.0</ele></trkpt>
      <trkpt lat="35.25787" lon="-118.14872"><ele>1322.0</ele></trkpt>
      <trkpt lat="35.25797" lon="-118.14879"><ele>1322.0</ele></trkpt>
      <trkpt lat="35.25811" lon="-118.14890"><ele>1321.0</ele></trkpt>
      <trkpt lat="35.25829" lon="-118.14894"><ele>1321.0</ele></trkpt>
      <trkpt lat="35.25840" lon="-118.14898"><ele>1321.0</ele></trkpt>
      <trkpt lat="35.25850" lon="-118.14905"><ele>1317.0</ele></trkpt>
      <trkpt lat="35.25861" lon="-118.14920"><ele>1317.0</ele></trkpt>
      <trkpt lat="35.25871" lon="-118.14927"><ele>1317.0</ele></trkpt>
      <trkpt lat="35.25879" lon="-118.14928"><ele>1314.0</ele></trkpt>
      <trkpt lat="35.25891" lon="-118.14920"><ele>1314.0</ele></trkpt>
      <trkpt lat="35.25921" lon="-118.14898"><ele>1316.0</ele></trkpt>
      <trkpt lat="35.25936" lon="-118.14885"><ele>1316.0</ele></trkpt>
      <trkpt lat="35.25945" lon="-118.14881"><ele>1316.0</ele></trkpt>
      <trkpt lat="35.25956" lon="-118.14881"><ele>1317.0</ele></trkpt>
      <trkpt lat="35.25970" lon="-118.14884"><ele>1317.0</ele></trkpt>
      <trkpt lat="35.25981" lon="-118.14895"><ele>1317.0</ele></trkpt>
      <trkpt lat="35.25994" lon="-118.14914"><ele>1316.0</ele></trkpt>
      <trkpt lat="35.26104" lon="-118.14737"><ele>1316.0</ele></trkpt>
      <trkpt lat="35.26124" lon="-118.14704"><ele>1317.0</ele></trkpt>
      <trkpt lat="35.26134" lon="-118.14691"><ele>1317.0</ele></trkpt>
      <trkpt lat="35.26142" lon="-118.14686"><ele>1317.0</ele></trkpt>
      <trkpt lat="35.26161" lon="-118.14674"><ele>1323.0</ele></trkpt>
      <trkpt lat="35.26180" lon="-118.14665"><ele>1323.0</ele></trkpt>
      <trkpt lat="35.26214" lon="-118.14645"><ele>1323.0</ele></trkpt>
      <trkpt lat="35.26240" lon="-118.14627"><ele>1322.0</ele></trkpt>
      <trkpt lat="35.26261" lon="-118.14618"><ele>1322.0</ele></trkpt>
      <trkpt lat="35.26290" lon="-118.14604"><ele>1322.0</ele></trkpt>
      <trkpt lat="35.26325" lon="-118.14587"><ele>1318.0</ele></trkpt>
      <trkpt lat="35.26343" lon="-118.14580"><ele>1318.0</ele></trkpt>
      <trkpt lat="35.26352" lon="-118.14579"><ele>1317.0</ele></trkpt>
      <trkpt lat="35.26368" lon="-118.14581"><ele>1317.0</ele></trkpt>
      <trkpt lat="35.26378" lon="-118.14582"><ele>1317.0</ele></trkpt>
      <trkpt lat="35.26387" lon="-118.14579"><ele>1316.0</ele></trkpt>
      <trkpt lat="35.26400" lon="-118.14568"><ele>1316.0</ele></trkpt>
      <trkpt lat="35.26413" lon="-118.14550"><ele>1316.0</ele></trkpt>
      <trkpt lat="35.26422" lon="-118.14533"><ele>1318.0</ele></trkpt>
      <trkpt lat="35.26424" lon="-118.14528"><ele>1318.0</ele></trkpt>
      <trkpt lat="35.26433" lon="-118.14518"><ele>1319.0</ele></trkpt>
      <trkpt lat="35.26436" lon="-118.14500"><ele>1319.0</ele></trkpt>
      <trkpt lat="35.26442" lon="-118.14494"><ele>1319.0</ele></trkpt>
      <trkpt lat="35.26459" lon="-118.14484"><ele>1321.0</ele></trkpt>
      <trkpt lat="35.26464" lon="-118.14476"><ele>1321.0</ele></trkpt>
      <trkpt lat="35.26465" lon="-118.14469"><ele>1321.0</ele></trkpt>
      <trkpt lat="35.26475" lon="-118.14462"><ele>1322.0</ele></trkpt>
      <trkpt lat="35.26490" lon="-118.14455"><ele>1322.0</ele></trkpt>
      <trkpt lat="35.26506" lon="-118.14446"><ele>1325.0</ele></trkpt>
      <trkpt lat="35.26516" lon="-118.14437"><ele>1325.0</ele></trkpt>
      <trkpt lat="35.26528" lon="-118.14426"><ele>1325.0</ele></trkpt>
      <trkpt lat="35.26547" lon="-118.14429"><ele>1332.0</ele></trkpt>
      <trkpt lat="35.26575" lon="-118.14437"><ele>1332.0</ele></trkpt>
      <trkpt lat="35.26606" lon="-118.14454"><ele>1332.0</ele></trkpt>
      <trkpt lat="35.26635" lon="-118.14463"><ele>1333.0</ele></trkpt>
      <trkpt lat="35.26635" lon="-118.14463"><ele>1333.0</ele></trkpt>
      <trkpt lat="35.26652" lon="-118.14424"><ele>1333.0</ele></trkpt>
      <trkpt lat="35.26666" lon="-118.14393"><ele>1336.0</ele></trkpt>
      <trkpt lat="35.26672" lon="-118.14385"><ele>1336.0</ele></trkpt>
      <trkpt lat="35.26673" lon="-118.14371"><ele>1335.0</ele></trkpt>
      <trkpt lat="35.26677" lon="-118.14351"><ele>1335.0</ele></trkpt>
      <trkpt lat="35.26682" lon="-118.14322"><ele>1335.0</ele></trkpt>
      <trkpt lat="35.26682" lon="-118.14305"><ele>1333.0</ele></trkpt>
      <trkpt lat="35.26679" lon="-118.14293"><ele>1333.0</ele></trkpt>
      <trkpt lat="35.26673" lon="-118.14282"><ele>1333.0</ele></trkpt>
      <trkpt lat="35.26656" lon="-118.14265"><ele>1333.0</ele></trkpt>
      <trkpt lat="35.26635" lon="-118.14244"><ele>1333.0</ele></trkpt>
      <trkpt lat="35.26626" lon="-118.14226"><ele>1327.0</ele></trkpt>
      <trkpt lat="35.26625" lon="-118.14209"><ele>1327.0</ele></trkpt>
      <trkpt lat="35.26625" lon="-118.14191"><ele>1327.0</ele></trkpt>
      <trkpt lat="35.26625" lon="-118.14191"><ele>1324.0</ele></trkpt>
      <trkpt lat="35.26629" lon="-118.14175"><ele>1324.0</ele></trkpt>
      <trkpt lat="35.26631" lon="-118.14160"><ele>1324.0</ele></trkpt>
      <trkpt lat="35.26648" lon="-118.14136"><ele>1318.0</ele></trkpt>
      <trkpt lat="35.26656" lon="-118.14113"><ele>1318.0</ele></trkpt>
      <trkpt lat="35.26665" lon="-118.14087"><ele>1312.0</ele></trkpt>
      <trkpt lat="35.26672" lon="-118.14074"><ele>1312.0</ele></trkpt>
      <trkpt lat="35.26682" lon="-118.14069"><ele>1312.0</ele></trkpt>
      <trkpt lat="35.26694" lon="-118.14066"><ele>1306.0</ele></trkpt>
      <trkpt lat="35.26702" lon="-118.14064"><ele>1306.0</ele></trkpt>
      <trkpt lat="35.26713" lon="-118.14066"><ele>1306.0</ele></trkpt>
      <trkpt lat="35.26720" lon="-118.14065"><ele>1303.0</ele></trkpt>
      <trkpt lat="35.26735" lon="-118.14056"><ele>1303.0</ele></trkpt>
      <trkpt lat="35.26764" lon="-118.14031"><ele>1292.0</ele></trkpt>
      <trkpt lat="35.26793" lon="-118.14009"><ele>1292.0</ele></trkpt>
      <trkpt lat="35.26808" lon="-118.14003"><ele>1292.0</ele></trkpt>
      <trkpt lat="35.26822" lon="-118.14008"><ele>1287.0</ele></trkpt>
      <trkpt lat="35.26838" lon="-118.14013"><ele>1287.0</ele></trkpt>
      <trkpt lat="35.26851" lon="-118.14011"><ele>1287.0</ele></trkpt>
      <trkpt lat="35.26862" lon="-118.14006"><ele>1284.0</ele></trkpt>
      <trkpt lat="35.26888" lon="-118.13966"><ele>1284.0</ele></trkpt>
      <trkpt lat="35.26895" lon="-118.13946"><ele>1284.0</ele></trkpt>
      <trkpt lat="35.26901" lon="-118.13922"><ele>1281.0</ele></trkpt>
      <trkpt lat="35.26904" lon="-118.13879"><ele>1281.0</ele></trkpt>
      <trkpt lat="35.26904" lon="-118.13850"><ele>1274.0</ele></trkpt>
      <trkpt lat="35.26901" lon="-118.13830"><ele>1274.0</ele></trkpt>
      <trkpt lat="35.26894" lon="-118.13798"><ele>1274.0</ele></trkpt>
      <trkpt lat="35.26888" lon="-118.13764"><ele>1267.0</ele></trkpt>
      <trkpt lat="35.26880" lon="-118.13726"><ele>1267.0</ele></trkpt>
      <trkpt lat="35.26878" lon="-118.13699"><ele>1267.0</ele></trkpt>
      <trkpt lat="35.26873" lon="-118.13666"><ele>1260.0</ele></trkpt>
      <trkpt lat="35.26871" lon="-118.13635"><ele>1260.0</ele></trkpt>
      <trkpt lat="35.26861" lon="-118.13614"><ele>1255.0</ele></trkpt>
      <trkpt lat="35.26854" lon="-118.13601"><ele>1255.0</ele></trkpt>
      <trkpt lat="35.26853" lon="-118.13585"><ele>1255.0</ele></trkpt>
      <trkpt lat="35.26847" lon="-118.13571"><ele>1249.0</ele></trkpt>
      <trkpt lat="35.26839" lon="-118.13536"><ele>1249.0</ele></trkpt>
      <trkpt lat="35.26835" lon="-118.13516"><ele>1249.0</ele></trkpt>
      <trkpt lat="35.26832" lon="-118.13493"><ele>1246.0</ele></trkpt>
      <trkpt lat="35.26826" lon="-118.13472"><ele>1246.0</ele></trkpt>
      <trkpt lat="35.26813" lon="-118.13458"><ele>1247.0</ele></trkpt>
      <trkpt lat="35.26796" lon="-118.13443"><ele>1247.0</ele></trkpt>
      <trkpt lat="35.26785" lon="-118.13426"><ele>1247.0</ele></trkpt>
      <trkpt lat="35.26774" lon="-118.13398"><ele>1242.0</ele></trkpt>
      <trkpt lat="35.26776" lon="-118.13375"><ele>1242.0</ele></trkpt>
      <trkpt lat="35.26774" lon="-118.13347"><ele>1242.0</ele></trkpt>
      <trkpt lat="35.26769" lon="-118.13324"><ele>1236.0</ele></trkpt>
      <trkpt lat="35.26773" lon="-118.13318"><ele>1236.0</ele></trkpt>
      <trkpt lat="35.26784" lon="-118.13320"><ele>1236.0</ele></trkpt>
      <trkpt lat="35.26797" lon="-118.13332"><ele>1238.0</ele></trkpt>
      <trkpt lat="35.26809" lon="-118.13341"><ele>1238.0</ele></trkpt>
      <trkpt lat="35.26785" lon="-118.13426"><ele>1246.0</ele></trkpt>
      <trkpt lat="35.26798" lon="-118.13430"><ele>1246.0</ele></trkpt>
      <trkpt lat="35.26810" lon="-118.13432"><ele>1246.0</ele></trkpt>
      <trkpt lat="35.26815" lon="-118.13430"><ele>1244.0</ele></trkpt>
      <trkpt lat="35.26817" lon="-118.13429"><ele>1244.0</ele></trkpt>
      <trkpt lat="35.26817" lon="-118.13429"><ele>1244.0</ele></trkpt>
      <trkpt lat="35.26817" lon="-118.13420"><ele>1244.0</ele></trkpt>
      <trkpt lat="35.26818" lon="-118.13395"><ele>1244.0</ele></trkpt>
      <trkpt lat="35.26816" lon="-118.13374"><ele>1241.0</ele></trkpt>
      <trkpt lat="35.26814" lon="-118.13362"><ele>1241.0</ele></trkpt>
      <trkpt lat="35.26809" lon="-118.13351"><ele>1241.0</ele></trkpt>
      <trkpt lat="35.26809" lon="-118.13341"><ele>1238.0</ele></trkpt>
      <trkpt lat="35.26802" lon="-118.13320"><ele>1238.0</ele></trkpt>
      <trkpt lat="35.26791" lon="-118.13301"><ele>1238.0</ele></trkpt>
      <trkpt lat="35.26782" lon="-118.13278"><ele>1235.0</ele></trkpt>
      <trkpt lat="35.26775" lon="-118.13254"><ele>1235.0</ele></trkpt>
      <trkpt lat="35.26767" lon="-118.13228"><ele>1230.0</ele></trkpt>
      <trkpt lat="35.26761" lon="-118.13205"><ele>1230.0</ele></trkpt>
      <trkpt lat="35.26754" lon="-118.13191"><ele>1230.0</ele></trkpt>
      <trkpt lat="35.26747" lon="-118.13176"><ele>1227.0</ele></trkpt>
      <trkpt lat="35.26738" lon="-118.13161"><ele>1227.0</ele></trkpt>
      <trkpt lat="35.26734" lon="-118.13141"><ele>1227.0</ele></trkpt>
      <trkpt lat="35.26722" lon="-118.13123"><ele>1227.0</ele></trkpt>
      <trkpt lat="35.26706" lon="-118.13109"><ele>1227.0</ele></trkpt>
      <trkpt lat="35.26699" lon="-118.13097"><ele>1221.0</ele></trkpt>
      <trkpt lat="35.26680" lon="-118.13077"><ele>1221.0</ele></trkpt>
      <trkpt lat="35.26660" lon="-118.13054"><ele>1221.0</ele></trkpt>
      <trkpt lat="35.26657" lon="-118.13042"><ele>1215.0</ele></trkpt>
      <trkpt lat="35.26660" lon="-118.13027"><ele>1215.0</ele></trkpt>
      <trkpt lat="35.26661" lon="-118.13004"><ele>1215.0</ele></trkpt>
      <trkpt lat="35.26657" lon="-118.12987"><ele>1212.0</ele></trkpt>
      <trkpt lat="35.26651" lon="-118.12978"><ele>1212.0</ele></trkpt>
      <trkpt lat="35.26631" lon="-118.12946"><ele>1212.0</ele></trkpt>
      <trkpt lat="35.26613" lon="-118.12927"><ele>1208.0</ele></trkpt>
      <trkpt lat="35.26597" lon="-118.12912"><ele>1208.0</ele></trkpt>
      <trkpt lat="35.26586" lon="-118.12891"><ele>1206.0</ele></trkpt>
      <trkpt lat="35.26581" lon="-118.12872"><ele>1206.0</ele></trkpt>
      <trkpt lat="35.26573" lon="-118.12836"><ele>1206.0</ele></trkpt>
      <trkpt lat="35.26566" lon="-118.12822"><ele>1204.0</ele></trkpt>
      <trkpt lat="35.26561" lon="-118.12812"><ele>1204.0</ele></trkpt>
      <trkpt lat="35.26547" lon="-118.12809"><ele>1204.0</ele></trkpt>
      <trkpt lat="35.26535" lon="-118.12800"><ele>1203.0</ele></trkpt>
      <trkpt lat="35.26531" lon="-118.12790"><ele>1203.0</ele></trkpt>
      <trkpt lat="35.26523" lon="-118.12773"><ele>1198.0</ele></trkpt>
      <trkpt lat="35.26515" lon="-118.12760"><ele>1198.0</ele></trkpt>
      <trkpt lat="35.26515" lon="-118.12760"><ele>1198.0</ele></trkpt>
      <trkpt lat="35.26503" lon="-118.12763"><ele>1197.0</ele></trkpt>
      <trkpt lat="35.26486" lon="-118.12758"><ele>1197.0</ele></trkpt>
      <trkpt lat="35.26474" lon="-118.12751"><ele>1197.0</ele></trkpt>
      <trkpt lat="35.26466" lon="-118.12743"><ele>1197.0</ele></trkpt>
      <trkpt lat="35.26465" lon="-118.12728"><ele>1197.0</ele></trkpt>
      <trkpt lat="35.26468" lon="-118.12711"><ele>1194.0</ele></trkpt>
      <trkpt lat="35.26470" lon="-118.12693"><ele>1194.0</ele></trkpt>
      <trkpt lat="35.26469" lon="-118.12682"><ele>1194.0</ele></trkpt>
      <trkpt lat="35.26460" lon="-118.12674"><ele>1193.0</ele></trkpt>
      <trkpt lat="35.26455" lon="-118.12671"><ele>1193.0</ele></trkpt>
      <trkpt lat="35.26453" lon="-118.12664"><ele>1193.0</ele></trkpt>
      <trkpt lat="35.26453" lon="-118.12664"><ele>1195.0</ele></trkpt>
      <trkpt lat="35.26439" lon="-118.12680"><ele>1195.0</ele></trkpt>
      <trkpt lat="35.26423" lon="-118.12696"><ele>1195.0</ele></trkpt>
      <trkpt lat="35.26398" lon="-118.12725"><ele>1201.0</ele></trkpt>
      <trkpt lat="35.26389" lon="-118.12741"><ele>1201.0</ele></trkpt>
      <trkpt lat="35.26367" lon="-118.12765"><ele>1207.0</ele></trkpt>
      <trkpt lat="35.26347" lon="-118.12772"><ele>1207.0</ele></trkpt>
      <trkpt lat="35.26323" lon="-118.12772"><ele>1207.0</ele></trkpt>
      <trkpt lat="35.26303" lon="-118.12773"><ele>1213.0</ele></trkpt>
      <trkpt lat="35.26288" lon="-118.12790"><ele>1213.0</ele></trkpt>
      <trkpt lat="35.26270" lon="-118.12818"><ele>1213.0</ele></trkpt>
      <trkpt lat="35.26266" lon="-118.12867"><ele>1216.0</ele></trkpt>
      <trkpt lat="35.26259" lon="-118.12894"><ele>1216.0</ele></trkpt>
      <trkpt lat="35.26252" lon="-118.12925"><ele>1218.0</ele></trkpt>
      <trkpt lat="35.26251" lon="-118.12934"><ele>1218.0</ele></trkpt>
      <trkpt lat="35.26255" lon="-118.12950"><ele>1218.0</ele></trkpt>
      <trkpt lat="35.26252" lon="-118.12960"><ele>1223.0</ele></trkpt>
      <trkpt lat="35.26255" lon="-118.12969"><ele>1223.0</ele></trkpt>
      <trkpt lat="35.26250" lon="-118.12980"><ele>1223.0</ele></trkpt>
      <trkpt lat="35.26244" lon="-118.13007"><ele>1226.0</ele></trkpt>
      <trkpt lat="35.26241" lon="-118.13041"><ele>1226.0</ele></trkpt>
      <trkpt lat="35.26241" lon="-118.13061"><ele>1231.0</ele></trkpt>
      <trkpt lat="35.26230" lon="-118.13072"><ele>1231.0</ele></trkpt>
      <trkpt lat="35.26221" lon="-118.13085"><ele>1231.0</ele></trkpt>
      <trkpt lat="35.26202" lon="-118.13099"><ele>1237.0</ele></trkpt>
      <trkpt lat="35.26182" lon="-118.13105"><ele>1237.0</ele></trkpt>
      <trkpt lat="35.26167" lon="-118.13106"><ele>1237.0</ele></trkpt>
      <trkpt lat="35.26159" lon="-118.13112"><ele>1240.0</ele></trkpt>
      <trkpt lat="35.26141" lon="-118.13128"><ele>1240.0</ele></trkpt>
      <trkpt lat="35.26141" lon="-118.13128"><ele>1240.0</ele></trkpt>
      <trkpt lat="35.26126" lon="-118.13124"><ele>1241.0</ele></trkpt>
      <trkpt lat="35.26113" lon="-118.13130"><ele>1241.0</ele></trkpt>
      <trkpt lat="35.26090" lon="-118.13141"><ele>1246.0</ele></trkpt>
      <trkpt lat="35.26065" lon="-118.13145"><ele>1246.0</ele></trkpt>
      <trkpt lat="35.26018" lon="-118.13164"><ele>1246.0</ele></trkpt>
      <trkpt lat="35.25974" lon="-118.13177"><ele>1264.0</ele></trkpt>
      <trkpt lat="35.25932" lon="-118.13187"><ele>1264.0</ele></trkpt>
      <trkpt lat="35.25896" lon="-118.13198"><ele>1264.0</ele></trkpt>
      <trkpt lat="35.25863" lon="-118.13195"><ele>1271.0</ele></trkpt>
      <trkpt lat="35.25831" lon="-118.13193"><ele>1271.0</ele></trkpt>
      <trkpt lat="35.25795" lon="-118.13179"><ele>1281.0</ele></trkpt>
      <trkpt lat="35.25756" lon="-118.13160"><ele>1281.0</ele></trkpt>
    </trkseg>
  </trk>
</gpx>
