<?xml version="1.0" encoding="UTF-8"?>
<gpx version="1.1" creator="dirt-bikes build-area-routes (MVUM geometry + SRTM elevation)" xmlns="http://www.topografix.com/GPX/1/1">
  <trk><name>Kernan Trail</name><trkseg>
    <trkpt lat="32.72458" lon="-116.55915"><ele>1166.0</ele></trkpt>
    <trkpt lat="32.72463" lon="-116.55879"><ele>1166.0</ele></trkpt>
    <trkpt lat="32.72464" lon="-116.55872"><ele>1166.0</ele></trkpt>
    <trkpt lat="32.72488" lon="-116.55855"><ele>1167.0</ele></trkpt>
    <trkpt lat="32.72510" lon="-116.55829"><ele>1167.0</ele></trkpt>
    <trkpt lat="32.72515" lon="-116.55826"><ele>1167.0</ele></trkpt>
    <trkpt lat="32.72534" lon="-116.55824"><ele>1167.0</ele></trkpt>
    <trkpt lat="32.72544" lon="-116.55819"><ele>1163.0</ele></trkpt>
    <trkpt lat="32.72562" lon="-116.55818"><ele>1163.0</ele></trkpt>
    <trkpt lat="32.72569" lon="-116.55806"><ele>1163.0</ele></trkpt>
    <trkpt lat="32.72580" lon="-116.55802"><ele>1163.0</ele></trkpt>
    <trkpt lat="32.72642" lon="-116.55797"><ele>1160.0</ele></trkpt>
    <trkpt lat="32.72651" lon="-116.55784"><ele>1160.0</ele></trkpt>
    <trkpt lat="32.72662" lon="-116.55786"><ele>1160.0</ele></trkpt>
    <trkpt lat="32.72681" lon="-116.55782"><ele>1160.0</ele></trkpt>
    <trkpt lat="32.72690" lon="-116.55774"><ele>1160.0</ele></trkpt>
    <trkpt lat="32.72691" lon="-116.55768"><ele>1162.0</ele></trkpt>
    <trkpt lat="32.72701" lon="-116.55763"><ele>1162.0</ele></trkpt>
    <trkpt lat="32.72703" lon="-116.55757"><ele>1162.0</ele></trkpt>
    <trkpt lat="32.72702" lon="-116.55751"><ele>1162.0</ele></trkpt>
    <trkpt lat="32.72696" lon="-116.55748"><ele>1166.0</ele></trkpt>
    <trkpt lat="32.72649" lon="-116.55742"><ele>1166.0</ele></trkpt>
    <trkpt lat="32.72603" lon="-116.55700"><ele>1166.0</ele></trkpt>
    <trkpt lat="32.72593" lon="-116.55684"><ele>1166.0</ele></trkpt>
    <trkpt lat="32.72575" lon="-116.55682"><ele>1163.0</ele></trkpt>
    <trkpt lat="32.72564" lon="-116.55667"><ele>1163.0</ele></trkpt>
    <trkpt lat="32.72539" lon="-116.55655"><ele>1163.0</ele></trkpt>
    <trkpt lat="32.72528" lon="-116.55636"><ele>1163.0</ele></trkpt>
    <trkpt lat="32.72531" lon="-116.55630"><ele>1158.0</ele></trkpt>
    <trkpt lat="32.72562" lon="-116.55624"><ele>1158.0</ele></trkpt>
    <trkpt lat="32.72566" lon="-116.55621"><ele>1158.0</ele></trkpt>
    <trkpt lat="32.72566" lon="-116.55605"><ele>1158.0</ele></trkpt>
    <trkpt lat="32.72582" lon="-116.55575"><ele>1153.0</ele></trkpt>
    <trkpt lat="32.72578" lon="-116.55562"><ele>1153.0</ele></trkpt>
    <trkpt lat="32.72573" lon="-116.55559"><ele>1153.0</ele></trkpt>
    <trkpt lat="32.72559" lon="-116.55565"><ele>1153.0</ele></trkpt>
    <trkpt lat="32.72547" lon="-116.55552"><ele>1153.0</ele></trkpt>
    <trkpt lat="32.72536" lon="-116.55550"><ele>1146.0</ele></trkpt>
    <trkpt lat="32.72515" lon="-116.55534"><ele>1146.0</ele></trkpt>
    <trkpt lat="32.72484" lon="-116.55530"><ele>1146.0</ele></trkpt>
    <trkpt lat="32.72467" lon="-116.55540"><ele>1146.0</ele></trkpt>
    <trkpt lat="32.72461" lon="-116.55552"><ele>1142.0</ele></trkpt>
    <trkpt lat="32.72442" lon="-116.55574"><ele>1142.0</ele></trkpt>
    <trkpt lat="32.72408" lon="-116.55590"><ele>1142.0</ele></trkpt>
    <trkpt lat="32.72404" lon="-116.55596"><ele>1142.0</ele></trkpt>
    <trkpt lat="32.72402" lon="-116.55610"><ele>1143.0</ele></trkpt>
    <trkpt lat="32.72398" lon="-116.55614"><ele>1143.0</ele></trkpt>
    <trkpt lat="32.72392" lon="-116.55617"><ele>1143.0</ele></trkpt>
    <trkpt lat="32.72382" lon="-116.55614"><ele>1143.0</ele></trkpt>
    <trkpt lat="32.72346" lon="-116.55618"><ele>1141.0</ele></trkpt>
    <trkpt lat="32.72341" lon="-116.55634"><ele>1141.0</ele></trkpt>
    <trkpt lat="32.72337" lon="-116.55638"><ele>1141.0</ele></trkpt>
    <trkpt lat="32.72318" lon="-116.55641"><ele>1141.0</ele></trkpt>
    <trkpt lat="32.72313" lon="-116.55638"><ele>1141.0</ele></trkpt>
    <trkpt lat="32.72312" lon="-116.55632"><ele>1136.0</ele></trkpt>
    <trkpt lat="32.72318" lon="-116.55619"><ele>1136.0</ele></trkpt>
    <trkpt lat="32.72318" lon="-116.55612"><ele>1136.0</ele></trkpt>
    <trkpt lat="32.72314" lon="-116.55610"><ele>1136.0</ele></trkpt>
    <trkpt lat="32.72304" lon="-116.55614"><ele>1132.0</ele></trkpt>
    <trkpt lat="32.72293" lon="-116.55601"><ele>1132.0</ele></trkpt>
    <trkpt lat="32.72273" lon="-116.55590"><ele>1132.0</ele></trkpt>
    <trkpt lat="32.72267" lon="-116.55590"><ele>1132.0</ele></trkpt>
    <trkpt lat="32.72254" lon="-116.55605"><ele>1130.0</ele></trkpt>
    <trkpt lat="32.72236" lon="-116.55607"><ele>1130.0</ele></trkpt>
    <trkpt lat="32.72218" lon="-116.55592"><ele>1130.0</ele></trkpt>
    <trkpt lat="32.72208" lon="-116.55567"><ele>1130.0</ele></trkpt>
    <trkpt lat="32.72198" lon="-116.55558"><ele>1121.0</ele></trkpt>
    <trkpt lat="32.72192" lon="-116.55555"><ele>1121.0</ele></trkpt>
    <trkpt lat="32.72167" lon="-116.55557"><ele>1121.0</ele></trkpt>
    <trkpt lat="32.72129" lon="-116.55540"><ele>1121.0</ele></trkpt>
    <trkpt lat="32.72099" lon="-116.55541"><ele>1115.0</ele></trkpt>
    <trkpt lat="32.72074" lon="-116.55532"><ele>1115.0</ele></trkpt>
    <trkpt lat="32.72052" lon="-116.55543"><ele>1115.0</ele></trkpt>
    <trkpt lat="32.72010" lon="-116.55548"><ele>1115.0</ele></trkpt>
    <trkpt lat="32.72000" lon="-116.55552"><ele>1115.0</ele></trkpt>
    <trkpt lat="32.71983" lon="-116.55550"><ele>1112.0</ele></trkpt>
    <trkpt lat="32.71961" lon="-116.55541"><ele>1112.0</ele></trkpt>
    <trkpt lat="32.71943" lon="-116.55537"><ele>1112.0</ele></trkpt>
    <trkpt lat="32.71935" lon="-116.55548"><ele>1112.0</ele></trkpt>
    <trkpt lat="32.71929" lon="-116.55551"><ele>1113.0</ele></trkpt>
    <trkpt lat="32.71923" lon="-116.55551"><ele>1113.0</ele></trkpt>
    <trkpt lat="32.71913" lon="-116.55544"><ele>1113.0</ele></trkpt>
    <trkpt lat="32.71897" lon="-116.55539"><ele>1113.0</ele></trkpt>
    <trkpt lat="32.71880" lon="-116.55547"><ele>1113.0</ele></trkpt>
    <trkpt lat="32.71875" lon="-116.55543"><ele>1113.0</ele></trkpt>
    <trkpt lat="32.71874" lon="-116.55535"><ele>1113.0</ele></trkpt>
    <trkpt lat="32.71874" lon="-116.55513"><ele>1113.0</ele></trkpt>
    <trkpt lat="32.71865" lon="-116.55505"><ele>1106.0</ele></trkpt>
    <trkpt lat="32.71858" lon="-116.55487"><ele>1106.0</ele></trkpt>
    <trkpt lat="32.71850" lon="-116.55477"><ele>1106.0</ele></trkpt>
    <trkpt lat="32.71845" lon="-116.55460"><ele>1106.0</ele></trkpt>
    <trkpt lat="32.71846" lon="-116.55447"><ele>1098.0</ele></trkpt>
    <trkpt lat="32.71833" lon="-116.55426"><ele>1098.0</ele></trkpt>
    <trkpt lat="32.71834" lon="-116.55412"><ele>1098.0</ele></trkpt>
    <trkpt lat="32.71826" lon="-116.55392"><ele>1098.0</ele></trkpt>
    <trkpt lat="32.71828" lon="-116.55348"><ele>1098.0</ele></trkpt>
    <trkpt lat="32.71824" lon="-116.55343"><ele>1088.0</ele></trkpt>
    <trkpt lat="32.71803" lon="-116.55331"><ele>1088.0</ele></trkpt>
    <trkpt lat="32.71799" lon="-116.55325"><ele>1088.0</ele></trkpt>
    <trkpt lat="32.71798" lon="-116.55317"><ele>1088.0</ele></trkpt>
    <trkpt lat="32.71815" lon="-116.55295"><ele>1082.0</ele></trkpt>
    <trkpt lat="32.71818" lon="-116.55286"><ele>1082.0</ele></trkpt>
    <trkpt lat="32.71840" lon="-116.55279"><ele>1082.0</ele></trkpt>
    <trkpt lat="32.71849" lon="-116.55256"><ele>1082.0</ele></trkpt>
    <trkpt lat="32.71865" lon="-116.55236"><ele>1079.0</ele></trkpt>
    <trkpt lat="32.71871" lon="-116.55223"><ele>1079.0</ele></trkpt>
    <trkpt lat="32.71876" lon="-116.55220"><ele>1079.0</ele></trkpt>
    <trkpt lat="32.71889" lon="-116.55220"><ele>1079.0</ele></trkpt>
    <trkpt lat="32.71911" lon="-116.55211"><ele>1078.0</ele></trkpt>
    <trkpt lat="32.71922" lon="-116.55214"><ele>1078.0</ele></trkpt>
    <trkpt lat="32.71933" lon="-116.55214"><ele>1078.0</ele></trkpt>
    <trkpt lat="32.71944" lon="-116.55219"><ele>1078.0</ele></trkpt>
    <trkpt lat="32.71961" lon="-116.55211"><ele>1078.0</ele></trkpt>
    <trkpt lat="32.72016" lon="-116.55211"><ele>1074.0</ele></trkpt>
    <trkpt lat="32.72031" lon="-116.55202"><ele>1074.0</ele></trkpt>
    <trkpt lat="32.72037" lon="-116.55202"><ele>1074.0</ele></trkpt>
    <trkpt lat="32.72050" lon="-116.55214"><ele>1074.0</ele></trkpt>
    <trkpt lat="32.72056" lon="-116.55214"><ele>1074.0</ele></trkpt>
    <trkpt lat="32.72077" lon="-116.55200"><ele>1074.0</ele></trkpt>
    <trkpt lat="32.72092" lon="-116.55181"><ele>1074.0</ele></trkpt>
    <trkpt lat="32.72111" lon="-116.55175"><ele>1074.0</ele></trkpt>
    <trkpt lat="32.72117" lon="-116.55160"><ele>1060.0</ele></trkpt>
    <trkpt lat="32.72133" lon="-116.55154"><ele>1060.0</ele></trkpt>
    <trkpt lat="32.72148" lon="-116.55155"><ele>1060.0</ele></trkpt>
    <trkpt lat="32.72152" lon="-116.55153"><ele>1060.0</ele></trkpt>
    <trkpt lat="32.72158" lon="-116.55145"><ele>1057.0</ele></trkpt>
    <trkpt lat="32.72155" lon="-116.55141"><ele>1057.0</ele></trkpt>
    <trkpt lat="32.72145" lon="-116.55140"><ele>1057.0</ele></trkpt>
    <trkpt lat="32.72144" lon="-116.55134"><ele>1057.0</ele></trkpt>
    <trkpt lat="32.72145" lon="-116.55128"><ele>1049.0</ele></trkpt>
    <trkpt lat="32.72150" lon="-116.55124"><ele>1049.0</ele></trkpt>
    <trkpt lat="32.72180" lon="-116.55117"><ele>1049.0</ele></trkpt>
    <trkpt lat="32.72215" lon="-116.55092"><ele>1049.0</ele></trkpt>
    <trkpt lat="32.72235" lon="-116.55088"><ele>1049.0</ele></trkpt>
    <trkpt lat="32.72247" lon="-116.55081"><ele>1033.0</ele></trkpt>
    <trkpt lat="32.72262" lon="-116.55066"><ele>1033.0</ele></trkpt>
    <trkpt lat="32.72282" lon="-116.55072"><ele>1033.0</ele></trkpt>
    <trkpt lat="32.72292" lon="-116.55069"><ele>1033.0</ele></trkpt>
    <trkpt lat="32.72315" lon="-116.55046"><ele>1026.0</ele></trkpt>
    <trkpt lat="32.72341" lon="-116.55040"><ele>1026.0</ele></trkpt>
    <trkpt lat="32.72352" lon="-116.55033"><ele>1026.0</ele></trkpt>
    <trkpt lat="32.72371" lon="-116.55031"><ele>1026.0</ele></trkpt>
    <trkpt lat="32.72419" lon="-116.55038"><ele>1029.0</ele></trkpt>
    <trkpt lat="32.72458" lon="-116.55056"><ele>1029.0</ele></trkpt>
    <trkpt lat="32.72487" lon="-116.55061"><ele>1029.0</ele></trkpt>
    <trkpt lat="32.72525" lon="-116.55079"><ele>1029.0</ele></trkpt>
    <trkpt lat="32.72537" lon="-116.55079"><ele>1028.0</ele></trkpt>
    <trkpt lat="32.72545" lon="-116.55075"><ele>1028.0</ele></trkpt>
    <trkpt lat="32.72550" lon="-116.55066"><ele>1028.0</ele></trkpt>
    <trkpt lat="32.72548" lon="-116.55061"><ele>1028.0</ele></trkpt>
    <trkpt lat="32.72539" lon="-116.55046"><ele>1014.0</ele></trkpt>
    <trkpt lat="32.72538" lon="-116.55022"><ele>1014.0</ele></trkpt>
    <trkpt lat="32.72529" lon="-116.55000"><ele>1014.0</ele></trkpt>
    <trkpt lat="32.72527" lon="-116.54987"><ele>1014.0</ele></trkpt>
    <trkpt lat="32.72516" lon="-116.54968"><ele>1014.0</ele></trkpt>
    <trkpt lat="32.72504" lon="-116.54961"><ele>1010.0</ele></trkpt>
    <trkpt lat="32.72468" lon="-116.54949"><ele>1010.0</ele></trkpt>
    <trkpt lat="32.72454" lon="-116.54940"><ele>1010.0</ele></trkpt>
    <trkpt lat="32.72436" lon="-116.54920"><ele>1010.0</ele></trkpt>
    <trkpt lat="32.72434" lon="-116.54913"><ele>1004.0</ele></trkpt>
    <trkpt lat="32.72440" lon="-116.54889"><ele>1004.0</ele></trkpt>
    <trkpt lat="32.72439" lon="-116.54853"><ele>1004.0</ele></trkpt>
    <trkpt lat="32.72444" lon="-116.54840"><ele>1004.0</ele></trkpt>
    <trkpt lat="32.72482" lon="-116.54800"><ele>1000.0</ele></trkpt>
    <trkpt lat="32.72492" lon="-116.54779"><ele>1000.0</ele></trkpt>
    <trkpt lat="32.72505" lon="-116.54764"><ele>1000.0</ele></trkpt>
    <trkpt lat="32.72520" lon="-116.54720"><ele>1000.0</ele></trkpt>
    <trkpt lat="32.72521" lon="-116.54693"><ele>984.0</ele></trkpt>
    <trkpt lat="32.72550" lon="-116.54644"><ele>984.0</ele></trkpt>
    <trkpt lat="32.72588" lon="-116.54613"><ele>984.0</ele></trkpt>
    <trkpt lat="32.72608" lon="-116.54601"><ele>984.0</ele></trkpt>
    <trkpt lat="32.72614" lon="-116.54590"><ele>984.0</ele></trkpt>
    <trkpt lat="32.72623" lon="-116.54562"><ele>976.0</ele></trkpt>
    <trkpt lat="32.72646" lon="-116.54526"><ele>976.0</ele></trkpt>
    <trkpt lat="32.72668" lon="-116.54518"><ele>976.0</ele></trkpt>
    <trkpt lat="32.72687" lon="-116.54502"><ele>976.0</ele></trkpt>
    <trkpt lat="32.72694" lon="-116.54482"><ele>967.0</ele></trkpt>
    <trkpt lat="32.72709" lon="-116.54460"><ele>967.0</ele></trkpt>
    <trkpt lat="32.72713" lon="-116.54446"><ele>967.0</ele></trkpt>
    <trkpt lat="32.72710" lon="-116.54432"><ele>967.0</ele></trkpt>
    <trkpt lat="32.72726" lon="-116.54414"><ele>963.0</ele></trkpt>
    <trkpt lat="32.72733" lon="-116.54379"><ele>963.0</ele></trkpt>
    <trkpt lat="32.72764" lon="-116.54344"><ele>963.0</ele></trkpt>
    <trkpt lat="32.72793" lon="-116.54288"><ele>963.0</ele></trkpt>
    <trkpt lat="32.72802" lon="-116.54244"><ele>957.0</ele></trkpt>
    <trkpt lat="32.72797" lon="-116.54208"><ele>957.0</ele></trkpt>
    <trkpt lat="32.72801" lon="-116.54172"><ele>957.0</ele></trkpt>
    <trkpt lat="32.72798" lon="-116.54144"><ele>957.0</ele></trkpt>
    <trkpt lat="32.72786" lon="-116.54121"><ele>947.0</ele></trkpt>
    <trkpt lat="32.72786" lon="-116.54100"><ele>947.0</ele></trkpt>
    <trkpt lat="32.72820" lon="-116.53988"><ele>947.0</ele></trkpt>
    <trkpt lat="32.72828" lon="-116.53983"><ele>947.0</ele></trkpt>
    <trkpt lat="32.72834" lon="-116.53980"><ele>947.0</ele></trkpt>
    <trkpt lat="32.72853" lon="-116.53986"><ele>945.0</ele></trkpt>
    <trkpt lat="32.72896" lon="-116.54031"><ele>945.0</ele></trkpt>
    <trkpt lat="32.72907" lon="-116.54046"><ele>945.0</ele></trkpt>
    <trkpt lat="32.72915" lon="-116.54050"><ele>945.0</ele></trkpt>
    <trkpt lat="32.72957" lon="-116.54011"><ele>946.0</ele></trkpt>
    <trkpt lat="32.72972" lon="-116.53988"><ele>946.0</ele></trkpt>
    <trkpt lat="32.73015" lon="-116.53943"><ele>946.0</ele></trkpt>
    <trkpt lat="32.73027" lon="-116.53921"><ele>946.0</ele></trkpt>
    <trkpt lat="32.73037" lon="-116.53885"><ele>963.0</ele></trkpt>
    <trkpt lat="32.73067" lon="-116.53853"><ele>963.0</ele></trkpt>
    <trkpt lat="32.73071" lon="-116.53852"><ele>963.0</ele></trkpt>
    <trkpt lat="32.73085" lon="-116.53858"><ele>963.0</ele></trkpt>
    <trkpt lat="32.73108" lon="-116.53882"><ele>971.0</ele></trkpt>
    <trkpt lat="32.73113" lon="-116.53898"><ele>971.0</ele></trkpt>
    <trkpt lat="32.73128" lon="-116.53914"><ele>971.0</ele></trkpt>
    <trkpt lat="32.73131" lon="-116.53929"><ele>971.0</ele></trkpt>
    <trkpt lat="32.73136" lon="-116.53937"><ele>974.0</ele></trkpt>
    <trkpt lat="32.73162" lon="-116.53955"><ele>974.0</ele></trkpt>
    <trkpt lat="32.73187" lon="-116.53963"><ele>974.0</ele></trkpt>
    <trkpt lat="32.73199" lon="-116.53964"><ele>974.0</ele></trkpt>
    <trkpt lat="32.73233" lon="-116.53958"><ele>974.0</ele></trkpt>
    <trkpt lat="32.73274" lon="-116.53932"><ele>989.0</ele></trkpt>
    <trkpt lat="32.73312" lon="-116.53923"><ele>989.0</ele></trkpt>
    <trkpt lat="32.73320" lon="-116.53914"><ele>989.0</ele></trkpt>
    <trkpt lat="32.73320" lon="-116.53887"><ele>989.0</ele></trkpt>
    <trkpt lat="32.73327" lon="-116.53853"><ele>997.0</ele></trkpt>
    <trkpt lat="32.73331" lon="-116.53809"><ele>997.0</ele></trkpt>
    <trkpt lat="32.73337" lon="-116.53793"><ele>997.0</ele></trkpt>
    <trkpt lat="32.73344" lon="-116.53730"><ele>997.0</ele></trkpt>
    <trkpt lat="32.73351" lon="-116.53713"><ele>1004.0</ele></trkpt>
    <trkpt lat="32.73357" lon="-116.53669"><ele>1004.0</ele></trkpt>
    <trkpt lat="32.73367" lon="-116.53661"><ele>1004.0</ele></trkpt>
    <trkpt lat="32.73395" lon="-116.53665"><ele>1004.0</ele></trkpt>
    <trkpt lat="32.73413" lon="-116.53656"><ele>1018.0</ele></trkpt>
    <trkpt lat="32.73419" lon="-116.53644"><ele>1018.0</ele></trkpt>
    <trkpt lat="32.73424" lon="-116.53584"><ele>1018.0</ele></trkpt>
    <trkpt lat="32.73433" lon="-116.53569"><ele>1018.0</ele></trkpt>
    <trkpt lat="32.73451" lon="-116.53567"><ele>1018.0</ele></trkpt>
    <trkpt lat="32.73470" lon="-116.53551"><ele>1033.0</ele></trkpt>
    <trkpt lat="32.73480" lon="-116.53556"><ele>1033.0</ele></trkpt>
    <trkpt lat="32.73494" lon="-116.53554"><ele>1033.0</ele></trkpt>
    <trkpt lat="32.73516" lon="-116.53573"><ele>1033.0</ele></trkpt>
    <trkpt lat="32.73526" lon="-116.53574"><ele>1043.0</ele></trkpt>
    <trkpt lat="32.73529" lon="-116.53568"><ele>1043.0</ele></trkpt>
    <trkpt lat="32.73525" lon="-116.53530"><ele>1043.0</ele></trkpt>
    <trkpt lat="32.73551" lon="-116.53542"><ele>1043.0</ele></trkpt>
    <trkpt lat="32.73567" lon="-116.53535"><ele>1063.0</ele></trkpt>
    <trkpt lat="32.73572" lon="-116.53536"><ele>1063.0</ele></trkpt>
    <trkpt lat="32.73588" lon="-116.53567"><ele>1063.0</ele></trkpt>
    <trkpt lat="32.73614" lon="-116.53595"><ele>1063.0</ele></trkpt>
    <trkpt lat="32.73618" lon="-116.53596"><ele>1065.0</ele></trkpt>
    <trkpt lat="32.73625" lon="-116.53590"><ele>1065.0</ele></trkpt>
    <trkpt lat="32.73624" lon="-116.53586"><ele>1065.0</ele></trkpt>
    <trkpt lat="32.73616" lon="-116.53570"><ele>1065.0</ele></trkpt>
    <trkpt lat="32.73605" lon="-116.53563"><ele>1071.0</ele></trkpt>
    <trkpt lat="32.73604" lon="-116.53558"><ele>1071.0</ele></trkpt>
    <trkpt lat="32.73610" lon="-116.53551"><ele>1071.0</ele></trkpt>
    <trkpt lat="32.73622" lon="-116.53555"><ele>1071.0</ele></trkpt>
    <trkpt lat="32.73653" lon="-116.53581"><ele>1071.0</ele></trkpt>
    <trkpt lat="32.73677" lon="-116.53591"><ele>1080.0</ele></trkpt>
    <trkpt lat="32.73685" lon="-116.53605"><ele>1080.0</ele></trkpt>
    <trkpt lat="32.73695" lon="-116.53616"><ele>1080.0</ele></trkpt>
    <trkpt lat="32.73725" lon="-116.53640"><ele>1080.0</ele></trkpt>
    <trkpt lat="32.73741" lon="-116.53637"><ele>1094.0</ele></trkpt>
    <trkpt lat="32.73757" lon="-116.53640"><ele>1094.0</ele></trkpt>
    <trkpt lat="32.73769" lon="-116.53671"><ele>1094.0</ele></trkpt>
    <trkpt lat="32.73780" lon="-116.53683"><ele>1094.0</ele></trkpt>
    <trkpt lat="32.73799" lon="-116.53694"><ele>1092.0</ele></trkpt>
    <trkpt lat="32.73827" lon="-116.53695"><ele>1092.0</ele></trkpt>
    <trkpt lat="32.73856" lon="-116.53679"><ele>1092.0</ele></trkpt>
    <trkpt lat="32.73864" lon="-116.53678"><ele>1092.0</ele></trkpt>
    <trkpt lat="32.73884" lon="-116.53707"><ele>1094.0</ele></trkpt>
    <trkpt lat="32.73900" lon="-116.53719"><ele>1094.0</ele></trkpt>
    <trkpt lat="32.73917" lon="-116.53723"><ele>1094.0</ele></trkpt>
    <trkpt lat="32.73928" lon="-116.53719"><ele>1094.0</ele></trkpt>
    <trkpt lat="32.73945" lon="-116.53704"><ele>1116.0</ele></trkpt>
    <trkpt lat="32.73963" lon="-116.53708"><ele>1116.0</ele></trkpt>
    <trkpt lat="32.73979" lon="-116.53706"><ele>1116.0</ele></trkpt>
    <trkpt lat="32.73984" lon="-116.53708"><ele>1116.0</ele></trkpt>
    <trkpt lat="32.73991" lon="-116.53725"><ele>1116.0</ele></trkpt>
    <trkpt lat="32.74001" lon="-116.53739"><ele>1110.0</ele></trkpt>
    <trkpt lat="32.74049" lon="-116.53799"><ele>1110.0</ele></trkpt>
    <trkpt lat="32.74061" lon="-116.53808"><ele>1110.0</ele></trkpt>
    <trkpt lat="32.74078" lon="-116.53811"><ele>1110.0</ele></trkpt>
    <trkpt lat="32.74091" lon="-116.53806"><ele>1117.0</ele></trkpt>
    <trkpt lat="32.74098" lon="-116.53795"><ele>1117.0</ele></trkpt>
    <trkpt lat="32.74095" lon="-116.53768"><ele>1117.0</ele></trkpt>
    <trkpt lat="32.74080" lon="-116.53734"><ele>1117.0</ele></trkpt>
    <trkpt lat="32.74085" lon="-116.53714"><ele>1142.0</ele></trkpt>
    <trkpt lat="32.74099" lon="-116.53694"><ele>1142.0</ele></trkpt>
    <trkpt lat="32.74096" lon="-116.53672"><ele>1142.0</ele></trkpt>
    <trkpt lat="32.74082" lon="-116.53659"><ele>1142.0</ele></trkpt>
    <trkpt lat="32.74074" lon="-116.53661"><ele>1146.0</ele></trkpt>
    <trkpt lat="32.74060" lon="-116.53658"><ele>1146.0</ele></trkpt>
    <trkpt lat="32.74023" lon="-116.53631"><ele>1146.0</ele></trkpt>
    <trkpt lat="32.74005" lon="-116.53621"><ele>1146.0</ele></trkpt>
    <trkpt lat="32.73991" lon="-116.53609"><ele>1146.0</ele></trkpt>
    <trkpt lat="32.73961" lon="-116.53593"><ele>1156.0</ele></trkpt>
    <trkpt lat="32.73951" lon="-116.53582"><ele>1156.0</ele></trkpt>
    <trkpt lat="32.73942" lon="-116.53563"><ele>1156.0</ele></trkpt>
    <trkpt lat="32.73918" lon="-116.53536"><ele>1156.0</ele></trkpt>
    <trkpt lat="32.73916" lon="-116.53528"><ele>1168.0</ele></trkpt>
    <trkpt lat="32.73931" lon="-116.53518"><ele>1168.0</ele></trkpt>
    <trkpt lat="32.73932" lon="-116.53511"><ele>1168.0</ele></trkpt>
    <trkpt lat="32.73929" lon="-116.53506"><ele>1168.0</ele></trkpt>
    <trkpt lat="32.73920" lon="-116.53509"><ele>1174.0</ele></trkpt>
    <trkpt lat="32.73910" lon="-116.53505"><ele>1174.0</ele></trkpt>
    <trkpt lat="32.73909" lon="-116.53500"><ele>1174.0</ele></trkpt>
    <trkpt lat="32.73915" lon="-116.53490"><ele>1174.0</ele></trkpt>
    <trkpt lat="32.73904" lon="-116.53466"><ele>1180.0</ele></trkpt>
    <trkpt lat="32.73884" lon="-116.53452"><ele>1180.0</ele></trkpt>
    <trkpt lat="32.73864" lon="-116.53452"><ele>1180.0</ele></trkpt>
    <trkpt lat="32.73845" lon="-116.53443"><ele>1180.0</ele></trkpt>
    <trkpt lat="32.73811" lon="-116.53418"><ele>1192.0</ele></trkpt>
    <trkpt lat="32.73804" lon="-116.53401"><ele>1192.0</ele></trkpt>
    <trkpt lat="32.73805" lon="-116.53374"><ele>1192.0</ele></trkpt>
    <trkpt lat="32.73809" lon="-116.53369"><ele>1192.0</ele></trkpt>
    <trkpt lat="32.73806" lon="-116.53349"><ele>1192.0</ele></trkpt>
    <trkpt lat="32.73794" lon="-116.53335"><ele>1193.0</ele></trkpt>
    <trkpt lat="32.73785" lon="-116.53340"><ele>1193.0</ele></trkpt>
    <trkpt lat="32.73776" lon="-116.53340"><ele>1193.0</ele></trkpt>
    <trkpt lat="32.73743" lon="-116.53304"><ele>1193.0</ele></trkpt>
    <trkpt lat="32.73726" lon="-116.53280"><ele>1195.0</ele></trkpt>
    <trkpt lat="32.73702" lon="-116.53271"><ele>1195.0</ele></trkpt>
    <trkpt lat="32.73695" lon="-116.53261"><ele>1195.0</ele></trkpt>
    <trkpt lat="32.73687" lon="-116.53237"><ele>1195.0</ele></trkpt>
    <trkpt lat="32.73688" lon="-116.53225"><ele>1205.0</ele></trkpt>
    <trkpt lat="32.73686" lon="-116.53216"><ele>1205.0</ele></trkpt>
    <trkpt lat="32.73678" lon="-116.53208"><ele>1205.0</ele></trkpt>
    <trkpt lat="32.73673" lon="-116.53193"><ele>1205.0</ele></trkpt>
    <trkpt lat="32.73620" lon="-116.53123"><ele>1209.0</ele></trkpt>
    <trkpt lat="32.73588" lon="-116.53056"><ele>1209.0</ele></trkpt>
    <trkpt lat="32.73587" lon="-116.53049"><ele>1209.0</ele></trkpt>
    <trkpt lat="32.73633" lon="-116.52985"><ele>1209.0</ele></trkpt>
    <trkpt lat="32.73671" lon="-116.52996"><ele>1208.0</ele></trkpt>
    <trkpt lat="32.73680" lon="-116.52989"><ele>1208.0</ele></trkpt>
    <trkpt lat="32.73679" lon="-116.52976"><ele>1208.0</ele></trkpt>
    <trkpt lat="32.73664" lon="-116.52971"><ele>1208.0</ele></trkpt>
    <trkpt lat="32.73650" lon="-116.52949"><ele>1208.0</ele></trkpt>
    <trkpt lat="32.73632" lon="-116.52906"><ele>1199.0</ele></trkpt>
    <trkpt lat="32.73615" lon="-116.52878"><ele>1199.0</ele></trkpt>
    <trkpt lat="32.73614" lon="-116.52867"><ele>1199.0</ele></trkpt>
    <trkpt lat="32.73635" lon="-116.52824"><ele>1199.0</ele></trkpt>
    <trkpt lat="32.73633" lon="-116.52804"><ele>1204.0</ele></trkpt>
    <trkpt lat="32.73806" lon="-116.52714"><ele>1204.0</ele></trkpt>
    <trkpt lat="32.73846" lon="-116.52697"><ele>1204.0</ele></trkpt>
    <trkpt lat="32.73869" lon="-116.52675"><ele>1204.0</ele></trkpt>
    <trkpt lat="32.73890" lon="-116.52633"><ele>1211.0</ele></trkpt>
    <trkpt lat="32.73888" lon="-116.52603"><ele>1211.0</ele></trkpt>
    <trkpt lat="32.73897" lon="-116.52552"><ele>1211.0</ele></trkpt>
    <trkpt lat="32.73894" lon="-116.52531"><ele>1211.0</ele></trkpt>
    <trkpt lat="32.73883" lon="-116.52505"><ele>1212.0</ele></trkpt>
    <trkpt lat="32.73880" lon="-116.52490"><ele>1212.0</ele></trkpt>
    <trkpt lat="32.73890" lon="-116.52444"><ele>1212.0</ele></trkpt>
    <trkpt lat="32.73897" lon="-116.52370"><ele>1212.0</ele></trkpt>
    <trkpt lat="32.73890" lon="-116.52344"><ele>1212.0</ele></trkpt>
    <trkpt lat="32.73891" lon="-116.52337"><ele>1213.0</ele></trkpt>
    <trkpt lat="32.73901" lon="-116.52322"><ele>1213.0</ele></trkpt>
    <trkpt lat="32.73902" lon="-116.52315"><ele>1213.0</ele></trkpt>
    <trkpt lat="32.73901" lon="-116.52286"><ele>1213.0</ele></trkpt>
    <trkpt lat="32.73895" lon="-116.52273"><ele>1216.0</ele></trkpt>
    <trkpt lat="32.73908" lon="-116.52250"><ele>1216.0</ele></trkpt>
    <trkpt lat="32.73921" lon="-116.52240"><ele>1216.0</ele></trkpt>
    <trkpt lat="32.73918" lon="-116.52223"><ele>1216.0</ele></trkpt>
    <trkpt lat="32.73918" lon="-116.52186"><ele>1218.0</ele></trkpt>
    <trkpt lat="32.73925" lon="-116.52157"><ele>1218.0</ele></trkpt>
    <trkpt lat="32.73933" lon="-116.52146"><ele>1218.0</ele></trkpt>
    <trkpt lat="32.73950" lon="-116.52138"><ele>1218.0</ele></trkpt>
    <trkpt lat="32.73991" lon="-116.52147"><ele>1224.0</ele></trkpt>
    <trkpt lat="32.74003" lon="-116.52143"><ele>1224.0</ele></trkpt>
    <trkpt lat="32.74028" lon="-116.52154"><ele>1224.0</ele></trkpt>
    <trkpt lat="32.74045" lon="-116.52149"><ele>1224.0</ele></trkpt>
    <trkpt lat="32.74082" lon="-116.52145"><ele>1227.0</ele></trkpt>
    <trkpt lat="32.74093" lon="-116.52140"><ele>1227.0</ele></trkpt>
    <trkpt lat="32.74097" lon="-116.52135"><ele>1227.0</ele></trkpt>
    <trkpt lat="32.74107" lon="-116.52110"><ele>1227.0</ele></trkpt>
    <trkpt lat="32.74117" lon="-116.52106"><ele>1227.0</ele></trkpt>
    <trkpt lat="32.74150" lon="-116.52120"><ele>1229.0</ele></trkpt>
    <trkpt lat="32.74186" lon="-116.52126"><ele>1229.0</ele></trkpt>
    <trkpt lat="32.74197" lon="-116.52133"><ele>1229.0</ele></trkpt>
    <trkpt lat="32.74201" lon="-116.52138"><ele>1229.0</ele></trkpt>
    <trkpt lat="32.74205" lon="-116.52145"><ele>1230.0</ele></trkpt>
    <trkpt lat="32.74208" lon="-116.52148"><ele>1230.0</ele></trkpt>
  </trkseg></trk>
</gpx>
