<?xml version="1.0" encoding="UTF-8"?>
<gpx version="1.1" creator="dirt-bikes build-area-routes (MVUM geometry + SRTM elevation)" xmlns="http://www.topografix.com/GPX/1/1">
  <trk><name>La Posta Road</name><trkseg>
    <trkpt lat="32.85635" lon="-116.42322"><ele>1822.0</ele></trkpt>
    <trkpt lat="32.85638" lon="-116.42282"><ele>1822.0</ele></trkpt>
    <trkpt lat="32.85653" lon="-116.42227"><ele>1820.0</ele></trkpt>
    <trkpt lat="32.85654" lon="-116.42205"><ele>1820.0</ele></trkpt>
    <trkpt lat="32.85654" lon="-116.42194"><ele>1820.0</ele></trkpt>
    <trkpt lat="32.85644" lon="-116.42159"><ele>1818.0</ele></trkpt>
    <trkpt lat="32.85620" lon="-116.42146"><ele>1818.0</ele></trkpt>
    <trkpt lat="32.85577" lon="-116.42130"><ele>1818.0</ele></trkpt>
    <trkpt lat="32.85548" lon="-116.42109"><ele>1810.0</ele></trkpt>
    <trkpt lat="32.85534" lon="-116.42085"><ele>1810.0</ele></trkpt>
    <trkpt lat="32.85353" lon="-116.42109"><ele>1810.0</ele></trkpt>
    <trkpt lat="32.85334" lon="-116.42107"><ele>1806.0</ele></trkpt>
    <trkpt lat="32.85304" lon="-116.42112"><ele>1806.0</ele></trkpt>
    <trkpt lat="32.85234" lon="-116.42089"><ele>1806.0</ele></trkpt>
    <trkpt lat="32.85161" lon="-116.42021"><ele>1801.0</ele></trkpt>
    <trkpt lat="32.85094" lon="-116.41978"><ele>1801.0</ele></trkpt>
    <trkpt lat="32.85064" lon="-116.41954"><ele>1801.0</ele></trkpt>
    <trkpt lat="32.85055" lon="-116.41931"><ele>1798.0</ele></trkpt>
    <trkpt lat="32.85021" lon="-116.41926"><ele>1798.0</ele></trkpt>
    <trkpt lat="32.84988" lon="-116.41940"><ele>1798.0</ele></trkpt>
    <trkpt lat="32.84914" lon="-116.41946"><ele>1807.0</ele></trkpt>
    <trkpt lat="32.84803" lon="-116.41957"><ele>1807.0</ele></trkpt>
    <trkpt lat="32.84723" lon="-116.41967"><ele>1825.0</ele></trkpt>
    <trkpt lat="32.84635" lon="-116.41955"><ele>1825.0</ele></trkpt>
    <trkpt lat="32.84623" lon="-116.41931"><ele>1825.0</ele></trkpt>
    <trkpt lat="32.84603" lon="-116.41927"><ele>1830.0</ele></trkpt>
    <trkpt lat="32.84569" lon="-116.41945"><ele>1830.0</ele></trkpt>
    <trkpt lat="32.84525" lon="-116.41940"><ele>1830.0</ele></trkpt>
    <trkpt lat="32.84479" lon="-116.41924"><ele>1834.0</ele></trkpt>
    <trkpt lat="32.84450" lon="-116.41926"><ele>1834.0</ele></trkpt>
    <trkpt lat="32.84428" lon="-116.41907"><ele>1834.0</ele></trkpt>
    <trkpt lat="32.84371" lon="-116.41909"><ele>1840.0</ele></trkpt>
    <trkpt lat="32.84327" lon="-116.41898"><ele>1840.0</ele></trkpt>
    <trkpt lat="32.84252" lon="-116.41874"><ele>1840.0</ele></trkpt>
    <trkpt lat="32.84186" lon="-116.41839"><ele>1843.0</ele></trkpt>
    <trkpt lat="32.84183" lon="-116.41838"><ele>1843.0</ele></trkpt>
    <trkpt lat="32.84169" lon="-116.41830"><ele>1843.0</ele></trkpt>
    <trkpt lat="32.84118" lon="-116.41803"><ele>1840.0</ele></trkpt>
    <trkpt lat="32.84091" lon="-116.41789"><ele>1840.0</ele></trkpt>
    <trkpt lat="32.84040" lon="-116.41737"><ele>1840.0</ele></trkpt>
    <trkpt lat="32.83933" lon="-116.41690"><ele>1818.0</ele></trkpt>
    <trkpt lat="32.83866" lon="-116.41661"><ele>1818.0</ele></trkpt>
    <trkpt lat="32.83852" lon="-116.41645"><ele>1818.0</ele></trkpt>
    <trkpt lat="32.83798" lon="-116.41631"><ele>1808.0</ele></trkpt>
    <trkpt lat="32.83754" lon="-116.41602"><ele>1808.0</ele></trkpt>
    <trkpt lat="32.83681" lon="-116.41552"><ele>1808.0</ele></trkpt>
    <trkpt lat="32.83584" lon="-116.41491"><ele>1791.0</ele></trkpt>
    <trkpt lat="32.83569" lon="-116.41475"><ele>1791.0</ele></trkpt>
    <trkpt lat="32.83544" lon="-116.41483"><ele>1791.0</ele></trkpt>
    <trkpt lat="32.83479" lon="-116.41399"><ele>1783.0</ele></trkpt>
    <trkpt lat="32.83460" lon="-116.41388"><ele>1783.0</ele></trkpt>
    <trkpt lat="32.83430" lon="-116.41386"><ele>1783.0</ele></trkpt>
    <trkpt lat="32.83402" lon="-116.41395"><ele>1775.0</ele></trkpt>
    <trkpt lat="32.83376" lon="-116.41402"><ele>1775.0</ele></trkpt>
    <trkpt lat="32.83262" lon="-116.41334"><ele>1775.0</ele></trkpt>
    <trkpt lat="32.83180" lon="-116.41303"><ele>1760.0</ele></trkpt>
    <trkpt lat="32.83179" lon="-116.41284"><ele>1760.0</ele></trkpt>
    <trkpt lat="32.83145" lon="-116.41279"><ele>1760.0</ele></trkpt>
    <trkpt lat="32.83092" lon="-116.41245"><ele>1745.0</ele></trkpt>
    <trkpt lat="32.83054" lon="-116.41216"><ele>1745.0</ele></trkpt>
    <trkpt lat="32.81461" lon="-116.40723"><ele>1732.0</ele></trkpt>
    <trkpt lat="32.81443" lon="-116.40727"><ele>1732.0</ele></trkpt>
    <trkpt lat="32.81403" lon="-116.40739"><ele>1732.0</ele></trkpt>
    <trkpt lat="32.81359" lon="-116.40717"><ele>1729.0</ele></trkpt>
    <trkpt lat="32.81343" lon="-116.40712"><ele>1729.0</ele></trkpt>
    <trkpt lat="32.81287" lon="-116.40697"><ele>1729.0</ele></trkpt>
    <trkpt lat="32.81201" lon="-116.40679"><ele>1716.0</ele></trkpt>
    <trkpt lat="32.81151" lon="-116.40652"><ele>1716.0</ele></trkpt>
    <trkpt lat="32.81078" lon="-116.40633"><ele>1716.0</ele></trkpt>
    <trkpt lat="32.81009" lon="-116.40614"><ele>1689.0</ele></trkpt>
    <trkpt lat="32.80930" lon="-116.40594"><ele>1689.0</ele></trkpt>
    <trkpt lat="32.80803" lon="-116.40579"><ele>1689.0</ele></trkpt>
    <trkpt lat="32.80732" lon="-116.40566"><ele>1671.0</ele></trkpt>
    <trkpt lat="32.80614" lon="-116.40567"><ele>1671.0</ele></trkpt>
    <trkpt lat="32.80545" lon="-116.40547"><ele>1671.0</ele></trkpt>
    <trkpt lat="32.80460" lon="-116.40522"><ele>1642.0</ele></trkpt>
    <trkpt lat="32.80401" lon="-116.40493"><ele>1642.0</ele></trkpt>
    <trkpt lat="32.80351" lon="-116.40479"><ele>1642.0</ele></trkpt>
    <trkpt lat="32.80311" lon="-116.40444"><ele>1633.0</ele></trkpt>
    <trkpt lat="32.80280" lon="-116.40392"><ele>1633.0</ele></trkpt>
    <trkpt lat="32.80219" lon="-116.40385"><ele>1633.0</ele></trkpt>
    <trkpt lat="32.80183" lon="-116.40370"><ele>1618.0</ele></trkpt>
    <trkpt lat="32.80139" lon="-116.40377"><ele>1618.0</ele></trkpt>
    <trkpt lat="32.80110" lon="-116.40384"><ele>1618.0</ele></trkpt>
    <trkpt lat="32.80055" lon="-116.40371"><ele>1606.0</ele></trkpt>
    <trkpt lat="32.80034" lon="-116.40378"><ele>1606.0</ele></trkpt>
    <trkpt lat="32.79979" lon="-116.40367"><ele>1606.0</ele></trkpt>
    <trkpt lat="32.79944" lon="-116.40340"><ele>1595.0</ele></trkpt>
    <trkpt lat="32.79914" lon="-116.40329"><ele>1595.0</ele></trkpt>
    <trkpt lat="32.79868" lon="-116.40291"><ele>1595.0</ele></trkpt>
    <trkpt lat="32.79811" lon="-116.40267"><ele>1588.0</ele></trkpt>
    <trkpt lat="32.79785" lon="-116.40254"><ele>1588.0</ele></trkpt>
    <trkpt lat="32.79781" lon="-116.40209"><ele>1588.0</ele></trkpt>
    <trkpt lat="32.79750" lon="-116.40182"><ele>1578.0</ele></trkpt>
    <trkpt lat="32.79727" lon="-116.40139"><ele>1578.0</ele></trkpt>
    <trkpt lat="32.79700" lon="-116.40110"><ele>1561.0</ele></trkpt>
    <trkpt lat="32.79666" lon="-116.40097"><ele>1561.0</ele></trkpt>
    <trkpt lat="32.79647" lon="-116.40072"><ele>1561.0</ele></trkpt>
    <trkpt lat="32.79558" lon="-116.39973"><ele>1542.0</ele></trkpt>
    <trkpt lat="32.79499" lon="-116.39958"><ele>1542.0</ele></trkpt>
    <trkpt lat="32.79480" lon="-116.39915"><ele>1542.0</ele></trkpt>
    <trkpt lat="32.79482" lon="-116.39865"><ele>1521.0</ele></trkpt>
    <trkpt lat="32.79451" lon="-116.39825"><ele>1521.0</ele></trkpt>
    <trkpt lat="32.79397" lon="-116.39771"><ele>1521.0</ele></trkpt>
    <trkpt lat="32.79393" lon="-116.39685"><ele>1477.0</ele></trkpt>
    <trkpt lat="32.79358" lon="-116.39632"><ele>1477.0</ele></trkpt>
    <trkpt lat="32.79350" lon="-116.39568"><ele>1477.0</ele></trkpt>
    <trkpt lat="32.79337" lon="-116.39541"><ele>1445.0</ele></trkpt>
    <trkpt lat="32.79250" lon="-116.39518"><ele>1445.0</ele></trkpt>
    <trkpt lat="32.79237" lon="-116.39505"><ele>1445.0</ele></trkpt>
    <trkpt lat="32.79263" lon="-116.39351"><ele>1423.0</ele></trkpt>
    <trkpt lat="32.79236" lon="-116.39275"><ele>1423.0</ele></trkpt>
    <trkpt lat="32.79186" lon="-116.39214"><ele>1423.0</ele></trkpt>
    <trkpt lat="32.79138" lon="-116.39169"><ele>1411.0</ele></trkpt>
    <trkpt lat="32.79090" lon="-116.39224"><ele>1411.0</ele></trkpt>
    <trkpt lat="32.79089" lon="-116.39285"><ele>1411.0</ele></trkpt>
    <trkpt lat="32.79066" lon="-116.39307"><ele>1415.0</ele></trkpt>
    <trkpt lat="32.79057" lon="-116.39337"><ele>1415.0</ele></trkpt>
    <trkpt lat="32.79032" lon="-116.39341"><ele>1415.0</ele></trkpt>
    <trkpt lat="32.78981" lon="-116.39405"><ele>1429.0</ele></trkpt>
    <trkpt lat="32.78975" lon="-116.39475"><ele>1429.0</ele></trkpt>
    <trkpt lat="32.78939" lon="-116.39525"><ele>1429.0</ele></trkpt>
    <trkpt lat="32.78899" lon="-116.39527"><ele>1437.0</ele></trkpt>
    <trkpt lat="32.78876" lon="-116.39548"><ele>1437.0</ele></trkpt>
    <trkpt lat="32.78842" lon="-116.39560"><ele>1437.0</ele></trkpt>
    <trkpt lat="32.78808" lon="-116.39571"><ele>1433.0</ele></trkpt>
    <trkpt lat="32.78764" lon="-116.39578"><ele>1433.0</ele></trkpt>
    <trkpt lat="32.78714" lon="-116.39613"><ele>1433.0</ele></trkpt>
    <trkpt lat="32.78682" lon="-116.39668"><ele>1418.0</ele></trkpt>
    <trkpt lat="32.78642" lon="-116.39697"><ele>1418.0</ele></trkpt>
    <trkpt lat="32.78621" lon="-116.39743"><ele>1418.0</ele></trkpt>
    <trkpt lat="32.78604" lon="-116.39752"><ele>1411.0</ele></trkpt>
    <trkpt lat="32.78581" lon="-116.39786"><ele>1411.0</ele></trkpt>
    <trkpt lat="32.78570" lon="-116.39845"><ele>1402.0</ele></trkpt>
    <trkpt lat="32.78541" lon="-116.39870"><ele>1402.0</ele></trkpt>
    <trkpt lat="32.78542" lon="-116.39908"><ele>1402.0</ele></trkpt>
    <trkpt lat="32.78517" lon="-116.39919"><ele>1395.0</ele></trkpt>
    <trkpt lat="32.78487" lon="-116.39967"><ele>1395.0</ele></trkpt>
    <trkpt lat="32.78447" lon="-116.40003"><ele>1395.0</ele></trkpt>
    <trkpt lat="32.78424" lon="-116.40033"><ele>1382.0</ele></trkpt>
    <trkpt lat="32.78384" lon="-116.40029"><ele>1382.0</ele></trkpt>
    <trkpt lat="32.78357" lon="-116.40004"><ele>1382.0</ele></trkpt>
    <trkpt lat="32.78359" lon="-116.39988"><ele>1382.0</ele></trkpt>
    <trkpt lat="32.78374" lon="-116.39963"><ele>1382.0</ele></trkpt>
    <trkpt lat="32.78351" lon="-116.39952"><ele>1382.0</ele></trkpt>
    <trkpt lat="32.78296" lon="-116.39943"><ele>1365.0</ele></trkpt>
    <trkpt lat="32.78277" lon="-116.39921"><ele>1365.0</ele></trkpt>
    <trkpt lat="32.78286" lon="-116.39896"><ele>1365.0</ele></trkpt>
    <trkpt lat="32.78288" lon="-116.39801"><ele>1354.0</ele></trkpt>
    <trkpt lat="32.78310" lon="-116.39772"><ele>1354.0</ele></trkpt>
    <trkpt lat="32.78333" lon="-116.39769"><ele>1354.0</ele></trkpt>
    <trkpt lat="32.78354" lon="-116.39749"><ele>1353.0</ele></trkpt>
    <trkpt lat="32.78346" lon="-116.39697"><ele>1353.0</ele></trkpt>
    <trkpt lat="32.78354" lon="-116.39668"><ele>1353.0</ele></trkpt>
    <trkpt lat="32.78353" lon="-116.39629"><ele>1353.0</ele></trkpt>
    <trkpt lat="32.78363" lon="-116.39562"><ele>1353.0</ele></trkpt>
    <trkpt lat="32.78347" lon="-116.39557"><ele>1353.0</ele></trkpt>
    <trkpt lat="32.78298" lon="-116.39566"><ele>1328.0</ele></trkpt>
    <trkpt lat="32.78172" lon="-116.39506"><ele>1328.0</ele></trkpt>
    <trkpt lat="32.78136" lon="-116.39510"><ele>1328.0</ele></trkpt>
    <trkpt lat="32.78121" lon="-116.39558"><ele>1313.0</ele></trkpt>
    <trkpt lat="32.78099" lon="-116.39580"><ele>1313.0</ele></trkpt>
    <trkpt lat="32.78036" lon="-116.39608"><ele>1313.0</ele></trkpt>
    <trkpt lat="32.77969" lon="-116.39601"><ele>1300.0</ele></trkpt>
    <trkpt lat="32.77946" lon="-116.39575"><ele>1300.0</ele></trkpt>
    <trkpt lat="32.77894" lon="-116.39591"><ele>1300.0</ele></trkpt>
    <trkpt lat="32.77843" lon="-116.39656"><ele>1282.0</ele></trkpt>
    <trkpt lat="32.77865" lon="-116.39692"><ele>1282.0</ele></trkpt>
    <trkpt lat="32.77848" lon="-116.39731"><ele>1282.0</ele></trkpt>
    <trkpt lat="32.77840" lon="-116.39774"><ele>1274.0</ele></trkpt>
    <trkpt lat="32.77804" lon="-116.39790"><ele>1274.0</ele></trkpt>
    <trkpt lat="32.77797" lon="-116.39833"><ele>1269.0</ele></trkpt>
    <trkpt lat="32.77764" lon="-116.39871"><ele>1269.0</ele></trkpt>
    <trkpt lat="32.77719" lon="-116.39939"><ele>1269.0</ele></trkpt>
    <trkpt lat="32.77603" lon="-116.40015"><ele>1252.0</ele></trkpt>
    <trkpt lat="32.77568" lon="-116.40014"><ele>1252.0</ele></trkpt>
    <trkpt lat="32.77515" lon="-116.40062"><ele>1252.0</ele></trkpt>
    <trkpt lat="32.77444" lon="-116.40091"><ele>1241.0</ele></trkpt>
    <trkpt lat="32.77355" lon="-116.40103"><ele>1241.0</ele></trkpt>
    <trkpt lat="32.77282" lon="-116.40138"><ele>1241.0</ele></trkpt>
    <trkpt lat="32.77199" lon="-116.40240"><ele>1217.0</ele></trkpt>
    <trkpt lat="32.77125" lon="-116.40299"><ele>1217.0</ele></trkpt>
    <trkpt lat="32.77066" lon="-116.40358"><ele>1217.0</ele></trkpt>
    <trkpt lat="32.77034" lon="-116.40424"><ele>1190.0</ele></trkpt>
    <trkpt lat="32.76974" lon="-116.40531"><ele>1190.0</ele></trkpt>
    <trkpt lat="32.76936" lon="-116.40552"><ele>1190.0</ele></trkpt>
    <trkpt lat="32.76838" lon="-116.40663"><ele>1173.0</ele></trkpt>
    <trkpt lat="32.76783" lon="-116.40754"><ele>1173.0</ele></trkpt>
    <trkpt lat="32.76690" lon="-116.40874"><ele>1173.0</ele></trkpt>
    <trkpt lat="32.76654" lon="-116.40890"><ele>1169.0</ele></trkpt>
    <trkpt lat="32.76601" lon="-116.40933"><ele>1169.0</ele></trkpt>
    <trkpt lat="32.76532" lon="-116.41028"><ele>1169.0</ele></trkpt>
    <trkpt lat="32.76502" lon="-116.41038"><ele>1148.0</ele></trkpt>
    <trkpt lat="32.76387" lon="-116.41107"><ele>1148.0</ele></trkpt>
    <trkpt lat="32.76354" lon="-116.41117"><ele>1148.0</ele></trkpt>
    <trkpt lat="32.76265" lon="-116.41063"><ele>1152.0</ele></trkpt>
    <trkpt lat="32.76242" lon="-116.41029"><ele>1152.0</ele></trkpt>
    <trkpt lat="32.76211" lon="-116.41023"><ele>1152.0</ele></trkpt>
    <trkpt lat="32.76175" lon="-116.41003"><ele>1146.0</ele></trkpt>
    <trkpt lat="32.76083" lon="-116.41012"><ele>1146.0</ele></trkpt>
    <trkpt lat="32.75935" lon="-116.41049"><ele>1146.0</ele></trkpt>
    <trkpt lat="32.75876" lon="-116.41054"><ele>1124.0</ele></trkpt>
    <trkpt lat="32.75839" lon="-116.41041"><ele>1124.0</ele></trkpt>
    <trkpt lat="32.75802" lon="-116.41032"><ele>1124.0</ele></trkpt>
    <trkpt lat="32.75793" lon="-116.41030"><ele>1122.0</ele></trkpt>
    <trkpt lat="32.75738" lon="-116.41014"><ele>1122.0</ele></trkpt>
    <trkpt lat="32.75644" lon="-116.40982"><ele>1112.0</ele></trkpt>
    <trkpt lat="32.75600" lon="-116.40978"><ele>1112.0</ele></trkpt>
    <trkpt lat="32.75518" lon="-116.40995"><ele>1112.0</ele></trkpt>
    <trkpt lat="32.75478" lon="-116.41017"><ele>1101.0</ele></trkpt>
    <trkpt lat="32.75427" lon="-116.41074"><ele>1101.0</ele></trkpt>
    <trkpt lat="32.75381" lon="-116.41111"><ele>1101.0</ele></trkpt>
    <trkpt lat="32.75293" lon="-116.41120"><ele>1093.0</ele></trkpt>
    <trkpt lat="32.75217" lon="-116.41127"><ele>1093.0</ele></trkpt>
    <trkpt lat="32.75173" lon="-116.41159"><ele>1093.0</ele></trkpt>
    <trkpt lat="32.75123" lon="-116.41152"><ele>1089.0</ele></trkpt>
    <trkpt lat="32.75083" lon="-116.41143"><ele>1089.0</ele></trkpt>
    <trkpt lat="32.75036" lon="-116.41171"><ele>1089.0</ele></trkpt>
    <trkpt lat="32.75026" lon="-116.41177"><ele>1085.0</ele></trkpt>
    <trkpt lat="32.74993" lon="-116.41190"><ele>1085.0</ele></trkpt>
    <trkpt lat="32.74954" lon="-116.41205"><ele>1085.0</ele></trkpt>
    <trkpt lat="32.74923" lon="-116.41216"><ele>1085.0</ele></trkpt>
    <trkpt lat="32.74915" lon="-116.41225"><ele>1085.0</ele></trkpt>
    <trkpt lat="32.74899" lon="-116.41242"><ele>1085.0</ele></trkpt>
    <trkpt lat="32.74892" lon="-116.41248"><ele>1088.0</ele></trkpt>
    <trkpt lat="32.74792" lon="-116.41343"><ele>1088.0</ele></trkpt>
    <trkpt lat="32.74777" lon="-116.41349"><ele>1088.0</ele></trkpt>
    <trkpt lat="32.74729" lon="-116.41366"><ele>1093.0</ele></trkpt>
    <trkpt lat="32.74674" lon="-116.41360"><ele>1093.0</ele></trkpt>
    <trkpt lat="32.74629" lon="-116.41359"><ele>1093.0</ele></trkpt>
    <trkpt lat="32.74591" lon="-116.41384"><ele>1103.0</ele></trkpt>
    <trkpt lat="32.74528" lon="-116.41479"><ele>1103.0</ele></trkpt>
    <trkpt lat="32.74506" lon="-116.41500"><ele>1103.0</ele></trkpt>
    <trkpt lat="32.74462" lon="-116.41545"><ele>1101.0</ele></trkpt>
    <trkpt lat="32.74412" lon="-116.41543"><ele>1101.0</ele></trkpt>
    <trkpt lat="32.74378" lon="-116.41571"><ele>1101.0</ele></trkpt>
    <trkpt lat="32.74363" lon="-116.41602"><ele>1108.0</ele></trkpt>
    <trkpt lat="32.74358" lon="-116.41654"><ele>1108.0</ele></trkpt>
    <trkpt lat="32.74304" lon="-116.41670"><ele>1108.0</ele></trkpt>
    <trkpt lat="32.74284" lon="-116.41729"><ele>1117.0</ele></trkpt>
    <trkpt lat="32.74297" lon="-116.41770"><ele>1117.0</ele></trkpt>
    <trkpt lat="32.74267" lon="-116.41867"><ele>1117.0</ele></trkpt>
    <trkpt lat="32.74218" lon="-116.41973"><ele>1113.0</ele></trkpt>
    <trkpt lat="32.74188" lon="-116.42014"><ele>1113.0</ele></trkpt>
    <trkpt lat="32.74138" lon="-116.42105"><ele>1100.0</ele></trkpt>
    <trkpt lat="32.74118" lon="-116.42121"><ele>1100.0</ele></trkpt>
    <trkpt lat="32.74075" lon="-116.42178"><ele>1100.0</ele></trkpt>
    <trkpt lat="32.74043" lon="-116.42183"><ele>1085.0</ele></trkpt>
    <trkpt lat="32.73963" lon="-116.42242"><ele>1085.0</ele></trkpt>
    <trkpt lat="32.73923" lon="-116.42297"><ele>1085.0</ele></trkpt>
    <trkpt lat="32.73900" lon="-116.42374"><ele>1078.0</ele></trkpt>
    <trkpt lat="32.73808" lon="-116.42514"><ele>1078.0</ele></trkpt>
    <trkpt lat="32.73764" lon="-116.42557"><ele>1078.0</ele></trkpt>
    <trkpt lat="32.73732" lon="-116.42578"><ele>1067.0</ele></trkpt>
    <trkpt lat="32.73676" lon="-116.42576"><ele>1067.0</ele></trkpt>
    <trkpt lat="32.73598" lon="-116.42610"><ele>1067.0</ele></trkpt>
    <trkpt lat="32.73537" lon="-116.42626"><ele>1049.0</ele></trkpt>
    <trkpt lat="32.73480" lon="-116.42606"><ele>1049.0</ele></trkpt>
    <trkpt lat="32.73456" lon="-116.42567"><ele>1049.0</ele></trkpt>
    <trkpt lat="32.73427" lon="-116.42500"><ele>1037.0</ele></trkpt>
    <trkpt lat="32.73395" lon="-116.42453"><ele>1037.0</ele></trkpt>
  </trkseg></trk>
</gpx>
