<?xml version="1.0" encoding="UTF-8"?>
<gpx version="1.1" creator="dirt-bikes build-area-routes (MVUM geometry + SRTM elevation)" xmlns="http://www.topografix.com/GPX/1/1">
  <trk><name>Long Valley Loop</name><trkseg>
    <trkpt lat="32.75945" lon="-116.50744"><ele>1242.0</ele></trkpt>
    <trkpt lat="32.75963" lon="-116.50751"><ele>1242.0</ele></trkpt>
    <trkpt lat="32.75970" lon="-116.50753"><ele>1241.0</ele></trkpt>
    <trkpt lat="32.75991" lon="-116.50755"><ele>1241.0</ele></trkpt>
    <trkpt lat="32.76062" lon="-116.50786"><ele>1241.0</ele></trkpt>
    <trkpt lat="32.76066" lon="-116.50798"><ele>1237.0</ele></trkpt>
    <trkpt lat="32.76061" lon="-116.50801"><ele>1237.0</ele></trkpt>
    <trkpt lat="32.76057" lon="-116.50803"><ele>1237.0</ele></trkpt>
    <trkpt lat="32.76044" lon="-116.50805"><ele>1235.0</ele></trkpt>
    <trkpt lat="32.76022" lon="-116.50825"><ele>1235.0</ele></trkpt>
    <trkpt lat="32.76006" lon="-116.50830"><ele>1235.0</ele></trkpt>
    <trkpt lat="32.76008" lon="-116.50835"><ele>1234.0</ele></trkpt>
    <trkpt lat="32.76011" lon="-116.50843"><ele>1234.0</ele></trkpt>
    <trkpt lat="32.76018" lon="-116.50855"><ele>1234.0</ele></trkpt>
    <trkpt lat="32.76020" lon="-116.50885"><ele>1229.0</ele></trkpt>
    <trkpt lat="32.75987" lon="-116.50924"><ele>1229.0</ele></trkpt>
    <trkpt lat="32.75979" lon="-116.50942"><ele>1229.0</ele></trkpt>
    <trkpt lat="32.75968" lon="-116.50969"><ele>1226.0</ele></trkpt>
    <trkpt lat="32.75951" lon="-116.50979"><ele>1226.0</ele></trkpt>
    <trkpt lat="32.75943" lon="-116.50983"><ele>1226.0</ele></trkpt>
    <trkpt lat="32.75943" lon="-116.50983"><ele>1220.0</ele></trkpt>
    <trkpt lat="32.75927" lon="-116.51000"><ele>1220.0</ele></trkpt>
    <trkpt lat="32.75909" lon="-116.51001"><ele>1220.0</ele></trkpt>
    <trkpt lat="32.75889" lon="-116.51001"><ele>1214.0</ele></trkpt>
    <trkpt lat="32.75886" lon="-116.51011"><ele>1214.0</ele></trkpt>
    <trkpt lat="32.75884" lon="-116.51015"><ele>1214.0</ele></trkpt>
    <trkpt lat="32.75885" lon="-116.51046"><ele>1219.0</ele></trkpt>
    <trkpt lat="32.75883" lon="-116.51056"><ele>1219.0</ele></trkpt>
    <trkpt lat="32.75879" lon="-116.51071"><ele>1219.0</ele></trkpt>
    <trkpt lat="32.75858" lon="-116.51094"><ele>1219.0</ele></trkpt>
    <trkpt lat="32.75840" lon="-116.51105"><ele>1219.0</ele></trkpt>
    <trkpt lat="32.75837" lon="-116.51113"><ele>1219.0</ele></trkpt>
    <trkpt lat="32.75829" lon="-116.51135"><ele>1225.0</ele></trkpt>
    <trkpt lat="32.75804" lon="-116.51171"><ele>1225.0</ele></trkpt>
    <trkpt lat="32.75793" lon="-116.51187"><ele>1225.0</ele></trkpt>
    <trkpt lat="32.75774" lon="-116.51190"><ele>1216.0</ele></trkpt>
    <trkpt lat="32.75763" lon="-116.51192"><ele>1216.0</ele></trkpt>
    <trkpt lat="32.75753" lon="-116.51194"><ele>1216.0</ele></trkpt>
    <trkpt lat="32.75736" lon="-116.51220"><ele>1220.0</ele></trkpt>
    <trkpt lat="32.75757" lon="-116.51256"><ele>1220.0</ele></trkpt>
    <trkpt lat="32.75757" lon="-116.51272"><ele>1220.0</ele></trkpt>
    <trkpt lat="32.75755" lon="-116.51291"><ele>1218.0</ele></trkpt>
    <trkpt lat="32.75754" lon="-116.51299"><ele>1218.0</ele></trkpt>
    <trkpt lat="32.75787" lon="-116.51359"><ele>1218.0</ele></trkpt>
    <trkpt lat="32.75790" lon="-116.51383"><ele>1232.0</ele></trkpt>
    <trkpt lat="32.75793" lon="-116.51402"><ele>1232.0</ele></trkpt>
    <trkpt lat="32.75784" lon="-116.51427"><ele>1235.0</ele></trkpt>
    <trkpt lat="32.75816" lon="-116.51492"><ele>1235.0</ele></trkpt>
    <trkpt lat="32.75807" lon="-116.51524"><ele>1235.0</ele></trkpt>
    <trkpt lat="32.75777" lon="-116.51577"><ele>1220.0</ele></trkpt>
    <trkpt lat="32.75748" lon="-116.51577"><ele>1220.0</ele></trkpt>
    <trkpt lat="32.75738" lon="-116.51592"><ele>1220.0</ele></trkpt>
    <trkpt lat="32.75738" lon="-116.51608"><ele>1222.0</ele></trkpt>
    <trkpt lat="32.75745" lon="-116.51622"><ele>1222.0</ele></trkpt>
    <trkpt lat="32.75746" lon="-116.51644"><ele>1222.0</ele></trkpt>
    <trkpt lat="32.75702" lon="-116.51652"><ele>1221.0</ele></trkpt>
    <trkpt lat="32.75696" lon="-116.51659"><ele>1221.0</ele></trkpt>
    <trkpt lat="32.75694" lon="-116.51661"><ele>1221.0</ele></trkpt>
    <trkpt lat="32.75676" lon="-116.51650"><ele>1217.0</ele></trkpt>
    <trkpt lat="32.75663" lon="-116.51634"><ele>1217.0</ele></trkpt>
    <trkpt lat="32.75640" lon="-116.51638"><ele>1217.0</ele></trkpt>
    <trkpt lat="32.75627" lon="-116.51640"><ele>1216.0</ele></trkpt>
    <trkpt lat="32.75593" lon="-116.51629"><ele>1216.0</ele></trkpt>
    <trkpt lat="32.75576" lon="-116.51612"><ele>1216.0</ele></trkpt>
    <trkpt lat="32.75571" lon="-116.51607"><ele>1214.0</ele></trkpt>
    <trkpt lat="32.75550" lon="-116.51600"><ele>1214.0</ele></trkpt>
    <trkpt lat="32.75501" lon="-116.51594"><ele>1214.0</ele></trkpt>
    <trkpt lat="32.75467" lon="-116.51600"><ele>1208.0</ele></trkpt>
    <trkpt lat="32.75436" lon="-116.51605"><ele>1208.0</ele></trkpt>
    <trkpt lat="32.75427" lon="-116.51613"><ele>1208.0</ele></trkpt>
    <trkpt lat="32.75404" lon="-116.51632"><ele>1203.0</ele></trkpt>
    <trkpt lat="32.75384" lon="-116.51630"><ele>1203.0</ele></trkpt>
    <trkpt lat="32.75373" lon="-116.51637"><ele>1203.0</ele></trkpt>
    <trkpt lat="32.75366" lon="-116.51641"><ele>1202.0</ele></trkpt>
    <trkpt lat="32.75366" lon="-116.51642"><ele>1202.0</ele></trkpt>
    <trkpt lat="32.75364" lon="-116.51643"><ele>1202.0</ele></trkpt>
    <trkpt lat="32.75366" lon="-116.51653"><ele>1201.0</ele></trkpt>
    <trkpt lat="32.75367" lon="-116.51662"><ele>1201.0</ele></trkpt>
    <trkpt lat="32.75381" lon="-116.51677"><ele>1201.0</ele></trkpt>
    <trkpt lat="32.75390" lon="-116.51699"><ele>1207.0</ele></trkpt>
    <trkpt lat="32.75390" lon="-116.51712"><ele>1207.0</ele></trkpt>
    <trkpt lat="32.75389" lon="-116.51725"><ele>1207.0</ele></trkpt>
    <trkpt lat="32.75401" lon="-116.51741"><ele>1212.0</ele></trkpt>
    <trkpt lat="32.75401" lon="-116.51754"><ele>1212.0</ele></trkpt>
    <trkpt lat="32.75437" lon="-116.51796"><ele>1212.0</ele></trkpt>
    <trkpt lat="32.75452" lon="-116.51828"><ele>1217.0</ele></trkpt>
    <trkpt lat="32.75452" lon="-116.51866"><ele>1217.0</ele></trkpt>
    <trkpt lat="32.75438" lon="-116.51897"><ele>1217.0</ele></trkpt>
    <trkpt lat="32.75422" lon="-116.51932"><ele>1216.0</ele></trkpt>
    <trkpt lat="32.75423" lon="-116.51948"><ele>1216.0</ele></trkpt>
    <trkpt lat="32.75424" lon="-116.51968"><ele>1216.0</ele></trkpt>
    <trkpt lat="32.75428" lon="-116.51985"><ele>1217.0</ele></trkpt>
    <trkpt lat="32.75430" lon="-116.51992"><ele>1217.0</ele></trkpt>
    <trkpt lat="32.75397" lon="-116.52033"><ele>1217.0</ele></trkpt>
    <trkpt lat="32.75393" lon="-116.52038"><ele>1213.0</ele></trkpt>
    <trkpt lat="32.75367" lon="-116.52048"><ele>1213.0</ele></trkpt>
    <trkpt lat="32.75363" lon="-116.52056"><ele>1213.0</ele></trkpt>
    <trkpt lat="32.75357" lon="-116.52070"><ele>1214.0</ele></trkpt>
    <trkpt lat="32.75354" lon="-116.52090"><ele>1214.0</ele></trkpt>
    <trkpt lat="32.75354" lon="-116.52093"><ele>1214.0</ele></trkpt>
    <trkpt lat="32.75336" lon="-116.52125"><ele>1216.0</ele></trkpt>
    <trkpt lat="32.75337" lon="-116.52129"><ele>1216.0</ele></trkpt>
    <trkpt lat="32.75338" lon="-116.52148"><ele>1216.0</ele></trkpt>
    <trkpt lat="32.75339" lon="-116.52156"><ele>1218.0</ele></trkpt>
    <trkpt lat="32.75340" lon="-116.52175"><ele>1218.0</ele></trkpt>
    <trkpt lat="32.75338" lon="-116.52191"><ele>1218.0</ele></trkpt>
    <trkpt lat="32.75336" lon="-116.52207"><ele>1215.0</ele></trkpt>
    <trkpt lat="32.75334" lon="-116.52229"><ele>1215.0</ele></trkpt>
    <trkpt lat="32.75339" lon="-116.52255"><ele>1215.0</ele></trkpt>
    <trkpt lat="32.75343" lon="-116.52281"><ele>1208.0</ele></trkpt>
    <trkpt lat="32.75344" lon="-116.52339"><ele>1208.0</ele></trkpt>
    <trkpt lat="32.75322" lon="-116.52368"><ele>1208.0</ele></trkpt>
    <trkpt lat="32.75257" lon="-116.52454"><ele>1198.0</ele></trkpt>
    <trkpt lat="32.75255" lon="-116.52472"><ele>1198.0</ele></trkpt>
    <trkpt lat="32.75259" lon="-116.52495"><ele>1198.0</ele></trkpt>
    <trkpt lat="32.75248" lon="-116.52509"><ele>1193.0</ele></trkpt>
    <trkpt lat="32.75248" lon="-116.52536"><ele>1193.0</ele></trkpt>
    <trkpt lat="32.75271" lon="-116.52572"><ele>1193.0</ele></trkpt>
    <trkpt lat="32.75278" lon="-116.52585"><ele>1191.0</ele></trkpt>
    <trkpt lat="32.75284" lon="-116.52597"><ele>1191.0</ele></trkpt>
    <trkpt lat="32.75275" lon="-116.52630"><ele>1191.0</ele></trkpt>
    <trkpt lat="32.75290" lon="-116.52672"><ele>1187.0</ele></trkpt>
    <trkpt lat="32.75295" lon="-116.52688"><ele>1187.0</ele></trkpt>
    <trkpt lat="32.75304" lon="-116.52726"><ele>1187.0</ele></trkpt>
    <trkpt lat="32.75332" lon="-116.52776"><ele>1181.0</ele></trkpt>
    <trkpt lat="32.75330" lon="-116.52818"><ele>1181.0</ele></trkpt>
    <trkpt lat="32.75335" lon="-116.52839"><ele>1181.0</ele></trkpt>
    <trkpt lat="32.75342" lon="-116.52876"><ele>1180.0</ele></trkpt>
    <trkpt lat="32.75350" lon="-116.52888"><ele>1180.0</ele></trkpt>
    <trkpt lat="32.75356" lon="-116.52897"><ele>1180.0</ele></trkpt>
    <trkpt lat="32.75359" lon="-116.52901"><ele>1180.0</ele></trkpt>
    <trkpt lat="32.75360" lon="-116.52912"><ele>1180.0</ele></trkpt>
    <trkpt lat="32.75362" lon="-116.52934"><ele>1180.0</ele></trkpt>
    <trkpt lat="32.75363" lon="-116.52935"><ele>1178.0</ele></trkpt>
    <trkpt lat="32.75364" lon="-116.52937"><ele>1178.0</ele></trkpt>
    <trkpt lat="32.75349" lon="-116.52974"><ele>1176.0</ele></trkpt>
    <trkpt lat="32.75344" lon="-116.52979"><ele>1176.0</ele></trkpt>
    <trkpt lat="32.75334" lon="-116.52989"><ele>1176.0</ele></trkpt>
    <trkpt lat="32.75298" lon="-116.52991"><ele>1174.0</ele></trkpt>
    <trkpt lat="32.75286" lon="-116.52997"><ele>1174.0</ele></trkpt>
    <trkpt lat="32.75285" lon="-116.52998"><ele>1174.0</ele></trkpt>
    <trkpt lat="32.75259" lon="-116.53000"><ele>1172.0</ele></trkpt>
    <trkpt lat="32.75239" lon="-116.53007"><ele>1172.0</ele></trkpt>
    <trkpt lat="32.75224" lon="-116.53008"><ele>1172.0</ele></trkpt>
    <trkpt lat="32.75191" lon="-116.53014"><ele>1169.0</ele></trkpt>
    <trkpt lat="32.75180" lon="-116.53017"><ele>1169.0</ele></trkpt>
    <trkpt lat="32.75173" lon="-116.53019"><ele>1169.0</ele></trkpt>
    <trkpt lat="32.75162" lon="-116.53030"><ele>1167.0</ele></trkpt>
    <trkpt lat="32.75154" lon="-116.53048"><ele>1167.0</ele></trkpt>
    <trkpt lat="32.75153" lon="-116.53061"><ele>1167.0</ele></trkpt>
    <trkpt lat="32.75153" lon="-116.53080"><ele>1164.0</ele></trkpt>
    <trkpt lat="32.75152" lon="-116.53121"><ele>1164.0</ele></trkpt>
    <trkpt lat="32.75154" lon="-116.53135"><ele>1164.0</ele></trkpt>
    <trkpt lat="32.75157" lon="-116.53157"><ele>1164.0</ele></trkpt>
    <trkpt lat="32.75162" lon="-116.53204"><ele>1164.0</ele></trkpt>
    <trkpt lat="32.75145" lon="-116.53234"><ele>1164.0</ele></trkpt>
    <trkpt lat="32.75123" lon="-116.53263"><ele>1176.0</ele></trkpt>
    <trkpt lat="32.75112" lon="-116.53270"><ele>1176.0</ele></trkpt>
    <trkpt lat="32.75101" lon="-116.53276"><ele>1176.0</ele></trkpt>
    <trkpt lat="32.75083" lon="-116.53270"><ele>1184.0</ele></trkpt>
    <trkpt lat="32.75051" lon="-116.53225"><ele>1184.0</ele></trkpt>
    <trkpt lat="32.74991" lon="-116.53194"><ele>1184.0</ele></trkpt>
    <trkpt lat="32.74987" lon="-116.53193"><ele>1193.0</ele></trkpt>
    <trkpt lat="32.74976" lon="-116.53191"><ele>1193.0</ele></trkpt>
    <trkpt lat="32.74952" lon="-116.53199"><ele>1193.0</ele></trkpt>
    <trkpt lat="32.74932" lon="-116.53188"><ele>1202.0</ele></trkpt>
    <trkpt lat="32.74927" lon="-116.53186"><ele>1202.0</ele></trkpt>
    <trkpt lat="32.74926" lon="-116.53185"><ele>1202.0</ele></trkpt>
    <trkpt lat="32.74903" lon="-116.53163"><ele>1203.0</ele></trkpt>
    <trkpt lat="32.74885" lon="-116.53146"><ele>1203.0</ele></trkpt>
    <trkpt lat="32.74866" lon="-116.53149"><ele>1203.0</ele></trkpt>
    <trkpt lat="32.74828" lon="-116.53145"><ele>1211.0</ele></trkpt>
    <trkpt lat="32.74823" lon="-116.53143"><ele>1211.0</ele></trkpt>
    <trkpt lat="32.74797" lon="-116.53130"><ele>1211.0</ele></trkpt>
    <trkpt lat="32.74762" lon="-116.53093"><ele>1213.0</ele></trkpt>
    <trkpt lat="32.74759" lon="-116.53089"><ele>1213.0</ele></trkpt>
    <trkpt lat="32.74752" lon="-116.53072"><ele>1213.0</ele></trkpt>
    <trkpt lat="32.74747" lon="-116.53067"><ele>1214.0</ele></trkpt>
    <trkpt lat="32.74717" lon="-116.53032"><ele>1214.0</ele></trkpt>
    <trkpt lat="32.74692" lon="-116.52984"><ele>1214.0</ele></trkpt>
    <trkpt lat="32.74666" lon="-116.52930"><ele>1223.0</ele></trkpt>
    <trkpt lat="32.74647" lon="-116.52906"><ele>1223.0</ele></trkpt>
    <trkpt lat="32.74619" lon="-116.52871"><ele>1223.0</ele></trkpt>
    <trkpt lat="32.74598" lon="-116.52881"><ele>1229.0</ele></trkpt>
    <trkpt lat="32.74585" lon="-116.52897"><ele>1229.0</ele></trkpt>
    <trkpt lat="32.74555" lon="-116.52913"><ele>1229.0</ele></trkpt>
    <trkpt lat="32.74535" lon="-116.52911"><ele>1232.0</ele></trkpt>
    <trkpt lat="32.74531" lon="-116.52904"><ele>1232.0</ele></trkpt>
    <trkpt lat="32.74500" lon="-116.52865"><ele>1232.0</ele></trkpt>
    <trkpt lat="32.74454" lon="-116.52833"><ele>1244.0</ele></trkpt>
    <trkpt lat="32.74452" lon="-116.52831"><ele>1244.0</ele></trkpt>
    <trkpt lat="32.74421" lon="-116.52792"><ele>1244.0</ele></trkpt>
    <trkpt lat="32.74399" lon="-116.52754"><ele>1247.0</ele></trkpt>
    <trkpt lat="32.74398" lon="-116.52748"><ele>1247.0</ele></trkpt>
    <trkpt lat="32.74396" lon="-116.52732"><ele>1247.0</ele></trkpt>
    <trkpt lat="32.74420" lon="-116.52619"><ele>1249.0</ele></trkpt>
    <trkpt lat="32.74418" lon="-116.52613"><ele>1249.0</ele></trkpt>
    <trkpt lat="32.74410" lon="-116.52588"><ele>1249.0</ele></trkpt>
    <trkpt lat="32.74400" lon="-116.52560"><ele>1249.0</ele></trkpt>
    <trkpt lat="32.74396" lon="-116.52545"><ele>1249.0</ele></trkpt>
    <trkpt lat="32.74388" lon="-116.52470"><ele>1249.0</ele></trkpt>
    <trkpt lat="32.74386" lon="-116.52451"><ele>1240.0</ele></trkpt>
    <trkpt lat="32.74371" lon="-116.52424"><ele>1240.0</ele></trkpt>
    <trkpt lat="32.74346" lon="-116.52408"><ele>1240.0</ele></trkpt>
    <trkpt lat="32.74334" lon="-116.52400"><ele>1243.0</ele></trkpt>
    <trkpt lat="32.74308" lon="-116.52363"><ele>1243.0</ele></trkpt>
    <trkpt lat="32.74287" lon="-116.52333"><ele>1243.0</ele></trkpt>
    <trkpt lat="32.74252" lon="-116.52308"><ele>1239.0</ele></trkpt>
    <trkpt lat="32.74225" lon="-116.52267"><ele>1239.0</ele></trkpt>
    <trkpt lat="32.74220" lon="-116.52238"><ele>1239.0</ele></trkpt>
    <trkpt lat="32.74215" lon="-116.52216"><ele>1234.0</ele></trkpt>
    <trkpt lat="32.74213" lon="-116.52209"><ele>1234.0</ele></trkpt>
    <trkpt lat="32.74202" lon="-116.52178"><ele>1234.0</ele></trkpt>
    <trkpt lat="32.74202" lon="-116.52163"><ele>1230.0</ele></trkpt>
    <trkpt lat="32.74208" lon="-116.52148"><ele>1230.0</ele></trkpt>
    <trkpt lat="32.74227" lon="-116.52098"><ele>1230.0</ele></trkpt>
    <trkpt lat="32.74259" lon="-116.52048"><ele>1222.0</ele></trkpt>
    <trkpt lat="32.74266" lon="-116.52026"><ele>1222.0</ele></trkpt>
    <trkpt lat="32.74328" lon="-116.51998"><ele>1222.0</ele></trkpt>
    <trkpt lat="32.74329" lon="-116.51994"><ele>1210.0</ele></trkpt>
    <trkpt lat="32.74378" lon="-116.51868"><ele>1210.0</ele></trkpt>
    <trkpt lat="32.74412" lon="-116.51780"><ele>1210.0</ele></trkpt>
    <trkpt lat="32.74409" lon="-116.51776"><ele>1205.0</ele></trkpt>
    <trkpt lat="32.74401" lon="-116.51763"><ele>1205.0</ele></trkpt>
    <trkpt lat="32.74392" lon="-116.51724"><ele>1202.0</ele></trkpt>
    <trkpt lat="32.74375" lon="-116.51692"><ele>1202.0</ele></trkpt>
    <trkpt lat="32.74359" lon="-116.51647"><ele>1202.0</ele></trkpt>
    <trkpt lat="32.74333" lon="-116.51594"><ele>1195.0</ele></trkpt>
    <trkpt lat="32.74336" lon="-116.51577"><ele>1195.0</ele></trkpt>
    <trkpt lat="32.74340" lon="-116.51559"><ele>1195.0</ele></trkpt>
    <trkpt lat="32.74378" lon="-116.51529"><ele>1193.0</ele></trkpt>
    <trkpt lat="32.74409" lon="-116.51505"><ele>1193.0</ele></trkpt>
    <trkpt lat="32.74466" lon="-116.51481"><ele>1193.0</ele></trkpt>
    <trkpt lat="32.74490" lon="-116.51471"><ele>1186.0</ele></trkpt>
    <trkpt lat="32.74549" lon="-116.51443"><ele>1186.0</ele></trkpt>
    <trkpt lat="32.74591" lon="-116.51421"><ele>1186.0</ele></trkpt>
    <trkpt lat="32.74598" lon="-116.51419"><ele>1184.0</ele></trkpt>
    <trkpt lat="32.74680" lon="-116.51394"><ele>1184.0</ele></trkpt>
    <trkpt lat="32.74697" lon="-116.51375"><ele>1184.0</ele></trkpt>
    <trkpt lat="32.74761" lon="-116.51355"><ele>1182.0</ele></trkpt>
    <trkpt lat="32.74793" lon="-116.51380"><ele>1182.0</ele></trkpt>
    <trkpt lat="32.74833" lon="-116.51400"><ele>1182.0</ele></trkpt>
    <trkpt lat="32.74852" lon="-116.51422"><ele>1185.0</ele></trkpt>
    <trkpt lat="32.74866" lon="-116.51458"><ele>1185.0</ele></trkpt>
    <trkpt lat="32.74915" lon="-116.51498"><ele>1185.0</ele></trkpt>
    <trkpt lat="32.74969" lon="-116.51542"><ele>1188.0</ele></trkpt>
    <trkpt lat="32.74970" lon="-116.51544"><ele>1188.0</ele></trkpt>
    <trkpt lat="32.74971" lon="-116.51546"><ele>1188.0</ele></trkpt>
    <trkpt lat="32.74984" lon="-116.51565"><ele>1188.0</ele></trkpt>
    <trkpt lat="32.74993" lon="-116.51571"><ele>1188.0</ele></trkpt>
    <trkpt lat="32.75036" lon="-116.51597"><ele>1188.0</ele></trkpt>
    <trkpt lat="32.75042" lon="-116.51604"><ele>1190.0</ele></trkpt>
    <trkpt lat="32.75051" lon="-116.51614"><ele>1190.0</ele></trkpt>
    <trkpt lat="32.75077" lon="-116.51641"><ele>1190.0</ele></trkpt>
    <trkpt lat="32.75106" lon="-116.51659"><ele>1194.0</ele></trkpt>
    <trkpt lat="32.75155" lon="-116.51671"><ele>1194.0</ele></trkpt>
    <trkpt lat="32.75211" lon="-116.51664"><ele>1194.0</ele></trkpt>
    <trkpt lat="32.75248" lon="-116.51667"><ele>1199.0</ele></trkpt>
    <trkpt lat="32.75255" lon="-116.51668"><ele>1199.0</ele></trkpt>
    <trkpt lat="32.75308" lon="-116.51659"><ele>1199.0</ele></trkpt>
    <trkpt lat="32.75318" lon="-116.51659"><ele>1199.0</ele></trkpt>
    <trkpt lat="32.75332" lon="-116.51658"><ele>1199.0</ele></trkpt>
    <trkpt lat="32.75337" lon="-116.51646"><ele>1199.0</ele></trkpt>
    <trkpt lat="32.75362" lon="-116.51637"><ele>1202.0</ele></trkpt>
    <trkpt lat="32.75366" lon="-116.51641"><ele>1202.0</ele></trkpt>
  </trkseg></trk>
</gpx>
