<?xml version="1.0" encoding="UTF-8"?>
<gpx version="1.1" creator="dirt-bikes build-area-routes (MVUM geometry + SRTM elevation)" xmlns="http://www.topografix.com/GPX/1/1">
  <trk><name>Long Canyon Road</name><trkseg>
    <trkpt lat="33.63755" lon="-117.42208"><ele>733.0</ele></trkpt>
    <trkpt lat="33.63772" lon="-117.42277"><ele>733.0</ele></trkpt>
    <trkpt lat="33.63795" lon="-117.42350"><ele>732.0</ele></trkpt>
    <trkpt lat="33.63807" lon="-117.42431"><ele>731.0</ele></trkpt>
    <trkpt lat="33.63861" lon="-117.42507"><ele>731.0</ele></trkpt>
    <trkpt lat="33.63883" lon="-117.42540"><ele>735.0</ele></trkpt>
    <trkpt lat="33.63903" lon="-117.42646"><ele>740.0</ele></trkpt>
    <trkpt lat="33.63905" lon="-117.42764"><ele>740.0</ele></trkpt>
    <trkpt lat="33.63903" lon="-117.42882"><ele>754.0</ele></trkpt>
    <trkpt lat="33.63945" lon="-117.42999"><ele>756.0</ele></trkpt>
    <trkpt lat="33.63961" lon="-117.43059"><ele>756.0</ele></trkpt>
    <trkpt lat="33.64027" lon="-117.43141"><ele>755.0</ele></trkpt>
    <trkpt lat="33.64041" lon="-117.43177"><ele>756.0</ele></trkpt>
    <trkpt lat="33.64029" lon="-117.43230"><ele>756.0</ele></trkpt>
    <trkpt lat="33.64007" lon="-117.43296"><ele>753.0</ele></trkpt>
    <trkpt lat="33.64009" lon="-117.43303"><ele>753.0</ele></trkpt>
    <trkpt lat="33.64020" lon="-117.43340"><ele>753.0</ele></trkpt>
    <trkpt lat="33.64057" lon="-117.43399"><ele>757.0</ele></trkpt>
    <trkpt lat="33.64105" lon="-117.43495"><ele>766.0</ele></trkpt>
    <trkpt lat="33.64124" lon="-117.43587"><ele>766.0</ele></trkpt>
    <trkpt lat="33.64143" lon="-117.43619"><ele>784.0</ele></trkpt>
    <trkpt lat="33.64176" lon="-117.43617"><ele>784.0</ele></trkpt>
    <trkpt lat="33.64207" lon="-117.43582"><ele>786.0</ele></trkpt>
    <trkpt lat="33.64256" lon="-117.43569"><ele>791.0</ele></trkpt>
    <trkpt lat="33.64293" lon="-117.43590"><ele>791.0</ele></trkpt>
    <trkpt lat="33.64307" lon="-117.43638"><ele>812.0</ele></trkpt>
    <trkpt lat="33.64321" lon="-117.43651"><ele>817.0</ele></trkpt>
    <trkpt lat="33.64338" lon="-117.43670"><ele>817.0</ele></trkpt>
    <trkpt lat="33.64386" lon="-117.43698"><ele>830.0</ele></trkpt>
    <trkpt lat="33.64402" lon="-117.43730"><ele>836.0</ele></trkpt>
    <trkpt lat="33.64384" lon="-117.43763"><ele>836.0</ele></trkpt>
    <trkpt lat="33.64376" lon="-117.43786"><ele>841.0</ele></trkpt>
    <trkpt lat="33.64388" lon="-117.43840"><ele>848.0</ele></trkpt>
    <trkpt lat="33.64403" lon="-117.43883"><ele>848.0</ele></trkpt>
    <trkpt lat="33.64431" lon="-117.43884"><ele>861.0</ele></trkpt>
    <trkpt lat="33.64471" lon="-117.43889"><ele>864.0</ele></trkpt>
    <trkpt lat="33.64555" lon="-117.43930"><ele>864.0</ele></trkpt>
    <trkpt lat="33.64567" lon="-117.43951"><ele>876.0</ele></trkpt>
    <trkpt lat="33.64566" lon="-117.43993"><ele>883.0</ele></trkpt>
    <trkpt lat="33.64607" lon="-117.44029"><ele>883.0</ele></trkpt>
    <trkpt lat="33.64627" lon="-117.44064"><ele>897.0</ele></trkpt>
    <trkpt lat="33.64629" lon="-117.44096"><ele>897.0</ele></trkpt>
    <trkpt lat="33.64650" lon="-117.44109"><ele>907.0</ele></trkpt>
    <trkpt lat="33.64686" lon="-117.44114"><ele>911.0</ele></trkpt>
    <trkpt lat="33.64712" lon="-117.44158"><ele>911.0</ele></trkpt>
    <trkpt lat="33.64706" lon="-117.44188"><ele>929.0</ele></trkpt>
    <trkpt lat="33.64683" lon="-117.44228"><ele>932.0</ele></trkpt>
    <trkpt lat="33.64673" lon="-117.44247"><ele>932.0</ele></trkpt>
    <trkpt lat="33.64674" lon="-117.44308"><ele>938.0</ele></trkpt>
    <trkpt lat="33.64669" lon="-117.44379"><ele>940.0</ele></trkpt>
    <trkpt lat="33.64671" lon="-117.44402"><ele>940.0</ele></trkpt>
    <trkpt lat="33.64676" lon="-117.44457"><ele>944.0</ele></trkpt>
    <trkpt lat="33.64687" lon="-117.44517"><ele>947.0</ele></trkpt>
    <trkpt lat="33.64696" lon="-117.44523"><ele>947.0</ele></trkpt>
    <trkpt lat="33.64696" lon="-117.44523"><ele>948.0</ele></trkpt>
    <trkpt lat="33.64709" lon="-117.44534"><ele>950.0</ele></trkpt>
    <trkpt lat="33.64717" lon="-117.44541"><ele>950.0</ele></trkpt>
    <trkpt lat="33.64761" lon="-117.44543"><ele>956.0</ele></trkpt>
    <trkpt lat="33.64821" lon="-117.44557"><ele>961.0</ele></trkpt>
    <trkpt lat="33.64875" lon="-117.44570"><ele>961.0</ele></trkpt>
    <trkpt lat="33.64901" lon="-117.44593"><ele>969.0</ele></trkpt>
    <trkpt lat="33.64910" lon="-117.44615"><ele>969.0</ele></trkpt>
    <trkpt lat="33.64907" lon="-117.44620"><ele>971.0</ele></trkpt>
    <trkpt lat="33.64903" lon="-117.44626"><ele>970.0</ele></trkpt>
    <trkpt lat="33.64891" lon="-117.44623"><ele>970.0</ele></trkpt>
    <trkpt lat="33.64873" lon="-117.44609"><ele>966.0</ele></trkpt>
    <trkpt lat="33.64840" lon="-117.44604"><ele>961.0</ele></trkpt>
    <trkpt lat="33.64810" lon="-117.44611"><ele>961.0</ele></trkpt>
    <trkpt lat="33.64797" lon="-117.44624"><ele>958.0</ele></trkpt>
    <trkpt lat="33.64798" lon="-117.44636"><ele>959.0</ele></trkpt>
    <trkpt lat="33.64798" lon="-117.44639"><ele>959.0</ele></trkpt>
    <trkpt lat="33.64813" lon="-117.44656"><ele>961.0</ele></trkpt>
    <trkpt lat="33.64829" lon="-117.44669"><ele>965.0</ele></trkpt>
    <trkpt lat="33.64839" lon="-117.44685"><ele>965.0</ele></trkpt>
    <trkpt lat="33.64836" lon="-117.44712"><ele>970.0</ele></trkpt>
    <trkpt lat="33.64816" lon="-117.44738"><ele>967.0</ele></trkpt>
    <trkpt lat="33.64813" lon="-117.44763"><ele>967.0</ele></trkpt>
    <trkpt lat="33.64823" lon="-117.44794"><ele>972.0</ele></trkpt>
    <trkpt lat="33.64830" lon="-117.44804"><ele>972.0</ele></trkpt>
    <trkpt lat="33.64837" lon="-117.44814"><ele>978.0</ele></trkpt>
    <trkpt lat="33.64835" lon="-117.44832"><ele>978.0</ele></trkpt>
    <trkpt lat="33.64833" lon="-117.44857"><ele>978.0</ele></trkpt>
    <trkpt lat="33.64849" lon="-117.44870"><ele>977.0</ele></trkpt>
    <trkpt lat="33.64884" lon="-117.44853"><ele>988.0</ele></trkpt>
    <trkpt lat="33.64914" lon="-117.44835"><ele>988.0</ele></trkpt>
    <trkpt lat="33.64931" lon="-117.44838"><ele>1001.0</ele></trkpt>
    <trkpt lat="33.64939" lon="-117.44854"><ele>999.0</ele></trkpt>
    <trkpt lat="33.64935" lon="-117.44871"><ele>999.0</ele></trkpt>
    <trkpt lat="33.64939" lon="-117.44889"><ele>991.0</ele></trkpt>
    <trkpt lat="33.64957" lon="-117.44893"><ele>994.0</ele></trkpt>
    <trkpt lat="33.65009" lon="-117.44885"><ele>994.0</ele></trkpt>
    <trkpt lat="33.65036" lon="-117.44881"><ele>1004.0</ele></trkpt>
    <trkpt lat="33.65054" lon="-117.44868"><ele>1007.0</ele></trkpt>
    <trkpt lat="33.65107" lon="-117.44788"><ele>1007.0</ele></trkpt>
    <trkpt lat="33.65112" lon="-117.44781"><ele>1018.0</ele></trkpt>
    <trkpt lat="33.65169" lon="-117.44767"><ele>1027.0</ele></trkpt>
    <trkpt lat="33.65204" lon="-117.44774"><ele>1027.0</ele></trkpt>
    <trkpt lat="33.65215" lon="-117.44799"><ele>1033.0</ele></trkpt>
    <trkpt lat="33.65228" lon="-117.44820"><ele>1033.0</ele></trkpt>
    <trkpt lat="33.65229" lon="-117.44821"><ele>1035.0</ele></trkpt>
    <trkpt lat="33.65240" lon="-117.44838"><ele>1036.0</ele></trkpt>
    <trkpt lat="33.65281" lon="-117.44856"><ele>1036.0</ele></trkpt>
    <trkpt lat="33.65301" lon="-117.44853"><ele>1036.0</ele></trkpt>
    <trkpt lat="33.65327" lon="-117.44864"><ele>1034.0</ele></trkpt>
    <trkpt lat="33.65376" lon="-117.44870"><ele>1034.0</ele></trkpt>
    <trkpt lat="33.65420" lon="-117.44885"><ele>1025.0</ele></trkpt>
    <trkpt lat="33.65456" lon="-117.44872"><ele>1025.0</ele></trkpt>
    <trkpt lat="33.65471" lon="-117.44856"><ele>1025.0</ele></trkpt>
    <trkpt lat="33.65502" lon="-117.44850"><ele>1023.0</ele></trkpt>
    <trkpt lat="33.65570" lon="-117.44842"><ele>1023.0</ele></trkpt>
    <trkpt lat="33.65650" lon="-117.44804"><ele>1023.0</ele></trkpt>
    <trkpt lat="33.65681" lon="-117.44797"><ele>1022.0</ele></trkpt>
    <trkpt lat="33.65698" lon="-117.44808"><ele>1022.0</ele></trkpt>
    <trkpt lat="33.65706" lon="-117.44831"><ele>1022.0</ele></trkpt>
    <trkpt lat="33.65701" lon="-117.44871"><ele>1021.0</ele></trkpt>
    <trkpt lat="33.65693" lon="-117.44964"><ele>1018.0</ele></trkpt>
    <trkpt lat="33.65702" lon="-117.45004"><ele>1018.0</ele></trkpt>
    <trkpt lat="33.65733" lon="-117.45028"><ele>1016.0</ele></trkpt>
    <trkpt lat="33.65759" lon="-117.45060"><ele>1016.0</ele></trkpt>
    <trkpt lat="33.65764" lon="-117.45076"><ele>1015.0</ele></trkpt>
    <trkpt lat="33.65779" lon="-117.45080"><ele>1017.0</ele></trkpt>
    <trkpt lat="33.65793" lon="-117.45068"><ele>1017.0</ele></trkpt>
    <trkpt lat="33.65818" lon="-117.45015"><ele>1022.0</ele></trkpt>
    <trkpt lat="33.65843" lon="-117.44978"><ele>1025.0</ele></trkpt>
    <trkpt lat="33.65881" lon="-117.44944"><ele>1025.0</ele></trkpt>
    <trkpt lat="33.65913" lon="-117.44921"><ele>1024.0</ele></trkpt>
    <trkpt lat="33.65964" lon="-117.44923"><ele>1027.0</ele></trkpt>
    <trkpt lat="33.65994" lon="-117.44917"><ele>1027.0</ele></trkpt>
    <trkpt lat="33.66017" lon="-117.44882"><ele>1029.0</ele></trkpt>
    <trkpt lat="33.66033" lon="-117.44827"><ele>1028.0</ele></trkpt>
    <trkpt lat="33.66065" lon="-117.44802"><ele>1028.0</ele></trkpt>
    <trkpt lat="33.66087" lon="-117.44768"><ele>1022.0</ele></trkpt>
    <trkpt lat="33.66109" lon="-117.44752"><ele>1021.0</ele></trkpt>
    <trkpt lat="33.66145" lon="-117.44771"><ele>1021.0</ele></trkpt>
    <trkpt lat="33.66167" lon="-117.44779"><ele>1041.0</ele></trkpt>
    <trkpt lat="33.66192" lon="-117.44769"><ele>1038.0</ele></trkpt>
    <trkpt lat="33.66225" lon="-117.44778"><ele>1038.0</ele></trkpt>
    <trkpt lat="33.66238" lon="-117.44789"><ele>1041.0</ele></trkpt>
  </trkseg></trk>
</gpx>
