<?xml version="1.0" encoding="UTF-8"?>
<gpx version="1.1" creator="dirt-bikes build-area-routes (MVUM geometry + SRTM elevation)" xmlns="http://www.topografix.com/GPX/1/1">
  <trk><name>Los Pinos Road</name><trkseg>
    <trkpt lat="32.75248" lon="-116.57290"><ele>1233.0</ele></trkpt>
    <trkpt lat="32.75219" lon="-116.57279"><ele>1233.0</ele></trkpt>
    <trkpt lat="32.75158" lon="-116.57268"><ele>1236.0</ele></trkpt>
    <trkpt lat="32.75143" lon="-116.57275"><ele>1236.0</ele></trkpt>
    <trkpt lat="32.75079" lon="-116.57373"><ele>1244.0</ele></trkpt>
    <trkpt lat="32.75049" lon="-116.57414"><ele>1244.0</ele></trkpt>
    <trkpt lat="32.75015" lon="-116.57436"><ele>1242.0</ele></trkpt>
    <trkpt lat="32.74989" lon="-116.57452"><ele>1242.0</ele></trkpt>
    <trkpt lat="32.74983" lon="-116.57474"><ele>1242.0</ele></trkpt>
    <trkpt lat="32.74984" lon="-116.57502"><ele>1238.0</ele></trkpt>
    <trkpt lat="32.74981" lon="-116.57520"><ele>1238.0</ele></trkpt>
    <trkpt lat="32.74971" lon="-116.57527"><ele>1235.0</ele></trkpt>
    <trkpt lat="32.74950" lon="-116.57486"><ele>1235.0</ele></trkpt>
    <trkpt lat="32.74941" lon="-116.57485"><ele>1233.0</ele></trkpt>
    <trkpt lat="32.74933" lon="-116.57496"><ele>1233.0</ele></trkpt>
    <trkpt lat="32.74916" lon="-116.57498"><ele>1225.0</ele></trkpt>
    <trkpt lat="32.74860" lon="-116.57499"><ele>1225.0</ele></trkpt>
    <trkpt lat="32.74848" lon="-116.57483"><ele>1222.0</ele></trkpt>
    <trkpt lat="32.74832" lon="-116.57447"><ele>1222.0</ele></trkpt>
    <trkpt lat="32.74817" lon="-116.57431"><ele>1222.0</ele></trkpt>
    <trkpt lat="32.74800" lon="-116.57429"><ele>1218.0</ele></trkpt>
    <trkpt lat="32.74797" lon="-116.57449"><ele>1218.0</ele></trkpt>
    <trkpt lat="32.74804" lon="-116.57485"><ele>1215.0</ele></trkpt>
    <trkpt lat="32.74803" lon="-116.57510"><ele>1215.0</ele></trkpt>
    <trkpt lat="32.74794" lon="-116.57532"><ele>1211.0</ele></trkpt>
    <trkpt lat="32.74772" lon="-116.57534"><ele>1211.0</ele></trkpt>
    <trkpt lat="32.74772" lon="-116.57534"><ele>1211.0</ele></trkpt>
    <trkpt lat="32.74751" lon="-116.57537"><ele>1211.0</ele></trkpt>
    <trkpt lat="32.74749" lon="-116.57539"><ele>1211.0</ele></trkpt>
    <trkpt lat="32.74716" lon="-116.57601"><ele>1211.0</ele></trkpt>
    <trkpt lat="32.74690" lon="-116.57626"><ele>1232.0</ele></trkpt>
    <trkpt lat="32.74647" lon="-116.57701"><ele>1232.0</ele></trkpt>
    <trkpt lat="32.74632" lon="-116.57719"><ele>1232.0</ele></trkpt>
    <trkpt lat="32.74605" lon="-116.57736"><ele>1243.0</ele></trkpt>
    <trkpt lat="32.74591" lon="-116.57766"><ele>1243.0</ele></trkpt>
    <trkpt lat="32.74620" lon="-116.57815"><ele>1241.0</ele></trkpt>
    <trkpt lat="32.74614" lon="-116.57851"><ele>1241.0</ele></trkpt>
    <trkpt lat="32.74594" lon="-116.57884"><ele>1251.0</ele></trkpt>
    <trkpt lat="32.74568" lon="-116.57888"><ele>1251.0</ele></trkpt>
    <trkpt lat="32.74555" lon="-116.57900"><ele>1259.0</ele></trkpt>
    <trkpt lat="32.74555" lon="-116.57910"><ele>1259.0</ele></trkpt>
    <trkpt lat="32.74569" lon="-116.57920"><ele>1257.0</ele></trkpt>
    <trkpt lat="32.74586" lon="-116.57945"><ele>1257.0</ele></trkpt>
    <trkpt lat="32.74585" lon="-116.57967"><ele>1257.0</ele></trkpt>
    <trkpt lat="32.74600" lon="-116.58015"><ele>1257.0</ele></trkpt>
    <trkpt lat="32.74591" lon="-116.58026"><ele>1257.0</ele></trkpt>
    <trkpt lat="32.74542" lon="-116.58022"><ele>1263.0</ele></trkpt>
    <trkpt lat="32.74469" lon="-116.58026"><ele>1263.0</ele></trkpt>
    <trkpt lat="32.74388" lon="-116.58015"><ele>1274.0</ele></trkpt>
    <trkpt lat="32.74336" lon="-116.57986"><ele>1274.0</ele></trkpt>
    <trkpt lat="32.74271" lon="-116.57972"><ele>1285.0</ele></trkpt>
    <trkpt lat="32.74243" lon="-116.57958"><ele>1285.0</ele></trkpt>
    <trkpt lat="32.74203" lon="-116.57954"><ele>1296.0</ele></trkpt>
    <trkpt lat="32.74189" lon="-116.57977"><ele>1296.0</ele></trkpt>
    <trkpt lat="32.74173" lon="-116.58015"><ele>1296.0</ele></trkpt>
    <trkpt lat="32.74184" lon="-116.58044"><ele>1291.0</ele></trkpt>
    <trkpt lat="32.74178" lon="-116.58085"><ele>1291.0</ele></trkpt>
    <trkpt lat="32.74164" lon="-116.58103"><ele>1294.0</ele></trkpt>
    <trkpt lat="32.74159" lon="-116.58116"><ele>1294.0</ele></trkpt>
    <trkpt lat="32.74172" lon="-116.58135"><ele>1290.0</ele></trkpt>
    <trkpt lat="32.74159" lon="-116.58175"><ele>1290.0</ele></trkpt>
    <trkpt lat="32.74159" lon="-116.58201"><ele>1289.0</ele></trkpt>
    <trkpt lat="32.74151" lon="-116.58217"><ele>1289.0</ele></trkpt>
    <trkpt lat="32.74147" lon="-116.58205"><ele>1296.0</ele></trkpt>
    <trkpt lat="32.74149" lon="-116.58154"><ele>1296.0</ele></trkpt>
    <trkpt lat="32.74142" lon="-116.58109"><ele>1296.0</ele></trkpt>
    <trkpt lat="32.74150" lon="-116.58094"><ele>1298.0</ele></trkpt>
    <trkpt lat="32.74154" lon="-116.58068"><ele>1298.0</ele></trkpt>
    <trkpt lat="32.74146" lon="-116.58047"><ele>1302.0</ele></trkpt>
    <trkpt lat="32.74121" lon="-116.58019"><ele>1302.0</ele></trkpt>
    <trkpt lat="32.74107" lon="-116.57972"><ele>1321.0</ele></trkpt>
    <trkpt lat="32.74116" lon="-116.57906"><ele>1321.0</ele></trkpt>
    <trkpt lat="32.74131" lon="-116.57874"><ele>1325.0</ele></trkpt>
    <trkpt lat="32.74184" lon="-116.57829"><ele>1325.0</ele></trkpt>
    <trkpt lat="32.74193" lon="-116.57809"><ele>1324.0</ele></trkpt>
    <trkpt lat="32.74168" lon="-116.57740"><ele>1324.0</ele></trkpt>
    <trkpt lat="32.74117" lon="-116.57747"><ele>1338.0</ele></trkpt>
    <trkpt lat="32.74107" lon="-116.57765"><ele>1338.0</ele></trkpt>
    <trkpt lat="32.74076" lon="-116.57788"><ele>1338.0</ele></trkpt>
    <trkpt lat="32.74061" lon="-116.57844"><ele>1343.0</ele></trkpt>
    <trkpt lat="32.74032" lon="-116.57880"><ele>1343.0</ele></trkpt>
    <trkpt lat="32.74018" lon="-116.57915"><ele>1353.0</ele></trkpt>
    <trkpt lat="32.74023" lon="-116.57942"><ele>1353.0</ele></trkpt>
    <trkpt lat="32.74020" lon="-116.57955"><ele>1348.0</ele></trkpt>
    <trkpt lat="32.73974" lon="-116.57961"><ele>1348.0</ele></trkpt>
    <trkpt lat="32.73943" lon="-116.57954"><ele>1371.0</ele></trkpt>
    <trkpt lat="32.73929" lon="-116.57958"><ele>1371.0</ele></trkpt>
    <trkpt lat="32.73918" lon="-116.57979"><ele>1370.0</ele></trkpt>
    <trkpt lat="32.73913" lon="-116.58003"><ele>1370.0</ele></trkpt>
    <trkpt lat="32.73900" lon="-116.58002"><ele>1370.0</ele></trkpt>
    <trkpt lat="32.73895" lon="-116.57991"><ele>1376.0</ele></trkpt>
    <trkpt lat="32.73912" lon="-116.57946"><ele>1376.0</ele></trkpt>
    <trkpt lat="32.73923" lon="-116.57930"><ele>1381.0</ele></trkpt>
    <trkpt lat="32.73951" lon="-116.57905"><ele>1381.0</ele></trkpt>
    <trkpt lat="32.73969" lon="-116.57882"><ele>1367.0</ele></trkpt>
    <trkpt lat="32.73962" lon="-116.57880"><ele>1367.0</ele></trkpt>
    <trkpt lat="32.73943" lon="-116.57887"><ele>1375.0</ele></trkpt>
    <trkpt lat="32.73934" lon="-116.57903"><ele>1375.0</ele></trkpt>
    <trkpt lat="32.73890" lon="-116.57942"><ele>1392.0</ele></trkpt>
    <trkpt lat="32.73853" lon="-116.57952"><ele>1392.0</ele></trkpt>
    <trkpt lat="32.73787" lon="-116.57978"><ele>1392.0</ele></trkpt>
    <trkpt lat="32.73767" lon="-116.57998"><ele>1399.0</ele></trkpt>
    <trkpt lat="32.73743" lon="-116.58002"><ele>1399.0</ele></trkpt>
    <trkpt lat="32.73704" lon="-116.57967"><ele>1408.0</ele></trkpt>
    <trkpt lat="32.73663" lon="-116.57947"><ele>1408.0</ele></trkpt>
    <trkpt lat="32.73618" lon="-116.57915"><ele>1423.0</ele></trkpt>
    <trkpt lat="32.73605" lon="-116.57923"><ele>1423.0</ele></trkpt>
    <trkpt lat="32.73605" lon="-116.57923"><ele>1422.0</ele></trkpt>
    <trkpt lat="32.73587" lon="-116.57934"><ele>1422.0</ele></trkpt>
    <trkpt lat="32.73583" lon="-116.57935"><ele>1419.0</ele></trkpt>
    <trkpt lat="32.73565" lon="-116.57939"><ele>1419.0</ele></trkpt>
    <trkpt lat="32.73503" lon="-116.57959"><ele>1419.0</ele></trkpt>
    <trkpt lat="32.73459" lon="-116.57986"><ele>1405.0</ele></trkpt>
    <trkpt lat="32.73410" lon="-116.57998"><ele>1405.0</ele></trkpt>
    <trkpt lat="32.73377" lon="-116.57995"><ele>1395.0</ele></trkpt>
    <trkpt lat="32.73363" lon="-116.57951"><ele>1395.0</ele></trkpt>
    <trkpt lat="32.73343" lon="-116.57933"><ele>1396.0</ele></trkpt>
    <trkpt lat="32.73333" lon="-116.57907"><ele>1396.0</ele></trkpt>
    <trkpt lat="32.73310" lon="-116.57896"><ele>1395.0</ele></trkpt>
    <trkpt lat="32.73281" lon="-116.57901"><ele>1395.0</ele></trkpt>
    <trkpt lat="32.73252" lon="-116.57899"><ele>1377.0</ele></trkpt>
    <trkpt lat="32.73213" lon="-116.57880"><ele>1377.0</ele></trkpt>
    <trkpt lat="32.73194" lon="-116.57848"><ele>1377.0</ele></trkpt>
    <trkpt lat="32.73178" lon="-116.57841"><ele>1373.0</ele></trkpt>
    <trkpt lat="32.73150" lon="-116.57818"><ele>1373.0</ele></trkpt>
    <trkpt lat="32.73142" lon="-116.57795"><ele>1358.0</ele></trkpt>
    <trkpt lat="32.73206" lon="-116.57680"><ele>1358.0</ele></trkpt>
    <trkpt lat="32.73207" lon="-116.57665"><ele>1362.0</ele></trkpt>
    <trkpt lat="32.73197" lon="-116.57655"><ele>1362.0</ele></trkpt>
    <trkpt lat="32.73139" lon="-116.57630"><ele>1345.0</ele></trkpt>
    <trkpt lat="32.73085" lon="-116.57577"><ele>1345.0</ele></trkpt>
    <trkpt lat="32.73062" lon="-116.57574"><ele>1332.0</ele></trkpt>
    <trkpt lat="32.73044" lon="-116.57556"><ele>1332.0</ele></trkpt>
    <trkpt lat="32.73025" lon="-116.57549"><ele>1323.0</ele></trkpt>
    <trkpt lat="32.73004" lon="-116.57567"><ele>1323.0</ele></trkpt>
    <trkpt lat="32.72980" lon="-116.57577"><ele>1323.0</ele></trkpt>
    <trkpt lat="32.72920" lon="-116.57556"><ele>1308.0</ele></trkpt>
    <trkpt lat="32.72913" lon="-116.57537"><ele>1308.0</ele></trkpt>
    <trkpt lat="32.72923" lon="-116.57495"><ele>1305.0</ele></trkpt>
    <trkpt lat="32.72943" lon="-116.57467"><ele>1305.0</ele></trkpt>
    <trkpt lat="32.73012" lon="-116.57424"><ele>1301.0</ele></trkpt>
    <trkpt lat="32.73026" lon="-116.57382"><ele>1301.0</ele></trkpt>
    <trkpt lat="32.73060" lon="-116.57337"><ele>1292.0</ele></trkpt>
    <trkpt lat="32.73059" lon="-116.57318"><ele>1292.0</ele></trkpt>
    <trkpt lat="32.73017" lon="-116.57278"><ele>1275.0</ele></trkpt>
    <trkpt lat="32.73018" lon="-116.57255"><ele>1275.0</ele></trkpt>
    <trkpt lat="32.73033" lon="-116.57220"><ele>1275.0</ele></trkpt>
    <trkpt lat="32.72985" lon="-116.57187"><ele>1267.0</ele></trkpt>
    <trkpt lat="32.72948" lon="-116.57192"><ele>1267.0</ele></trkpt>
    <trkpt lat="32.72919" lon="-116.57172"><ele>1256.0</ele></trkpt>
    <trkpt lat="32.72898" lon="-116.57128"><ele>1256.0</ele></trkpt>
    <trkpt lat="32.72909" lon="-116.57088"><ele>1246.0</ele></trkpt>
    <trkpt lat="32.72929" lon="-116.57069"><ele>1246.0</ele></trkpt>
    <trkpt lat="32.72970" lon="-116.57072"><ele>1244.0</ele></trkpt>
    <trkpt lat="32.73003" lon="-116.57086"><ele>1244.0</ele></trkpt>
    <trkpt lat="32.73075" lon="-116.57036"><ele>1242.0</ele></trkpt>
    <trkpt lat="32.73112" lon="-116.57028"><ele>1242.0</ele></trkpt>
    <trkpt lat="32.73153" lon="-116.56957"><ele>1242.0</ele></trkpt>
    <trkpt lat="32.73148" lon="-116.56930"><ele>1228.0</ele></trkpt>
    <trkpt lat="32.73159" lon="-116.56902"><ele>1228.0</ele></trkpt>
    <trkpt lat="32.73188" lon="-116.56881"><ele>1224.0</ele></trkpt>
    <trkpt lat="32.73212" lon="-116.56890"><ele>1224.0</ele></trkpt>
    <trkpt lat="32.73235" lon="-116.56896"><ele>1231.0</ele></trkpt>
    <trkpt lat="32.73264" lon="-116.56853"><ele>1231.0</ele></trkpt>
    <trkpt lat="32.73244" lon="-116.56816"><ele>1224.0</ele></trkpt>
    <trkpt lat="32.73236" lon="-116.56780"><ele>1224.0</ele></trkpt>
    <trkpt lat="32.73220" lon="-116.56734"><ele>1214.0</ele></trkpt>
    <trkpt lat="32.73189" lon="-116.56730"><ele>1214.0</ele></trkpt>
    <trkpt lat="32.73172" lon="-116.56728"><ele>1214.0</ele></trkpt>
    <trkpt lat="32.73151" lon="-116.56711"><ele>1210.0</ele></trkpt>
    <trkpt lat="32.73073" lon="-116.56693"><ele>1210.0</ele></trkpt>
    <trkpt lat="32.73049" lon="-116.56679"><ele>1205.0</ele></trkpt>
    <trkpt lat="32.73032" lon="-116.56655"><ele>1205.0</ele></trkpt>
    <trkpt lat="32.73009" lon="-116.56632"><ele>1203.0</ele></trkpt>
    <trkpt lat="32.72957" lon="-116.56633"><ele>1203.0</ele></trkpt>
    <trkpt lat="32.72903" lon="-116.56626"><ele>1191.0</ele></trkpt>
    <trkpt lat="32.72870" lon="-116.56585"><ele>1191.0</ele></trkpt>
    <trkpt lat="32.72821" lon="-116.56533"><ele>1190.0</ele></trkpt>
    <trkpt lat="32.72790" lon="-116.56507"><ele>1190.0</ele></trkpt>
    <trkpt lat="32.72783" lon="-116.56479"><ele>1187.0</ele></trkpt>
    <trkpt lat="32.72760" lon="-116.56461"><ele>1187.0</ele></trkpt>
    <trkpt lat="32.72727" lon="-116.56420"><ele>1187.0</ele></trkpt>
    <trkpt lat="32.72703" lon="-116.56363"><ele>1187.0</ele></trkpt>
    <trkpt lat="32.72684" lon="-116.56340"><ele>1187.0</ele></trkpt>
    <trkpt lat="32.72652" lon="-116.56276"><ele>1193.0</ele></trkpt>
    <trkpt lat="32.72612" lon="-116.56256"><ele>1193.0</ele></trkpt>
    <trkpt lat="32.72532" lon="-116.56205"><ele>1184.0</ele></trkpt>
    <trkpt lat="32.72523" lon="-116.56149"><ele>1184.0</ele></trkpt>
    <trkpt lat="32.72520" lon="-116.56132"><ele>1182.0</ele></trkpt>
    <trkpt lat="32.72538" lon="-116.56071"><ele>1182.0</ele></trkpt>
    <trkpt lat="32.72543" lon="-116.56061"><ele>1175.0</ele></trkpt>
    <trkpt lat="32.72548" lon="-116.56047"><ele>1175.0</ele></trkpt>
    <trkpt lat="32.72578" lon="-116.56040"><ele>1175.0</ele></trkpt>
    <trkpt lat="32.72587" lon="-116.56026"><ele>1171.0</ele></trkpt>
    <trkpt lat="32.72583" lon="-116.56006"><ele>1171.0</ele></trkpt>
    <trkpt lat="32.72498" lon="-116.55925"><ele>1168.0</ele></trkpt>
  </trkseg></trk>
</gpx>
