<?xml version="1.0" encoding="UTF-8"?>
<gpx version="1.1" creator="dirt-bikes build-area-routes (MVUM geometry + SRTM elevation)" xmlns="http://www.topografix.com/GPX/1/1">
  <trk><name>Maple Springs Road</name><trkseg>
    <trkpt lat="33.74706" lon="-117.58402"><ele>571.0</ele></trkpt>
    <trkpt lat="33.74725" lon="-117.58385"><ele>571.0</ele></trkpt>
    <trkpt lat="33.74738" lon="-117.58361"><ele>571.0</ele></trkpt>
    <trkpt lat="33.74820" lon="-117.58253"><ele>576.0</ele></trkpt>
    <trkpt lat="33.74872" lon="-117.58246"><ele>576.0</ele></trkpt>
    <trkpt lat="33.74901" lon="-117.58217"><ele>576.0</ele></trkpt>
    <trkpt lat="33.74915" lon="-117.58203"><ele>576.0</ele></trkpt>
    <trkpt lat="33.74921" lon="-117.58197"><ele>583.0</ele></trkpt>
    <trkpt lat="33.75001" lon="-117.58108"><ele>583.0</ele></trkpt>
    <trkpt lat="33.75038" lon="-117.58058"><ele>583.0</ele></trkpt>
    <trkpt lat="33.75080" lon="-117.58005"><ele>583.0</ele></trkpt>
    <trkpt lat="33.75103" lon="-117.57955"><ele>597.0</ele></trkpt>
    <trkpt lat="33.75117" lon="-117.57923"><ele>597.0</ele></trkpt>
    <trkpt lat="33.75122" lon="-117.57882"><ele>597.0</ele></trkpt>
    <trkpt lat="33.75134" lon="-117.57839"><ele>609.0</ele></trkpt>
    <trkpt lat="33.75151" lon="-117.57793"><ele>609.0</ele></trkpt>
    <trkpt lat="33.75154" lon="-117.57775"><ele>609.0</ele></trkpt>
    <trkpt lat="33.75164" lon="-117.57738"><ele>609.0</ele></trkpt>
    <trkpt lat="33.75173" lon="-117.57683"><ele>615.0</ele></trkpt>
    <trkpt lat="33.75180" lon="-117.57641"><ele>615.0</ele></trkpt>
    <trkpt lat="33.75206" lon="-117.57603"><ele>615.0</ele></trkpt>
    <trkpt lat="33.75224" lon="-117.57572"><ele>615.0</ele></trkpt>
    <trkpt lat="33.75226" lon="-117.57534"><ele>624.0</ele></trkpt>
    <trkpt lat="33.75223" lon="-117.57507"><ele>624.0</ele></trkpt>
    <trkpt lat="33.75205" lon="-117.57463"><ele>624.0</ele></trkpt>
    <trkpt lat="33.75173" lon="-117.57412"><ele>624.0</ele></trkpt>
    <trkpt lat="33.75150" lon="-117.57380"><ele>641.0</ele></trkpt>
    <trkpt lat="33.75143" lon="-117.57355"><ele>641.0</ele></trkpt>
    <trkpt lat="33.75151" lon="-117.57318"><ele>641.0</ele></trkpt>
    <trkpt lat="33.75156" lon="-117.57294"><ele>641.0</ele></trkpt>
    <trkpt lat="33.75152" lon="-117.57258"><ele>652.0</ele></trkpt>
    <trkpt lat="33.75134" lon="-117.57184"><ele>652.0</ele></trkpt>
    <trkpt lat="33.75109" lon="-117.57157"><ele>652.0</ele></trkpt>
    <trkpt lat="33.75111" lon="-117.57125"><ele>652.0</ele></trkpt>
    <trkpt lat="33.75121" lon="-117.57094"><ele>646.0</ele></trkpt>
    <trkpt lat="33.75162" lon="-117.57087"><ele>646.0</ele></trkpt>
    <trkpt lat="33.75177" lon="-117.57055"><ele>646.0</ele></trkpt>
    <trkpt lat="33.75198" lon="-117.57010"><ele>646.0</ele></trkpt>
    <trkpt lat="33.75208" lon="-117.56977"><ele>658.0</ele></trkpt>
    <trkpt lat="33.75242" lon="-117.56912"><ele>658.0</ele></trkpt>
    <trkpt lat="33.75244" lon="-117.56869"><ele>658.0</ele></trkpt>
    <trkpt lat="33.75252" lon="-117.56826"><ele>669.0</ele></trkpt>
    <trkpt lat="33.75276" lon="-117.56801"><ele>669.0</ele></trkpt>
    <trkpt lat="33.75403" lon="-117.56685"><ele>669.0</ele></trkpt>
    <trkpt lat="33.75409" lon="-117.56670"><ele>669.0</ele></trkpt>
    <trkpt lat="33.75415" lon="-117.56643"><ele>687.0</ele></trkpt>
    <trkpt lat="33.75400" lon="-117.56614"><ele>687.0</ele></trkpt>
    <trkpt lat="33.75391" lon="-117.56571"><ele>687.0</ele></trkpt>
    <trkpt lat="33.75389" lon="-117.56547"><ele>687.0</ele></trkpt>
    <trkpt lat="33.75399" lon="-117.56515"><ele>687.0</ele></trkpt>
    <trkpt lat="33.75404" lon="-117.56493"><ele>687.0</ele></trkpt>
    <trkpt lat="33.75417" lon="-117.56482"><ele>687.0</ele></trkpt>
    <trkpt lat="33.75438" lon="-117.56445"><ele>687.0</ele></trkpt>
    <trkpt lat="33.75453" lon="-117.56402"><ele>697.0</ele></trkpt>
    <trkpt lat="33.75450" lon="-117.56380"><ele>697.0</ele></trkpt>
    <trkpt lat="33.75433" lon="-117.56323"><ele>697.0</ele></trkpt>
    <trkpt lat="33.75417" lon="-117.56264"><ele>697.0</ele></trkpt>
    <trkpt lat="33.75401" lon="-117.56207"><ele>711.0</ele></trkpt>
    <trkpt lat="33.75401" lon="-117.56177"><ele>711.0</ele></trkpt>
    <trkpt lat="33.75396" lon="-117.56108"><ele>711.0</ele></trkpt>
    <trkpt lat="33.75385" lon="-117.56056"><ele>711.0</ele></trkpt>
    <trkpt lat="33.75379" lon="-117.56002"><ele>719.0</ele></trkpt>
    <trkpt lat="33.75363" lon="-117.55936"><ele>719.0</ele></trkpt>
    <trkpt lat="33.75365" lon="-117.55923"><ele>719.0</ele></trkpt>
    <trkpt lat="33.75336" lon="-117.55798"><ele>719.0</ele></trkpt>
    <trkpt lat="33.75311" lon="-117.55751"><ele>756.0</ele></trkpt>
    <trkpt lat="33.75205" lon="-117.55610"><ele>756.0</ele></trkpt>
    <trkpt lat="33.75192" lon="-117.55562"><ele>756.0</ele></trkpt>
    <trkpt lat="33.75198" lon="-117.55519"><ele>761.0</ele></trkpt>
    <trkpt lat="33.75187" lon="-117.55458"><ele>761.0</ele></trkpt>
    <trkpt lat="33.75188" lon="-117.55418"><ele>761.0</ele></trkpt>
    <trkpt lat="33.75204" lon="-117.55297"><ele>761.0</ele></trkpt>
    <trkpt lat="33.75210" lon="-117.55268"><ele>775.0</ele></trkpt>
    <trkpt lat="33.75251" lon="-117.55189"><ele>775.0</ele></trkpt>
    <trkpt lat="33.75256" lon="-117.55166"><ele>775.0</ele></trkpt>
    <trkpt lat="33.75232" lon="-117.55049"><ele>775.0</ele></trkpt>
    <trkpt lat="33.75239" lon="-117.55020"><ele>814.0</ele></trkpt>
    <trkpt lat="33.75284" lon="-117.54942"><ele>814.0</ele></trkpt>
    <trkpt lat="33.75284" lon="-117.54920"><ele>814.0</ele></trkpt>
    <trkpt lat="33.75260" lon="-117.54890"><ele>814.0</ele></trkpt>
    <trkpt lat="33.75194" lon="-117.54838"><ele>821.0</ele></trkpt>
    <trkpt lat="33.75187" lon="-117.54823"><ele>821.0</ele></trkpt>
    <trkpt lat="33.75191" lon="-117.54697"><ele>821.0</ele></trkpt>
    <trkpt lat="33.75181" lon="-117.54646"><ele>821.0</ele></trkpt>
    <trkpt lat="33.75168" lon="-117.54619"><ele>838.0</ele></trkpt>
    <trkpt lat="33.75126" lon="-117.54576"><ele>838.0</ele></trkpt>
    <trkpt lat="33.75044" lon="-117.54541"><ele>838.0</ele></trkpt>
    <trkpt lat="33.75019" lon="-117.54523"><ele>838.0</ele></trkpt>
    <trkpt lat="33.75002" lon="-117.54501"><ele>867.0</ele></trkpt>
    <trkpt lat="33.74971" lon="-117.54466"><ele>867.0</ele></trkpt>
    <trkpt lat="33.74853" lon="-117.54395"><ele>867.0</ele></trkpt>
    <trkpt lat="33.74783" lon="-117.54325"><ele>899.0</ele></trkpt>
    <trkpt lat="33.74757" lon="-117.54310"><ele>899.0</ele></trkpt>
    <trkpt lat="33.74723" lon="-117.54308"><ele>899.0</ele></trkpt>
    <trkpt lat="33.74611" lon="-117.54383"><ele>899.0</ele></trkpt>
    <trkpt lat="33.74533" lon="-117.54396"><ele>924.0</ele></trkpt>
    <trkpt lat="33.74521" lon="-117.54401"><ele>924.0</ele></trkpt>
    <trkpt lat="33.74521" lon="-117.54408"><ele>924.0</ele></trkpt>
    <trkpt lat="33.74569" lon="-117.54450"><ele>924.0</ele></trkpt>
    <trkpt lat="33.74602" lon="-117.54441"><ele>924.0</ele></trkpt>
    <trkpt lat="33.74634" lon="-117.54450"><ele>924.0</ele></trkpt>
    <trkpt lat="33.74653" lon="-117.54445"><ele>924.0</ele></trkpt>
    <trkpt lat="33.74653" lon="-117.54445"><ele>924.0</ele></trkpt>
    <trkpt lat="33.74662" lon="-117.54443"><ele>927.0</ele></trkpt>
    <trkpt lat="33.74688" lon="-117.54461"><ele>927.0</ele></trkpt>
    <trkpt lat="33.74714" lon="-117.54454"><ele>927.0</ele></trkpt>
    <trkpt lat="33.74733" lon="-117.54463"><ele>927.0</ele></trkpt>
    <trkpt lat="33.74757" lon="-117.54554"><ele>944.0</ele></trkpt>
    <trkpt lat="33.74787" lon="-117.54574"><ele>944.0</ele></trkpt>
    <trkpt lat="33.74812" lon="-117.54627"><ele>944.0</ele></trkpt>
    <trkpt lat="33.74837" lon="-117.54648"><ele>944.0</ele></trkpt>
    <trkpt lat="33.74874" lon="-117.54722"><ele>964.0</ele></trkpt>
    <trkpt lat="33.74893" lon="-117.54745"><ele>964.0</ele></trkpt>
    <trkpt lat="33.74910" lon="-117.54765"><ele>964.0</ele></trkpt>
    <trkpt lat="33.74925" lon="-117.54779"><ele>964.0</ele></trkpt>
    <trkpt lat="33.74929" lon="-117.54792"><ele>952.0</ele></trkpt>
    <trkpt lat="33.74921" lon="-117.54799"><ele>952.0</ele></trkpt>
    <trkpt lat="33.74914" lon="-117.54793"><ele>952.0</ele></trkpt>
    <trkpt lat="33.74903" lon="-117.54783"><ele>972.0</ele></trkpt>
    <trkpt lat="33.74869" lon="-117.54760"><ele>972.0</ele></trkpt>
    <trkpt lat="33.74832" lon="-117.54737"><ele>972.0</ele></trkpt>
    <trkpt lat="33.74823" lon="-117.54723"><ele>972.0</ele></trkpt>
    <trkpt lat="33.74772" lon="-117.54683"><ele>993.0</ele></trkpt>
    <trkpt lat="33.74748" lon="-117.54673"><ele>993.0</ele></trkpt>
    <trkpt lat="33.74708" lon="-117.54675"><ele>993.0</ele></trkpt>
    <trkpt lat="33.74698" lon="-117.54656"><ele>993.0</ele></trkpt>
    <trkpt lat="33.74676" lon="-117.54652"><ele>1004.0</ele></trkpt>
    <trkpt lat="33.74652" lon="-117.54657"><ele>1004.0</ele></trkpt>
    <trkpt lat="33.74618" lon="-117.54653"><ele>1004.0</ele></trkpt>
    <trkpt lat="33.74557" lon="-117.54677"><ele>1004.0</ele></trkpt>
    <trkpt lat="33.74502" lon="-117.54680"><ele>1020.0</ele></trkpt>
    <trkpt lat="33.74492" lon="-117.54663"><ele>1020.0</ele></trkpt>
    <trkpt lat="33.74487" lon="-117.54652"><ele>1020.0</ele></trkpt>
    <trkpt lat="33.74472" lon="-117.54651"><ele>1020.0</ele></trkpt>
    <trkpt lat="33.74457" lon="-117.54655"><ele>1026.0</ele></trkpt>
    <trkpt lat="33.74445" lon="-117.54666"><ele>1026.0</ele></trkpt>
    <trkpt lat="33.74428" lon="-117.54676"><ele>1026.0</ele></trkpt>
    <trkpt lat="33.74410" lon="-117.54675"><ele>1026.0</ele></trkpt>
    <trkpt lat="33.74372" lon="-117.54676"><ele>1040.0</ele></trkpt>
    <trkpt lat="33.74349" lon="-117.54671"><ele>1040.0</ele></trkpt>
    <trkpt lat="33.74335" lon="-117.54659"><ele>1040.0</ele></trkpt>
    <trkpt lat="33.74310" lon="-117.54660"><ele>1040.0</ele></trkpt>
    <trkpt lat="33.74293" lon="-117.54659"><ele>1047.0</ele></trkpt>
    <trkpt lat="33.74281" lon="-117.54655"><ele>1047.0</ele></trkpt>
    <trkpt lat="33.74274" lon="-117.54639"><ele>1047.0</ele></trkpt>
    <trkpt lat="33.74267" lon="-117.54608"><ele>1030.0</ele></trkpt>
    <trkpt lat="33.74263" lon="-117.54601"><ele>1030.0</ele></trkpt>
    <trkpt lat="33.74249" lon="-117.54610"><ele>1030.0</ele></trkpt>
    <trkpt lat="33.74232" lon="-117.54622"><ele>1030.0</ele></trkpt>
    <trkpt lat="33.74219" lon="-117.54630"><ele>1048.0</ele></trkpt>
    <trkpt lat="33.74204" lon="-117.54632"><ele>1048.0</ele></trkpt>
    <trkpt lat="33.74190" lon="-117.54630"><ele>1048.0</ele></trkpt>
    <trkpt lat="33.74174" lon="-117.54612"><ele>1048.0</ele></trkpt>
    <trkpt lat="33.74159" lon="-117.54612"><ele>1046.0</ele></trkpt>
    <trkpt lat="33.74137" lon="-117.54620"><ele>1046.0</ele></trkpt>
    <trkpt lat="33.74121" lon="-117.54638"><ele>1046.0</ele></trkpt>
    <trkpt lat="33.74109" lon="-117.54659"><ele>1046.0</ele></trkpt>
    <trkpt lat="33.74101" lon="-117.54678"><ele>1060.0</ele></trkpt>
    <trkpt lat="33.74089" lon="-117.54674"><ele>1060.0</ele></trkpt>
    <trkpt lat="33.74080" lon="-117.54659"><ele>1060.0</ele></trkpt>
    <trkpt lat="33.74068" lon="-117.54652"><ele>1060.0</ele></trkpt>
    <trkpt lat="33.74045" lon="-117.54678"><ele>1076.0</ele></trkpt>
    <trkpt lat="33.74032" lon="-117.54692"><ele>1076.0</ele></trkpt>
    <trkpt lat="33.74009" lon="-117.54690"><ele>1076.0</ele></trkpt>
    <trkpt lat="33.73994" lon="-117.54669"><ele>1076.0</ele></trkpt>
    <trkpt lat="33.73986" lon="-117.54633"><ele>1063.0</ele></trkpt>
    <trkpt lat="33.73980" lon="-117.54600"><ele>1063.0</ele></trkpt>
    <trkpt lat="33.73981" lon="-117.54591"><ele>1063.0</ele></trkpt>
    <trkpt lat="33.73968" lon="-117.54593"><ele>1063.0</ele></trkpt>
    <trkpt lat="33.73950" lon="-117.54617"><ele>1085.0</ele></trkpt>
    <trkpt lat="33.73914" lon="-117.54648"><ele>1085.0</ele></trkpt>
    <trkpt lat="33.73881" lon="-117.54667"><ele>1085.0</ele></trkpt>
    <trkpt lat="33.73870" lon="-117.54676"><ele>1111.0</ele></trkpt>
    <trkpt lat="33.73853" lon="-117.54687"><ele>1111.0</ele></trkpt>
    <trkpt lat="33.73850" lon="-117.54663"><ele>1111.0</ele></trkpt>
    <trkpt lat="33.73854" lon="-117.54628"><ele>1111.0</ele></trkpt>
    <trkpt lat="33.73843" lon="-117.54592"><ele>1087.0</ele></trkpt>
    <trkpt lat="33.73821" lon="-117.54561"><ele>1087.0</ele></trkpt>
    <trkpt lat="33.73798" lon="-117.54557"><ele>1087.0</ele></trkpt>
    <trkpt lat="33.73784" lon="-117.54564"><ele>1087.0</ele></trkpt>
    <trkpt lat="33.73770" lon="-117.54558"><ele>1100.0</ele></trkpt>
    <trkpt lat="33.73739" lon="-117.54549"><ele>1100.0</ele></trkpt>
    <trkpt lat="33.73723" lon="-117.54558"><ele>1100.0</ele></trkpt>
    <trkpt lat="33.73705" lon="-117.54580"><ele>1100.0</ele></trkpt>
    <trkpt lat="33.73684" lon="-117.54597"><ele>1125.0</ele></trkpt>
    <trkpt lat="33.73667" lon="-117.54603"><ele>1125.0</ele></trkpt>
    <trkpt lat="33.73655" lon="-117.54581"><ele>1125.0</ele></trkpt>
    <trkpt lat="33.73651" lon="-117.54570"><ele>1125.0</ele></trkpt>
    <trkpt lat="33.73644" lon="-117.54577"><ele>1129.0</ele></trkpt>
    <trkpt lat="33.73651" lon="-117.54599"><ele>1129.0</ele></trkpt>
    <trkpt lat="33.73653" lon="-117.54614"><ele>1129.0</ele></trkpt>
    <trkpt lat="33.73673" lon="-117.54635"><ele>1129.0</ele></trkpt>
    <trkpt lat="33.73693" lon="-117.54635"><ele>1121.0</ele></trkpt>
    <trkpt lat="33.73713" lon="-117.54608"><ele>1121.0</ele></trkpt>
    <trkpt lat="33.73744" lon="-117.54592"><ele>1121.0</ele></trkpt>
    <trkpt lat="33.73760" lon="-117.54606"><ele>1121.0</ele></trkpt>
    <trkpt lat="33.73779" lon="-117.54620"><ele>1117.0</ele></trkpt>
    <trkpt lat="33.73793" lon="-117.54643"><ele>1117.0</ele></trkpt>
    <trkpt lat="33.73797" lon="-117.54668"><ele>1117.0</ele></trkpt>
    <trkpt lat="33.73790" lon="-117.54710"><ele>1142.0</ele></trkpt>
    <trkpt lat="33.73794" lon="-117.54747"><ele>1142.0</ele></trkpt>
    <trkpt lat="33.73796" lon="-117.54791"><ele>1142.0</ele></trkpt>
    <trkpt lat="33.73818" lon="-117.54798"><ele>1142.0</ele></trkpt>
    <trkpt lat="33.73832" lon="-117.54801"><ele>1140.0</ele></trkpt>
    <trkpt lat="33.73844" lon="-117.54786"><ele>1140.0</ele></trkpt>
    <trkpt lat="33.73863" lon="-117.54782"><ele>1140.0</ele></trkpt>
    <trkpt lat="33.73882" lon="-117.54788"><ele>1140.0</ele></trkpt>
    <trkpt lat="33.73891" lon="-117.54816"><ele>1157.0</ele></trkpt>
    <trkpt lat="33.73897" lon="-117.54888"><ele>1157.0</ele></trkpt>
    <trkpt lat="33.73935" lon="-117.54881"><ele>1157.0</ele></trkpt>
    <trkpt lat="33.73954" lon="-117.54883"><ele>1157.0</ele></trkpt>
    <trkpt lat="33.73972" lon="-117.54893"><ele>1150.0</ele></trkpt>
    <trkpt lat="33.74017" lon="-117.54904"><ele>1150.0</ele></trkpt>
    <trkpt lat="33.74087" lon="-117.54919"><ele>1150.0</ele></trkpt>
    <trkpt lat="33.74109" lon="-117.54924"><ele>1150.0</ele></trkpt>
    <trkpt lat="33.74116" lon="-117.54938"><ele>1148.0</ele></trkpt>
    <trkpt lat="33.74125" lon="-117.54972"><ele>1148.0</ele></trkpt>
    <trkpt lat="33.74107" lon="-117.54984"><ele>1148.0</ele></trkpt>
    <trkpt lat="33.74073" lon="-117.55005"><ele>1148.0</ele></trkpt>
    <trkpt lat="33.74063" lon="-117.55020"><ele>1173.0</ele></trkpt>
    <trkpt lat="33.74057" lon="-117.55064"><ele>1173.0</ele></trkpt>
    <trkpt lat="33.74062" lon="-117.55113"><ele>1173.0</ele></trkpt>
    <trkpt lat="33.74053" lon="-117.55149"><ele>1173.0</ele></trkpt>
    <trkpt lat="33.74055" lon="-117.55172"><ele>1177.0</ele></trkpt>
    <trkpt lat="33.74069" lon="-117.55193"><ele>1177.0</ele></trkpt>
    <trkpt lat="33.74064" lon="-117.55214"><ele>1177.0</ele></trkpt>
    <trkpt lat="33.74075" lon="-117.55256"><ele>1180.0</ele></trkpt>
    <trkpt lat="33.74082" lon="-117.55278"><ele>1180.0</ele></trkpt>
    <trkpt lat="33.74077" lon="-117.55318"><ele>1180.0</ele></trkpt>
    <trkpt lat="33.74065" lon="-117.55338"><ele>1180.0</ele></trkpt>
    <trkpt lat="33.74075" lon="-117.55382"><ele>1197.0</ele></trkpt>
    <trkpt lat="33.74087" lon="-117.55411"><ele>1197.0</ele></trkpt>
    <trkpt lat="33.74102" lon="-117.55426"><ele>1197.0</ele></trkpt>
    <trkpt lat="33.74121" lon="-117.55434"><ele>1197.0</ele></trkpt>
    <trkpt lat="33.74130" lon="-117.55466"><ele>1197.0</ele></trkpt>
    <trkpt lat="33.74142" lon="-117.55484"><ele>1197.0</ele></trkpt>
    <trkpt lat="33.74200" lon="-117.55544"><ele>1197.0</ele></trkpt>
    <trkpt lat="33.74213" lon="-117.55556"><ele>1197.0</ele></trkpt>
    <trkpt lat="33.74208" lon="-117.55568"><ele>1194.0</ele></trkpt>
    <trkpt lat="33.74186" lon="-117.55557"><ele>1194.0</ele></trkpt>
    <trkpt lat="33.74147" lon="-117.55537"><ele>1194.0</ele></trkpt>
    <trkpt lat="33.74117" lon="-117.55530"><ele>1194.0</ele></trkpt>
    <trkpt lat="33.74094" lon="-117.55515"><ele>1207.0</ele></trkpt>
    <trkpt lat="33.74080" lon="-117.55498"><ele>1207.0</ele></trkpt>
    <trkpt lat="33.74049" lon="-117.55455"><ele>1207.0</ele></trkpt>
    <trkpt lat="33.74032" lon="-117.55424"><ele>1207.0</ele></trkpt>
    <trkpt lat="33.74015" lon="-117.55397"><ele>1222.0</ele></trkpt>
    <trkpt lat="33.73993" lon="-117.55361"><ele>1222.0</ele></trkpt>
    <trkpt lat="33.73967" lon="-117.55326"><ele>1222.0</ele></trkpt>
    <trkpt lat="33.73959" lon="-117.55273"><ele>1222.0</ele></trkpt>
    <trkpt lat="33.73951" lon="-117.55250"><ele>1233.0</ele></trkpt>
    <trkpt lat="33.73937" lon="-117.55213"><ele>1233.0</ele></trkpt>
    <trkpt lat="33.73932" lon="-117.55198"><ele>1233.0</ele></trkpt>
    <trkpt lat="33.73904" lon="-117.55198"><ele>1244.0</ele></trkpt>
    <trkpt lat="33.73883" lon="-117.55194"><ele>1244.0</ele></trkpt>
    <trkpt lat="33.73890" lon="-117.55167"><ele>1244.0</ele></trkpt>
    <trkpt lat="33.73900" lon="-117.55153"><ele>1244.0</ele></trkpt>
    <trkpt lat="33.73893" lon="-117.55127"><ele>1232.0</ele></trkpt>
    <trkpt lat="33.73859" lon="-117.55109"><ele>1232.0</ele></trkpt>
    <trkpt lat="33.73838" lon="-117.55109"><ele>1232.0</ele></trkpt>
    <trkpt lat="33.73798" lon="-117.55123"><ele>1232.0</ele></trkpt>
    <trkpt lat="33.73762" lon="-117.55138"><ele>1255.0</ele></trkpt>
    <trkpt lat="33.73746" lon="-117.55139"><ele>1255.0</ele></trkpt>
    <trkpt lat="33.73718" lon="-117.55133"><ele>1255.0</ele></trkpt>
    <trkpt lat="33.73710" lon="-117.55121"><ele>1255.0</ele></trkpt>
    <trkpt lat="33.73712" lon="-117.55108"><ele>1255.0</ele></trkpt>
    <trkpt lat="33.73719" lon="-117.55090"><ele>1255.0</ele></trkpt>
    <trkpt lat="33.73710" lon="-117.55070"><ele>1255.0</ele></trkpt>
    <trkpt lat="33.73697" lon="-117.55049"><ele>1255.0</ele></trkpt>
    <trkpt lat="33.73683" lon="-117.55043"><ele>1259.0</ele></trkpt>
    <trkpt lat="33.73652" lon="-117.55038"><ele>1259.0</ele></trkpt>
    <trkpt lat="33.73641" lon="-117.55022"><ele>1259.0</ele></trkpt>
    <trkpt lat="33.73622" lon="-117.55006"><ele>1259.0</ele></trkpt>
    <trkpt lat="33.73604" lon="-117.55009"><ele>1266.0</ele></trkpt>
    <trkpt lat="33.73586" lon="-117.55021"><ele>1266.0</ele></trkpt>
    <trkpt lat="33.73575" lon="-117.55042"><ele>1266.0</ele></trkpt>
    <trkpt lat="33.73569" lon="-117.55040"><ele>1271.0</ele></trkpt>
    <trkpt lat="33.73560" lon="-117.55021"><ele>1271.0</ele></trkpt>
    <trkpt lat="33.73550" lon="-117.55006"><ele>1271.0</ele></trkpt>
    <trkpt lat="33.73534" lon="-117.55010"><ele>1271.0</ele></trkpt>
    <trkpt lat="33.73528" lon="-117.55009"><ele>1271.0</ele></trkpt>
    <trkpt lat="33.73527" lon="-117.54994"><ele>1271.0</ele></trkpt>
    <trkpt lat="33.73520" lon="-117.54978"><ele>1271.0</ele></trkpt>
    <trkpt lat="33.73484" lon="-117.54964"><ele>1271.0</ele></trkpt>
    <trkpt lat="33.73466" lon="-117.54966"><ele>1276.0</ele></trkpt>
    <trkpt lat="33.73448" lon="-117.54970"><ele>1276.0</ele></trkpt>
    <trkpt lat="33.73433" lon="-117.54977"><ele>1276.0</ele></trkpt>
    <trkpt lat="33.73418" lon="-117.54991"><ele>1276.0</ele></trkpt>
    <trkpt lat="33.73402" lon="-117.54987"><ele>1279.0</ele></trkpt>
    <trkpt lat="33.73394" lon="-117.54961"><ele>1279.0</ele></trkpt>
    <trkpt lat="33.73381" lon="-117.54957"><ele>1279.0</ele></trkpt>
    <trkpt lat="33.73364" lon="-117.54969"><ele>1279.0</ele></trkpt>
    <trkpt lat="33.73350" lon="-117.54960"><ele>1282.0</ele></trkpt>
    <trkpt lat="33.73342" lon="-117.54947"><ele>1282.0</ele></trkpt>
    <trkpt lat="33.73332" lon="-117.54949"><ele>1282.0</ele></trkpt>
    <trkpt lat="33.73313" lon="-117.54951"><ele>1282.0</ele></trkpt>
    <trkpt lat="33.73290" lon="-117.54963"><ele>1300.0</ele></trkpt>
    <trkpt lat="33.73276" lon="-117.54980"><ele>1300.0</ele></trkpt>
    <trkpt lat="33.73251" lon="-117.54976"><ele>1300.0</ele></trkpt>
    <trkpt lat="33.73229" lon="-117.54986"><ele>1300.0</ele></trkpt>
    <trkpt lat="33.73210" lon="-117.54971"><ele>1308.0</ele></trkpt>
    <trkpt lat="33.73198" lon="-117.54949"><ele>1308.0</ele></trkpt>
    <trkpt lat="33.73192" lon="-117.54926"><ele>1308.0</ele></trkpt>
    <trkpt lat="33.73168" lon="-117.54894"><ele>1301.0</ele></trkpt>
    <trkpt lat="33.73154" lon="-117.54874"><ele>1301.0</ele></trkpt>
    <trkpt lat="33.73142" lon="-117.54862"><ele>1301.0</ele></trkpt>
    <trkpt lat="33.73131" lon="-117.54863"><ele>1301.0</ele></trkpt>
    <trkpt lat="33.73118" lon="-117.54864"><ele>1312.0</ele></trkpt>
    <trkpt lat="33.73101" lon="-117.54859"><ele>1312.0</ele></trkpt>
    <trkpt lat="33.73071" lon="-117.54811"><ele>1312.0</ele></trkpt>
    <trkpt lat="33.73051" lon="-117.54772"><ele>1312.0</ele></trkpt>
    <trkpt lat="33.73032" lon="-117.54729"><ele>1325.0</ele></trkpt>
    <trkpt lat="33.73017" lon="-117.54688"><ele>1325.0</ele></trkpt>
    <trkpt lat="33.73009" lon="-117.54644"><ele>1325.0</ele></trkpt>
    <trkpt lat="33.73005" lon="-117.54607"><ele>1325.0</ele></trkpt>
    <trkpt lat="33.73007" lon="-117.54576"><ele>1327.0</ele></trkpt>
    <trkpt lat="33.73007" lon="-117.54555"><ele>1327.0</ele></trkpt>
    <trkpt lat="33.73000" lon="-117.54544"><ele>1327.0</ele></trkpt>
    <trkpt lat="33.72987" lon="-117.54548"><ele>1327.0</ele></trkpt>
    <trkpt lat="33.72976" lon="-117.54571"><ele>1343.0</ele></trkpt>
    <trkpt lat="33.72970" lon="-117.54616"><ele>1343.0</ele></trkpt>
    <trkpt lat="33.72973" lon="-117.54661"><ele>1343.0</ele></trkpt>
    <trkpt lat="33.72977" lon="-117.54694"><ele>1343.0</ele></trkpt>
    <trkpt lat="33.72975" lon="-117.54742"><ele>1348.0</ele></trkpt>
    <trkpt lat="33.72968" lon="-117.54763"><ele>1348.0</ele></trkpt>
    <trkpt lat="33.72971" lon="-117.54803"><ele>1348.0</ele></trkpt>
    <trkpt lat="33.72973" lon="-117.54823"><ele>1348.0</ele></trkpt>
    <trkpt lat="33.72965" lon="-117.54882"><ele>1357.0</ele></trkpt>
    <trkpt lat="33.72968" lon="-117.54896"><ele>1357.0</ele></trkpt>
    <trkpt lat="33.72988" lon="-117.54923"><ele>1357.0</ele></trkpt>
    <trkpt lat="33.73014" lon="-117.54966"><ele>1363.0</ele></trkpt>
    <trkpt lat="33.73024" lon="-117.54988"><ele>1363.0</ele></trkpt>
    <trkpt lat="33.73033" lon="-117.55011"><ele>1363.0</ele></trkpt>
    <trkpt lat="33.73030" lon="-117.55023"><ele>1363.0</ele></trkpt>
    <trkpt lat="33.73018" lon="-117.55026"><ele>1370.0</ele></trkpt>
    <trkpt lat="33.73007" lon="-117.55005"><ele>1370.0</ele></trkpt>
    <trkpt lat="33.72997" lon="-117.54972"><ele>1370.0</ele></trkpt>
    <trkpt lat="33.72983" lon="-117.54945"><ele>1370.0</ele></trkpt>
    <trkpt lat="33.72959" lon="-117.54916"><ele>1362.0</ele></trkpt>
    <trkpt lat="33.72941" lon="-117.54896"><ele>1362.0</ele></trkpt>
    <trkpt lat="33.72941" lon="-117.54888"><ele>1362.0</ele></trkpt>
    <trkpt lat="33.72926" lon="-117.54852"><ele>1362.0</ele></trkpt>
    <trkpt lat="33.72912" lon="-117.54821"><ele>1363.0</ele></trkpt>
    <trkpt lat="33.72908" lon="-117.54808"><ele>1363.0</ele></trkpt>
  </trkseg></trk>
</gpx>
