<?xml version="1.0" encoding="UTF-8"?>
<gpx version="1.1" creator="dirt-bikes build-area-routes (MVUM geometry + SRTM elevation)" xmlns="http://www.topografix.com/GPX/1/1">
  <trk><name>Miller Canyon OHV Road</name><trkseg>
    <trkpt lat="34.27013" lon="-117.29026"><ele>1129.0</ele></trkpt>
    <trkpt lat="34.27062" lon="-117.29025"><ele>1129.0</ele></trkpt>
    <trkpt lat="34.27075" lon="-117.29026"><ele>1129.0</ele></trkpt>
    <trkpt lat="34.27082" lon="-117.29028"><ele>1129.0</ele></trkpt>
    <trkpt lat="34.27090" lon="-117.29033"><ele>1115.0</ele></trkpt>
    <trkpt lat="34.27095" lon="-117.29038"><ele>1115.0</ele></trkpt>
    <trkpt lat="34.27099" lon="-117.29045"><ele>1115.0</ele></trkpt>
    <trkpt lat="34.27109" lon="-117.29035"><ele>1115.0</ele></trkpt>
    <trkpt lat="34.27115" lon="-117.29024"><ele>1115.0</ele></trkpt>
    <trkpt lat="34.27118" lon="-117.29011"><ele>1115.0</ele></trkpt>
    <trkpt lat="34.27119" lon="-117.28992"><ele>1116.0</ele></trkpt>
    <trkpt lat="34.27119" lon="-117.28976"><ele>1116.0</ele></trkpt>
    <trkpt lat="34.27117" lon="-117.28959"><ele>1116.0</ele></trkpt>
    <trkpt lat="34.27114" lon="-117.28938"><ele>1116.0</ele></trkpt>
    <trkpt lat="34.27111" lon="-117.28916"><ele>1116.0</ele></trkpt>
    <trkpt lat="34.27105" lon="-117.28889"><ele>1116.0</ele></trkpt>
    <trkpt lat="34.27098" lon="-117.28863"><ele>1126.0</ele></trkpt>
    <trkpt lat="34.27090" lon="-117.28837"><ele>1126.0</ele></trkpt>
    <trkpt lat="34.27085" lon="-117.28815"><ele>1126.0</ele></trkpt>
    <trkpt lat="34.27072" lon="-117.28770"><ele>1126.0</ele></trkpt>
    <trkpt lat="34.27066" lon="-117.28745"><ele>1126.0</ele></trkpt>
    <trkpt lat="34.27064" lon="-117.28734"><ele>1126.0</ele></trkpt>
    <trkpt lat="34.27062" lon="-117.28714"><ele>1126.0</ele></trkpt>
    <trkpt lat="34.27059" lon="-117.28698"><ele>1128.0</ele></trkpt>
    <trkpt lat="34.27056" lon="-117.28689"><ele>1128.0</ele></trkpt>
    <trkpt lat="34.27052" lon="-117.28677"><ele>1128.0</ele></trkpt>
    <trkpt lat="34.27048" lon="-117.28662"><ele>1128.0</ele></trkpt>
    <trkpt lat="34.27046" lon="-117.28650"><ele>1128.0</ele></trkpt>
    <trkpt lat="34.27043" lon="-117.28626"><ele>1128.0</ele></trkpt>
    <trkpt lat="34.27040" lon="-117.28610"><ele>1127.0</ele></trkpt>
    <trkpt lat="34.27036" lon="-117.28591"><ele>1127.0</ele></trkpt>
    <trkpt lat="34.27032" lon="-117.28579"><ele>1127.0</ele></trkpt>
    <trkpt lat="34.27028" lon="-117.28568"><ele>1127.0</ele></trkpt>
    <trkpt lat="34.27022" lon="-117.28557"><ele>1127.0</ele></trkpt>
    <trkpt lat="34.27018" lon="-117.28548"><ele>1127.0</ele></trkpt>
    <trkpt lat="34.27016" lon="-117.28542"><ele>1132.0</ele></trkpt>
    <trkpt lat="34.27010" lon="-117.28515"><ele>1132.0</ele></trkpt>
    <trkpt lat="34.26999" lon="-117.28460"><ele>1132.0</ele></trkpt>
    <trkpt lat="34.26996" lon="-117.28437"><ele>1132.0</ele></trkpt>
    <trkpt lat="34.26983" lon="-117.28379"><ele>1132.0</ele></trkpt>
    <trkpt lat="34.26974" lon="-117.28336"><ele>1132.0</ele></trkpt>
    <trkpt lat="34.26969" lon="-117.28303"><ele>1139.0</ele></trkpt>
    <trkpt lat="34.26969" lon="-117.28289"><ele>1139.0</ele></trkpt>
    <trkpt lat="34.26972" lon="-117.28275"><ele>1139.0</ele></trkpt>
    <trkpt lat="34.26979" lon="-117.28261"><ele>1139.0</ele></trkpt>
    <trkpt lat="34.26993" lon="-117.28235"><ele>1139.0</ele></trkpt>
    <trkpt lat="34.27002" lon="-117.28218"><ele>1139.0</ele></trkpt>
    <trkpt lat="34.27010" lon="-117.28191"><ele>1133.0</ele></trkpt>
    <trkpt lat="34.27018" lon="-117.28158"><ele>1133.0</ele></trkpt>
    <trkpt lat="34.27023" lon="-117.28140"><ele>1133.0</ele></trkpt>
    <trkpt lat="34.27033" lon="-117.28110"><ele>1133.0</ele></trkpt>
    <trkpt lat="34.27039" lon="-117.28094"><ele>1133.0</ele></trkpt>
    <trkpt lat="34.27042" lon="-117.28082"><ele>1133.0</ele></trkpt>
    <trkpt lat="34.27042" lon="-117.28068"><ele>1133.0</ele></trkpt>
    <trkpt lat="34.27041" lon="-117.28057"><ele>1132.0</ele></trkpt>
    <trkpt lat="34.27040" lon="-117.28057"><ele>1132.0</ele></trkpt>
    <trkpt lat="34.27037" lon="-117.28047"><ele>1132.0</ele></trkpt>
    <trkpt lat="34.27017" lon="-117.28031"><ele>1132.0</ele></trkpt>
    <trkpt lat="34.26998" lon="-117.28014"><ele>1132.0</ele></trkpt>
    <trkpt lat="34.26989" lon="-117.28005"><ele>1132.0</ele></trkpt>
    <trkpt lat="34.26987" lon="-117.27999"><ele>1136.0</ele></trkpt>
    <trkpt lat="34.26989" lon="-117.27992"><ele>1136.0</ele></trkpt>
    <trkpt lat="34.26992" lon="-117.27986"><ele>1136.0</ele></trkpt>
    <trkpt lat="34.26997" lon="-117.27983"><ele>1136.0</ele></trkpt>
    <trkpt lat="34.27003" lon="-117.27985"><ele>1136.0</ele></trkpt>
    <trkpt lat="34.27008" lon="-117.27989"><ele>1136.0</ele></trkpt>
    <trkpt lat="34.27014" lon="-117.27991"><ele>1131.0</ele></trkpt>
    <trkpt lat="34.27024" lon="-117.27992"><ele>1131.0</ele></trkpt>
    <trkpt lat="34.27053" lon="-117.27993"><ele>1131.0</ele></trkpt>
    <trkpt lat="34.27060" lon="-117.27990"><ele>1131.0</ele></trkpt>
    <trkpt lat="34.27066" lon="-117.27985"><ele>1131.0</ele></trkpt>
    <trkpt lat="34.27071" lon="-117.27977"><ele>1131.0</ele></trkpt>
    <trkpt lat="34.27073" lon="-117.27965"><ele>1134.0</ele></trkpt>
    <trkpt lat="34.27075" lon="-117.27947"><ele>1134.0</ele></trkpt>
    <trkpt lat="34.27077" lon="-117.27937"><ele>1134.0</ele></trkpt>
    <trkpt lat="34.27078" lon="-117.27929"><ele>1134.0</ele></trkpt>
    <trkpt lat="34.27075" lon="-117.27921"><ele>1134.0</ele></trkpt>
    <trkpt lat="34.27070" lon="-117.27914"><ele>1134.0</ele></trkpt>
    <trkpt lat="34.27067" lon="-117.27917"><ele>1134.0</ele></trkpt>
    <trkpt lat="34.27065" lon="-117.27925"><ele>1133.0</ele></trkpt>
    <trkpt lat="34.27063" lon="-117.27944"><ele>1133.0</ele></trkpt>
    <trkpt lat="34.27062" lon="-117.27953"><ele>1133.0</ele></trkpt>
    <trkpt lat="34.27058" lon="-117.27961"><ele>1133.0</ele></trkpt>
    <trkpt lat="34.27054" lon="-117.27965"><ele>1133.0</ele></trkpt>
    <trkpt lat="34.27047" lon="-117.27965"><ele>1133.0</ele></trkpt>
    <trkpt lat="34.27037" lon="-117.27962"><ele>1137.0</ele></trkpt>
    <trkpt lat="34.27025" lon="-117.27958"><ele>1137.0</ele></trkpt>
    <trkpt lat="34.27008" lon="-117.27952"><ele>1137.0</ele></trkpt>
    <trkpt lat="34.27004" lon="-117.27949"><ele>1137.0</ele></trkpt>
    <trkpt lat="34.27001" lon="-117.27948"><ele>1137.0</ele></trkpt>
    <trkpt lat="34.26991" lon="-117.27937"><ele>1137.0</ele></trkpt>
    <trkpt lat="34.26984" lon="-117.27928"><ele>1142.0</ele></trkpt>
    <trkpt lat="34.26981" lon="-117.27925"><ele>1142.0</ele></trkpt>
    <trkpt lat="34.26981" lon="-117.27925"><ele>1142.0</ele></trkpt>
    <trkpt lat="34.26974" lon="-117.27913"><ele>1142.0</ele></trkpt>
    <trkpt lat="34.26971" lon="-117.27907"><ele>1142.0</ele></trkpt>
    <trkpt lat="34.26970" lon="-117.27904"><ele>1142.0</ele></trkpt>
    <trkpt lat="34.26965" lon="-117.27890"><ele>1147.0</ele></trkpt>
    <trkpt lat="34.26962" lon="-117.27878"><ele>1147.0</ele></trkpt>
    <trkpt lat="34.26961" lon="-117.27863"><ele>1147.0</ele></trkpt>
    <trkpt lat="34.26962" lon="-117.27840"><ele>1147.0</ele></trkpt>
    <trkpt lat="34.26965" lon="-117.27813"><ele>1147.0</ele></trkpt>
    <trkpt lat="34.26971" lon="-117.27791"><ele>1147.0</ele></trkpt>
    <trkpt lat="34.26981" lon="-117.27768"><ele>1148.0</ele></trkpt>
    <trkpt lat="34.26985" lon="-117.27756"><ele>1148.0</ele></trkpt>
    <trkpt lat="34.26986" lon="-117.27747"><ele>1148.0</ele></trkpt>
    <trkpt lat="34.26987" lon="-117.27738"><ele>1148.0</ele></trkpt>
    <trkpt lat="34.26984" lon="-117.27726"><ele>1148.0</ele></trkpt>
    <trkpt lat="34.26982" lon="-117.27714"><ele>1148.0</ele></trkpt>
    <trkpt lat="34.26979" lon="-117.27704"><ele>1148.0</ele></trkpt>
    <trkpt lat="34.26973" lon="-117.27686"><ele>1152.0</ele></trkpt>
    <trkpt lat="34.26969" lon="-117.27669"><ele>1152.0</ele></trkpt>
    <trkpt lat="34.26967" lon="-117.27657"><ele>1152.0</ele></trkpt>
    <trkpt lat="34.26966" lon="-117.27646"><ele>1152.0</ele></trkpt>
    <trkpt lat="34.26967" lon="-117.27633"><ele>1152.0</ele></trkpt>
    <trkpt lat="34.26967" lon="-117.27625"><ele>1152.0</ele></trkpt>
    <trkpt lat="34.26964" lon="-117.27611"><ele>1158.0</ele></trkpt>
    <trkpt lat="34.26959" lon="-117.27598"><ele>1158.0</ele></trkpt>
    <trkpt lat="34.26955" lon="-117.27587"><ele>1158.0</ele></trkpt>
    <trkpt lat="34.26947" lon="-117.27568"><ele>1158.0</ele></trkpt>
    <trkpt lat="34.26938" lon="-117.27550"><ele>1158.0</ele></trkpt>
    <trkpt lat="34.26929" lon="-117.27533"><ele>1158.0</ele></trkpt>
    <trkpt lat="34.26918" lon="-117.27512"><ele>1168.0</ele></trkpt>
    <trkpt lat="34.26912" lon="-117.27500"><ele>1168.0</ele></trkpt>
    <trkpt lat="34.26910" lon="-117.27491"><ele>1168.0</ele></trkpt>
    <trkpt lat="34.26909" lon="-117.27477"><ele>1168.0</ele></trkpt>
    <trkpt lat="34.26909" lon="-117.27453"><ele>1168.0</ele></trkpt>
    <trkpt lat="34.26911" lon="-117.27437"><ele>1168.0</ele></trkpt>
    <trkpt lat="34.26915" lon="-117.27423"><ele>1165.0</ele></trkpt>
    <trkpt lat="34.26919" lon="-117.27413"><ele>1165.0</ele></trkpt>
    <trkpt lat="34.26923" lon="-117.27403"><ele>1165.0</ele></trkpt>
    <trkpt lat="34.26926" lon="-117.27395"><ele>1165.0</ele></trkpt>
    <trkpt lat="34.26927" lon="-117.27387"><ele>1165.0</ele></trkpt>
    <trkpt lat="34.26925" lon="-117.27376"><ele>1165.0</ele></trkpt>
    <trkpt lat="34.26924" lon="-117.27365"><ele>1170.0</ele></trkpt>
    <trkpt lat="34.26925" lon="-117.27355"><ele>1170.0</ele></trkpt>
    <trkpt lat="34.26928" lon="-117.27338"><ele>1170.0</ele></trkpt>
    <trkpt lat="34.26930" lon="-117.27322"><ele>1170.0</ele></trkpt>
    <trkpt lat="34.26934" lon="-117.27308"><ele>1170.0</ele></trkpt>
    <trkpt lat="34.26935" lon="-117.27297"><ele>1170.0</ele></trkpt>
    <trkpt lat="34.26935" lon="-117.27288"><ele>1170.0</ele></trkpt>
    <trkpt lat="34.26934" lon="-117.27278"><ele>1176.0</ele></trkpt>
    <trkpt lat="34.26931" lon="-117.27263"><ele>1176.0</ele></trkpt>
    <trkpt lat="34.26929" lon="-117.27251"><ele>1176.0</ele></trkpt>
    <trkpt lat="34.26929" lon="-117.27238"><ele>1176.0</ele></trkpt>
    <trkpt lat="34.26933" lon="-117.27227"><ele>1176.0</ele></trkpt>
    <trkpt lat="34.26940" lon="-117.27212"><ele>1176.0</ele></trkpt>
    <trkpt lat="34.26951" lon="-117.27197"><ele>1174.0</ele></trkpt>
    <trkpt lat="34.26956" lon="-117.27187"><ele>1174.0</ele></trkpt>
    <trkpt lat="34.26960" lon="-117.27176"><ele>1174.0</ele></trkpt>
    <trkpt lat="34.26969" lon="-117.27155"><ele>1174.0</ele></trkpt>
    <trkpt lat="34.26974" lon="-117.27144"><ele>1174.0</ele></trkpt>
    <trkpt lat="34.26985" lon="-117.27132"><ele>1174.0</ele></trkpt>
    <trkpt lat="34.26993" lon="-117.27121"><ele>1168.0</ele></trkpt>
    <trkpt lat="34.27001" lon="-117.27107"><ele>1168.0</ele></trkpt>
    <trkpt lat="34.27012" lon="-117.27084"><ele>1168.0</ele></trkpt>
    <trkpt lat="34.27018" lon="-117.27071"><ele>1168.0</ele></trkpt>
    <trkpt lat="34.27020" lon="-117.27065"><ele>1168.0</ele></trkpt>
    <trkpt lat="34.27025" lon="-117.27044"><ele>1168.0</ele></trkpt>
    <trkpt lat="34.27026" lon="-117.27022"><ele>1173.0</ele></trkpt>
    <trkpt lat="34.27028" lon="-117.27002"><ele>1173.0</ele></trkpt>
    <trkpt lat="34.27028" lon="-117.26976"><ele>1173.0</ele></trkpt>
    <trkpt lat="34.27028" lon="-117.26944"><ele>1173.0</ele></trkpt>
    <trkpt lat="34.27028" lon="-117.26926"><ele>1173.0</ele></trkpt>
    <trkpt lat="34.27029" lon="-117.26904"><ele>1173.0</ele></trkpt>
    <trkpt lat="34.27029" lon="-117.26884"><ele>1173.0</ele></trkpt>
    <trkpt lat="34.27030" lon="-117.26851"><ele>1177.0</ele></trkpt>
    <trkpt lat="34.27029" lon="-117.26828"><ele>1177.0</ele></trkpt>
    <trkpt lat="34.27029" lon="-117.26817"><ele>1177.0</ele></trkpt>
    <trkpt lat="34.27031" lon="-117.26794"><ele>1177.0</ele></trkpt>
    <trkpt lat="34.27034" lon="-117.26780"><ele>1177.0</ele></trkpt>
    <trkpt lat="34.27035" lon="-117.26768"><ele>1177.0</ele></trkpt>
    <trkpt lat="34.27037" lon="-117.26747"><ele>1184.0</ele></trkpt>
    <trkpt lat="34.27039" lon="-117.26725"><ele>1184.0</ele></trkpt>
    <trkpt lat="34.27040" lon="-117.26704"><ele>1184.0</ele></trkpt>
    <trkpt lat="34.27040" lon="-117.26683"><ele>1184.0</ele></trkpt>
    <trkpt lat="34.27039" lon="-117.26665"><ele>1184.0</ele></trkpt>
    <trkpt lat="34.27039" lon="-117.26649"><ele>1184.0</ele></trkpt>
    <trkpt lat="34.27039" lon="-117.26631"><ele>1193.0</ele></trkpt>
    <trkpt lat="34.27039" lon="-117.26609"><ele>1193.0</ele></trkpt>
    <trkpt lat="34.27040" lon="-117.26592"><ele>1193.0</ele></trkpt>
    <trkpt lat="34.27042" lon="-117.26581"><ele>1193.0</ele></trkpt>
    <trkpt lat="34.27044" lon="-117.26568"><ele>1193.0</ele></trkpt>
    <trkpt lat="34.27044" lon="-117.26552"><ele>1193.0</ele></trkpt>
    <trkpt lat="34.27042" lon="-117.26539"><ele>1194.0</ele></trkpt>
    <trkpt lat="34.27040" lon="-117.26522"><ele>1194.0</ele></trkpt>
    <trkpt lat="34.27037" lon="-117.26502"><ele>1194.0</ele></trkpt>
    <trkpt lat="34.27034" lon="-117.26488"><ele>1194.0</ele></trkpt>
    <trkpt lat="34.27030" lon="-117.26471"><ele>1194.0</ele></trkpt>
    <trkpt lat="34.27023" lon="-117.26453"><ele>1194.0</ele></trkpt>
    <trkpt lat="34.27020" lon="-117.26440"><ele>1198.0</ele></trkpt>
    <trkpt lat="34.27018" lon="-117.26424"><ele>1198.0</ele></trkpt>
    <trkpt lat="34.27017" lon="-117.26407"><ele>1198.0</ele></trkpt>
    <trkpt lat="34.27014" lon="-117.26389"><ele>1198.0</ele></trkpt>
    <trkpt lat="34.27007" lon="-117.26369"><ele>1198.0</ele></trkpt>
    <trkpt lat="34.27003" lon="-117.26363"><ele>1198.0</ele></trkpt>
    <trkpt lat="34.26997" lon="-117.26357"><ele>1198.0</ele></trkpt>
    <trkpt lat="34.26988" lon="-117.26351"><ele>1199.0</ele></trkpt>
    <trkpt lat="34.26979" lon="-117.26346"><ele>1199.0</ele></trkpt>
    <trkpt lat="34.26971" lon="-117.26345"><ele>1199.0</ele></trkpt>
    <trkpt lat="34.26962" lon="-117.26347"><ele>1199.0</ele></trkpt>
    <trkpt lat="34.26951" lon="-117.26350"><ele>1199.0</ele></trkpt>
    <trkpt lat="34.26945" lon="-117.26350"><ele>1199.0</ele></trkpt>
    <trkpt lat="34.26940" lon="-117.26346"><ele>1201.0</ele></trkpt>
    <trkpt lat="34.26937" lon="-117.26338"><ele>1201.0</ele></trkpt>
    <trkpt lat="34.26936" lon="-117.26327"><ele>1201.0</ele></trkpt>
    <trkpt lat="34.26934" lon="-117.26317"><ele>1201.0</ele></trkpt>
    <trkpt lat="34.26931" lon="-117.26311"><ele>1201.0</ele></trkpt>
    <trkpt lat="34.26925" lon="-117.26305"><ele>1201.0</ele></trkpt>
    <trkpt lat="34.26920" lon="-117.26298"><ele>1205.0</ele></trkpt>
    <trkpt lat="34.26918" lon="-117.26292"><ele>1205.0</ele></trkpt>
    <trkpt lat="34.26913" lon="-117.26273"><ele>1205.0</ele></trkpt>
    <trkpt lat="34.26910" lon="-117.26261"><ele>1205.0</ele></trkpt>
    <trkpt lat="34.26905" lon="-117.26245"><ele>1205.0</ele></trkpt>
    <trkpt lat="34.26899" lon="-117.26229"><ele>1205.0</ele></trkpt>
    <trkpt lat="34.26890" lon="-117.26205"><ele>1213.0</ele></trkpt>
    <trkpt lat="34.26883" lon="-117.26184"><ele>1213.0</ele></trkpt>
    <trkpt lat="34.26882" lon="-117.26175"><ele>1213.0</ele></trkpt>
    <trkpt lat="34.26883" lon="-117.26167"><ele>1213.0</ele></trkpt>
    <trkpt lat="34.26887" lon="-117.26156"><ele>1213.0</ele></trkpt>
    <trkpt lat="34.26895" lon="-117.26139"><ele>1213.0</ele></trkpt>
    <trkpt lat="34.26903" lon="-117.26118"><ele>1213.0</ele></trkpt>
    <trkpt lat="34.26904" lon="-117.26108"><ele>1213.0</ele></trkpt>
    <trkpt lat="34.26903" lon="-117.26098"><ele>1213.0</ele></trkpt>
    <trkpt lat="34.26896" lon="-117.26084"><ele>1213.0</ele></trkpt>
    <trkpt lat="34.26891" lon="-117.26068"><ele>1213.0</ele></trkpt>
    <trkpt lat="34.26887" lon="-117.26055"><ele>1213.0</ele></trkpt>
    <trkpt lat="34.26885" lon="-117.26045"><ele>1213.0</ele></trkpt>
    <trkpt lat="34.26885" lon="-117.26035"><ele>1216.0</ele></trkpt>
    <trkpt lat="34.26886" lon="-117.26023"><ele>1216.0</ele></trkpt>
    <trkpt lat="34.26886" lon="-117.26012"><ele>1216.0</ele></trkpt>
    <trkpt lat="34.26884" lon="-117.25999"><ele>1216.0</ele></trkpt>
    <trkpt lat="34.26882" lon="-117.25978"><ele>1216.0</ele></trkpt>
    <trkpt lat="34.26882" lon="-117.25955"><ele>1216.0</ele></trkpt>
    <trkpt lat="34.26881" lon="-117.25933"><ele>1220.0</ele></trkpt>
    <trkpt lat="34.26882" lon="-117.25924"><ele>1220.0</ele></trkpt>
    <trkpt lat="34.26886" lon="-117.25906"><ele>1220.0</ele></trkpt>
    <trkpt lat="34.26891" lon="-117.25887"><ele>1220.0</ele></trkpt>
    <trkpt lat="34.26896" lon="-117.25875"><ele>1220.0</ele></trkpt>
    <trkpt lat="34.26904" lon="-117.25863"><ele>1220.0</ele></trkpt>
    <trkpt lat="34.26910" lon="-117.25850"><ele>1219.0</ele></trkpt>
    <trkpt lat="34.26912" lon="-117.25841"><ele>1219.0</ele></trkpt>
    <trkpt lat="34.26912" lon="-117.25827"><ele>1219.0</ele></trkpt>
    <trkpt lat="34.26911" lon="-117.25806"><ele>1219.0</ele></trkpt>
    <trkpt lat="34.26912" lon="-117.25792"><ele>1219.0</ele></trkpt>
    <trkpt lat="34.26913" lon="-117.25779"><ele>1219.0</ele></trkpt>
    <trkpt lat="34.26916" lon="-117.25770"><ele>1224.0</ele></trkpt>
    <trkpt lat="34.26916" lon="-117.25769"><ele>1224.0</ele></trkpt>
    <trkpt lat="34.26920" lon="-117.25758"><ele>1224.0</ele></trkpt>
    <trkpt lat="34.26925" lon="-117.25747"><ele>1224.0</ele></trkpt>
    <trkpt lat="34.26930" lon="-117.25738"><ele>1224.0</ele></trkpt>
    <trkpt lat="34.26934" lon="-117.25730"><ele>1224.0</ele></trkpt>
    <trkpt lat="34.26935" lon="-117.25720"><ele>1224.0</ele></trkpt>
    <trkpt lat="34.26934" lon="-117.25711"><ele>1227.0</ele></trkpt>
    <trkpt lat="34.26932" lon="-117.25702"><ele>1227.0</ele></trkpt>
    <trkpt lat="34.26928" lon="-117.25686"><ele>1227.0</ele></trkpt>
    <trkpt lat="34.26926" lon="-117.25676"><ele>1227.0</ele></trkpt>
    <trkpt lat="34.26926" lon="-117.25663"><ele>1227.0</ele></trkpt>
    <trkpt lat="34.26925" lon="-117.25651"><ele>1227.0</ele></trkpt>
    <trkpt lat="34.26922" lon="-117.25642"><ele>1231.0</ele></trkpt>
    <trkpt lat="34.26918" lon="-117.25630"><ele>1231.0</ele></trkpt>
    <trkpt lat="34.26912" lon="-117.25621"><ele>1231.0</ele></trkpt>
    <trkpt lat="34.26905" lon="-117.25611"><ele>1231.0</ele></trkpt>
    <trkpt lat="34.26899" lon="-117.25601"><ele>1231.0</ele></trkpt>
    <trkpt lat="34.26896" lon="-117.25593"><ele>1231.0</ele></trkpt>
    <trkpt lat="34.26895" lon="-117.25583"><ele>1237.0</ele></trkpt>
    <trkpt lat="34.26894" lon="-117.25570"><ele>1237.0</ele></trkpt>
    <trkpt lat="34.26892" lon="-117.25560"><ele>1237.0</ele></trkpt>
    <trkpt lat="34.26888" lon="-117.25540"><ele>1237.0</ele></trkpt>
    <trkpt lat="34.26884" lon="-117.25523"><ele>1237.0</ele></trkpt>
    <trkpt lat="34.26880" lon="-117.25507"><ele>1237.0</ele></trkpt>
    <trkpt lat="34.26877" lon="-117.25490"><ele>1245.0</ele></trkpt>
    <trkpt lat="34.26873" lon="-117.25480"><ele>1245.0</ele></trkpt>
    <trkpt lat="34.26869" lon="-117.25472"><ele>1245.0</ele></trkpt>
    <trkpt lat="34.26863" lon="-117.25465"><ele>1245.0</ele></trkpt>
    <trkpt lat="34.26853" lon="-117.25462"><ele>1245.0</ele></trkpt>
    <trkpt lat="34.26843" lon="-117.25462"><ele>1245.0</ele></trkpt>
    <trkpt lat="34.26832" lon="-117.25459"><ele>1251.0</ele></trkpt>
    <trkpt lat="34.26824" lon="-117.25452"><ele>1251.0</ele></trkpt>
    <trkpt lat="34.26818" lon="-117.25443"><ele>1251.0</ele></trkpt>
    <trkpt lat="34.26811" lon="-117.25429"><ele>1251.0</ele></trkpt>
    <trkpt lat="34.26805" lon="-117.25416"><ele>1251.0</ele></trkpt>
    <trkpt lat="34.26800" lon="-117.25401"><ele>1251.0</ele></trkpt>
    <trkpt lat="34.26797" lon="-117.25387"><ele>1251.0</ele></trkpt>
    <trkpt lat="34.26795" lon="-117.25376"><ele>1257.0</ele></trkpt>
    <trkpt lat="34.26792" lon="-117.25363"><ele>1257.0</ele></trkpt>
    <trkpt lat="34.26792" lon="-117.25349"><ele>1257.0</ele></trkpt>
    <trkpt lat="34.26795" lon="-117.25338"><ele>1257.0</ele></trkpt>
    <trkpt lat="34.26801" lon="-117.25324"><ele>1257.0</ele></trkpt>
    <trkpt lat="34.26810" lon="-117.25307"><ele>1257.0</ele></trkpt>
    <trkpt lat="34.26815" lon="-117.25291"><ele>1257.0</ele></trkpt>
    <trkpt lat="34.26820" lon="-117.25273"><ele>1257.0</ele></trkpt>
    <trkpt lat="34.26826" lon="-117.25258"><ele>1257.0</ele></trkpt>
    <trkpt lat="34.26837" lon="-117.25237"><ele>1257.0</ele></trkpt>
    <trkpt lat="34.26845" lon="-117.25222"><ele>1257.0</ele></trkpt>
    <trkpt lat="34.26847" lon="-117.25214"><ele>1257.0</ele></trkpt>
    <trkpt lat="34.26847" lon="-117.25203"><ele>1267.0</ele></trkpt>
    <trkpt lat="34.26844" lon="-117.25193"><ele>1267.0</ele></trkpt>
    <trkpt lat="34.26840" lon="-117.25186"><ele>1267.0</ele></trkpt>
    <trkpt lat="34.26833" lon="-117.25179"><ele>1267.0</ele></trkpt>
    <trkpt lat="34.26822" lon="-117.25170"><ele>1267.0</ele></trkpt>
    <trkpt lat="34.26813" lon="-117.25159"><ele>1267.0</ele></trkpt>
    <trkpt lat="34.26806" lon="-117.25147"><ele>1279.0</ele></trkpt>
    <trkpt lat="34.26800" lon="-117.25133"><ele>1279.0</ele></trkpt>
    <trkpt lat="34.26799" lon="-117.25124"><ele>1279.0</ele></trkpt>
    <trkpt lat="34.26799" lon="-117.25112"><ele>1279.0</ele></trkpt>
    <trkpt lat="34.26798" lon="-117.25102"><ele>1279.0</ele></trkpt>
    <trkpt lat="34.26795" lon="-117.25090"><ele>1279.0</ele></trkpt>
    <trkpt lat="34.26791" lon="-117.25079"><ele>1288.0</ele></trkpt>
    <trkpt lat="34.26790" lon="-117.25069"><ele>1288.0</ele></trkpt>
    <trkpt lat="34.26789" lon="-117.25057"><ele>1288.0</ele></trkpt>
    <trkpt lat="34.26790" lon="-117.25043"><ele>1288.0</ele></trkpt>
    <trkpt lat="34.26793" lon="-117.25032"><ele>1288.0</ele></trkpt>
    <trkpt lat="34.26798" lon="-117.25020"><ele>1288.0</ele></trkpt>
    <trkpt lat="34.26804" lon="-117.25008"><ele>1288.0</ele></trkpt>
    <trkpt lat="34.26811" lon="-117.24997"><ele>1286.0</ele></trkpt>
    <trkpt lat="34.26814" lon="-117.24986"><ele>1286.0</ele></trkpt>
    <trkpt lat="34.26814" lon="-117.24976"><ele>1286.0</ele></trkpt>
    <trkpt lat="34.26812" lon="-117.24968"><ele>1286.0</ele></trkpt>
    <trkpt lat="34.26809" lon="-117.24955"><ele>1286.0</ele></trkpt>
    <trkpt lat="34.26807" lon="-117.24942"><ele>1286.0</ele></trkpt>
    <trkpt lat="34.26807" lon="-117.24928"><ele>1287.0</ele></trkpt>
    <trkpt lat="34.26810" lon="-117.24915"><ele>1287.0</ele></trkpt>
    <trkpt lat="34.26816" lon="-117.24904"><ele>1287.0</ele></trkpt>
    <trkpt lat="34.26829" lon="-117.24888"><ele>1287.0</ele></trkpt>
    <trkpt lat="34.26834" lon="-117.24879"><ele>1287.0</ele></trkpt>
    <trkpt lat="34.26838" lon="-117.24869"><ele>1287.0</ele></trkpt>
    <trkpt lat="34.26839" lon="-117.24862"><ele>1291.0</ele></trkpt>
    <trkpt lat="34.26838" lon="-117.24846"><ele>1291.0</ele></trkpt>
    <trkpt lat="34.26838" lon="-117.24830"><ele>1291.0</ele></trkpt>
    <trkpt lat="34.26840" lon="-117.24816"><ele>1291.0</ele></trkpt>
    <trkpt lat="34.26843" lon="-117.24799"><ele>1291.0</ele></trkpt>
    <trkpt lat="34.26844" lon="-117.24789"><ele>1291.0</ele></trkpt>
    <trkpt lat="34.26843" lon="-117.24779"><ele>1301.0</ele></trkpt>
    <trkpt lat="34.26838" lon="-117.24763"><ele>1301.0</ele></trkpt>
    <trkpt lat="34.26832" lon="-117.24743"><ele>1301.0</ele></trkpt>
    <trkpt lat="34.26823" lon="-117.24722"><ele>1301.0</ele></trkpt>
    <trkpt lat="34.26817" lon="-117.24708"><ele>1301.0</ele></trkpt>
    <trkpt lat="34.26811" lon="-117.24696"><ele>1301.0</ele></trkpt>
    <trkpt lat="34.26802" lon="-117.24678"><ele>1301.0</ele></trkpt>
    <trkpt lat="34.26797" lon="-117.24666"><ele>1311.0</ele></trkpt>
    <trkpt lat="34.26796" lon="-117.24656"><ele>1311.0</ele></trkpt>
    <trkpt lat="34.26794" lon="-117.24641"><ele>1311.0</ele></trkpt>
    <trkpt lat="34.26793" lon="-117.24614"><ele>1311.0</ele></trkpt>
    <trkpt lat="34.26793" lon="-117.24581"><ele>1311.0</ele></trkpt>
    <trkpt lat="34.26791" lon="-117.24570"><ele>1311.0</ele></trkpt>
    <trkpt lat="34.26785" lon="-117.24553"><ele>1318.0</ele></trkpt>
    <trkpt lat="34.26779" lon="-117.24539"><ele>1318.0</ele></trkpt>
    <trkpt lat="34.26772" lon="-117.24522"><ele>1318.0</ele></trkpt>
    <trkpt lat="34.26767" lon="-117.24508"><ele>1318.0</ele></trkpt>
    <trkpt lat="34.26767" lon="-117.24508"><ele>1318.0</ele></trkpt>
    <trkpt lat="34.26765" lon="-117.24497"><ele>1318.0</ele></trkpt>
    <trkpt lat="34.26765" lon="-117.24487"><ele>1324.0</ele></trkpt>
    <trkpt lat="34.26765" lon="-117.24481"><ele>1324.0</ele></trkpt>
    <trkpt lat="34.26765" lon="-117.24472"><ele>1324.0</ele></trkpt>
    <trkpt lat="34.26767" lon="-117.24462"><ele>1324.0</ele></trkpt>
    <trkpt lat="34.26770" lon="-117.24454"><ele>1324.0</ele></trkpt>
    <trkpt lat="34.26774" lon="-117.24445"><ele>1324.0</ele></trkpt>
    <trkpt lat="34.26775" lon="-117.24443"><ele>1330.0</ele></trkpt>
    <trkpt lat="34.26778" lon="-117.24437"><ele>1330.0</ele></trkpt>
    <trkpt lat="34.26778" lon="-117.24428"><ele>1330.0</ele></trkpt>
    <trkpt lat="34.26778" lon="-117.24420"><ele>1330.0</ele></trkpt>
    <trkpt lat="34.26776" lon="-117.24412"><ele>1330.0</ele></trkpt>
    <trkpt lat="34.26775" lon="-117.24409"><ele>1330.0</ele></trkpt>
    <trkpt lat="34.26772" lon="-117.24398"><ele>1339.0</ele></trkpt>
    <trkpt lat="34.26769" lon="-117.24382"><ele>1339.0</ele></trkpt>
    <trkpt lat="34.26765" lon="-117.24370"><ele>1339.0</ele></trkpt>
    <trkpt lat="34.26763" lon="-117.24356"><ele>1339.0</ele></trkpt>
    <trkpt lat="34.26761" lon="-117.24343"><ele>1339.0</ele></trkpt>
    <trkpt lat="34.26761" lon="-117.24331"><ele>1339.0</ele></trkpt>
    <trkpt lat="34.26760" lon="-117.24319"><ele>1339.0</ele></trkpt>
    <trkpt lat="34.26758" lon="-117.24308"><ele>1345.0</ele></trkpt>
    <trkpt lat="34.26755" lon="-117.24296"><ele>1345.0</ele></trkpt>
    <trkpt lat="34.26751" lon="-117.24284"><ele>1345.0</ele></trkpt>
    <trkpt lat="34.26747" lon="-117.24273"><ele>1345.0</ele></trkpt>
    <trkpt lat="34.26742" lon="-117.24260"><ele>1345.0</ele></trkpt>
    <trkpt lat="34.26735" lon="-117.24249"><ele>1345.0</ele></trkpt>
    <trkpt lat="34.26723" lon="-117.24231"><ele>1362.0</ele></trkpt>
    <trkpt lat="34.26711" lon="-117.24216"><ele>1362.0</ele></trkpt>
    <trkpt lat="34.26704" lon="-117.24204"><ele>1362.0</ele></trkpt>
    <trkpt lat="34.26693" lon="-117.24186"><ele>1362.0</ele></trkpt>
    <trkpt lat="34.26687" lon="-117.24171"><ele>1362.0</ele></trkpt>
    <trkpt lat="34.26680" lon="-117.24154"><ele>1362.0</ele></trkpt>
    <trkpt lat="34.26673" lon="-117.24137"><ele>1379.0</ele></trkpt>
    <trkpt lat="34.26666" lon="-117.24122"><ele>1379.0</ele></trkpt>
    <trkpt lat="34.26658" lon="-117.24105"><ele>1379.0</ele></trkpt>
    <trkpt lat="34.26654" lon="-117.24095"><ele>1379.0</ele></trkpt>
    <trkpt lat="34.26655" lon="-117.24088"><ele>1379.0</ele></trkpt>
    <trkpt lat="34.26657" lon="-117.24081"><ele>1379.0</ele></trkpt>
    <trkpt lat="34.26663" lon="-117.24065"><ele>1380.0</ele></trkpt>
    <trkpt lat="34.26664" lon="-117.24064"><ele>1380.0</ele></trkpt>
    <trkpt lat="34.26665" lon="-117.24050"><ele>1380.0</ele></trkpt>
    <trkpt lat="34.26666" lon="-117.24033"><ele>1380.0</ele></trkpt>
    <trkpt lat="34.26664" lon="-117.24021"><ele>1380.0</ele></trkpt>
    <trkpt lat="34.26664" lon="-117.24006"><ele>1380.0</ele></trkpt>
    <trkpt lat="34.26664" lon="-117.24003"><ele>1391.0</ele></trkpt>
    <trkpt lat="34.26664" lon="-117.23989"><ele>1391.0</ele></trkpt>
    <trkpt lat="34.26666" lon="-117.23972"><ele>1391.0</ele></trkpt>
    <trkpt lat="34.26667" lon="-117.23953"><ele>1391.0</ele></trkpt>
    <trkpt lat="34.26667" lon="-117.23938"><ele>1391.0</ele></trkpt>
    <trkpt lat="34.26666" lon="-117.23917"><ele>1391.0</ele></trkpt>
    <trkpt lat="34.26665" lon="-117.23891"><ele>1391.0</ele></trkpt>
    <trkpt lat="34.26666" lon="-117.23873"><ele>1405.0</ele></trkpt>
    <trkpt lat="34.26669" lon="-117.23862"><ele>1405.0</ele></trkpt>
    <trkpt lat="34.26676" lon="-117.23853"><ele>1405.0</ele></trkpt>
    <trkpt lat="34.26682" lon="-117.23852"><ele>1405.0</ele></trkpt>
    <trkpt lat="34.26688" lon="-117.23853"><ele>1405.0</ele></trkpt>
    <trkpt lat="34.26696" lon="-117.23852"><ele>1405.0</ele></trkpt>
    <trkpt lat="34.26701" lon="-117.23848"><ele>1406.0</ele></trkpt>
    <trkpt lat="34.26706" lon="-117.23842"><ele>1406.0</ele></trkpt>
    <trkpt lat="34.26709" lon="-117.23835"><ele>1406.0</ele></trkpt>
    <trkpt lat="34.26714" lon="-117.23815"><ele>1406.0</ele></trkpt>
    <trkpt lat="34.26718" lon="-117.23805"><ele>1406.0</ele></trkpt>
    <trkpt lat="34.26729" lon="-117.23780"><ele>1406.0</ele></trkpt>
    <trkpt lat="34.26733" lon="-117.23769"><ele>1422.0</ele></trkpt>
    <trkpt lat="34.26736" lon="-117.23755"><ele>1422.0</ele></trkpt>
    <trkpt lat="34.26739" lon="-117.23737"><ele>1422.0</ele></trkpt>
    <trkpt lat="34.26742" lon="-117.23720"><ele>1422.0</ele></trkpt>
    <trkpt lat="34.26747" lon="-117.23710"><ele>1422.0</ele></trkpt>
    <trkpt lat="34.26751" lon="-117.23704"><ele>1422.0</ele></trkpt>
    <trkpt lat="34.26756" lon="-117.23699"><ele>1430.0</ele></trkpt>
    <trkpt lat="34.26763" lon="-117.23698"><ele>1430.0</ele></trkpt>
    <trkpt lat="34.26768" lon="-117.23701"><ele>1430.0</ele></trkpt>
    <trkpt lat="34.26773" lon="-117.23708"><ele>1430.0</ele></trkpt>
    <trkpt lat="34.26777" lon="-117.23721"><ele>1430.0</ele></trkpt>
    <trkpt lat="34.26778" lon="-117.23735"><ele>1430.0</ele></trkpt>
    <trkpt lat="34.26780" lon="-117.23762"><ele>1430.0</ele></trkpt>
    <trkpt lat="34.26781" lon="-117.23772"><ele>1429.0</ele></trkpt>
    <trkpt lat="34.26783" lon="-117.23779"><ele>1429.0</ele></trkpt>
    <trkpt lat="34.26787" lon="-117.23783"><ele>1429.0</ele></trkpt>
    <trkpt lat="34.26790" lon="-117.23790"><ele>1429.0</ele></trkpt>
    <trkpt lat="34.26789" lon="-117.23797"><ele>1429.0</ele></trkpt>
    <trkpt lat="34.26788" lon="-117.23806"><ele>1429.0</ele></trkpt>
    <trkpt lat="34.26789" lon="-117.23814"><ele>1428.0</ele></trkpt>
    <trkpt lat="34.26792" lon="-117.23821"><ele>1428.0</ele></trkpt>
    <trkpt lat="34.26798" lon="-117.23828"><ele>1428.0</ele></trkpt>
    <trkpt lat="34.26803" lon="-117.23835"><ele>1428.0</ele></trkpt>
    <trkpt lat="34.26806" lon="-117.23845"><ele>1428.0</ele></trkpt>
    <trkpt lat="34.26808" lon="-117.23853"><ele>1428.0</ele></trkpt>
    <trkpt lat="34.26813" lon="-117.23861"><ele>1435.0</ele></trkpt>
    <trkpt lat="34.26819" lon="-117.23867"><ele>1435.0</ele></trkpt>
    <trkpt lat="34.26821" lon="-117.23872"><ele>1435.0</ele></trkpt>
    <trkpt lat="34.26821" lon="-117.23874"><ele>1435.0</ele></trkpt>
    <trkpt lat="34.26821" lon="-117.23880"><ele>1435.0</ele></trkpt>
    <trkpt lat="34.26819" lon="-117.23887"><ele>1435.0</ele></trkpt>
    <trkpt lat="34.26813" lon="-117.23895"><ele>1424.0</ele></trkpt>
    <trkpt lat="34.26807" lon="-117.23902"><ele>1424.0</ele></trkpt>
    <trkpt lat="34.26802" lon="-117.23909"><ele>1424.0</ele></trkpt>
    <trkpt lat="34.26799" lon="-117.23913"><ele>1424.0</ele></trkpt>
    <trkpt lat="34.26798" lon="-117.23922"><ele>1424.0</ele></trkpt>
    <trkpt lat="34.26798" lon="-117.23929"><ele>1424.0</ele></trkpt>
    <trkpt lat="34.26799" lon="-117.23930"><ele>1421.0</ele></trkpt>
    <trkpt lat="34.26801" lon="-117.23936"><ele>1421.0</ele></trkpt>
    <trkpt lat="34.26805" lon="-117.23939"><ele>1421.0</ele></trkpt>
    <trkpt lat="34.26810" lon="-117.23938"><ele>1421.0</ele></trkpt>
    <trkpt lat="34.26813" lon="-117.23931"><ele>1421.0</ele></trkpt>
    <trkpt lat="34.26816" lon="-117.23922"><ele>1421.0</ele></trkpt>
    <trkpt lat="34.26820" lon="-117.23914"><ele>1421.0</ele></trkpt>
    <trkpt lat="34.26825" lon="-117.23908"><ele>1440.0</ele></trkpt>
    <trkpt lat="34.26831" lon="-117.23904"><ele>1440.0</ele></trkpt>
    <trkpt lat="34.26838" lon="-117.23902"><ele>1440.0</ele></trkpt>
    <trkpt lat="34.26844" lon="-117.23897"><ele>1440.0</ele></trkpt>
    <trkpt lat="34.26847" lon="-117.23889"><ele>1440.0</ele></trkpt>
    <trkpt lat="34.26849" lon="-117.23881"><ele>1440.0</ele></trkpt>
    <trkpt lat="34.26849" lon="-117.23870"><ele>1449.0</ele></trkpt>
    <trkpt lat="34.26848" lon="-117.23857"><ele>1449.0</ele></trkpt>
    <trkpt lat="34.26842" lon="-117.23843"><ele>1449.0</ele></trkpt>
    <trkpt lat="34.26840" lon="-117.23833"><ele>1449.0</ele></trkpt>
    <trkpt lat="34.26838" lon="-117.23819"><ele>1449.0</ele></trkpt>
    <trkpt lat="34.26838" lon="-117.23809"><ele>1449.0</ele></trkpt>
    <trkpt lat="34.26840" lon="-117.23798"><ele>1458.0</ele></trkpt>
    <trkpt lat="34.26847" lon="-117.23783"><ele>1458.0</ele></trkpt>
    <trkpt lat="34.26847" lon="-117.23774"><ele>1458.0</ele></trkpt>
    <trkpt lat="34.26844" lon="-117.23765"><ele>1458.0</ele></trkpt>
    <trkpt lat="34.26839" lon="-117.23753"><ele>1458.0</ele></trkpt>
    <trkpt lat="34.26838" lon="-117.23742"><ele>1458.0</ele></trkpt>
    <trkpt lat="34.26843" lon="-117.23730"><ele>1461.0</ele></trkpt>
    <trkpt lat="34.26848" lon="-117.23722"><ele>1461.0</ele></trkpt>
    <trkpt lat="34.26861" lon="-117.23714"><ele>1461.0</ele></trkpt>
    <trkpt lat="34.26870" lon="-117.23710"><ele>1461.0</ele></trkpt>
    <trkpt lat="34.26879" lon="-117.23703"><ele>1461.0</ele></trkpt>
    <trkpt lat="34.26887" lon="-117.23695"><ele>1461.0</ele></trkpt>
    <trkpt lat="34.26910" lon="-117.23674"><ele>1479.0</ele></trkpt>
    <trkpt lat="34.26922" lon="-117.23668"><ele>1479.0</ele></trkpt>
    <trkpt lat="34.26932" lon="-117.23665"><ele>1479.0</ele></trkpt>
    <trkpt lat="34.26946" lon="-117.23665"><ele>1479.0</ele></trkpt>
    <trkpt lat="34.26957" lon="-117.23668"><ele>1479.0</ele></trkpt>
    <trkpt lat="34.26965" lon="-117.23673"><ele>1479.0</ele></trkpt>
    <trkpt lat="34.26971" lon="-117.23676"><ele>1479.0</ele></trkpt>
    <trkpt lat="34.26976" lon="-117.23676"><ele>1491.0</ele></trkpt>
    <trkpt lat="34.26982" lon="-117.23672"><ele>1491.0</ele></trkpt>
    <trkpt lat="34.26994" lon="-117.23658"><ele>1491.0</ele></trkpt>
    <trkpt lat="34.27002" lon="-117.23651"><ele>1491.0</ele></trkpt>
    <trkpt lat="34.27008" lon="-117.23647"><ele>1491.0</ele></trkpt>
    <trkpt lat="34.27018" lon="-117.23644"><ele>1491.0</ele></trkpt>
    <trkpt lat="34.27029" lon="-117.23640"><ele>1503.0</ele></trkpt>
    <trkpt lat="34.27038" lon="-117.23632"><ele>1503.0</ele></trkpt>
    <trkpt lat="34.27043" lon="-117.23622"><ele>1503.0</ele></trkpt>
    <trkpt lat="34.27048" lon="-117.23609"><ele>1503.0</ele></trkpt>
    <trkpt lat="34.27052" lon="-117.23592"><ele>1503.0</ele></trkpt>
    <trkpt lat="34.27054" lon="-117.23582"><ele>1503.0</ele></trkpt>
    <trkpt lat="34.27055" lon="-117.23566"><ele>1505.0</ele></trkpt>
    <trkpt lat="34.27056" lon="-117.23550"><ele>1505.0</ele></trkpt>
    <trkpt lat="34.27056" lon="-117.23537"><ele>1505.0</ele></trkpt>
    <trkpt lat="34.27057" lon="-117.23529"><ele>1505.0</ele></trkpt>
    <trkpt lat="34.27062" lon="-117.23521"><ele>1505.0</ele></trkpt>
    <trkpt lat="34.27068" lon="-117.23515"><ele>1505.0</ele></trkpt>
    <trkpt lat="34.27076" lon="-117.23511"><ele>1516.0</ele></trkpt>
    <trkpt lat="34.27085" lon="-117.23510"><ele>1516.0</ele></trkpt>
    <trkpt lat="34.27094" lon="-117.23507"><ele>1516.0</ele></trkpt>
    <trkpt lat="34.27099" lon="-117.23500"><ele>1516.0</ele></trkpt>
    <trkpt lat="34.27104" lon="-117.23489"><ele>1516.0</ele></trkpt>
    <trkpt lat="34.27108" lon="-117.23478"><ele>1516.0</ele></trkpt>
    <trkpt lat="34.27111" lon="-117.23472"><ele>1516.0</ele></trkpt>
    <trkpt lat="34.27116" lon="-117.23469"><ele>1528.0</ele></trkpt>
    <trkpt lat="34.27121" lon="-117.23471"><ele>1528.0</ele></trkpt>
    <trkpt lat="34.27124" lon="-117.23477"><ele>1528.0</ele></trkpt>
    <trkpt lat="34.27126" lon="-117.23483"><ele>1528.0</ele></trkpt>
    <trkpt lat="34.27126" lon="-117.23485"><ele>1528.0</ele></trkpt>
    <trkpt lat="34.27126" lon="-117.23492"><ele>1528.0</ele></trkpt>
    <trkpt lat="34.27122" lon="-117.23499"><ele>1519.0</ele></trkpt>
    <trkpt lat="34.27114" lon="-117.23509"><ele>1519.0</ele></trkpt>
    <trkpt lat="34.27108" lon="-117.23517"><ele>1519.0</ele></trkpt>
    <trkpt lat="34.27103" lon="-117.23525"><ele>1519.0</ele></trkpt>
    <trkpt lat="34.27100" lon="-117.23530"><ele>1519.0</ele></trkpt>
    <trkpt lat="34.27100" lon="-117.23538"><ele>1519.0</ele></trkpt>
    <trkpt lat="34.27100" lon="-117.23539"><ele>1518.0</ele></trkpt>
    <trkpt lat="34.27104" lon="-117.23548"><ele>1518.0</ele></trkpt>
    <trkpt lat="34.27108" lon="-117.23554"><ele>1518.0</ele></trkpt>
    <trkpt lat="34.27115" lon="-117.23558"><ele>1518.0</ele></trkpt>
    <trkpt lat="34.27124" lon="-117.23561"><ele>1518.0</ele></trkpt>
    <trkpt lat="34.27132" lon="-117.23560"><ele>1518.0</ele></trkpt>
    <trkpt lat="34.27140" lon="-117.23555"><ele>1531.0</ele></trkpt>
    <trkpt lat="34.27148" lon="-117.23545"><ele>1531.0</ele></trkpt>
    <trkpt lat="34.27153" lon="-117.23535"><ele>1531.0</ele></trkpt>
    <trkpt lat="34.27158" lon="-117.23530"><ele>1531.0</ele></trkpt>
    <trkpt lat="34.27162" lon="-117.23529"><ele>1531.0</ele></trkpt>
    <trkpt lat="34.27168" lon="-117.23533"><ele>1531.0</ele></trkpt>
    <trkpt lat="34.27170" lon="-117.23539"><ele>1535.0</ele></trkpt>
    <trkpt lat="34.27170" lon="-117.23543"><ele>1535.0</ele></trkpt>
    <trkpt lat="34.27170" lon="-117.23545"><ele>1535.0</ele></trkpt>
    <trkpt lat="34.27169" lon="-117.23553"><ele>1535.0</ele></trkpt>
    <trkpt lat="34.27168" lon="-117.23565"><ele>1535.0</ele></trkpt>
    <trkpt lat="34.27169" lon="-117.23576"><ele>1535.0</ele></trkpt>
    <trkpt lat="34.27170" lon="-117.23580"><ele>1535.0</ele></trkpt>
    <trkpt lat="34.27172" lon="-117.23585"><ele>1538.0</ele></trkpt>
    <trkpt lat="34.27177" lon="-117.23594"><ele>1538.0</ele></trkpt>
    <trkpt lat="34.27182" lon="-117.23602"><ele>1538.0</ele></trkpt>
    <trkpt lat="34.27187" lon="-117.23614"><ele>1538.0</ele></trkpt>
    <trkpt lat="34.27189" lon="-117.23624"><ele>1538.0</ele></trkpt>
    <trkpt lat="34.27189" lon="-117.23633"><ele>1538.0</ele></trkpt>
    <trkpt lat="34.27185" lon="-117.23646"><ele>1541.0</ele></trkpt>
    <trkpt lat="34.27184" lon="-117.23654"><ele>1541.0</ele></trkpt>
    <trkpt lat="34.27185" lon="-117.23662"><ele>1541.0</ele></trkpt>
  </trkseg></trk>
</gpx>
