<?xml version="1.0" encoding="UTF-8"?>
<gpx version="1.1" creator="dirt-bikes build-area-routes (MVUM geometry + SRTM elevation)" xmlns="http://www.topografix.com/GPX/1/1">
  <trk><name>Mutau OHV Road</name><trkseg>
    <trkpt lat="34.70399" lon="-119.12180"><ele>1747.0</ele></trkpt>
    <trkpt lat="34.70369" lon="-119.12178"><ele>1747.0</ele></trkpt>
    <trkpt lat="34.70351" lon="-119.12184"><ele>1747.0</ele></trkpt>
    <trkpt lat="34.70324" lon="-119.12188"><ele>1747.0</ele></trkpt>
    <trkpt lat="34.70310" lon="-119.12181"><ele>1752.0</ele></trkpt>
    <trkpt lat="34.70292" lon="-119.12166"><ele>1752.0</ele></trkpt>
    <trkpt lat="34.70272" lon="-119.12126"><ele>1752.0</ele></trkpt>
    <trkpt lat="34.70261" lon="-119.12108"><ele>1752.0</ele></trkpt>
    <trkpt lat="34.70240" lon="-119.12096"><ele>1752.0</ele></trkpt>
    <trkpt lat="34.70198" lon="-119.12078"><ele>1752.0</ele></trkpt>
    <trkpt lat="34.70169" lon="-119.12066"><ele>1752.0</ele></trkpt>
    <trkpt lat="34.70121" lon="-119.12049"><ele>1749.0</ele></trkpt>
    <trkpt lat="34.70094" lon="-119.12042"><ele>1749.0</ele></trkpt>
    <trkpt lat="34.70067" lon="-119.12024"><ele>1749.0</ele></trkpt>
    <trkpt lat="34.70048" lon="-119.12006"><ele>1749.0</ele></trkpt>
    <trkpt lat="34.70033" lon="-119.11996"><ele>1749.0</ele></trkpt>
    <trkpt lat="34.70010" lon="-119.11996"><ele>1749.0</ele></trkpt>
    <trkpt lat="34.69986" lon="-119.11990"><ele>1749.0</ele></trkpt>
    <trkpt lat="34.69968" lon="-119.11980"><ele>1754.0</ele></trkpt>
    <trkpt lat="34.69950" lon="-119.11969"><ele>1754.0</ele></trkpt>
    <trkpt lat="34.69930" lon="-119.11943"><ele>1754.0</ele></trkpt>
    <trkpt lat="34.69912" lon="-119.11923"><ele>1754.0</ele></trkpt>
    <trkpt lat="34.69890" lon="-119.11897"><ele>1754.0</ele></trkpt>
    <trkpt lat="34.69858" lon="-119.11879"><ele>1754.0</ele></trkpt>
    <trkpt lat="34.69840" lon="-119.11868"><ele>1754.0</ele></trkpt>
    <trkpt lat="34.69800" lon="-119.11855"><ele>1752.0</ele></trkpt>
    <trkpt lat="34.69783" lon="-119.11854"><ele>1752.0</ele></trkpt>
    <trkpt lat="34.69744" lon="-119.11857"><ele>1752.0</ele></trkpt>
    <trkpt lat="34.69726" lon="-119.11856"><ele>1752.0</ele></trkpt>
    <trkpt lat="34.69685" lon="-119.11858"><ele>1752.0</ele></trkpt>
    <trkpt lat="34.69668" lon="-119.11859"><ele>1752.0</ele></trkpt>
    <trkpt lat="34.69644" lon="-119.11850"><ele>1745.0</ele></trkpt>
    <trkpt lat="34.69606" lon="-119.11831"><ele>1745.0</ele></trkpt>
    <trkpt lat="34.69582" lon="-119.11828"><ele>1745.0</ele></trkpt>
    <trkpt lat="34.69563" lon="-119.11831"><ele>1745.0</ele></trkpt>
    <trkpt lat="34.69534" lon="-119.11831"><ele>1745.0</ele></trkpt>
    <trkpt lat="34.69526" lon="-119.11831"><ele>1745.0</ele></trkpt>
    <trkpt lat="34.69505" lon="-119.11826"><ele>1745.0</ele></trkpt>
    <trkpt lat="34.69498" lon="-119.11824"><ele>1743.0</ele></trkpt>
    <trkpt lat="34.69482" lon="-119.11820"><ele>1743.0</ele></trkpt>
    <trkpt lat="34.69476" lon="-119.11822"><ele>1743.0</ele></trkpt>
    <trkpt lat="34.69450" lon="-119.11829"><ele>1743.0</ele></trkpt>
    <trkpt lat="34.69422" lon="-119.11838"><ele>1743.0</ele></trkpt>
    <trkpt lat="34.69415" lon="-119.11841"><ele>1743.0</ele></trkpt>
    <trkpt lat="34.69395" lon="-119.11852"><ele>1743.0</ele></trkpt>
    <trkpt lat="34.69387" lon="-119.11856"><ele>1741.0</ele></trkpt>
    <trkpt lat="34.69369" lon="-119.11880"><ele>1741.0</ele></trkpt>
    <trkpt lat="34.69355" lon="-119.11894"><ele>1741.0</ele></trkpt>
    <trkpt lat="34.69328" lon="-119.11906"><ele>1741.0</ele></trkpt>
    <trkpt lat="34.69310" lon="-119.11909"><ele>1741.0</ele></trkpt>
    <trkpt lat="34.69304" lon="-119.11909"><ele>1741.0</ele></trkpt>
    <trkpt lat="34.69281" lon="-119.11908"><ele>1741.0</ele></trkpt>
    <trkpt lat="34.69273" lon="-119.11904"><ele>1733.0</ele></trkpt>
    <trkpt lat="34.69256" lon="-119.11892"><ele>1733.0</ele></trkpt>
    <trkpt lat="34.69245" lon="-119.11882"><ele>1733.0</ele></trkpt>
    <trkpt lat="34.69234" lon="-119.11859"><ele>1733.0</ele></trkpt>
    <trkpt lat="34.69229" lon="-119.11848"><ele>1733.0</ele></trkpt>
    <trkpt lat="34.69224" lon="-119.11836"><ele>1733.0</ele></trkpt>
    <trkpt lat="34.69214" lon="-119.11814"><ele>1733.0</ele></trkpt>
    <trkpt lat="34.69207" lon="-119.11809"><ele>1727.0</ele></trkpt>
    <trkpt lat="34.69201" lon="-119.11805"><ele>1727.0</ele></trkpt>
    <trkpt lat="34.69187" lon="-119.11808"><ele>1727.0</ele></trkpt>
    <trkpt lat="34.69181" lon="-119.11815"><ele>1727.0</ele></trkpt>
    <trkpt lat="34.69176" lon="-119.11822"><ele>1727.0</ele></trkpt>
    <trkpt lat="34.69165" lon="-119.11838"><ele>1727.0</ele></trkpt>
    <trkpt lat="34.69163" lon="-119.11846"><ele>1727.0</ele></trkpt>
    <trkpt lat="34.69148" lon="-119.11880"><ele>1727.0</ele></trkpt>
    <trkpt lat="34.69144" lon="-119.11889"><ele>1727.0</ele></trkpt>
    <trkpt lat="34.69128" lon="-119.11908"><ele>1727.0</ele></trkpt>
    <trkpt lat="34.69119" lon="-119.11916"><ele>1727.0</ele></trkpt>
    <trkpt lat="34.69099" lon="-119.11926"><ele>1727.0</ele></trkpt>
    <trkpt lat="34.69094" lon="-119.11929"><ele>1727.0</ele></trkpt>
    <trkpt lat="34.69075" lon="-119.11931"><ele>1728.0</ele></trkpt>
    <trkpt lat="34.69065" lon="-119.11926"><ele>1728.0</ele></trkpt>
    <trkpt lat="34.69045" lon="-119.11916"><ele>1728.0</ele></trkpt>
    <trkpt lat="34.69032" lon="-119.11912"><ele>1728.0</ele></trkpt>
    <trkpt lat="34.69001" lon="-119.11903"><ele>1728.0</ele></trkpt>
    <trkpt lat="34.68990" lon="-119.11901"><ele>1728.0</ele></trkpt>
    <trkpt lat="34.68972" lon="-119.11899"><ele>1728.0</ele></trkpt>
    <trkpt lat="34.68963" lon="-119.11896"><ele>1728.0</ele></trkpt>
    <trkpt lat="34.68957" lon="-119.11896"><ele>1728.0</ele></trkpt>
    <trkpt lat="34.68923" lon="-119.11896"><ele>1728.0</ele></trkpt>
    <trkpt lat="34.68900" lon="-119.11900"><ele>1728.0</ele></trkpt>
    <trkpt lat="34.68889" lon="-119.11902"><ele>1728.0</ele></trkpt>
    <trkpt lat="34.68868" lon="-119.11903"><ele>1728.0</ele></trkpt>
    <trkpt lat="34.68857" lon="-119.11902"><ele>1728.0</ele></trkpt>
    <trkpt lat="34.68840" lon="-119.11899"><ele>1724.0</ele></trkpt>
    <trkpt lat="34.68830" lon="-119.11896"><ele>1724.0</ele></trkpt>
    <trkpt lat="34.68813" lon="-119.11890"><ele>1724.0</ele></trkpt>
    <trkpt lat="34.68803" lon="-119.11887"><ele>1724.0</ele></trkpt>
    <trkpt lat="34.68777" lon="-119.11883"><ele>1724.0</ele></trkpt>
    <trkpt lat="34.68766" lon="-119.11878"><ele>1724.0</ele></trkpt>
    <trkpt lat="34.68735" lon="-119.11877"><ele>1724.0</ele></trkpt>
    <trkpt lat="34.68715" lon="-119.11874"><ele>1722.0</ele></trkpt>
    <trkpt lat="34.68680" lon="-119.11872"><ele>1722.0</ele></trkpt>
    <trkpt lat="34.68626" lon="-119.11872"><ele>1722.0</ele></trkpt>
    <trkpt lat="34.68593" lon="-119.11879"><ele>1722.0</ele></trkpt>
    <trkpt lat="34.68546" lon="-119.11879"><ele>1722.0</ele></trkpt>
    <trkpt lat="34.68518" lon="-119.11879"><ele>1722.0</ele></trkpt>
    <trkpt lat="34.68501" lon="-119.11882"><ele>1722.0</ele></trkpt>
    <trkpt lat="34.68446" lon="-119.11882"><ele>1726.0</ele></trkpt>
    <trkpt lat="34.68412" lon="-119.11883"><ele>1726.0</ele></trkpt>
    <trkpt lat="34.68403" lon="-119.11883"><ele>1726.0</ele></trkpt>
    <trkpt lat="34.68382" lon="-119.11880"><ele>1726.0</ele></trkpt>
    <trkpt lat="34.68373" lon="-119.11878"><ele>1726.0</ele></trkpt>
    <trkpt lat="34.68354" lon="-119.11870"><ele>1726.0</ele></trkpt>
    <trkpt lat="34.68342" lon="-119.11860"><ele>1726.0</ele></trkpt>
    <trkpt lat="34.68318" lon="-119.11841"><ele>1733.0</ele></trkpt>
    <trkpt lat="34.68309" lon="-119.11830"><ele>1733.0</ele></trkpt>
    <trkpt lat="34.68285" lon="-119.11811"><ele>1733.0</ele></trkpt>
    <trkpt lat="34.68258" lon="-119.11807"><ele>1733.0</ele></trkpt>
    <trkpt lat="34.68230" lon="-119.11810"><ele>1733.0</ele></trkpt>
    <trkpt lat="34.68214" lon="-119.11811"><ele>1733.0</ele></trkpt>
    <trkpt lat="34.68182" lon="-119.11804"><ele>1745.0</ele></trkpt>
    <trkpt lat="34.68149" lon="-119.11798"><ele>1745.0</ele></trkpt>
    <trkpt lat="34.68135" lon="-119.11798"><ele>1745.0</ele></trkpt>
    <trkpt lat="34.68084" lon="-119.11805"><ele>1745.0</ele></trkpt>
    <trkpt lat="34.68056" lon="-119.11804"><ele>1745.0</ele></trkpt>
    <trkpt lat="34.68021" lon="-119.11807"><ele>1745.0</ele></trkpt>
    <trkpt lat="34.68009" lon="-119.11808"><ele>1745.0</ele></trkpt>
    <trkpt lat="34.67989" lon="-119.11812"><ele>1744.0</ele></trkpt>
    <trkpt lat="34.67981" lon="-119.11815"><ele>1744.0</ele></trkpt>
    <trkpt lat="34.67960" lon="-119.11825"><ele>1744.0</ele></trkpt>
    <trkpt lat="34.67933" lon="-119.11839"><ele>1744.0</ele></trkpt>
    <trkpt lat="34.67914" lon="-119.11858"><ele>1744.0</ele></trkpt>
    <trkpt lat="34.67905" lon="-119.11867"><ele>1744.0</ele></trkpt>
    <trkpt lat="34.67871" lon="-119.11889"><ele>1744.0</ele></trkpt>
    <trkpt lat="34.67859" lon="-119.11898"><ele>1740.0</ele></trkpt>
    <trkpt lat="34.67841" lon="-119.11911"><ele>1740.0</ele></trkpt>
    <trkpt lat="34.67829" lon="-119.11914"><ele>1740.0</ele></trkpt>
    <trkpt lat="34.67805" lon="-119.11922"><ele>1740.0</ele></trkpt>
    <trkpt lat="34.67783" lon="-119.11932"><ele>1740.0</ele></trkpt>
    <trkpt lat="34.67742" lon="-119.11949"><ele>1740.0</ele></trkpt>
    <trkpt lat="34.67718" lon="-119.11955"><ele>1740.0</ele></trkpt>
    <trkpt lat="34.67706" lon="-119.11957"><ele>1725.0</ele></trkpt>
    <trkpt lat="34.67679" lon="-119.11953"><ele>1725.0</ele></trkpt>
    <trkpt lat="34.67673" lon="-119.11954"><ele>1725.0</ele></trkpt>
    <trkpt lat="34.67668" lon="-119.11960"><ele>1725.0</ele></trkpt>
    <trkpt lat="34.67657" lon="-119.11991"><ele>1725.0</ele></trkpt>
    <trkpt lat="34.67656" lon="-119.11996"><ele>1725.0</ele></trkpt>
    <trkpt lat="34.67657" lon="-119.12005"><ele>1725.0</ele></trkpt>
    <trkpt lat="34.67687" lon="-119.12032"><ele>1727.0</ele></trkpt>
    <trkpt lat="34.67694" lon="-119.12039"><ele>1727.0</ele></trkpt>
    <trkpt lat="34.67698" lon="-119.12046"><ele>1727.0</ele></trkpt>
    <trkpt lat="34.67699" lon="-119.12061"><ele>1727.0</ele></trkpt>
    <trkpt lat="34.67695" lon="-119.12074"><ele>1727.0</ele></trkpt>
    <trkpt lat="34.67688" lon="-119.12082"><ele>1727.0</ele></trkpt>
    <trkpt lat="34.67676" lon="-119.12087"><ele>1727.0</ele></trkpt>
    <trkpt lat="34.67668" lon="-119.12089"><ele>1707.0</ele></trkpt>
    <trkpt lat="34.67658" lon="-119.12105"><ele>1707.0</ele></trkpt>
    <trkpt lat="34.67651" lon="-119.12115"><ele>1707.0</ele></trkpt>
    <trkpt lat="34.67640" lon="-119.12114"><ele>1707.0</ele></trkpt>
    <trkpt lat="34.67633" lon="-119.12106"><ele>1707.0</ele></trkpt>
    <trkpt lat="34.67632" lon="-119.12093"><ele>1707.0</ele></trkpt>
    <trkpt lat="34.67636" lon="-119.12071"><ele>1707.0</ele></trkpt>
    <trkpt lat="34.67641" lon="-119.12052"><ele>1711.0</ele></trkpt>
    <trkpt lat="34.67635" lon="-119.12037"><ele>1711.0</ele></trkpt>
    <trkpt lat="34.67616" lon="-119.12017"><ele>1711.0</ele></trkpt>
    <trkpt lat="34.67606" lon="-119.12007"><ele>1711.0</ele></trkpt>
    <trkpt lat="34.67598" lon="-119.11994"><ele>1711.0</ele></trkpt>
    <trkpt lat="34.67594" lon="-119.11974"><ele>1711.0</ele></trkpt>
    <trkpt lat="34.67593" lon="-119.11962"><ele>1707.0</ele></trkpt>
    <trkpt lat="34.67595" lon="-119.11949"><ele>1707.0</ele></trkpt>
    <trkpt lat="34.67606" lon="-119.11942"><ele>1707.0</ele></trkpt>
    <trkpt lat="34.67628" lon="-119.11932"><ele>1707.0</ele></trkpt>
    <trkpt lat="34.67637" lon="-119.11899"><ele>1707.0</ele></trkpt>
    <trkpt lat="34.67643" lon="-119.11881"><ele>1707.0</ele></trkpt>
    <trkpt lat="34.67653" lon="-119.11872"><ele>1707.0</ele></trkpt>
    <trkpt lat="34.67671" lon="-119.11865"><ele>1703.0</ele></trkpt>
    <trkpt lat="34.67694" lon="-119.11833"><ele>1703.0</ele></trkpt>
    <trkpt lat="34.67698" lon="-119.11823"><ele>1703.0</ele></trkpt>
    <trkpt lat="34.67715" lon="-119.11822"><ele>1703.0</ele></trkpt>
    <trkpt lat="34.67736" lon="-119.11808"><ele>1703.0</ele></trkpt>
    <trkpt lat="34.67743" lon="-119.11799"><ele>1703.0</ele></trkpt>
    <trkpt lat="34.67745" lon="-119.11766"><ele>1703.0</ele></trkpt>
    <trkpt lat="34.67766" lon="-119.11738"><ele>1690.0</ele></trkpt>
    <trkpt lat="34.67790" lon="-119.11700"><ele>1690.0</ele></trkpt>
    <trkpt lat="34.67793" lon="-119.11669"><ele>1690.0</ele></trkpt>
    <trkpt lat="34.67791" lon="-119.11647"><ele>1690.0</ele></trkpt>
    <trkpt lat="34.67788" lon="-119.11620"><ele>1690.0</ele></trkpt>
    <trkpt lat="34.67779" lon="-119.11590"><ele>1690.0</ele></trkpt>
    <trkpt lat="34.67774" lon="-119.11577"><ele>1690.0</ele></trkpt>
    <trkpt lat="34.67771" lon="-119.11566"><ele>1675.0</ele></trkpt>
    <trkpt lat="34.67772" lon="-119.11549"><ele>1675.0</ele></trkpt>
    <trkpt lat="34.67786" lon="-119.11519"><ele>1675.0</ele></trkpt>
    <trkpt lat="34.67788" lon="-119.11513"><ele>1675.0</ele></trkpt>
    <trkpt lat="34.67790" lon="-119.11496"><ele>1675.0</ele></trkpt>
    <trkpt lat="34.67785" lon="-119.11468"><ele>1675.0</ele></trkpt>
    <trkpt lat="34.67782" lon="-119.11457"><ele>1675.0</ele></trkpt>
    <trkpt lat="34.67777" lon="-119.11430"><ele>1667.0</ele></trkpt>
    <trkpt lat="34.67765" lon="-119.11403"><ele>1667.0</ele></trkpt>
    <trkpt lat="34.67761" lon="-119.11396"><ele>1667.0</ele></trkpt>
    <trkpt lat="34.67750" lon="-119.11391"><ele>1667.0</ele></trkpt>
    <trkpt lat="34.67725" lon="-119.11404"><ele>1667.0</ele></trkpt>
    <trkpt lat="34.67706" lon="-119.11418"><ele>1667.0</ele></trkpt>
    <trkpt lat="34.67676" lon="-119.11438"><ele>1667.0</ele></trkpt>
    <trkpt lat="34.67652" lon="-119.11449"><ele>1654.0</ele></trkpt>
    <trkpt lat="34.67630" lon="-119.11463"><ele>1654.0</ele></trkpt>
    <trkpt lat="34.67613" lon="-119.11474"><ele>1654.0</ele></trkpt>
    <trkpt lat="34.67583" lon="-119.11492"><ele>1654.0</ele></trkpt>
    <trkpt lat="34.67559" lon="-119.11508"><ele>1654.0</ele></trkpt>
    <trkpt lat="34.67528" lon="-119.11527"><ele>1654.0</ele></trkpt>
    <trkpt lat="34.67496" lon="-119.11547"><ele>1635.0</ele></trkpt>
    <trkpt lat="34.67457" lon="-119.11570"><ele>1635.0</ele></trkpt>
    <trkpt lat="34.67431" lon="-119.11579"><ele>1635.0</ele></trkpt>
    <trkpt lat="34.67406" lon="-119.11592"><ele>1635.0</ele></trkpt>
    <trkpt lat="34.67386" lon="-119.11607"><ele>1635.0</ele></trkpt>
    <trkpt lat="34.67364" lon="-119.11620"><ele>1635.0</ele></trkpt>
    <trkpt lat="34.67327" lon="-119.11642"><ele>1635.0</ele></trkpt>
    <trkpt lat="34.67304" lon="-119.11654"><ele>1625.0</ele></trkpt>
    <trkpt lat="34.67286" lon="-119.11664"><ele>1625.0</ele></trkpt>
    <trkpt lat="34.67249" lon="-119.11676"><ele>1625.0</ele></trkpt>
    <trkpt lat="34.67218" lon="-119.11683"><ele>1625.0</ele></trkpt>
    <trkpt lat="34.67200" lon="-119.11688"><ele>1625.0</ele></trkpt>
    <trkpt lat="34.67162" lon="-119.11703"><ele>1625.0</ele></trkpt>
    <trkpt lat="34.67130" lon="-119.11718"><ele>1625.0</ele></trkpt>
    <trkpt lat="34.67104" lon="-119.11727"><ele>1615.0</ele></trkpt>
    <trkpt lat="34.67080" lon="-119.11733"><ele>1615.0</ele></trkpt>
    <trkpt lat="34.67060" lon="-119.11739"><ele>1615.0</ele></trkpt>
    <trkpt lat="34.67036" lon="-119.11745"><ele>1615.0</ele></trkpt>
    <trkpt lat="34.67017" lon="-119.11752"><ele>1615.0</ele></trkpt>
    <trkpt lat="34.66976" lon="-119.11762"><ele>1615.0</ele></trkpt>
    <trkpt lat="34.66956" lon="-119.11764"><ele>1615.0</ele></trkpt>
    <trkpt lat="34.66911" lon="-119.11773"><ele>1600.0</ele></trkpt>
    <trkpt lat="34.66876" lon="-119.11778"><ele>1600.0</ele></trkpt>
    <trkpt lat="34.66834" lon="-119.11788"><ele>1600.0</ele></trkpt>
    <trkpt lat="34.66795" lon="-119.11791"><ele>1600.0</ele></trkpt>
    <trkpt lat="34.66766" lon="-119.11798"><ele>1600.0</ele></trkpt>
    <trkpt lat="34.66710" lon="-119.11802"><ele>1600.0</ele></trkpt>
    <trkpt lat="34.66682" lon="-119.11803"><ele>1600.0</ele></trkpt>
    <trkpt lat="34.66647" lon="-119.11807"><ele>1587.0</ele></trkpt>
    <trkpt lat="34.66600" lon="-119.11813"><ele>1587.0</ele></trkpt>
    <trkpt lat="34.66565" lon="-119.11813"><ele>1587.0</ele></trkpt>
    <trkpt lat="34.66535" lon="-119.11810"><ele>1587.0</ele></trkpt>
    <trkpt lat="34.66500" lon="-119.11805"><ele>1587.0</ele></trkpt>
    <trkpt lat="34.66462" lon="-119.11799"><ele>1587.0</ele></trkpt>
    <trkpt lat="34.66424" lon="-119.11792"><ele>1587.0</ele></trkpt>
    <trkpt lat="34.66398" lon="-119.11788"><ele>1572.0</ele></trkpt>
    <trkpt lat="34.66383" lon="-119.11784"><ele>1572.0</ele></trkpt>
    <trkpt lat="34.66302" lon="-119.11767"><ele>1572.0</ele></trkpt>
    <trkpt lat="34.66277" lon="-119.11762"><ele>1572.0</ele></trkpt>
    <trkpt lat="34.66242" lon="-119.11753"><ele>1572.0</ele></trkpt>
    <trkpt lat="34.66209" lon="-119.11745"><ele>1572.0</ele></trkpt>
    <trkpt lat="34.66173" lon="-119.11737"><ele>1563.0</ele></trkpt>
    <trkpt lat="34.66138" lon="-119.11724"><ele>1563.0</ele></trkpt>
    <trkpt lat="34.66108" lon="-119.11716"><ele>1563.0</ele></trkpt>
    <trkpt lat="34.66079" lon="-119.11700"><ele>1563.0</ele></trkpt>
    <trkpt lat="34.66053" lon="-119.11687"><ele>1563.0</ele></trkpt>
    <trkpt lat="34.66025" lon="-119.11671"><ele>1563.0</ele></trkpt>
    <trkpt lat="34.66006" lon="-119.11660"><ele>1563.0</ele></trkpt>
    <trkpt lat="34.65968" lon="-119.11643"><ele>1559.0</ele></trkpt>
    <trkpt lat="34.65938" lon="-119.11628"><ele>1559.0</ele></trkpt>
    <trkpt lat="34.65924" lon="-119.11622"><ele>1559.0</ele></trkpt>
    <trkpt lat="34.65896" lon="-119.11605"><ele>1559.0</ele></trkpt>
    <trkpt lat="34.65878" lon="-119.11597"><ele>1559.0</ele></trkpt>
    <trkpt lat="34.65851" lon="-119.11573"><ele>1559.0</ele></trkpt>
    <trkpt lat="34.65841" lon="-119.11553"><ele>1559.0</ele></trkpt>
    <trkpt lat="34.65827" lon="-119.11529"><ele>1559.0</ele></trkpt>
    <trkpt lat="34.65812" lon="-119.11503"><ele>1559.0</ele></trkpt>
    <trkpt lat="34.65799" lon="-119.11476"><ele>1559.0</ele></trkpt>
    <trkpt lat="34.65785" lon="-119.11440"><ele>1559.0</ele></trkpt>
    <trkpt lat="34.65771" lon="-119.11401"><ele>1559.0</ele></trkpt>
    <trkpt lat="34.65756" lon="-119.11345"><ele>1559.0</ele></trkpt>
    <trkpt lat="34.65745" lon="-119.11299"><ele>1559.0</ele></trkpt>
    <trkpt lat="34.65727" lon="-119.11252"><ele>1539.0</ele></trkpt>
    <trkpt lat="34.65711" lon="-119.11216"><ele>1539.0</ele></trkpt>
    <trkpt lat="34.65687" lon="-119.11175"><ele>1539.0</ele></trkpt>
    <trkpt lat="34.65674" lon="-119.11159"><ele>1539.0</ele></trkpt>
    <trkpt lat="34.65645" lon="-119.11119"><ele>1539.0</ele></trkpt>
    <trkpt lat="34.65625" lon="-119.11093"><ele>1539.0</ele></trkpt>
    <trkpt lat="34.65596" lon="-119.11054"><ele>1539.0</ele></trkpt>
    <trkpt lat="34.65569" lon="-119.11025"><ele>1524.0</ele></trkpt>
    <trkpt lat="34.65540" lon="-119.10977"><ele>1524.0</ele></trkpt>
    <trkpt lat="34.65520" lon="-119.10946"><ele>1524.0</ele></trkpt>
    <trkpt lat="34.65471" lon="-119.10872"><ele>1524.0</ele></trkpt>
    <trkpt lat="34.65443" lon="-119.10826"><ele>1524.0</ele></trkpt>
    <trkpt lat="34.65427" lon="-119.10806"><ele>1524.0</ele></trkpt>
    <trkpt lat="34.65398" lon="-119.10767"><ele>1524.0</ele></trkpt>
    <trkpt lat="34.65382" lon="-119.10742"><ele>1513.0</ele></trkpt>
    <trkpt lat="34.65340" lon="-119.10699"><ele>1513.0</ele></trkpt>
    <trkpt lat="34.65327" lon="-119.10683"><ele>1513.0</ele></trkpt>
    <trkpt lat="34.65292" lon="-119.10650"><ele>1513.0</ele></trkpt>
    <trkpt lat="34.65264" lon="-119.10627"><ele>1513.0</ele></trkpt>
    <trkpt lat="34.65237" lon="-119.10600"><ele>1513.0</ele></trkpt>
    <trkpt lat="34.65213" lon="-119.10582"><ele>1513.0</ele></trkpt>
    <trkpt lat="34.65192" lon="-119.10558"><ele>1506.0</ele></trkpt>
    <trkpt lat="34.65177" lon="-119.10549"><ele>1506.0</ele></trkpt>
    <trkpt lat="34.65117" lon="-119.10499"><ele>1506.0</ele></trkpt>
    <trkpt lat="34.65077" lon="-119.10467"><ele>1506.0</ele></trkpt>
    <trkpt lat="34.65031" lon="-119.10430"><ele>1506.0</ele></trkpt>
    <trkpt lat="34.64998" lon="-119.10409"><ele>1506.0</ele></trkpt>
    <trkpt lat="34.64986" lon="-119.10402"><ele>1500.0</ele></trkpt>
    <trkpt lat="34.64968" lon="-119.10398"><ele>1500.0</ele></trkpt>
    <trkpt lat="34.64954" lon="-119.10387"><ele>1500.0</ele></trkpt>
    <trkpt lat="34.64929" lon="-119.10372"><ele>1500.0</ele></trkpt>
    <trkpt lat="34.64903" lon="-119.10364"><ele>1500.0</ele></trkpt>
    <trkpt lat="34.64874" lon="-119.10366"><ele>1500.0</ele></trkpt>
    <trkpt lat="34.64856" lon="-119.10372"><ele>1500.0</ele></trkpt>
    <trkpt lat="34.64833" lon="-119.10374"><ele>1495.0</ele></trkpt>
    <trkpt lat="34.64802" lon="-119.10371"><ele>1495.0</ele></trkpt>
    <trkpt lat="34.64766" lon="-119.10366"><ele>1495.0</ele></trkpt>
    <trkpt lat="34.64731" lon="-119.10364"><ele>1495.0</ele></trkpt>
    <trkpt lat="34.64716" lon="-119.10362"><ele>1495.0</ele></trkpt>
    <trkpt lat="34.64688" lon="-119.10356"><ele>1495.0</ele></trkpt>
    <trkpt lat="34.64659" lon="-119.10350"><ele>1495.0</ele></trkpt>
    <trkpt lat="34.64633" lon="-119.10346"><ele>1486.0</ele></trkpt>
    <trkpt lat="34.64607" lon="-119.10342"><ele>1486.0</ele></trkpt>
    <trkpt lat="34.64591" lon="-119.10339"><ele>1486.0</ele></trkpt>
    <trkpt lat="34.64565" lon="-119.10340"><ele>1486.0</ele></trkpt>
    <trkpt lat="34.64523" lon="-119.10341"><ele>1486.0</ele></trkpt>
    <trkpt lat="34.64484" lon="-119.10350"><ele>1486.0</ele></trkpt>
    <trkpt lat="34.64440" lon="-119.10361"><ele>1486.0</ele></trkpt>
    <trkpt lat="34.64409" lon="-119.10371"><ele>1478.0</ele></trkpt>
    <trkpt lat="34.64400" lon="-119.10375"><ele>1478.0</ele></trkpt>
    <trkpt lat="34.64383" lon="-119.10372"><ele>1478.0</ele></trkpt>
    <trkpt lat="34.64376" lon="-119.10371"><ele>1478.0</ele></trkpt>
    <trkpt lat="34.64341" lon="-119.10364"><ele>1478.0</ele></trkpt>
    <trkpt lat="34.64330" lon="-119.10360"><ele>1478.0</ele></trkpt>
    <trkpt lat="34.64284" lon="-119.10334"><ele>1478.0</ele></trkpt>
    <trkpt lat="34.64250" lon="-119.10305"><ele>1475.0</ele></trkpt>
    <trkpt lat="34.64233" lon="-119.10285"><ele>1475.0</ele></trkpt>
    <trkpt lat="34.64206" lon="-119.10249"><ele>1475.0</ele></trkpt>
    <trkpt lat="34.64201" lon="-119.10242"><ele>1475.0</ele></trkpt>
    <trkpt lat="34.64183" lon="-119.10220"><ele>1475.0</ele></trkpt>
    <trkpt lat="34.64177" lon="-119.10218"><ele>1475.0</ele></trkpt>
    <trkpt lat="34.64150" lon="-119.10215"><ele>1475.0</ele></trkpt>
    <trkpt lat="34.64122" lon="-119.10221"><ele>1473.0</ele></trkpt>
    <trkpt lat="34.64093" lon="-119.10229"><ele>1473.0</ele></trkpt>
    <trkpt lat="34.64083" lon="-119.10228"><ele>1473.0</ele></trkpt>
    <trkpt lat="34.64067" lon="-119.10225"><ele>1473.0</ele></trkpt>
    <trkpt lat="34.64061" lon="-119.10208"><ele>1473.0</ele></trkpt>
    <trkpt lat="34.64059" lon="-119.10165"><ele>1473.0</ele></trkpt>
    <trkpt lat="34.64056" lon="-119.10126"><ele>1475.0</ele></trkpt>
    <trkpt lat="34.64052" lon="-119.10097"><ele>1475.0</ele></trkpt>
    <trkpt lat="34.64050" lon="-119.10081"><ele>1475.0</ele></trkpt>
    <trkpt lat="34.64046" lon="-119.10069"><ele>1475.0</ele></trkpt>
    <trkpt lat="34.64044" lon="-119.10064"><ele>1475.0</ele></trkpt>
    <trkpt lat="34.64031" lon="-119.10038"><ele>1475.0</ele></trkpt>
    <trkpt lat="34.64031" lon="-119.10026"><ele>1475.0</ele></trkpt>
    <trkpt lat="34.64029" lon="-119.10001"><ele>1471.0</ele></trkpt>
    <trkpt lat="34.64022" lon="-119.10000"><ele>1471.0</ele></trkpt>
    <trkpt lat="34.63998" lon="-119.09996"><ele>1471.0</ele></trkpt>
    <trkpt lat="34.63987" lon="-119.09998"><ele>1471.0</ele></trkpt>
    <trkpt lat="34.63962" lon="-119.10004"><ele>1471.0</ele></trkpt>
    <trkpt lat="34.63923" lon="-119.10016"><ele>1471.0</ele></trkpt>
    <trkpt lat="34.63898" lon="-119.10034"><ele>1471.0</ele></trkpt>
    <trkpt lat="34.63870" lon="-119.10055"><ele>1468.0</ele></trkpt>
    <trkpt lat="34.63846" lon="-119.10061"><ele>1468.0</ele></trkpt>
    <trkpt lat="34.63823" lon="-119.10069"><ele>1468.0</ele></trkpt>
    <trkpt lat="34.63816" lon="-119.10068"><ele>1468.0</ele></trkpt>
    <trkpt lat="34.63788" lon="-119.10058"><ele>1468.0</ele></trkpt>
    <trkpt lat="34.63776" lon="-119.10051"><ele>1468.0</ele></trkpt>
    <trkpt lat="34.63758" lon="-119.10042"><ele>1468.0</ele></trkpt>
    <trkpt lat="34.63744" lon="-119.10025"><ele>1470.0</ele></trkpt>
    <trkpt lat="34.63730" lon="-119.10001"><ele>1470.0</ele></trkpt>
    <trkpt lat="34.63720" lon="-119.09975"><ele>1470.0</ele></trkpt>
    <trkpt lat="34.63718" lon="-119.09950"><ele>1470.0</ele></trkpt>
    <trkpt lat="34.63715" lon="-119.09932"><ele>1470.0</ele></trkpt>
    <trkpt lat="34.63722" lon="-119.09905"><ele>1470.0</ele></trkpt>
    <trkpt lat="34.63732" lon="-119.09884"><ele>1470.0</ele></trkpt>
    <trkpt lat="34.63756" lon="-119.09844"><ele>1468.0</ele></trkpt>
    <trkpt lat="34.63776" lon="-119.09821"><ele>1468.0</ele></trkpt>
    <trkpt lat="34.63792" lon="-119.09807"><ele>1468.0</ele></trkpt>
    <trkpt lat="34.63814" lon="-119.09783"><ele>1468.0</ele></trkpt>
    <trkpt lat="34.63829" lon="-119.09767"><ele>1468.0</ele></trkpt>
    <trkpt lat="34.63852" lon="-119.09746"><ele>1468.0</ele></trkpt>
    <trkpt lat="34.63875" lon="-119.09729"><ele>1468.0</ele></trkpt>
    <trkpt lat="34.63914" lon="-119.09711"><ele>1471.0</ele></trkpt>
    <trkpt lat="34.63941" lon="-119.09697"><ele>1471.0</ele></trkpt>
    <trkpt lat="34.63959" lon="-119.09684"><ele>1471.0</ele></trkpt>
    <trkpt lat="34.63978" lon="-119.09661"><ele>1471.0</ele></trkpt>
    <trkpt lat="34.63984" lon="-119.09648"><ele>1471.0</ele></trkpt>
    <trkpt lat="34.63992" lon="-119.09623"><ele>1471.0</ele></trkpt>
    <trkpt lat="34.63997" lon="-119.09599"><ele>1471.0</ele></trkpt>
    <trkpt lat="34.64000" lon="-119.09567"><ele>1463.0</ele></trkpt>
    <trkpt lat="34.64003" lon="-119.09551"><ele>1463.0</ele></trkpt>
    <trkpt lat="34.64009" lon="-119.09540"><ele>1463.0</ele></trkpt>
    <trkpt lat="34.64021" lon="-119.09520"><ele>1463.0</ele></trkpt>
    <trkpt lat="34.64038" lon="-119.09494"><ele>1463.0</ele></trkpt>
    <trkpt lat="34.64050" lon="-119.09478"><ele>1463.0</ele></trkpt>
    <trkpt lat="34.64057" lon="-119.09457"><ele>1463.0</ele></trkpt>
    <trkpt lat="34.64073" lon="-119.09431"><ele>1463.0</ele></trkpt>
    <trkpt lat="34.64091" lon="-119.09413"><ele>1463.0</ele></trkpt>
    <trkpt lat="34.64119" lon="-119.09396"><ele>1463.0</ele></trkpt>
    <trkpt lat="34.64134" lon="-119.09391"><ele>1463.0</ele></trkpt>
    <trkpt lat="34.64160" lon="-119.09374"><ele>1463.0</ele></trkpt>
    <trkpt lat="34.64183" lon="-119.09359"><ele>1463.0</ele></trkpt>
    <trkpt lat="34.64202" lon="-119.09342"><ele>1468.0</ele></trkpt>
    <trkpt lat="34.64216" lon="-119.09323"><ele>1468.0</ele></trkpt>
    <trkpt lat="34.64225" lon="-119.09313"><ele>1468.0</ele></trkpt>
    <trkpt lat="34.64242" lon="-119.09287"><ele>1468.0</ele></trkpt>
    <trkpt lat="34.64253" lon="-119.09265"><ele>1468.0</ele></trkpt>
    <trkpt lat="34.64263" lon="-119.09247"><ele>1468.0</ele></trkpt>
    <trkpt lat="34.64277" lon="-119.09224"><ele>1468.0</ele></trkpt>
    <trkpt lat="34.64287" lon="-119.09201"><ele>1465.0</ele></trkpt>
    <trkpt lat="34.64296" lon="-119.09165"><ele>1465.0</ele></trkpt>
    <trkpt lat="34.64302" lon="-119.09143"><ele>1465.0</ele></trkpt>
    <trkpt lat="34.64309" lon="-119.09105"><ele>1465.0</ele></trkpt>
    <trkpt lat="34.64314" lon="-119.09075"><ele>1465.0</ele></trkpt>
    <trkpt lat="34.64325" lon="-119.09019"><ele>1465.0</ele></trkpt>
    <trkpt lat="34.64330" lon="-119.08984"><ele>1465.0</ele></trkpt>
    <trkpt lat="34.64338" lon="-119.08926"><ele>1464.0</ele></trkpt>
    <trkpt lat="34.64341" lon="-119.08895"><ele>1464.0</ele></trkpt>
    <trkpt lat="34.64347" lon="-119.08860"><ele>1464.0</ele></trkpt>
    <trkpt lat="34.64349" lon="-119.08830"><ele>1464.0</ele></trkpt>
    <trkpt lat="34.64350" lon="-119.08802"><ele>1464.0</ele></trkpt>
    <trkpt lat="34.64354" lon="-119.08756"><ele>1464.0</ele></trkpt>
    <trkpt lat="34.64352" lon="-119.08727"><ele>1464.0</ele></trkpt>
    <trkpt lat="34.64348" lon="-119.08714"><ele>1465.0</ele></trkpt>
    <trkpt lat="34.64335" lon="-119.08681"><ele>1465.0</ele></trkpt>
    <trkpt lat="34.64320" lon="-119.08654"><ele>1465.0</ele></trkpt>
    <trkpt lat="34.64298" lon="-119.08624"><ele>1465.0</ele></trkpt>
    <trkpt lat="34.64285" lon="-119.08605"><ele>1465.0</ele></trkpt>
    <trkpt lat="34.64259" lon="-119.08579"><ele>1465.0</ele></trkpt>
    <trkpt lat="34.64223" lon="-119.08553"><ele>1465.0</ele></trkpt>
    <trkpt lat="34.64188" lon="-119.08541"><ele>1458.0</ele></trkpt>
    <trkpt lat="34.64154" lon="-119.08528"><ele>1458.0</ele></trkpt>
    <trkpt lat="34.64120" lon="-119.08516"><ele>1458.0</ele></trkpt>
    <trkpt lat="34.64090" lon="-119.08500"><ele>1458.0</ele></trkpt>
    <trkpt lat="34.64076" lon="-119.08489"><ele>1458.0</ele></trkpt>
    <trkpt lat="34.64059" lon="-119.08469"><ele>1458.0</ele></trkpt>
    <trkpt lat="34.64054" lon="-119.08462"><ele>1458.0</ele></trkpt>
    <trkpt lat="34.64048" lon="-119.08441"><ele>1458.0</ele></trkpt>
    <trkpt lat="34.64040" lon="-119.08413"><ele>1458.0</ele></trkpt>
    <trkpt lat="34.64037" lon="-119.08396"><ele>1458.0</ele></trkpt>
    <trkpt lat="34.64039" lon="-119.08383"><ele>1458.0</ele></trkpt>
    <trkpt lat="34.64047" lon="-119.08359"><ele>1458.0</ele></trkpt>
    <trkpt lat="34.64059" lon="-119.08340"><ele>1458.0</ele></trkpt>
    <trkpt lat="34.64097" lon="-119.08303"><ele>1471.0</ele></trkpt>
    <trkpt lat="34.64116" lon="-119.08281"><ele>1471.0</ele></trkpt>
    <trkpt lat="34.64127" lon="-119.08266"><ele>1471.0</ele></trkpt>
    <trkpt lat="34.64130" lon="-119.08246"><ele>1471.0</ele></trkpt>
    <trkpt lat="34.64141" lon="-119.08224"><ele>1471.0</ele></trkpt>
    <trkpt lat="34.64166" lon="-119.08188"><ele>1471.0</ele></trkpt>
    <trkpt lat="34.64181" lon="-119.08165"><ele>1471.0</ele></trkpt>
    <trkpt lat="34.64190" lon="-119.08144"><ele>1467.0</ele></trkpt>
    <trkpt lat="34.64190" lon="-119.08132"><ele>1467.0</ele></trkpt>
    <trkpt lat="34.64187" lon="-119.08108"><ele>1467.0</ele></trkpt>
    <trkpt lat="34.64181" lon="-119.08079"><ele>1467.0</ele></trkpt>
    <trkpt lat="34.64180" lon="-119.08071"><ele>1467.0</ele></trkpt>
    <trkpt lat="34.64189" lon="-119.08047"><ele>1467.0</ele></trkpt>
    <trkpt lat="34.64205" lon="-119.08033"><ele>1467.0</ele></trkpt>
    <trkpt lat="34.64214" lon="-119.08029"><ele>1464.0</ele></trkpt>
    <trkpt lat="34.64234" lon="-119.08025"><ele>1464.0</ele></trkpt>
    <trkpt lat="34.64269" lon="-119.08024"><ele>1464.0</ele></trkpt>
    <trkpt lat="34.64305" lon="-119.08017"><ele>1464.0</ele></trkpt>
    <trkpt lat="34.64331" lon="-119.08008"><ele>1464.0</ele></trkpt>
    <trkpt lat="34.64353" lon="-119.07996"><ele>1464.0</ele></trkpt>
    <trkpt lat="34.64370" lon="-119.07981"><ele>1464.0</ele></trkpt>
    <trkpt lat="34.64392" lon="-119.07965"><ele>1458.0</ele></trkpt>
    <trkpt lat="34.64422" lon="-119.07945"><ele>1458.0</ele></trkpt>
    <trkpt lat="34.64440" lon="-119.07927"><ele>1458.0</ele></trkpt>
    <trkpt lat="34.64454" lon="-119.07905"><ele>1458.0</ele></trkpt>
    <trkpt lat="34.64465" lon="-119.07885"><ele>1458.0</ele></trkpt>
    <trkpt lat="34.64474" lon="-119.07858"><ele>1458.0</ele></trkpt>
    <trkpt lat="34.64478" lon="-119.07837"><ele>1458.0</ele></trkpt>
    <trkpt lat="34.64487" lon="-119.07808"><ele>1457.0</ele></trkpt>
    <trkpt lat="34.64488" lon="-119.07793"><ele>1457.0</ele></trkpt>
    <trkpt lat="34.64492" lon="-119.07756"><ele>1457.0</ele></trkpt>
    <trkpt lat="34.64492" lon="-119.07736"><ele>1457.0</ele></trkpt>
    <trkpt lat="34.64494" lon="-119.07707"><ele>1457.0</ele></trkpt>
    <trkpt lat="34.64492" lon="-119.07675"><ele>1457.0</ele></trkpt>
    <trkpt lat="34.64490" lon="-119.07663"><ele>1452.0</ele></trkpt>
    <trkpt lat="34.64487" lon="-119.07632"><ele>1452.0</ele></trkpt>
    <trkpt lat="34.64481" lon="-119.07616"><ele>1452.0</ele></trkpt>
    <trkpt lat="34.64462" lon="-119.07585"><ele>1452.0</ele></trkpt>
    <trkpt lat="34.64454" lon="-119.07565"><ele>1452.0</ele></trkpt>
    <trkpt lat="34.64434" lon="-119.07532"><ele>1452.0</ele></trkpt>
    <trkpt lat="34.64427" lon="-119.07516"><ele>1452.0</ele></trkpt>
    <trkpt lat="34.64422" lon="-119.07494"><ele>1450.0</ele></trkpt>
    <trkpt lat="34.64422" lon="-119.07483"><ele>1450.0</ele></trkpt>
    <trkpt lat="34.64425" lon="-119.07462"><ele>1450.0</ele></trkpt>
    <trkpt lat="34.64436" lon="-119.07436"><ele>1450.0</ele></trkpt>
    <trkpt lat="34.64454" lon="-119.07411"><ele>1450.0</ele></trkpt>
    <trkpt lat="34.64472" lon="-119.07388"><ele>1450.0</ele></trkpt>
    <trkpt lat="34.64490" lon="-119.07371"><ele>1450.0</ele></trkpt>
    <trkpt lat="34.64510" lon="-119.07355"><ele>1450.0</ele></trkpt>
    <trkpt lat="34.64523" lon="-119.07349"><ele>1450.0</ele></trkpt>
    <trkpt lat="34.64541" lon="-119.07341"><ele>1450.0</ele></trkpt>
    <trkpt lat="34.64550" lon="-119.07341"><ele>1450.0</ele></trkpt>
    <trkpt lat="34.64576" lon="-119.07336"><ele>1450.0</ele></trkpt>
    <trkpt lat="34.64609" lon="-119.07333"><ele>1450.0</ele></trkpt>
    <trkpt lat="34.64677" lon="-119.07324"><ele>1450.0</ele></trkpt>
    <trkpt lat="34.64692" lon="-119.07317"><ele>1452.0</ele></trkpt>
    <trkpt lat="34.64716" lon="-119.07311"><ele>1452.0</ele></trkpt>
    <trkpt lat="34.64734" lon="-119.07297"><ele>1452.0</ele></trkpt>
    <trkpt lat="34.64752" lon="-119.07284"><ele>1452.0</ele></trkpt>
    <trkpt lat="34.64771" lon="-119.07253"><ele>1452.0</ele></trkpt>
    <trkpt lat="34.64786" lon="-119.07231"><ele>1452.0</ele></trkpt>
    <trkpt lat="34.64792" lon="-119.07211"><ele>1452.0</ele></trkpt>
    <trkpt lat="34.64787" lon="-119.07188"><ele>1443.0</ele></trkpt>
    <trkpt lat="34.64782" lon="-119.07174"><ele>1443.0</ele></trkpt>
    <trkpt lat="34.64771" lon="-119.07145"><ele>1443.0</ele></trkpt>
    <trkpt lat="34.64759" lon="-119.07115"><ele>1443.0</ele></trkpt>
    <trkpt lat="34.64744" lon="-119.07086"><ele>1443.0</ele></trkpt>
    <trkpt lat="34.64738" lon="-119.07076"><ele>1443.0</ele></trkpt>
    <trkpt lat="34.64730" lon="-119.07057"><ele>1443.0</ele></trkpt>
    <trkpt lat="34.64722" lon="-119.07042"><ele>1443.0</ele></trkpt>
    <trkpt lat="34.64715" lon="-119.07023"><ele>1443.0</ele></trkpt>
    <trkpt lat="34.64706" lon="-119.06995"><ele>1443.0</ele></trkpt>
    <trkpt lat="34.64704" lon="-119.06983"><ele>1443.0</ele></trkpt>
    <trkpt lat="34.64696" lon="-119.06949"><ele>1443.0</ele></trkpt>
    <trkpt lat="34.64697" lon="-119.06914"><ele>1443.0</ele></trkpt>
    <trkpt lat="34.64694" lon="-119.06877"><ele>1443.0</ele></trkpt>
    <trkpt lat="34.64689" lon="-119.06854"><ele>1450.0</ele></trkpt>
    <trkpt lat="34.64688" lon="-119.06832"><ele>1450.0</ele></trkpt>
    <trkpt lat="34.64687" lon="-119.06816"><ele>1450.0</ele></trkpt>
    <trkpt lat="34.64693" lon="-119.06785"><ele>1450.0</ele></trkpt>
    <trkpt lat="34.64701" lon="-119.06758"><ele>1450.0</ele></trkpt>
    <trkpt lat="34.64724" lon="-119.06711"><ele>1450.0</ele></trkpt>
    <trkpt lat="34.64746" lon="-119.06681"><ele>1449.0</ele></trkpt>
    <trkpt lat="34.64759" lon="-119.06662"><ele>1449.0</ele></trkpt>
    <trkpt lat="34.64782" lon="-119.06634"><ele>1449.0</ele></trkpt>
    <trkpt lat="34.64787" lon="-119.06609"><ele>1449.0</ele></trkpt>
    <trkpt lat="34.64786" lon="-119.06589"><ele>1449.0</ele></trkpt>
    <trkpt lat="34.64776" lon="-119.06574"><ele>1449.0</ele></trkpt>
    <trkpt lat="34.64771" lon="-119.06564"><ele>1449.0</ele></trkpt>
    <trkpt lat="34.64753" lon="-119.06538"><ele>1453.0</ele></trkpt>
    <trkpt lat="34.64747" lon="-119.06518"><ele>1453.0</ele></trkpt>
    <trkpt lat="34.64746" lon="-119.06494"><ele>1453.0</ele></trkpt>
    <trkpt lat="34.64742" lon="-119.06478"><ele>1453.0</ele></trkpt>
    <trkpt lat="34.64739" lon="-119.06455"><ele>1453.0</ele></trkpt>
    <trkpt lat="34.64736" lon="-119.06435"><ele>1453.0</ele></trkpt>
    <trkpt lat="34.64732" lon="-119.06423"><ele>1453.0</ele></trkpt>
    <trkpt lat="34.64728" lon="-119.06410"><ele>1458.0</ele></trkpt>
    <trkpt lat="34.64716" lon="-119.06392"><ele>1458.0</ele></trkpt>
    <trkpt lat="34.64706" lon="-119.06382"><ele>1458.0</ele></trkpt>
    <trkpt lat="34.64700" lon="-119.06377"><ele>1458.0</ele></trkpt>
    <trkpt lat="34.64673" lon="-119.06359"><ele>1458.0</ele></trkpt>
    <trkpt lat="34.64662" lon="-119.06352"><ele>1458.0</ele></trkpt>
    <trkpt lat="34.64638" lon="-119.06320"><ele>1458.0</ele></trkpt>
    <trkpt lat="34.64628" lon="-119.06299"><ele>1463.0</ele></trkpt>
    <trkpt lat="34.64607" lon="-119.06256"><ele>1463.0</ele></trkpt>
    <trkpt lat="34.64600" lon="-119.06248"><ele>1463.0</ele></trkpt>
    <trkpt lat="34.64577" lon="-119.06214"><ele>1463.0</ele></trkpt>
    <trkpt lat="34.64552" lon="-119.06178"><ele>1463.0</ele></trkpt>
    <trkpt lat="34.64529" lon="-119.06152"><ele>1463.0</ele></trkpt>
    <trkpt lat="34.64517" lon="-119.06136"><ele>1463.0</ele></trkpt>
    <trkpt lat="34.64513" lon="-119.06130"><ele>1468.0</ele></trkpt>
    <trkpt lat="34.64489" lon="-119.06099"><ele>1468.0</ele></trkpt>
    <trkpt lat="34.64481" lon="-119.06090"><ele>1468.0</ele></trkpt>
    <trkpt lat="34.64445" lon="-119.06055"><ele>1468.0</ele></trkpt>
    <trkpt lat="34.64411" lon="-119.06016"><ele>1468.0</ele></trkpt>
    <trkpt lat="34.64403" lon="-119.06009"><ele>1468.0</ele></trkpt>
    <trkpt lat="34.64372" lon="-119.05977"><ele>1468.0</ele></trkpt>
    <trkpt lat="34.64341" lon="-119.05948"><ele>1479.0</ele></trkpt>
    <trkpt lat="34.64310" lon="-119.05920"><ele>1479.0</ele></trkpt>
    <trkpt lat="34.64293" lon="-119.05898"><ele>1479.0</ele></trkpt>
    <trkpt lat="34.64284" lon="-119.05885"><ele>1479.0</ele></trkpt>
    <trkpt lat="34.64274" lon="-119.05858"><ele>1479.0</ele></trkpt>
    <trkpt lat="34.64264" lon="-119.05824"><ele>1479.0</ele></trkpt>
    <trkpt lat="34.64252" lon="-119.05792"><ele>1488.0</ele></trkpt>
    <trkpt lat="34.64241" lon="-119.05770"><ele>1488.0</ele></trkpt>
    <trkpt lat="34.64232" lon="-119.05755"><ele>1488.0</ele></trkpt>
    <trkpt lat="34.64226" lon="-119.05746"><ele>1488.0</ele></trkpt>
    <trkpt lat="34.64215" lon="-119.05732"><ele>1488.0</ele></trkpt>
    <trkpt lat="34.64210" lon="-119.05723"><ele>1488.0</ele></trkpt>
    <trkpt lat="34.64207" lon="-119.05715"><ele>1488.0</ele></trkpt>
    <trkpt lat="34.64201" lon="-119.05689"><ele>1491.0</ele></trkpt>
    <trkpt lat="34.64197" lon="-119.05668"><ele>1491.0</ele></trkpt>
    <trkpt lat="34.64193" lon="-119.05658"><ele>1491.0</ele></trkpt>
    <trkpt lat="34.64188" lon="-119.05643"><ele>1491.0</ele></trkpt>
    <trkpt lat="34.64185" lon="-119.05627"><ele>1491.0</ele></trkpt>
    <trkpt lat="34.64179" lon="-119.05609"><ele>1491.0</ele></trkpt>
    <trkpt lat="34.64182" lon="-119.05587"><ele>1491.0</ele></trkpt>
    <trkpt lat="34.64182" lon="-119.05576"><ele>1499.0</ele></trkpt>
    <trkpt lat="34.64191" lon="-119.05552"><ele>1499.0</ele></trkpt>
    <trkpt lat="34.64201" lon="-119.05534"><ele>1499.0</ele></trkpt>
    <trkpt lat="34.64213" lon="-119.05519"><ele>1499.0</ele></trkpt>
    <trkpt lat="34.64232" lon="-119.05505"><ele>1499.0</ele></trkpt>
    <trkpt lat="34.64235" lon="-119.05496"><ele>1499.0</ele></trkpt>
    <trkpt lat="34.64232" lon="-119.05489"><ele>1499.0</ele></trkpt>
    <trkpt lat="34.64227" lon="-119.05484"><ele>1502.0</ele></trkpt>
    <trkpt lat="34.64220" lon="-119.05483"><ele>1502.0</ele></trkpt>
    <trkpt lat="34.64198" lon="-119.05483"><ele>1502.0</ele></trkpt>
    <trkpt lat="34.64186" lon="-119.05479"><ele>1502.0</ele></trkpt>
    <trkpt lat="34.64180" lon="-119.05476"><ele>1502.0</ele></trkpt>
    <trkpt lat="34.64169" lon="-119.05457"><ele>1502.0</ele></trkpt>
    <trkpt lat="34.64160" lon="-119.05437"><ele>1502.0</ele></trkpt>
    <trkpt lat="34.64148" lon="-119.05415"><ele>1508.0</ele></trkpt>
    <trkpt lat="34.64141" lon="-119.05393"><ele>1508.0</ele></trkpt>
    <trkpt lat="34.64137" lon="-119.05379"><ele>1508.0</ele></trkpt>
    <trkpt lat="34.64135" lon="-119.05363"><ele>1508.0</ele></trkpt>
    <trkpt lat="34.64130" lon="-119.05351"><ele>1508.0</ele></trkpt>
    <trkpt lat="34.64124" lon="-119.05339"><ele>1508.0</ele></trkpt>
    <trkpt lat="34.64122" lon="-119.05332"><ele>1508.0</ele></trkpt>
    <trkpt lat="34.64107" lon="-119.05297"><ele>1501.0</ele></trkpt>
    <trkpt lat="34.64102" lon="-119.05276"><ele>1501.0</ele></trkpt>
    <trkpt lat="34.64100" lon="-119.05271"><ele>1501.0</ele></trkpt>
    <trkpt lat="34.64100" lon="-119.05270"><ele>1501.0</ele></trkpt>
    <trkpt lat="34.64103" lon="-119.05252"><ele>1501.0</ele></trkpt>
    <trkpt lat="34.64111" lon="-119.05232"><ele>1501.0</ele></trkpt>
    <trkpt lat="34.64113" lon="-119.05222"><ele>1496.0</ele></trkpt>
    <trkpt lat="34.64116" lon="-119.05209"><ele>1496.0</ele></trkpt>
    <trkpt lat="34.64114" lon="-119.05199"><ele>1496.0</ele></trkpt>
    <trkpt lat="34.64108" lon="-119.05189"><ele>1496.0</ele></trkpt>
    <trkpt lat="34.64085" lon="-119.05174"><ele>1496.0</ele></trkpt>
    <trkpt lat="34.64061" lon="-119.05155"><ele>1496.0</ele></trkpt>
    <trkpt lat="34.64048" lon="-119.05148"><ele>1496.0</ele></trkpt>
    <trkpt lat="34.64025" lon="-119.05135"><ele>1486.0</ele></trkpt>
    <trkpt lat="34.63997" lon="-119.05122"><ele>1486.0</ele></trkpt>
    <trkpt lat="34.63971" lon="-119.05114"><ele>1486.0</ele></trkpt>
    <trkpt lat="34.63946" lon="-119.05112"><ele>1486.0</ele></trkpt>
    <trkpt lat="34.63925" lon="-119.05104"><ele>1486.0</ele></trkpt>
    <trkpt lat="34.63909" lon="-119.05097"><ele>1486.0</ele></trkpt>
    <trkpt lat="34.63888" lon="-119.05082"><ele>1486.0</ele></trkpt>
    <trkpt lat="34.63875" lon="-119.05073"><ele>1479.0</ele></trkpt>
    <trkpt lat="34.63870" lon="-119.05069"><ele>1479.0</ele></trkpt>
    <trkpt lat="34.63859" lon="-119.05060"><ele>1479.0</ele></trkpt>
    <trkpt lat="34.63847" lon="-119.05050"><ele>1479.0</ele></trkpt>
  </trkseg></trk>
</gpx>
