<?xml version="1.0" encoding="UTF-8"?>
<gpx version="1.1" creator="dirt-bikes build-area-routes (MVUM geometry + SRTM elevation)" xmlns="http://www.topografix.com/GPX/1/1">
  <trk><name>Navajo Road</name><trkseg>
    <trkpt lat="35.34432" lon="-120.35487"><ele>540.0</ele></trkpt>
    <trkpt lat="35.34440" lon="-120.35463"><ele>540.0</ele></trkpt>
    <trkpt lat="35.34474" lon="-120.35411"><ele>540.0</ele></trkpt>
    <trkpt lat="35.34486" lon="-120.35399"><ele>540.0</ele></trkpt>
    <trkpt lat="35.34502" lon="-120.35385"><ele>548.0</ele></trkpt>
    <trkpt lat="35.34515" lon="-120.35373"><ele>548.0</ele></trkpt>
    <trkpt lat="35.34531" lon="-120.35353"><ele>548.0</ele></trkpt>
    <trkpt lat="35.34545" lon="-120.35334"><ele>548.0</ele></trkpt>
    <trkpt lat="35.34559" lon="-120.35310"><ele>548.0</ele></trkpt>
    <trkpt lat="35.34570" lon="-120.35294"><ele>548.0</ele></trkpt>
    <trkpt lat="35.34646" lon="-120.35244"><ele>548.0</ele></trkpt>
    <trkpt lat="35.34739" lon="-120.35190"><ele>558.0</ele></trkpt>
    <trkpt lat="35.34756" lon="-120.35180"><ele>558.0</ele></trkpt>
    <trkpt lat="35.34771" lon="-120.35174"><ele>558.0</ele></trkpt>
    <trkpt lat="35.34795" lon="-120.35167"><ele>558.0</ele></trkpt>
    <trkpt lat="35.34840" lon="-120.35136"><ele>558.0</ele></trkpt>
    <trkpt lat="35.34857" lon="-120.35124"><ele>558.0</ele></trkpt>
    <trkpt lat="35.34875" lon="-120.35120"><ele>565.0</ele></trkpt>
    <trkpt lat="35.34888" lon="-120.35119"><ele>565.0</ele></trkpt>
    <trkpt lat="35.34944" lon="-120.35104"><ele>565.0</ele></trkpt>
    <trkpt lat="35.34991" lon="-120.35093"><ele>565.0</ele></trkpt>
    <trkpt lat="35.35005" lon="-120.35089"><ele>565.0</ele></trkpt>
    <trkpt lat="35.35013" lon="-120.35079"><ele>565.0</ele></trkpt>
    <trkpt lat="35.35040" lon="-120.35034"><ele>565.0</ele></trkpt>
    <trkpt lat="35.35046" lon="-120.35026"><ele>574.0</ele></trkpt>
    <trkpt lat="35.35056" lon="-120.35024"><ele>574.0</ele></trkpt>
    <trkpt lat="35.35086" lon="-120.35020"><ele>574.0</ele></trkpt>
    <trkpt lat="35.35101" lon="-120.35017"><ele>574.0</ele></trkpt>
    <trkpt lat="35.35115" lon="-120.35011"><ele>574.0</ele></trkpt>
    <trkpt lat="35.35125" lon="-120.35000"><ele>574.0</ele></trkpt>
    <trkpt lat="35.35139" lon="-120.34975"><ele>573.0</ele></trkpt>
    <trkpt lat="35.35149" lon="-120.34964"><ele>573.0</ele></trkpt>
    <trkpt lat="35.35164" lon="-120.34966"><ele>573.0</ele></trkpt>
    <trkpt lat="35.35179" lon="-120.34962"><ele>573.0</ele></trkpt>
    <trkpt lat="35.35199" lon="-120.34928"><ele>573.0</ele></trkpt>
    <trkpt lat="35.35208" lon="-120.34913"><ele>573.0</ele></trkpt>
    <trkpt lat="35.35211" lon="-120.34898"><ele>573.0</ele></trkpt>
    <trkpt lat="35.35211" lon="-120.34860"><ele>585.0</ele></trkpt>
    <trkpt lat="35.35212" lon="-120.34848"><ele>585.0</ele></trkpt>
    <trkpt lat="35.35221" lon="-120.34832"><ele>585.0</ele></trkpt>
    <trkpt lat="35.35229" lon="-120.34821"><ele>585.0</ele></trkpt>
    <trkpt lat="35.35242" lon="-120.34814"><ele>585.0</ele></trkpt>
    <trkpt lat="35.35254" lon="-120.34807"><ele>585.0</ele></trkpt>
    <trkpt lat="35.35263" lon="-120.34794"><ele>585.0</ele></trkpt>
    <trkpt lat="35.35275" lon="-120.34769"><ele>586.0</ele></trkpt>
    <trkpt lat="35.35287" lon="-120.34756"><ele>586.0</ele></trkpt>
    <trkpt lat="35.35302" lon="-120.34751"><ele>586.0</ele></trkpt>
    <trkpt lat="35.35317" lon="-120.34744"><ele>586.0</ele></trkpt>
    <trkpt lat="35.35343" lon="-120.34712"><ele>586.0</ele></trkpt>
    <trkpt lat="35.35380" lon="-120.34685"><ele>586.0</ele></trkpt>
    <trkpt lat="35.35449" lon="-120.34654"><ele>586.0</ele></trkpt>
    <trkpt lat="35.35470" lon="-120.34646"><ele>586.0</ele></trkpt>
    <trkpt lat="35.35483" lon="-120.34639"><ele>586.0</ele></trkpt>
    <trkpt lat="35.35486" lon="-120.34639"><ele>586.0</ele></trkpt>
    <trkpt lat="35.35496" lon="-120.34638"><ele>586.0</ele></trkpt>
    <trkpt lat="35.35512" lon="-120.34640"><ele>586.0</ele></trkpt>
    <trkpt lat="35.35529" lon="-120.34641"><ele>586.0</ele></trkpt>
    <trkpt lat="35.35546" lon="-120.34643"><ele>590.0</ele></trkpt>
    <trkpt lat="35.35549" lon="-120.34645"><ele>590.0</ele></trkpt>
    <trkpt lat="35.35583" lon="-120.34650"><ele>590.0</ele></trkpt>
    <trkpt lat="35.35607" lon="-120.34652"><ele>590.0</ele></trkpt>
    <trkpt lat="35.35624" lon="-120.34659"><ele>590.0</ele></trkpt>
    <trkpt lat="35.35628" lon="-120.34658"><ele>590.0</ele></trkpt>
    <trkpt lat="35.35658" lon="-120.34658"><ele>590.0</ele></trkpt>
    <trkpt lat="35.35664" lon="-120.34658"><ele>593.0</ele></trkpt>
    <trkpt lat="35.35670" lon="-120.34657"><ele>593.0</ele></trkpt>
    <trkpt lat="35.35675" lon="-120.34656"><ele>593.0</ele></trkpt>
    <trkpt lat="35.35684" lon="-120.34653"><ele>593.0</ele></trkpt>
    <trkpt lat="35.35691" lon="-120.34650"><ele>593.0</ele></trkpt>
    <trkpt lat="35.35698" lon="-120.34645"><ele>593.0</ele></trkpt>
    <trkpt lat="35.35702" lon="-120.34640"><ele>600.0</ele></trkpt>
    <trkpt lat="35.35709" lon="-120.34637"><ele>600.0</ele></trkpt>
    <trkpt lat="35.35712" lon="-120.34636"><ele>600.0</ele></trkpt>
    <trkpt lat="35.35721" lon="-120.34636"><ele>600.0</ele></trkpt>
    <trkpt lat="35.35725" lon="-120.34636"><ele>600.0</ele></trkpt>
    <trkpt lat="35.35730" lon="-120.34637"><ele>600.0</ele></trkpt>
    <trkpt lat="35.35736" lon="-120.34636"><ele>600.0</ele></trkpt>
    <trkpt lat="35.35739" lon="-120.34636"><ele>604.0</ele></trkpt>
    <trkpt lat="35.35745" lon="-120.34633"><ele>604.0</ele></trkpt>
    <trkpt lat="35.35747" lon="-120.34628"><ele>604.0</ele></trkpt>
    <trkpt lat="35.35747" lon="-120.34620"><ele>604.0</ele></trkpt>
    <trkpt lat="35.35751" lon="-120.34614"><ele>604.0</ele></trkpt>
    <trkpt lat="35.35754" lon="-120.34603"><ele>604.0</ele></trkpt>
    <trkpt lat="35.35761" lon="-120.34592"><ele>611.0</ele></trkpt>
    <trkpt lat="35.35766" lon="-120.34586"><ele>611.0</ele></trkpt>
    <trkpt lat="35.35773" lon="-120.34582"><ele>611.0</ele></trkpt>
    <trkpt lat="35.35792" lon="-120.34566"><ele>611.0</ele></trkpt>
    <trkpt lat="35.35793" lon="-120.34565"><ele>611.0</ele></trkpt>
    <trkpt lat="35.35806" lon="-120.34547"><ele>611.0</ele></trkpt>
    <trkpt lat="35.35813" lon="-120.34527"><ele>611.0</ele></trkpt>
    <trkpt lat="35.35818" lon="-120.34502"><ele>627.0</ele></trkpt>
    <trkpt lat="35.35855" lon="-120.34453"><ele>627.0</ele></trkpt>
    <trkpt lat="35.35873" lon="-120.34433"><ele>627.0</ele></trkpt>
    <trkpt lat="35.35883" lon="-120.34420"><ele>627.0</ele></trkpt>
    <trkpt lat="35.35886" lon="-120.34405"><ele>627.0</ele></trkpt>
    <trkpt lat="35.35890" lon="-120.34394"><ele>627.0</ele></trkpt>
    <trkpt lat="35.35896" lon="-120.34389"><ele>627.0</ele></trkpt>
    <trkpt lat="35.35900" lon="-120.34389"><ele>631.0</ele></trkpt>
    <trkpt lat="35.35904" lon="-120.34388"><ele>631.0</ele></trkpt>
    <trkpt lat="35.35909" lon="-120.34397"><ele>631.0</ele></trkpt>
    <trkpt lat="35.35921" lon="-120.34404"><ele>631.0</ele></trkpt>
    <trkpt lat="35.35940" lon="-120.34406"><ele>631.0</ele></trkpt>
    <trkpt lat="35.36027" lon="-120.34366"><ele>631.0</ele></trkpt>
    <trkpt lat="35.36154" lon="-120.34296"><ele>674.0</ele></trkpt>
    <trkpt lat="35.36199" lon="-120.34252"><ele>674.0</ele></trkpt>
    <trkpt lat="35.36232" lon="-120.34217"><ele>674.0</ele></trkpt>
    <trkpt lat="35.36251" lon="-120.34205"><ele>674.0</ele></trkpt>
    <trkpt lat="35.36282" lon="-120.34202"><ele>674.0</ele></trkpt>
    <trkpt lat="35.36303" lon="-120.34201"><ele>674.0</ele></trkpt>
    <trkpt lat="35.36322" lon="-120.34206"><ele>674.0</ele></trkpt>
    <trkpt lat="35.36339" lon="-120.34221"><ele>668.0</ele></trkpt>
    <trkpt lat="35.36353" lon="-120.34232"><ele>668.0</ele></trkpt>
    <trkpt lat="35.36374" lon="-120.34237"><ele>668.0</ele></trkpt>
    <trkpt lat="35.36392" lon="-120.34223"><ele>668.0</ele></trkpt>
    <trkpt lat="35.36409" lon="-120.34192"><ele>668.0</ele></trkpt>
    <trkpt lat="35.36403" lon="-120.34164"><ele>668.0</ele></trkpt>
    <trkpt lat="35.36382" lon="-120.34127"><ele>668.0</ele></trkpt>
    <trkpt lat="35.36364" lon="-120.34100"><ele>694.0</ele></trkpt>
    <trkpt lat="35.36352" lon="-120.34070"><ele>694.0</ele></trkpt>
    <trkpt lat="35.36344" lon="-120.34057"><ele>694.0</ele></trkpt>
    <trkpt lat="35.36333" lon="-120.34048"><ele>694.0</ele></trkpt>
    <trkpt lat="35.36325" lon="-120.34036"><ele>694.0</ele></trkpt>
    <trkpt lat="35.36324" lon="-120.34018"><ele>694.0</ele></trkpt>
    <trkpt lat="35.36330" lon="-120.34008"><ele>711.0</ele></trkpt>
    <trkpt lat="35.36341" lon="-120.33997"><ele>711.0</ele></trkpt>
    <trkpt lat="35.36348" lon="-120.33984"><ele>711.0</ele></trkpt>
    <trkpt lat="35.36353" lon="-120.33924"><ele>711.0</ele></trkpt>
    <trkpt lat="35.36358" lon="-120.33904"><ele>711.0</ele></trkpt>
    <trkpt lat="35.36364" lon="-120.33894"><ele>711.0</ele></trkpt>
    <trkpt lat="35.36368" lon="-120.33890"><ele>711.0</ele></trkpt>
    <trkpt lat="35.36378" lon="-120.33897"><ele>703.0</ele></trkpt>
    <trkpt lat="35.36390" lon="-120.33915"><ele>703.0</ele></trkpt>
    <trkpt lat="35.36417" lon="-120.33989"><ele>703.0</ele></trkpt>
    <trkpt lat="35.36428" lon="-120.34010"><ele>703.0</ele></trkpt>
    <trkpt lat="35.36440" lon="-120.34015"><ele>703.0</ele></trkpt>
    <trkpt lat="35.36459" lon="-120.34006"><ele>703.0</ele></trkpt>
    <trkpt lat="35.36482" lon="-120.33988"><ele>717.0</ele></trkpt>
    <trkpt lat="35.36493" lon="-120.33979"><ele>717.0</ele></trkpt>
    <trkpt lat="35.36499" lon="-120.33968"><ele>717.0</ele></trkpt>
    <trkpt lat="35.36497" lon="-120.33915"><ele>717.0</ele></trkpt>
    <trkpt lat="35.36494" lon="-120.33881"><ele>717.0</ele></trkpt>
    <trkpt lat="35.36497" lon="-120.33854"><ele>717.0</ele></trkpt>
    <trkpt lat="35.36503" lon="-120.33833"><ele>717.0</ele></trkpt>
    <trkpt lat="35.36504" lon="-120.33818"><ele>728.0</ele></trkpt>
    <trkpt lat="35.36497" lon="-120.33802"><ele>728.0</ele></trkpt>
    <trkpt lat="35.36490" lon="-120.33783"><ele>728.0</ele></trkpt>
    <trkpt lat="35.36489" lon="-120.33779"><ele>728.0</ele></trkpt>
    <trkpt lat="35.36485" lon="-120.33769"><ele>728.0</ele></trkpt>
    <trkpt lat="35.36483" lon="-120.33759"><ele>728.0</ele></trkpt>
    <trkpt lat="35.36488" lon="-120.33728"><ele>728.0</ele></trkpt>
    <trkpt lat="35.36493" lon="-120.33698"><ele>744.0</ele></trkpt>
    <trkpt lat="35.36496" lon="-120.33675"><ele>744.0</ele></trkpt>
    <trkpt lat="35.36499" lon="-120.33660"><ele>744.0</ele></trkpt>
    <trkpt lat="35.36501" lon="-120.33645"><ele>744.0</ele></trkpt>
    <trkpt lat="35.36503" lon="-120.33635"><ele>744.0</ele></trkpt>
    <trkpt lat="35.36505" lon="-120.33629"><ele>744.0</ele></trkpt>
    <trkpt lat="35.36507" lon="-120.33623"><ele>743.0</ele></trkpt>
    <trkpt lat="35.36519" lon="-120.33602"><ele>743.0</ele></trkpt>
    <trkpt lat="35.36525" lon="-120.33591"><ele>743.0</ele></trkpt>
    <trkpt lat="35.36537" lon="-120.33579"><ele>743.0</ele></trkpt>
    <trkpt lat="35.36540" lon="-120.33572"><ele>743.0</ele></trkpt>
    <trkpt lat="35.36548" lon="-120.33560"><ele>743.0</ele></trkpt>
    <trkpt lat="35.36551" lon="-120.33552"><ele>743.0</ele></trkpt>
    <trkpt lat="35.36553" lon="-120.33537"><ele>752.0</ele></trkpt>
    <trkpt lat="35.36553" lon="-120.33521"><ele>752.0</ele></trkpt>
    <trkpt lat="35.36550" lon="-120.33509"><ele>752.0</ele></trkpt>
    <trkpt lat="35.36548" lon="-120.33496"><ele>752.0</ele></trkpt>
    <trkpt lat="35.36546" lon="-120.33485"><ele>752.0</ele></trkpt>
    <trkpt lat="35.36545" lon="-120.33477"><ele>752.0</ele></trkpt>
    <trkpt lat="35.36541" lon="-120.33466"><ele>764.0</ele></trkpt>
    <trkpt lat="35.36541" lon="-120.33463"><ele>764.0</ele></trkpt>
    <trkpt lat="35.36539" lon="-120.33458"><ele>764.0</ele></trkpt>
    <trkpt lat="35.36538" lon="-120.33455"><ele>764.0</ele></trkpt>
    <trkpt lat="35.36541" lon="-120.33443"><ele>764.0</ele></trkpt>
    <trkpt lat="35.36546" lon="-120.33436"><ele>764.0</ele></trkpt>
    <trkpt lat="35.36550" lon="-120.33426"><ele>764.0</ele></trkpt>
    <trkpt lat="35.36556" lon="-120.33415"><ele>763.0</ele></trkpt>
    <trkpt lat="35.36562" lon="-120.33407"><ele>763.0</ele></trkpt>
    <trkpt lat="35.36568" lon="-120.33392"><ele>763.0</ele></trkpt>
    <trkpt lat="35.36572" lon="-120.33324"><ele>763.0</ele></trkpt>
    <trkpt lat="35.36570" lon="-120.33295"><ele>763.0</ele></trkpt>
    <trkpt lat="35.36570" lon="-120.33264"><ele>763.0</ele></trkpt>
    <trkpt lat="35.36567" lon="-120.33244"><ele>763.0</ele></trkpt>
    <trkpt lat="35.36561" lon="-120.33228"><ele>773.0</ele></trkpt>
    <trkpt lat="35.36549" lon="-120.33212"><ele>773.0</ele></trkpt>
    <trkpt lat="35.36542" lon="-120.33203"><ele>773.0</ele></trkpt>
    <trkpt lat="35.36536" lon="-120.33191"><ele>773.0</ele></trkpt>
    <trkpt lat="35.36537" lon="-120.33171"><ele>773.0</ele></trkpt>
    <trkpt lat="35.36538" lon="-120.33151"><ele>773.0</ele></trkpt>
    <trkpt lat="35.36531" lon="-120.33133"><ele>776.0</ele></trkpt>
    <trkpt lat="35.36520" lon="-120.33111"><ele>776.0</ele></trkpt>
    <trkpt lat="35.36514" lon="-120.33094"><ele>776.0</ele></trkpt>
    <trkpt lat="35.36515" lon="-120.33081"><ele>776.0</ele></trkpt>
    <trkpt lat="35.36519" lon="-120.33076"><ele>776.0</ele></trkpt>
    <trkpt lat="35.36520" lon="-120.33068"><ele>776.0</ele></trkpt>
    <trkpt lat="35.36523" lon="-120.33064"><ele>776.0</ele></trkpt>
    <trkpt lat="35.36526" lon="-120.33063"><ele>774.0</ele></trkpt>
    <trkpt lat="35.36532" lon="-120.33064"><ele>774.0</ele></trkpt>
    <trkpt lat="35.36537" lon="-120.33072"><ele>774.0</ele></trkpt>
    <trkpt lat="35.36547" lon="-120.33089"><ele>774.0</ele></trkpt>
    <trkpt lat="35.36555" lon="-120.33103"><ele>774.0</ele></trkpt>
    <trkpt lat="35.36563" lon="-120.33111"><ele>774.0</ele></trkpt>
    <trkpt lat="35.36575" lon="-120.33116"><ele>774.0</ele></trkpt>
    <trkpt lat="35.36586" lon="-120.33117"><ele>770.0</ele></trkpt>
    <trkpt lat="35.36598" lon="-120.33112"><ele>770.0</ele></trkpt>
    <trkpt lat="35.36605" lon="-120.33101"><ele>770.0</ele></trkpt>
    <trkpt lat="35.36610" lon="-120.33092"><ele>770.0</ele></trkpt>
    <trkpt lat="35.36617" lon="-120.33091"><ele>770.0</ele></trkpt>
    <trkpt lat="35.36628" lon="-120.33094"><ele>770.0</ele></trkpt>
    <trkpt lat="35.36640" lon="-120.33102"><ele>774.0</ele></trkpt>
    <trkpt lat="35.36651" lon="-120.33101"><ele>774.0</ele></trkpt>
    <trkpt lat="35.36664" lon="-120.33094"><ele>774.0</ele></trkpt>
    <trkpt lat="35.36673" lon="-120.33088"><ele>774.0</ele></trkpt>
    <trkpt lat="35.36680" lon="-120.33080"><ele>774.0</ele></trkpt>
    <trkpt lat="35.36684" lon="-120.33069"><ele>774.0</ele></trkpt>
    <trkpt lat="35.36688" lon="-120.33052"><ele>774.0</ele></trkpt>
    <trkpt lat="35.36690" lon="-120.33037"><ele>782.0</ele></trkpt>
    <trkpt lat="35.36695" lon="-120.33026"><ele>782.0</ele></trkpt>
    <trkpt lat="35.36698" lon="-120.33012"><ele>782.0</ele></trkpt>
    <trkpt lat="35.36699" lon="-120.33000"><ele>782.0</ele></trkpt>
    <trkpt lat="35.36697" lon="-120.32989"><ele>782.0</ele></trkpt>
    <trkpt lat="35.36694" lon="-120.32979"><ele>782.0</ele></trkpt>
    <trkpt lat="35.36693" lon="-120.32972"><ele>791.0</ele></trkpt>
    <trkpt lat="35.36696" lon="-120.32933"><ele>791.0</ele></trkpt>
    <trkpt lat="35.36704" lon="-120.32915"><ele>791.0</ele></trkpt>
    <trkpt lat="35.36711" lon="-120.32900"><ele>791.0</ele></trkpt>
    <trkpt lat="35.36705" lon="-120.32880"><ele>791.0</ele></trkpt>
    <trkpt lat="35.36686" lon="-120.32849"><ele>791.0</ele></trkpt>
    <trkpt lat="35.36682" lon="-120.32834"><ele>791.0</ele></trkpt>
    <trkpt lat="35.36687" lon="-120.32825"><ele>789.0</ele></trkpt>
    <trkpt lat="35.36704" lon="-120.32826"><ele>789.0</ele></trkpt>
    <trkpt lat="35.36727" lon="-120.32830"><ele>789.0</ele></trkpt>
    <trkpt lat="35.36747" lon="-120.32829"><ele>789.0</ele></trkpt>
    <trkpt lat="35.36760" lon="-120.32816"><ele>789.0</ele></trkpt>
    <trkpt lat="35.36765" lon="-120.32794"><ele>789.0</ele></trkpt>
    <trkpt lat="35.36755" lon="-120.32774"><ele>789.0</ele></trkpt>
    <trkpt lat="35.36743" lon="-120.32753"><ele>809.0</ele></trkpt>
    <trkpt lat="35.36742" lon="-120.32734"><ele>809.0</ele></trkpt>
    <trkpt lat="35.36750" lon="-120.32715"><ele>809.0</ele></trkpt>
    <trkpt lat="35.36778" lon="-120.32685"><ele>809.0</ele></trkpt>
    <trkpt lat="35.36779" lon="-120.32671"><ele>809.0</ele></trkpt>
    <trkpt lat="35.36790" lon="-120.32605"><ele>809.0</ele></trkpt>
    <trkpt lat="35.36790" lon="-120.32605"><ele>805.0</ele></trkpt>
    <trkpt lat="35.36789" lon="-120.32586"><ele>805.0</ele></trkpt>
    <trkpt lat="35.36783" lon="-120.32558"><ele>805.0</ele></trkpt>
    <trkpt lat="35.36770" lon="-120.32510"><ele>805.0</ele></trkpt>
    <trkpt lat="35.36765" lon="-120.32483"><ele>805.0</ele></trkpt>
    <trkpt lat="35.36761" lon="-120.32456"><ele>805.0</ele></trkpt>
    <trkpt lat="35.36751" lon="-120.32439"><ele>805.0</ele></trkpt>
    <trkpt lat="35.36744" lon="-120.32437"><ele>795.0</ele></trkpt>
    <trkpt lat="35.36737" lon="-120.32442"><ele>795.0</ele></trkpt>
    <trkpt lat="35.36730" lon="-120.32450"><ele>795.0</ele></trkpt>
    <trkpt lat="35.36723" lon="-120.32457"><ele>795.0</ele></trkpt>
    <trkpt lat="35.36715" lon="-120.32454"><ele>795.0</ele></trkpt>
    <trkpt lat="35.36707" lon="-120.32436"><ele>795.0</ele></trkpt>
    <trkpt lat="35.36699" lon="-120.32419"><ele>790.0</ele></trkpt>
    <trkpt lat="35.36688" lon="-120.32408"><ele>790.0</ele></trkpt>
    <trkpt lat="35.36669" lon="-120.32396"><ele>790.0</ele></trkpt>
    <trkpt lat="35.36663" lon="-120.32382"><ele>790.0</ele></trkpt>
    <trkpt lat="35.36665" lon="-120.32367"><ele>790.0</ele></trkpt>
    <trkpt lat="35.36671" lon="-120.32361"><ele>790.0</ele></trkpt>
    <trkpt lat="35.36685" lon="-120.32351"><ele>790.0</ele></trkpt>
    <trkpt lat="35.36698" lon="-120.32323"><ele>769.0</ele></trkpt>
    <trkpt lat="35.36710" lon="-120.32287"><ele>769.0</ele></trkpt>
    <trkpt lat="35.36719" lon="-120.32274"><ele>769.0</ele></trkpt>
    <trkpt lat="35.36735" lon="-120.32267"><ele>769.0</ele></trkpt>
    <trkpt lat="35.36751" lon="-120.32255"><ele>769.0</ele></trkpt>
    <trkpt lat="35.36761" lon="-120.32244"><ele>769.0</ele></trkpt>
    <trkpt lat="35.36764" lon="-120.32223"><ele>769.0</ele></trkpt>
    <trkpt lat="35.36756" lon="-120.32205"><ele>763.0</ele></trkpt>
    <trkpt lat="35.36742" lon="-120.32189"><ele>763.0</ele></trkpt>
    <trkpt lat="35.36739" lon="-120.32169"><ele>763.0</ele></trkpt>
    <trkpt lat="35.36746" lon="-120.32117"><ele>763.0</ele></trkpt>
    <trkpt lat="35.36748" lon="-120.32072"><ele>763.0</ele></trkpt>
    <trkpt lat="35.36744" lon="-120.32054"><ele>763.0</ele></trkpt>
    <trkpt lat="35.36737" lon="-120.32035"><ele>752.0</ele></trkpt>
    <trkpt lat="35.36722" lon="-120.32028"><ele>752.0</ele></trkpt>
    <trkpt lat="35.36703" lon="-120.32028"><ele>752.0</ele></trkpt>
    <trkpt lat="35.36679" lon="-120.32034"><ele>752.0</ele></trkpt>
    <trkpt lat="35.36664" lon="-120.32034"><ele>752.0</ele></trkpt>
    <trkpt lat="35.36653" lon="-120.32026"><ele>752.0</ele></trkpt>
    <trkpt lat="35.36656" lon="-120.32008"><ele>752.0</ele></trkpt>
    <trkpt lat="35.36681" lon="-120.31994"><ele>743.0</ele></trkpt>
    <trkpt lat="35.36698" lon="-120.31969"><ele>743.0</ele></trkpt>
    <trkpt lat="35.36702" lon="-120.31949"><ele>743.0</ele></trkpt>
    <trkpt lat="35.36703" lon="-120.31927"><ele>743.0</ele></trkpt>
    <trkpt lat="35.36699" lon="-120.31898"><ele>743.0</ele></trkpt>
    <trkpt lat="35.36695" lon="-120.31879"><ele>743.0</ele></trkpt>
    <trkpt lat="35.36684" lon="-120.31842"><ele>743.0</ele></trkpt>
    <trkpt lat="35.36696" lon="-120.31818"><ele>729.0</ele></trkpt>
    <trkpt lat="35.36699" lon="-120.31805"><ele>729.0</ele></trkpt>
    <trkpt lat="35.36698" lon="-120.31759"><ele>729.0</ele></trkpt>
    <trkpt lat="35.36676" lon="-120.31707"><ele>729.0</ele></trkpt>
    <trkpt lat="35.36658" lon="-120.31666"><ele>729.0</ele></trkpt>
    <trkpt lat="35.36664" lon="-120.31583"><ele>729.0</ele></trkpt>
    <trkpt lat="35.36671" lon="-120.31547"><ele>695.0</ele></trkpt>
    <trkpt lat="35.36681" lon="-120.31534"><ele>695.0</ele></trkpt>
    <trkpt lat="35.36690" lon="-120.31503"><ele>695.0</ele></trkpt>
    <trkpt lat="35.36696" lon="-120.31465"><ele>695.0</ele></trkpt>
    <trkpt lat="35.36698" lon="-120.31448"><ele>695.0</ele></trkpt>
    <trkpt lat="35.36698" lon="-120.31427"><ele>695.0</ele></trkpt>
    <trkpt lat="35.36693" lon="-120.31415"><ele>695.0</ele></trkpt>
    <trkpt lat="35.36688" lon="-120.31404"><ele>691.0</ele></trkpt>
    <trkpt lat="35.36694" lon="-120.31390"><ele>691.0</ele></trkpt>
    <trkpt lat="35.36706" lon="-120.31389"><ele>691.0</ele></trkpt>
    <trkpt lat="35.36726" lon="-120.31388"><ele>691.0</ele></trkpt>
    <trkpt lat="35.36747" lon="-120.31380"><ele>691.0</ele></trkpt>
    <trkpt lat="35.36794" lon="-120.31309"><ele>691.0</ele></trkpt>
    <trkpt lat="35.36797" lon="-120.31304"><ele>677.0</ele></trkpt>
    <trkpt lat="35.36813" lon="-120.31283"><ele>677.0</ele></trkpt>
    <trkpt lat="35.36826" lon="-120.31252"><ele>677.0</ele></trkpt>
    <trkpt lat="35.36843" lon="-120.31212"><ele>677.0</ele></trkpt>
    <trkpt lat="35.36854" lon="-120.31188"><ele>677.0</ele></trkpt>
    <trkpt lat="35.36862" lon="-120.31176"><ele>677.0</ele></trkpt>
    <trkpt lat="35.36878" lon="-120.31165"><ele>677.0</ele></trkpt>
    <trkpt lat="35.36902" lon="-120.31136"><ele>667.0</ele></trkpt>
    <trkpt lat="35.36915" lon="-120.31112"><ele>667.0</ele></trkpt>
    <trkpt lat="35.36922" lon="-120.31089"><ele>667.0</ele></trkpt>
    <trkpt lat="35.36930" lon="-120.31061"><ele>667.0</ele></trkpt>
    <trkpt lat="35.36937" lon="-120.31043"><ele>667.0</ele></trkpt>
    <trkpt lat="35.36953" lon="-120.31027"><ele>667.0</ele></trkpt>
    <trkpt lat="35.36970" lon="-120.31021"><ele>667.0</ele></trkpt>
    <trkpt lat="35.36982" lon="-120.31007"><ele>658.0</ele></trkpt>
    <trkpt lat="35.36988" lon="-120.30993"><ele>658.0</ele></trkpt>
    <trkpt lat="35.36991" lon="-120.30964"><ele>658.0</ele></trkpt>
    <trkpt lat="35.37001" lon="-120.30914"><ele>658.0</ele></trkpt>
    <trkpt lat="35.37013" lon="-120.30887"><ele>658.0</ele></trkpt>
    <trkpt lat="35.37029" lon="-120.30862"><ele>658.0</ele></trkpt>
    <trkpt lat="35.37035" lon="-120.30843"><ele>643.0</ele></trkpt>
    <trkpt lat="35.37040" lon="-120.30808"><ele>643.0</ele></trkpt>
    <trkpt lat="35.37067" lon="-120.30756"><ele>643.0</ele></trkpt>
    <trkpt lat="35.37083" lon="-120.30733"><ele>643.0</ele></trkpt>
    <trkpt lat="35.37122" lon="-120.30697"><ele>643.0</ele></trkpt>
    <trkpt lat="35.37135" lon="-120.30689"><ele>643.0</ele></trkpt>
    <trkpt lat="35.37147" lon="-120.30676"><ele>643.0</ele></trkpt>
    <trkpt lat="35.37162" lon="-120.30645"><ele>635.0</ele></trkpt>
    <trkpt lat="35.37164" lon="-120.30624"><ele>635.0</ele></trkpt>
    <trkpt lat="35.37165" lon="-120.30593"><ele>635.0</ele></trkpt>
    <trkpt lat="35.37165" lon="-120.30557"><ele>635.0</ele></trkpt>
    <trkpt lat="35.37167" lon="-120.30543"><ele>635.0</ele></trkpt>
    <trkpt lat="35.37167" lon="-120.30543"><ele>635.0</ele></trkpt>
    <trkpt lat="35.37168" lon="-120.30526"><ele>635.0</ele></trkpt>
    <trkpt lat="35.37168" lon="-120.30526"><ele>637.0</ele></trkpt>
    <trkpt lat="35.37168" lon="-120.30517"><ele>637.0</ele></trkpt>
    <trkpt lat="35.37184" lon="-120.30485"><ele>637.0</ele></trkpt>
    <trkpt lat="35.37192" lon="-120.30469"><ele>637.0</ele></trkpt>
    <trkpt lat="35.37194" lon="-120.30436"><ele>637.0</ele></trkpt>
    <trkpt lat="35.37195" lon="-120.30375"><ele>637.0</ele></trkpt>
    <trkpt lat="35.37195" lon="-120.30363"><ele>632.0</ele></trkpt>
    <trkpt lat="35.37196" lon="-120.30348"><ele>632.0</ele></trkpt>
    <trkpt lat="35.37197" lon="-120.30339"><ele>632.0</ele></trkpt>
    <trkpt lat="35.37197" lon="-120.30339"><ele>632.0</ele></trkpt>
    <trkpt lat="35.37203" lon="-120.30298"><ele>632.0</ele></trkpt>
    <trkpt lat="35.37208" lon="-120.30274"><ele>632.0</ele></trkpt>
    <trkpt lat="35.37209" lon="-120.30259"><ele>632.0</ele></trkpt>
    <trkpt lat="35.37204" lon="-120.30239"><ele>631.0</ele></trkpt>
    <trkpt lat="35.37197" lon="-120.30223"><ele>631.0</ele></trkpt>
    <trkpt lat="35.37192" lon="-120.30208"><ele>631.0</ele></trkpt>
    <trkpt lat="35.37197" lon="-120.30190"><ele>631.0</ele></trkpt>
    <trkpt lat="35.37213" lon="-120.30164"><ele>631.0</ele></trkpt>
    <trkpt lat="35.37222" lon="-120.30131"><ele>631.0</ele></trkpt>
    <trkpt lat="35.37222" lon="-120.30103"><ele>624.0</ele></trkpt>
    <trkpt lat="35.37222" lon="-120.30072"><ele>624.0</ele></trkpt>
    <trkpt lat="35.37221" lon="-120.30054"><ele>624.0</ele></trkpt>
    <trkpt lat="35.37223" lon="-120.30029"><ele>624.0</ele></trkpt>
    <trkpt lat="35.37223" lon="-120.30015"><ele>624.0</ele></trkpt>
    <trkpt lat="35.37225" lon="-120.29986"><ele>624.0</ele></trkpt>
    <trkpt lat="35.37223" lon="-120.29951"><ele>624.0</ele></trkpt>
    <trkpt lat="35.37219" lon="-120.29921"><ele>621.0</ele></trkpt>
    <trkpt lat="35.37219" lon="-120.29896"><ele>621.0</ele></trkpt>
    <trkpt lat="35.37221" lon="-120.29876"><ele>621.0</ele></trkpt>
    <trkpt lat="35.37228" lon="-120.29860"><ele>621.0</ele></trkpt>
    <trkpt lat="35.37241" lon="-120.29849"><ele>621.0</ele></trkpt>
    <trkpt lat="35.37260" lon="-120.29837"><ele>621.0</ele></trkpt>
    <trkpt lat="35.37280" lon="-120.29823"><ele>621.0</ele></trkpt>
    <trkpt lat="35.37291" lon="-120.29812"><ele>614.0</ele></trkpt>
    <trkpt lat="35.37294" lon="-120.29798"><ele>614.0</ele></trkpt>
    <trkpt lat="35.37296" lon="-120.29768"><ele>614.0</ele></trkpt>
    <trkpt lat="35.37296" lon="-120.29748"><ele>614.0</ele></trkpt>
    <trkpt lat="35.37303" lon="-120.29732"><ele>614.0</ele></trkpt>
    <trkpt lat="35.37315" lon="-120.29713"><ele>614.0</ele></trkpt>
    <trkpt lat="35.37315" lon="-120.29689"><ele>611.0</ele></trkpt>
    <trkpt lat="35.37318" lon="-120.29665"><ele>611.0</ele></trkpt>
    <trkpt lat="35.37314" lon="-120.29637"><ele>611.0</ele></trkpt>
    <trkpt lat="35.37311" lon="-120.29614"><ele>611.0</ele></trkpt>
    <trkpt lat="35.37318" lon="-120.29585"><ele>611.0</ele></trkpt>
    <trkpt lat="35.37322" lon="-120.29561"><ele>611.0</ele></trkpt>
    <trkpt lat="35.37325" lon="-120.29541"><ele>611.0</ele></trkpt>
    <trkpt lat="35.37339" lon="-120.29508"><ele>607.0</ele></trkpt>
    <trkpt lat="35.37348" lon="-120.29484"><ele>607.0</ele></trkpt>
    <trkpt lat="35.37356" lon="-120.29467"><ele>607.0</ele></trkpt>
    <trkpt lat="35.37361" lon="-120.29447"><ele>607.0</ele></trkpt>
    <trkpt lat="35.37361" lon="-120.29430"><ele>607.0</ele></trkpt>
    <trkpt lat="35.37350" lon="-120.29408"><ele>607.0</ele></trkpt>
    <trkpt lat="35.37348" lon="-120.29389"><ele>600.0</ele></trkpt>
    <trkpt lat="35.37363" lon="-120.29360"><ele>600.0</ele></trkpt>
    <trkpt lat="35.37374" lon="-120.29338"><ele>600.0</ele></trkpt>
    <trkpt lat="35.37382" lon="-120.29318"><ele>600.0</ele></trkpt>
    <trkpt lat="35.37388" lon="-120.29300"><ele>600.0</ele></trkpt>
    <trkpt lat="35.37401" lon="-120.29286"><ele>600.0</ele></trkpt>
    <trkpt lat="35.37416" lon="-120.29273"><ele>600.0</ele></trkpt>
    <trkpt lat="35.37433" lon="-120.29262"><ele>597.0</ele></trkpt>
    <trkpt lat="35.37449" lon="-120.29252"><ele>597.0</ele></trkpt>
    <trkpt lat="35.37464" lon="-120.29235"><ele>597.0</ele></trkpt>
    <trkpt lat="35.37467" lon="-120.29213"><ele>597.0</ele></trkpt>
    <trkpt lat="35.37462" lon="-120.29197"><ele>597.0</ele></trkpt>
    <trkpt lat="35.37450" lon="-120.29194"><ele>597.0</ele></trkpt>
    <trkpt lat="35.37436" lon="-120.29193"><ele>597.0</ele></trkpt>
    <trkpt lat="35.37425" lon="-120.29189"><ele>598.0</ele></trkpt>
    <trkpt lat="35.37419" lon="-120.29181"><ele>598.0</ele></trkpt>
    <trkpt lat="35.37420" lon="-120.29168"><ele>598.0</ele></trkpt>
    <trkpt lat="35.37431" lon="-120.29157"><ele>598.0</ele></trkpt>
    <trkpt lat="35.37445" lon="-120.29150"><ele>598.0</ele></trkpt>
    <trkpt lat="35.37456" lon="-120.29147"><ele>598.0</ele></trkpt>
    <trkpt lat="35.37471" lon="-120.29148"><ele>595.0</ele></trkpt>
    <trkpt lat="35.37483" lon="-120.29142"><ele>595.0</ele></trkpt>
    <trkpt lat="35.37488" lon="-120.29123"><ele>595.0</ele></trkpt>
    <trkpt lat="35.37480" lon="-120.29101"><ele>595.0</ele></trkpt>
    <trkpt lat="35.37478" lon="-120.29079"><ele>595.0</ele></trkpt>
    <trkpt lat="35.37481" lon="-120.29055"><ele>595.0</ele></trkpt>
    <trkpt lat="35.37486" lon="-120.29037"><ele>595.0</ele></trkpt>
    <trkpt lat="35.37489" lon="-120.29033"><ele>592.0</ele></trkpt>
    <trkpt lat="35.37497" lon="-120.29029"><ele>592.0</ele></trkpt>
    <trkpt lat="35.37515" lon="-120.29022"><ele>592.0</ele></trkpt>
    <trkpt lat="35.37535" lon="-120.29016"><ele>592.0</ele></trkpt>
    <trkpt lat="35.37546" lon="-120.29003"><ele>592.0</ele></trkpt>
    <trkpt lat="35.37555" lon="-120.28986"><ele>592.0</ele></trkpt>
    <trkpt lat="35.37565" lon="-120.28953"><ele>592.0</ele></trkpt>
    <trkpt lat="35.37575" lon="-120.28926"><ele>588.0</ele></trkpt>
    <trkpt lat="35.37590" lon="-120.28893"><ele>588.0</ele></trkpt>
    <trkpt lat="35.37599" lon="-120.28874"><ele>588.0</ele></trkpt>
    <trkpt lat="35.37608" lon="-120.28858"><ele>588.0</ele></trkpt>
    <trkpt lat="35.37620" lon="-120.28848"><ele>588.0</ele></trkpt>
    <trkpt lat="35.37634" lon="-120.28839"><ele>588.0</ele></trkpt>
    <trkpt lat="35.37652" lon="-120.28816"><ele>585.0</ele></trkpt>
    <trkpt lat="35.37661" lon="-120.28800"><ele>585.0</ele></trkpt>
    <trkpt lat="35.37672" lon="-120.28785"><ele>585.0</ele></trkpt>
    <trkpt lat="35.37692" lon="-120.28762"><ele>585.0</ele></trkpt>
    <trkpt lat="35.37699" lon="-120.28756"><ele>585.0</ele></trkpt>
    <trkpt lat="35.37712" lon="-120.28748"><ele>585.0</ele></trkpt>
    <trkpt lat="35.37731" lon="-120.28741"><ele>585.0</ele></trkpt>
    <trkpt lat="35.37736" lon="-120.28735"><ele>580.0</ele></trkpt>
    <trkpt lat="35.37744" lon="-120.28712"><ele>580.0</ele></trkpt>
    <trkpt lat="35.37750" lon="-120.28684"><ele>580.0</ele></trkpt>
    <trkpt lat="35.37750" lon="-120.28676"><ele>580.0</ele></trkpt>
    <trkpt lat="35.37750" lon="-120.28676"><ele>580.0</ele></trkpt>
    <trkpt lat="35.37752" lon="-120.28659"><ele>580.0</ele></trkpt>
    <trkpt lat="35.37760" lon="-120.28623"><ele>582.0</ele></trkpt>
    <trkpt lat="35.37769" lon="-120.28557"><ele>582.0</ele></trkpt>
    <trkpt lat="35.37777" lon="-120.28538"><ele>582.0</ele></trkpt>
    <trkpt lat="35.37793" lon="-120.28509"><ele>582.0</ele></trkpt>
    <trkpt lat="35.37807" lon="-120.28483"><ele>582.0</ele></trkpt>
    <trkpt lat="35.37810" lon="-120.28461"><ele>582.0</ele></trkpt>
    <trkpt lat="35.37813" lon="-120.28428"><ele>582.0</ele></trkpt>
    <trkpt lat="35.37817" lon="-120.28405"><ele>575.0</ele></trkpt>
    <trkpt lat="35.37826" lon="-120.28386"><ele>575.0</ele></trkpt>
    <trkpt lat="35.37858" lon="-120.28352"><ele>575.0</ele></trkpt>
    <trkpt lat="35.37871" lon="-120.28345"><ele>575.0</ele></trkpt>
    <trkpt lat="35.37895" lon="-120.28328"><ele>575.0</ele></trkpt>
    <trkpt lat="35.37913" lon="-120.28299"><ele>575.0</ele></trkpt>
    <trkpt lat="35.37923" lon="-120.28268"><ele>575.0</ele></trkpt>
    <trkpt lat="35.37926" lon="-120.28243"><ele>570.0</ele></trkpt>
    <trkpt lat="35.37922" lon="-120.28236"><ele>570.0</ele></trkpt>
    <trkpt lat="35.37918" lon="-120.28229"><ele>570.0</ele></trkpt>
    <trkpt lat="35.37916" lon="-120.28225"><ele>570.0</ele></trkpt>
    <trkpt lat="35.37904" lon="-120.28221"><ele>570.0</ele></trkpt>
    <trkpt lat="35.37899" lon="-120.28220"><ele>570.0</ele></trkpt>
    <trkpt lat="35.37890" lon="-120.28218"><ele>572.0</ele></trkpt>
    <trkpt lat="35.37883" lon="-120.28216"><ele>572.0</ele></trkpt>
    <trkpt lat="35.37861" lon="-120.28213"><ele>572.0</ele></trkpt>
    <trkpt lat="35.37826" lon="-120.28216"><ele>572.0</ele></trkpt>
    <trkpt lat="35.37803" lon="-120.28219"><ele>572.0</ele></trkpt>
    <trkpt lat="35.37786" lon="-120.28226"><ele>572.0</ele></trkpt>
    <trkpt lat="35.37763" lon="-120.28236"><ele>572.0</ele></trkpt>
    <trkpt lat="35.37746" lon="-120.28236"><ele>580.0</ele></trkpt>
    <trkpt lat="35.37727" lon="-120.28239"><ele>580.0</ele></trkpt>
    <trkpt lat="35.37713" lon="-120.28241"><ele>580.0</ele></trkpt>
    <trkpt lat="35.37688" lon="-120.28232"><ele>580.0</ele></trkpt>
    <trkpt lat="35.37661" lon="-120.28217"><ele>580.0</ele></trkpt>
    <trkpt lat="35.37645" lon="-120.28207"><ele>580.0</ele></trkpt>
    <trkpt lat="35.37630" lon="-120.28205"><ele>575.0</ele></trkpt>
    <trkpt lat="35.37629" lon="-120.28205"><ele>575.0</ele></trkpt>
    <trkpt lat="35.37595" lon="-120.28198"><ele>575.0</ele></trkpt>
    <trkpt lat="35.37567" lon="-120.28188"><ele>575.0</ele></trkpt>
    <trkpt lat="35.37556" lon="-120.28179"><ele>575.0</ele></trkpt>
    <trkpt lat="35.37534" lon="-120.28155"><ele>575.0</ele></trkpt>
    <trkpt lat="35.37519" lon="-120.28140"><ele>575.0</ele></trkpt>
    <trkpt lat="35.37497" lon="-120.28121"><ele>573.0</ele></trkpt>
    <trkpt lat="35.37482" lon="-120.28108"><ele>573.0</ele></trkpt>
    <trkpt lat="35.37478" lon="-120.28104"><ele>573.0</ele></trkpt>
    <trkpt lat="35.37460" lon="-120.28090"><ele>573.0</ele></trkpt>
    <trkpt lat="35.37443" lon="-120.28087"><ele>573.0</ele></trkpt>
    <trkpt lat="35.37427" lon="-120.28086"><ele>573.0</ele></trkpt>
    <trkpt lat="35.37406" lon="-120.28087"><ele>573.0</ele></trkpt>
    <trkpt lat="35.37396" lon="-120.28091"><ele>577.0</ele></trkpt>
    <trkpt lat="35.37388" lon="-120.28095"><ele>577.0</ele></trkpt>
    <trkpt lat="35.37375" lon="-120.28104"><ele>577.0</ele></trkpt>
    <trkpt lat="35.37363" lon="-120.28114"><ele>577.0</ele></trkpt>
    <trkpt lat="35.37349" lon="-120.28116"><ele>577.0</ele></trkpt>
    <trkpt lat="35.37334" lon="-120.28114"><ele>577.0</ele></trkpt>
    <trkpt lat="35.37323" lon="-120.28110"><ele>578.0</ele></trkpt>
    <trkpt lat="35.37316" lon="-120.28106"><ele>578.0</ele></trkpt>
    <trkpt lat="35.37309" lon="-120.28099"><ele>578.0</ele></trkpt>
    <trkpt lat="35.37295" lon="-120.28092"><ele>578.0</ele></trkpt>
    <trkpt lat="35.37287" lon="-120.28084"><ele>578.0</ele></trkpt>
    <trkpt lat="35.37276" lon="-120.28072"><ele>578.0</ele></trkpt>
    <trkpt lat="35.37257" lon="-120.28052"><ele>578.0</ele></trkpt>
    <trkpt lat="35.37245" lon="-120.28043"><ele>580.0</ele></trkpt>
    <trkpt lat="35.37231" lon="-120.28032"><ele>580.0</ele></trkpt>
    <trkpt lat="35.37208" lon="-120.28018"><ele>580.0</ele></trkpt>
    <trkpt lat="35.37194" lon="-120.28003"><ele>580.0</ele></trkpt>
    <trkpt lat="35.37167" lon="-120.27986"><ele>580.0</ele></trkpt>
    <trkpt lat="35.37145" lon="-120.27973"><ele>580.0</ele></trkpt>
    <trkpt lat="35.37127" lon="-120.27963"><ele>580.0</ele></trkpt>
    <trkpt lat="35.37117" lon="-120.27957"><ele>581.0</ele></trkpt>
    <trkpt lat="35.37105" lon="-120.27955"><ele>581.0</ele></trkpt>
    <trkpt lat="35.37092" lon="-120.27952"><ele>581.0</ele></trkpt>
    <trkpt lat="35.37078" lon="-120.27953"><ele>581.0</ele></trkpt>
    <trkpt lat="35.37065" lon="-120.27955"><ele>581.0</ele></trkpt>
    <trkpt lat="35.37054" lon="-120.27958"><ele>581.0</ele></trkpt>
    <trkpt lat="35.37041" lon="-120.27953"><ele>585.0</ele></trkpt>
    <trkpt lat="35.36979" lon="-120.27920"><ele>585.0</ele></trkpt>
    <trkpt lat="35.36917" lon="-120.27891"><ele>585.0</ele></trkpt>
    <trkpt lat="35.36901" lon="-120.27884"><ele>585.0</ele></trkpt>
    <trkpt lat="35.36883" lon="-120.27869"><ele>585.0</ele></trkpt>
    <trkpt lat="35.36868" lon="-120.27862"><ele>585.0</ele></trkpt>
    <trkpt lat="35.36821" lon="-120.27849"><ele>585.0</ele></trkpt>
    <trkpt lat="35.36748" lon="-120.27840"><ele>588.0</ele></trkpt>
    <trkpt lat="35.36711" lon="-120.27832"><ele>588.0</ele></trkpt>
    <trkpt lat="35.36680" lon="-120.27830"><ele>588.0</ele></trkpt>
    <trkpt lat="35.36662" lon="-120.27831"><ele>588.0</ele></trkpt>
    <trkpt lat="35.36659" lon="-120.27830"><ele>588.0</ele></trkpt>
    <trkpt lat="35.36656" lon="-120.27829"><ele>588.0</ele></trkpt>
    <trkpt lat="35.36644" lon="-120.27826"><ele>588.0</ele></trkpt>
    <trkpt lat="35.36630" lon="-120.27819"><ele>588.0</ele></trkpt>
    <trkpt lat="35.36619" lon="-120.27809"><ele>588.0</ele></trkpt>
    <trkpt lat="35.36610" lon="-120.27798"><ele>588.0</ele></trkpt>
    <trkpt lat="35.36599" lon="-120.27786"><ele>588.0</ele></trkpt>
    <trkpt lat="35.36589" lon="-120.27768"><ele>588.0</ele></trkpt>
    <trkpt lat="35.36572" lon="-120.27754"><ele>588.0</ele></trkpt>
    <trkpt lat="35.36550" lon="-120.27741"><ele>590.0</ele></trkpt>
    <trkpt lat="35.36530" lon="-120.27730"><ele>590.0</ele></trkpt>
    <trkpt lat="35.36508" lon="-120.27720"><ele>590.0</ele></trkpt>
    <trkpt lat="35.36493" lon="-120.27714"><ele>590.0</ele></trkpt>
    <trkpt lat="35.36476" lon="-120.27710"><ele>590.0</ele></trkpt>
    <trkpt lat="35.36463" lon="-120.27704"><ele>590.0</ele></trkpt>
    <trkpt lat="35.36451" lon="-120.27696"><ele>590.0</ele></trkpt>
    <trkpt lat="35.36440" lon="-120.27690"><ele>589.0</ele></trkpt>
    <trkpt lat="35.36429" lon="-120.27685"><ele>589.0</ele></trkpt>
    <trkpt lat="35.36418" lon="-120.27682"><ele>589.0</ele></trkpt>
    <trkpt lat="35.36412" lon="-120.27680"><ele>589.0</ele></trkpt>
    <trkpt lat="35.36406" lon="-120.27677"><ele>589.0</ele></trkpt>
    <trkpt lat="35.36388" lon="-120.27675"><ele>589.0</ele></trkpt>
    <trkpt lat="35.36370" lon="-120.27676"><ele>595.0</ele></trkpt>
    <trkpt lat="35.36344" lon="-120.27671"><ele>595.0</ele></trkpt>
    <trkpt lat="35.36317" lon="-120.27663"><ele>595.0</ele></trkpt>
    <trkpt lat="35.36287" lon="-120.27656"><ele>595.0</ele></trkpt>
    <trkpt lat="35.36261" lon="-120.27649"><ele>595.0</ele></trkpt>
    <trkpt lat="35.36237" lon="-120.27643"><ele>595.0</ele></trkpt>
    <trkpt lat="35.36221" lon="-120.27641"><ele>595.0</ele></trkpt>
    <trkpt lat="35.36190" lon="-120.27644"><ele>597.0</ele></trkpt>
    <trkpt lat="35.36168" lon="-120.27647"><ele>597.0</ele></trkpt>
    <trkpt lat="35.36153" lon="-120.27646"><ele>597.0</ele></trkpt>
    <trkpt lat="35.36139" lon="-120.27642"><ele>597.0</ele></trkpt>
    <trkpt lat="35.36122" lon="-120.27633"><ele>597.0</ele></trkpt>
    <trkpt lat="35.36109" lon="-120.27626"><ele>597.0</ele></trkpt>
    <trkpt lat="35.36093" lon="-120.27624"><ele>597.0</ele></trkpt>
    <trkpt lat="35.36081" lon="-120.27617"><ele>599.0</ele></trkpt>
    <trkpt lat="35.36063" lon="-120.27619"><ele>599.0</ele></trkpt>
    <trkpt lat="35.36044" lon="-120.27617"><ele>599.0</ele></trkpt>
    <trkpt lat="35.36028" lon="-120.27615"><ele>599.0</ele></trkpt>
    <trkpt lat="35.36010" lon="-120.27612"><ele>599.0</ele></trkpt>
    <trkpt lat="35.35993" lon="-120.27608"><ele>599.0</ele></trkpt>
    <trkpt lat="35.35970" lon="-120.27594"><ele>600.0</ele></trkpt>
    <trkpt lat="35.35955" lon="-120.27584"><ele>600.0</ele></trkpt>
    <trkpt lat="35.35945" lon="-120.27580"><ele>600.0</ele></trkpt>
    <trkpt lat="35.35924" lon="-120.27580"><ele>600.0</ele></trkpt>
    <trkpt lat="35.35921" lon="-120.27580"><ele>600.0</ele></trkpt>
    <trkpt lat="35.35915" lon="-120.27581"><ele>600.0</ele></trkpt>
    <trkpt lat="35.35872" lon="-120.27599"><ele>600.0</ele></trkpt>
    <trkpt lat="35.35847" lon="-120.27603"><ele>604.0</ele></trkpt>
    <trkpt lat="35.35833" lon="-120.27605"><ele>604.0</ele></trkpt>
    <trkpt lat="35.35801" lon="-120.27602"><ele>604.0</ele></trkpt>
    <trkpt lat="35.35771" lon="-120.27596"><ele>604.0</ele></trkpt>
    <trkpt lat="35.35748" lon="-120.27586"><ele>604.0</ele></trkpt>
    <trkpt lat="35.35735" lon="-120.27580"><ele>604.0</ele></trkpt>
    <trkpt lat="35.35722" lon="-120.27576"><ele>608.0</ele></trkpt>
    <trkpt lat="35.35706" lon="-120.27568"><ele>608.0</ele></trkpt>
    <trkpt lat="35.35696" lon="-120.27559"><ele>608.0</ele></trkpt>
    <trkpt lat="35.35682" lon="-120.27555"><ele>608.0</ele></trkpt>
  </trkseg></trk>
</gpx>
