<?xml version="1.0" encoding="UTF-8"?>
<gpx version="1.1" creator="dirt-bikes build-area-routes (MVUM geometry + SRTM elevation)" xmlns="http://www.topografix.com/GPX/1/1">
  <trk><name>Oak Grove Road</name><trkseg>
    <trkpt lat="33.37619" lon="-116.82696"><ele>1495.0</ele></trkpt>
    <trkpt lat="33.37562" lon="-116.82730"><ele>1514.0</ele></trkpt>
    <trkpt lat="33.37546" lon="-116.82748"><ele>1520.0</ele></trkpt>
    <trkpt lat="33.37569" lon="-116.82785"><ele>1514.0</ele></trkpt>
    <trkpt lat="33.37552" lon="-116.82805"><ele>1521.0</ele></trkpt>
    <trkpt lat="33.37552" lon="-116.82832"><ele>1523.0</ele></trkpt>
    <trkpt lat="33.37532" lon="-116.82848"><ele>1531.0</ele></trkpt>
    <trkpt lat="33.37529" lon="-116.82862"><ele>1532.0</ele></trkpt>
    <trkpt lat="33.37572" lon="-116.82898"><ele>1516.0</ele></trkpt>
    <trkpt lat="33.37564" lon="-116.82907"><ele>1519.0</ele></trkpt>
    <trkpt lat="33.37524" lon="-116.82924"><ele>1535.0</ele></trkpt>
    <trkpt lat="33.37511" lon="-116.82949"><ele>1542.0</ele></trkpt>
    <trkpt lat="33.37527" lon="-116.82969"><ele>1539.0</ele></trkpt>
    <trkpt lat="33.37565" lon="-116.82999"><ele>1533.0</ele></trkpt>
    <trkpt lat="33.37577" lon="-116.83024"><ele>1533.0</ele></trkpt>
    <trkpt lat="33.37581" lon="-116.83033"><ele>1533.0</ele></trkpt>
    <trkpt lat="33.37562" lon="-116.83072"><ele>1545.0</ele></trkpt>
    <trkpt lat="33.37559" lon="-116.83098"><ele>1548.0</ele></trkpt>
    <trkpt lat="33.37551" lon="-116.83121"><ele>1553.0</ele></trkpt>
    <trkpt lat="33.37553" lon="-116.83139"><ele>1555.0</ele></trkpt>
    <trkpt lat="33.37571" lon="-116.83153"><ele>1548.0</ele></trkpt>
    <trkpt lat="33.37573" lon="-116.83197"><ele>1549.0</ele></trkpt>
    <trkpt lat="33.37560" lon="-116.83217"><ele>1557.0</ele></trkpt>
    <trkpt lat="33.37554" lon="-116.83234"><ele>1561.0</ele></trkpt>
    <trkpt lat="33.37586" lon="-116.83246"><ele>1544.0</ele></trkpt>
    <trkpt lat="33.37593" lon="-116.83259"><ele>1541.0</ele></trkpt>
    <trkpt lat="33.37573" lon="-116.83297"><ele>1548.0</ele></trkpt>
    <trkpt lat="33.37540" lon="-116.83314"><ele>1564.0</ele></trkpt>
    <trkpt lat="33.37509" lon="-116.83340"><ele>1577.0</ele></trkpt>
    <trkpt lat="33.37517" lon="-116.83357"><ele>1572.0</ele></trkpt>
    <trkpt lat="33.37505" lon="-116.83394"><ele>1575.0</ele></trkpt>
    <trkpt lat="33.37502" lon="-116.83490"><ele>1573.0</ele></trkpt>
    <trkpt lat="33.37479" lon="-116.83538"><ele>1572.0</ele></trkpt>
    <trkpt lat="33.37450" lon="-116.83562"><ele>1571.0</ele></trkpt>
    <trkpt lat="33.37400" lon="-116.83535"><ele>1583.0</ele></trkpt>
    <trkpt lat="33.37358" lon="-116.83501"><ele>1591.0</ele></trkpt>
    <trkpt lat="33.37341" lon="-116.83471"><ele>1599.0</ele></trkpt>
    <trkpt lat="33.37287" lon="-116.83400"><ele>1615.0</ele></trkpt>
    <trkpt lat="33.37269" lon="-116.83409"><ele>1609.0</ele></trkpt>
    <trkpt lat="33.37256" lon="-116.83403"><ele>1609.0</ele></trkpt>
    <trkpt lat="33.37253" lon="-116.83377"><ele>1619.0</ele></trkpt>
    <trkpt lat="33.37245" lon="-116.83353"><ele>1627.0</ele></trkpt>
    <trkpt lat="33.37229" lon="-116.83337"><ele>1631.0</ele></trkpt>
    <trkpt lat="33.37171" lon="-116.83321"><ele>1631.0</ele></trkpt>
    <trkpt lat="33.37122" lon="-116.83264"><ele>1636.0</ele></trkpt>
    <trkpt lat="33.37117" lon="-116.83220"><ele>1647.0</ele></trkpt>
    <trkpt lat="33.37086" lon="-116.83141"><ele>1660.0</ele></trkpt>
    <trkpt lat="33.37064" lon="-116.83123"><ele>1662.0</ele></trkpt>
    <trkpt lat="33.37052" lon="-116.83065"><ele>1677.0</ele></trkpt>
    <trkpt lat="33.37019" lon="-116.83051"><ele>1676.0</ele></trkpt>
    <trkpt lat="33.36985" lon="-116.83034"><ele>1678.0</ele></trkpt>
    <trkpt lat="33.36957" lon="-116.82975"><ele>1690.0</ele></trkpt>
    <trkpt lat="33.36946" lon="-116.82930"><ele>1700.0</ele></trkpt>
    <trkpt lat="33.36892" lon="-116.82884"><ele>1706.0</ele></trkpt>
    <trkpt lat="33.36833" lon="-116.82877"><ele>1702.0</ele></trkpt>
    <trkpt lat="33.36833" lon="-116.82805"><ele>1714.0</ele></trkpt>
    <trkpt lat="33.36794" lon="-116.82748"><ele>1714.0</ele></trkpt>
    <trkpt lat="33.36747" lon="-116.82725"><ele>1714.0</ele></trkpt>
    <trkpt lat="33.36703" lon="-116.82684"><ele>1715.0</ele></trkpt>
    <trkpt lat="33.36661" lon="-116.82675"><ele>1718.0</ele></trkpt>
    <trkpt lat="33.36617" lon="-116.82666"><ele>1721.0</ele></trkpt>
    <trkpt lat="33.36573" lon="-116.82682"><ele>1719.0</ele></trkpt>
    <trkpt lat="33.36482" lon="-116.82672"><ele>1721.0</ele></trkpt>
    <trkpt lat="33.36455" lon="-116.82661"><ele>1723.0</ele></trkpt>
    <trkpt lat="33.36411" lon="-116.82654"><ele>1724.0</ele></trkpt>
    <trkpt lat="33.36330" lon="-116.82668"><ele>1718.0</ele></trkpt>
    <trkpt lat="33.36289" lon="-116.82636"><ele>1726.0</ele></trkpt>
    <trkpt lat="33.36265" lon="-116.82650"><ele>1724.0</ele></trkpt>
  </trkseg></trk>
</gpx>
