<?xml version="1.0" encoding="UTF-8"?>
<gpx version="1.1" creator="dirt-bikes build-area-routes (MVUM geometry + SRTM elevation)" xmlns="http://www.topografix.com/GPX/1/1">
  <trk><name>Old Sierra OHV Road</name><trkseg>
    <trkpt lat="35.07152" lon="-120.05742"><ele>889.0</ele></trkpt>
    <trkpt lat="35.07150" lon="-120.05754"><ele>889.0</ele></trkpt>
    <trkpt lat="35.07149" lon="-120.05761"><ele>890.0</ele></trkpt>
    <trkpt lat="35.07147" lon="-120.05776"><ele>890.0</ele></trkpt>
    <trkpt lat="35.07144" lon="-120.05793"><ele>887.0</ele></trkpt>
    <trkpt lat="35.07141" lon="-120.05810"><ele>887.0</ele></trkpt>
    <trkpt lat="35.07145" lon="-120.05827"><ele>887.0</ele></trkpt>
    <trkpt lat="35.07153" lon="-120.05844"><ele>887.0</ele></trkpt>
    <trkpt lat="35.07163" lon="-120.05868"><ele>889.0</ele></trkpt>
    <trkpt lat="35.07169" lon="-120.05890"><ele>889.0</ele></trkpt>
    <trkpt lat="35.07179" lon="-120.05921"><ele>889.0</ele></trkpt>
    <trkpt lat="35.07185" lon="-120.05936"><ele>889.0</ele></trkpt>
    <trkpt lat="35.07198" lon="-120.05944"><ele>890.0</ele></trkpt>
    <trkpt lat="35.07217" lon="-120.05958"><ele>890.0</ele></trkpt>
    <trkpt lat="35.07239" lon="-120.05985"><ele>896.0</ele></trkpt>
    <trkpt lat="35.07258" lon="-120.06017"><ele>896.0</ele></trkpt>
    <trkpt lat="35.07274" lon="-120.06029"><ele>896.0</ele></trkpt>
    <trkpt lat="35.07298" lon="-120.06043"><ele>896.0</ele></trkpt>
    <trkpt lat="35.07319" lon="-120.06055"><ele>905.0</ele></trkpt>
    <trkpt lat="35.07339" lon="-120.06052"><ele>905.0</ele></trkpt>
    <trkpt lat="35.07349" lon="-120.06051"><ele>911.0</ele></trkpt>
    <trkpt lat="35.07357" lon="-120.06057"><ele>911.0</ele></trkpt>
    <trkpt lat="35.07363" lon="-120.06068"><ele>911.0</ele></trkpt>
    <trkpt lat="35.07364" lon="-120.06082"><ele>911.0</ele></trkpt>
    <trkpt lat="35.07358" lon="-120.06098"><ele>908.0</ele></trkpt>
    <trkpt lat="35.07349" lon="-120.06118"><ele>908.0</ele></trkpt>
    <trkpt lat="35.07348" lon="-120.06134"><ele>907.0</ele></trkpt>
    <trkpt lat="35.07355" lon="-120.06143"><ele>907.0</ele></trkpt>
    <trkpt lat="35.07369" lon="-120.06162"><ele>910.0</ele></trkpt>
    <trkpt lat="35.07388" lon="-120.06195"><ele>910.0</ele></trkpt>
    <trkpt lat="35.07408" lon="-120.06236"><ele>911.0</ele></trkpt>
    <trkpt lat="35.07410" lon="-120.06260"><ele>911.0</ele></trkpt>
    <trkpt lat="35.07404" lon="-120.06274"><ele>913.0</ele></trkpt>
    <trkpt lat="35.07392" lon="-120.06287"><ele>913.0</ele></trkpt>
    <trkpt lat="35.07380" lon="-120.06305"><ele>912.0</ele></trkpt>
    <trkpt lat="35.07374" lon="-120.06326"><ele>912.0</ele></trkpt>
    <trkpt lat="35.07362" lon="-120.06349"><ele>913.0</ele></trkpt>
    <trkpt lat="35.07346" lon="-120.06367"><ele>913.0</ele></trkpt>
    <trkpt lat="35.07340" lon="-120.06389"><ele>912.0</ele></trkpt>
    <trkpt lat="35.07341" lon="-120.06412"><ele>912.0</ele></trkpt>
    <trkpt lat="35.07350" lon="-120.06454"><ele>915.0</ele></trkpt>
    <trkpt lat="35.07370" lon="-120.06497"><ele>915.0</ele></trkpt>
    <trkpt lat="35.07393" lon="-120.06532"><ele>919.0</ele></trkpt>
    <trkpt lat="35.07413" lon="-120.06551"><ele>919.0</ele></trkpt>
    <trkpt lat="35.07431" lon="-120.06557"><ele>928.0</ele></trkpt>
    <trkpt lat="35.07444" lon="-120.06571"><ele>928.0</ele></trkpt>
    <trkpt lat="35.07445" lon="-120.06586"><ele>931.0</ele></trkpt>
    <trkpt lat="35.07436" lon="-120.06605"><ele>931.0</ele></trkpt>
    <trkpt lat="35.07421" lon="-120.06627"><ele>928.0</ele></trkpt>
    <trkpt lat="35.07411" lon="-120.06648"><ele>928.0</ele></trkpt>
    <trkpt lat="35.07407" lon="-120.06667"><ele>931.0</ele></trkpt>
    <trkpt lat="35.07395" lon="-120.06677"><ele>931.0</ele></trkpt>
    <trkpt lat="35.07378" lon="-120.06677"><ele>927.0</ele></trkpt>
    <trkpt lat="35.07364" lon="-120.06671"><ele>927.0</ele></trkpt>
    <trkpt lat="35.07350" lon="-120.06671"><ele>919.0</ele></trkpt>
    <trkpt lat="35.07342" lon="-120.06679"><ele>919.0</ele></trkpt>
    <trkpt lat="35.07331" lon="-120.06687"><ele>921.0</ele></trkpt>
    <trkpt lat="35.07321" lon="-120.06693"><ele>921.0</ele></trkpt>
    <trkpt lat="35.07311" lon="-120.06696"><ele>918.0</ele></trkpt>
    <trkpt lat="35.07297" lon="-120.06703"><ele>918.0</ele></trkpt>
    <trkpt lat="35.07284" lon="-120.06716"><ele>916.0</ele></trkpt>
    <trkpt lat="35.07270" lon="-120.06725"><ele>916.0</ele></trkpt>
    <trkpt lat="35.07261" lon="-120.06745"><ele>917.0</ele></trkpt>
    <trkpt lat="35.07253" lon="-120.06766"><ele>917.0</ele></trkpt>
    <trkpt lat="35.07240" lon="-120.06785"><ele>914.0</ele></trkpt>
    <trkpt lat="35.07227" lon="-120.06797"><ele>914.0</ele></trkpt>
    <trkpt lat="35.07214" lon="-120.06809"><ele>902.0</ele></trkpt>
    <trkpt lat="35.07209" lon="-120.06819"><ele>902.0</ele></trkpt>
    <trkpt lat="35.07212" lon="-120.06830"><ele>903.0</ele></trkpt>
    <trkpt lat="35.07219" lon="-120.06843"><ele>903.0</ele></trkpt>
    <trkpt lat="35.07223" lon="-120.06856"><ele>904.0</ele></trkpt>
    <trkpt lat="35.07227" lon="-120.06873"><ele>904.0</ele></trkpt>
    <trkpt lat="35.07237" lon="-120.06889"><ele>903.0</ele></trkpt>
    <trkpt lat="35.07249" lon="-120.06895"><ele>903.0</ele></trkpt>
    <trkpt lat="35.07264" lon="-120.06904"><ele>909.0</ele></trkpt>
    <trkpt lat="35.07269" lon="-120.06918"><ele>909.0</ele></trkpt>
    <trkpt lat="35.07276" lon="-120.06935"><ele>902.0</ele></trkpt>
    <trkpt lat="35.07289" lon="-120.06947"><ele>902.0</ele></trkpt>
    <trkpt lat="35.07316" lon="-120.06954"><ele>904.0</ele></trkpt>
    <trkpt lat="35.07343" lon="-120.06955"><ele>904.0</ele></trkpt>
    <trkpt lat="35.07356" lon="-120.06948"><ele>910.0</ele></trkpt>
    <trkpt lat="35.07370" lon="-120.06937"><ele>910.0</ele></trkpt>
    <trkpt lat="35.07383" lon="-120.06926"><ele>918.0</ele></trkpt>
    <trkpt lat="35.07394" lon="-120.06914"><ele>918.0</ele></trkpt>
    <trkpt lat="35.07404" lon="-120.06913"><ele>922.0</ele></trkpt>
    <trkpt lat="35.07409" lon="-120.06918"><ele>922.0</ele></trkpt>
    <trkpt lat="35.07409" lon="-120.06929"><ele>917.0</ele></trkpt>
    <trkpt lat="35.07405" lon="-120.06942"><ele>917.0</ele></trkpt>
    <trkpt lat="35.07404" lon="-120.06957"><ele>909.0</ele></trkpt>
    <trkpt lat="35.07406" lon="-120.06974"><ele>904.0</ele></trkpt>
    <trkpt lat="35.07410" lon="-120.06988"><ele>904.0</ele></trkpt>
    <trkpt lat="35.07420" lon="-120.06998"><ele>898.0</ele></trkpt>
    <trkpt lat="35.07433" lon="-120.06999"><ele>898.0</ele></trkpt>
    <trkpt lat="35.07456" lon="-120.06994"><ele>907.0</ele></trkpt>
    <trkpt lat="35.07468" lon="-120.06998"><ele>907.0</ele></trkpt>
    <trkpt lat="35.07472" lon="-120.07009"><ele>909.0</ele></trkpt>
    <trkpt lat="35.07470" lon="-120.07022"><ele>909.0</ele></trkpt>
    <trkpt lat="35.07467" lon="-120.07046"><ele>904.0</ele></trkpt>
    <trkpt lat="35.07467" lon="-120.07059"><ele>904.0</ele></trkpt>
    <trkpt lat="35.07469" lon="-120.07077"><ele>902.0</ele></trkpt>
    <trkpt lat="35.07467" lon="-120.07088"><ele>902.0</ele></trkpt>
    <trkpt lat="35.07457" lon="-120.07101"><ele>895.0</ele></trkpt>
    <trkpt lat="35.07449" lon="-120.07111"><ele>895.0</ele></trkpt>
    <trkpt lat="35.07440" lon="-120.07141"><ele>887.0</ele></trkpt>
    <trkpt lat="35.07434" lon="-120.07170"><ele>887.0</ele></trkpt>
    <trkpt lat="35.07437" lon="-120.07183"><ele>885.0</ele></trkpt>
    <trkpt lat="35.07432" lon="-120.07195"><ele>885.0</ele></trkpt>
    <trkpt lat="35.07428" lon="-120.07198"><ele>880.0</ele></trkpt>
    <trkpt lat="35.07416" lon="-120.07204"><ele>880.0</ele></trkpt>
    <trkpt lat="35.07410" lon="-120.07210"><ele>871.0</ele></trkpt>
    <trkpt lat="35.07407" lon="-120.07223"><ele>871.0</ele></trkpt>
    <trkpt lat="35.07407" lon="-120.07252"><ele>869.0</ele></trkpt>
    <trkpt lat="35.07405" lon="-120.07282"><ele>869.0</ele></trkpt>
    <trkpt lat="35.07412" lon="-120.07304"><ele>862.0</ele></trkpt>
    <trkpt lat="35.07424" lon="-120.07320"><ele>862.0</ele></trkpt>
    <trkpt lat="35.07435" lon="-120.07344"><ele>866.0</ele></trkpt>
    <trkpt lat="35.07448" lon="-120.07359"><ele>866.0</ele></trkpt>
    <trkpt lat="35.07455" lon="-120.07368"><ele>873.0</ele></trkpt>
    <trkpt lat="35.07460" lon="-120.07381"><ele>873.0</ele></trkpt>
    <trkpt lat="35.07455" lon="-120.07395"><ele>871.0</ele></trkpt>
    <trkpt lat="35.07437" lon="-120.07413"><ele>871.0</ele></trkpt>
    <trkpt lat="35.07422" lon="-120.07430"><ele>857.0</ele></trkpt>
    <trkpt lat="35.07414" lon="-120.07448"><ele>857.0</ele></trkpt>
    <trkpt lat="35.07414" lon="-120.07466"><ele>861.0</ele></trkpt>
    <trkpt lat="35.07405" lon="-120.07482"><ele>861.0</ele></trkpt>
    <trkpt lat="35.07388" lon="-120.07486"><ele>854.0</ele></trkpt>
    <trkpt lat="35.07372" lon="-120.07486"><ele>854.0</ele></trkpt>
    <trkpt lat="35.07356" lon="-120.07491"><ele>842.0</ele></trkpt>
    <trkpt lat="35.07350" lon="-120.07500"><ele>842.0</ele></trkpt>
    <trkpt lat="35.07346" lon="-120.07517"><ele>841.0</ele></trkpt>
    <trkpt lat="35.07350" lon="-120.07550"><ele>841.0</ele></trkpt>
    <trkpt lat="35.07358" lon="-120.07599"><ele>853.0</ele></trkpt>
    <trkpt lat="35.07357" lon="-120.07623"><ele>853.0</ele></trkpt>
    <trkpt lat="35.07348" lon="-120.07635"><ele>854.0</ele></trkpt>
    <trkpt lat="35.07341" lon="-120.07637"><ele>854.0</ele></trkpt>
    <trkpt lat="35.07325" lon="-120.07639"><ele>846.0</ele></trkpt>
    <trkpt lat="35.07311" lon="-120.07642"><ele>846.0</ele></trkpt>
    <trkpt lat="35.07299" lon="-120.07652"><ele>838.0</ele></trkpt>
    <trkpt lat="35.07296" lon="-120.07666"><ele>838.0</ele></trkpt>
    <trkpt lat="35.07294" lon="-120.07694"><ele>846.0</ele></trkpt>
    <trkpt lat="35.07291" lon="-120.07719"><ele>846.0</ele></trkpt>
    <trkpt lat="35.07285" lon="-120.07731"><ele>852.0</ele></trkpt>
    <trkpt lat="35.07276" lon="-120.07734"><ele>852.0</ele></trkpt>
    <trkpt lat="35.07254" lon="-120.07733"><ele>842.0</ele></trkpt>
    <trkpt lat="35.07238" lon="-120.07732"><ele>842.0</ele></trkpt>
    <trkpt lat="35.07231" lon="-120.07737"><ele>838.0</ele></trkpt>
    <trkpt lat="35.07216" lon="-120.07750"><ele>838.0</ele></trkpt>
    <trkpt lat="35.07197" lon="-120.07772"><ele>836.0</ele></trkpt>
    <trkpt lat="35.07197" lon="-120.07784"><ele>836.0</ele></trkpt>
    <trkpt lat="35.07201" lon="-120.07795"><ele>837.0</ele></trkpt>
    <trkpt lat="35.07208" lon="-120.07814"><ele>837.0</ele></trkpt>
    <trkpt lat="35.07213" lon="-120.07841"><ele>841.0</ele></trkpt>
    <trkpt lat="35.07214" lon="-120.07863"><ele>841.0</ele></trkpt>
    <trkpt lat="35.07210" lon="-120.07893"><ele>838.0</ele></trkpt>
    <trkpt lat="35.07202" lon="-120.07925"><ele>838.0</ele></trkpt>
    <trkpt lat="35.07192" lon="-120.07939"><ele>829.0</ele></trkpt>
    <trkpt lat="35.07178" lon="-120.07951"><ele>829.0</ele></trkpt>
    <trkpt lat="35.07166" lon="-120.07957"><ele>817.0</ele></trkpt>
    <trkpt lat="35.07155" lon="-120.07970"><ele>817.0</ele></trkpt>
    <trkpt lat="35.07150" lon="-120.07981"><ele>814.0</ele></trkpt>
    <trkpt lat="35.07151" lon="-120.07997"><ele>814.0</ele></trkpt>
    <trkpt lat="35.07160" lon="-120.08009"><ele>818.0</ele></trkpt>
    <trkpt lat="35.07168" lon="-120.08023"><ele>818.0</ele></trkpt>
    <trkpt lat="35.07170" lon="-120.08035"><ele>825.0</ele></trkpt>
    <trkpt lat="35.07167" lon="-120.08045"><ele>825.0</ele></trkpt>
    <trkpt lat="35.07153" lon="-120.08053"><ele>821.0</ele></trkpt>
    <trkpt lat="35.07142" lon="-120.08057"><ele>821.0</ele></trkpt>
    <trkpt lat="35.07130" lon="-120.08068"><ele>816.0</ele></trkpt>
    <trkpt lat="35.07120" lon="-120.08071"><ele>816.0</ele></trkpt>
    <trkpt lat="35.07110" lon="-120.08069"><ele>809.0</ele></trkpt>
    <trkpt lat="35.07099" lon="-120.08069"><ele>809.0</ele></trkpt>
    <trkpt lat="35.07088" lon="-120.08076"><ele>802.0</ele></trkpt>
    <trkpt lat="35.07076" lon="-120.08094"><ele>802.0</ele></trkpt>
    <trkpt lat="35.07066" lon="-120.08112"><ele>798.0</ele></trkpt>
    <trkpt lat="35.07059" lon="-120.08118"><ele>798.0</ele></trkpt>
    <trkpt lat="35.07042" lon="-120.08119"><ele>793.0</ele></trkpt>
    <trkpt lat="35.07028" lon="-120.08122"><ele>793.0</ele></trkpt>
    <trkpt lat="35.07022" lon="-120.08129"><ele>789.0</ele></trkpt>
  </trkseg></trk>
</gpx>
