<?xml version="1.0" encoding="UTF-8"?>
<gpx version="1.1" creator="dirt-bikes build-area-routes (MVUM geometry + SRTM elevation)" xmlns="http://www.topografix.com/GPX/1/1">
  <trk><name>Palomar Divide Road</name><trkseg>
    <trkpt lat="33.33091" lon="-116.70915"><ele>934.0</ele></trkpt>
    <trkpt lat="33.32998" lon="-116.70944"><ele>934.0</ele></trkpt>
    <trkpt lat="33.32916" lon="-116.70938"><ele>934.0</ele></trkpt>
    <trkpt lat="33.32862" lon="-116.70926"><ele>934.0</ele></trkpt>
    <trkpt lat="33.32797" lon="-116.70954"><ele>942.0</ele></trkpt>
    <trkpt lat="33.32799" lon="-116.71054"><ele>942.0</ele></trkpt>
    <trkpt lat="33.32807" lon="-116.71085"><ele>942.0</ele></trkpt>
    <trkpt lat="33.32799" lon="-116.71111"><ele>942.0</ele></trkpt>
    <trkpt lat="33.32725" lon="-116.71150"><ele>942.0</ele></trkpt>
    <trkpt lat="33.32739" lon="-116.71191"><ele>942.0</ele></trkpt>
    <trkpt lat="33.32782" lon="-116.71209"><ele>942.0</ele></trkpt>
    <trkpt lat="33.32787" lon="-116.71236"><ele>959.0</ele></trkpt>
    <trkpt lat="33.32775" lon="-116.71268"><ele>959.0</ele></trkpt>
    <trkpt lat="33.32774" lon="-116.71297"><ele>959.0</ele></trkpt>
    <trkpt lat="33.32743" lon="-116.71301"><ele>959.0</ele></trkpt>
    <trkpt lat="33.32736" lon="-116.71348"><ele>959.0</ele></trkpt>
    <trkpt lat="33.32726" lon="-116.71370"><ele>959.0</ele></trkpt>
    <trkpt lat="33.32731" lon="-116.71399"><ele>974.0</ele></trkpt>
    <trkpt lat="33.32745" lon="-116.71413"><ele>974.0</ele></trkpt>
    <trkpt lat="33.32730" lon="-116.71458"><ele>974.0</ele></trkpt>
    <trkpt lat="33.32719" lon="-116.71494"><ele>974.0</ele></trkpt>
    <trkpt lat="33.32706" lon="-116.71490"><ele>974.0</ele></trkpt>
    <trkpt lat="33.32685" lon="-116.71464"><ele>974.0</ele></trkpt>
    <trkpt lat="33.32658" lon="-116.71466"><ele>974.0</ele></trkpt>
    <trkpt lat="33.32637" lon="-116.71440"><ele>978.0</ele></trkpt>
    <trkpt lat="33.32623" lon="-116.71427"><ele>978.0</ele></trkpt>
    <trkpt lat="33.32600" lon="-116.71426"><ele>978.0</ele></trkpt>
    <trkpt lat="33.32536" lon="-116.71369"><ele>978.0</ele></trkpt>
    <trkpt lat="33.32529" lon="-116.71377"><ele>978.0</ele></trkpt>
    <trkpt lat="33.32547" lon="-116.71428"><ele>978.0</ele></trkpt>
    <trkpt lat="33.32557" lon="-116.71466"><ele>994.0</ele></trkpt>
    <trkpt lat="33.32588" lon="-116.71531"><ele>994.0</ele></trkpt>
    <trkpt lat="33.32582" lon="-116.71627"><ele>994.0</ele></trkpt>
    <trkpt lat="33.32542" lon="-116.71686"><ele>994.0</ele></trkpt>
    <trkpt lat="33.32533" lon="-116.71711"><ele>994.0</ele></trkpt>
    <trkpt lat="33.32516" lon="-116.71726"><ele>994.0</ele></trkpt>
    <trkpt lat="33.32513" lon="-116.71745"><ele>994.0</ele></trkpt>
    <trkpt lat="33.32542" lon="-116.71793"><ele>1004.0</ele></trkpt>
    <trkpt lat="33.32557" lon="-116.71812"><ele>1004.0</ele></trkpt>
    <trkpt lat="33.32574" lon="-116.71829"><ele>1004.0</ele></trkpt>
    <trkpt lat="33.32581" lon="-116.71869"><ele>1004.0</ele></trkpt>
    <trkpt lat="33.32605" lon="-116.71885"><ele>1004.0</ele></trkpt>
    <trkpt lat="33.32604" lon="-116.71901"><ele>1004.0</ele></trkpt>
    <trkpt lat="33.32587" lon="-116.71908"><ele>1017.0</ele></trkpt>
    <trkpt lat="33.32549" lon="-116.71918"><ele>1017.0</ele></trkpt>
    <trkpt lat="33.32528" lon="-116.71907"><ele>1017.0</ele></trkpt>
    <trkpt lat="33.32510" lon="-116.71904"><ele>1017.0</ele></trkpt>
    <trkpt lat="33.32478" lon="-116.71924"><ele>1017.0</ele></trkpt>
    <trkpt lat="33.32407" lon="-116.71894"><ele>1017.0</ele></trkpt>
    <trkpt lat="33.32366" lon="-116.71897"><ele>1017.0</ele></trkpt>
    <trkpt lat="33.32328" lon="-116.71916"><ele>1033.0</ele></trkpt>
    <trkpt lat="33.32321" lon="-116.71940"><ele>1033.0</ele></trkpt>
    <trkpt lat="33.32335" lon="-116.71957"><ele>1033.0</ele></trkpt>
    <trkpt lat="33.32355" lon="-116.71962"><ele>1033.0</ele></trkpt>
    <trkpt lat="33.32377" lon="-116.72022"><ele>1033.0</ele></trkpt>
    <trkpt lat="33.32370" lon="-116.72076"><ele>1033.0</ele></trkpt>
    <trkpt lat="33.32353" lon="-116.72090"><ele>1033.0</ele></trkpt>
    <trkpt lat="33.32335" lon="-116.72093"><ele>1044.0</ele></trkpt>
    <trkpt lat="33.32312" lon="-116.72143"><ele>1044.0</ele></trkpt>
    <trkpt lat="33.32280" lon="-116.72150"><ele>1044.0</ele></trkpt>
    <trkpt lat="33.32255" lon="-116.72139"><ele>1044.0</ele></trkpt>
    <trkpt lat="33.32234" lon="-116.72149"><ele>1044.0</ele></trkpt>
    <trkpt lat="33.32132" lon="-116.72126"><ele>1044.0</ele></trkpt>
    <trkpt lat="33.32132" lon="-116.72126"><ele>1059.0</ele></trkpt>
    <trkpt lat="33.32131" lon="-116.72126"><ele>1059.0</ele></trkpt>
    <trkpt lat="33.32090" lon="-116.72109"><ele>1059.0</ele></trkpt>
    <trkpt lat="33.32078" lon="-116.72118"><ele>1059.0</ele></trkpt>
    <trkpt lat="33.32073" lon="-116.72136"><ele>1059.0</ele></trkpt>
    <trkpt lat="33.32071" lon="-116.72173"><ele>1059.0</ele></trkpt>
    <trkpt lat="33.32054" lon="-116.72221"><ele>1059.0</ele></trkpt>
    <trkpt lat="33.32036" lon="-116.72237"><ele>1075.0</ele></trkpt>
    <trkpt lat="33.32036" lon="-116.72260"><ele>1075.0</ele></trkpt>
    <trkpt lat="33.32066" lon="-116.72277"><ele>1075.0</ele></trkpt>
    <trkpt lat="33.32074" lon="-116.72293"><ele>1075.0</ele></trkpt>
    <trkpt lat="33.32085" lon="-116.72329"><ele>1075.0</ele></trkpt>
    <trkpt lat="33.32098" lon="-116.72331"><ele>1075.0</ele></trkpt>
    <trkpt lat="33.32110" lon="-116.72323"><ele>1075.0</ele></trkpt>
    <trkpt lat="33.32134" lon="-116.72326"><ele>1075.0</ele></trkpt>
    <trkpt lat="33.32141" lon="-116.72338"><ele>1075.0</ele></trkpt>
    <trkpt lat="33.32146" lon="-116.72368"><ele>1075.0</ele></trkpt>
    <trkpt lat="33.32165" lon="-116.72407"><ele>1075.0</ele></trkpt>
    <trkpt lat="33.32161" lon="-116.72427"><ele>1075.0</ele></trkpt>
    <trkpt lat="33.32148" lon="-116.72440"><ele>1075.0</ele></trkpt>
    <trkpt lat="33.32119" lon="-116.72445"><ele>1079.0</ele></trkpt>
    <trkpt lat="33.32106" lon="-116.72450"><ele>1079.0</ele></trkpt>
    <trkpt lat="33.32096" lon="-116.72478"><ele>1079.0</ele></trkpt>
    <trkpt lat="33.32079" lon="-116.72487"><ele>1079.0</ele></trkpt>
    <trkpt lat="33.32060" lon="-116.72483"><ele>1079.0</ele></trkpt>
    <trkpt lat="33.32040" lon="-116.72499"><ele>1079.0</ele></trkpt>
    <trkpt lat="33.32030" lon="-116.72501"><ele>1088.0</ele></trkpt>
    <trkpt lat="33.32004" lon="-116.72494"><ele>1088.0</ele></trkpt>
    <trkpt lat="33.31978" lon="-116.72500"><ele>1088.0</ele></trkpt>
    <trkpt lat="33.31969" lon="-116.72513"><ele>1088.0</ele></trkpt>
    <trkpt lat="33.31968" lon="-116.72522"><ele>1088.0</ele></trkpt>
    <trkpt lat="33.31981" lon="-116.72547"><ele>1088.0</ele></trkpt>
    <trkpt lat="33.31981" lon="-116.72571"><ele>1088.0</ele></trkpt>
    <trkpt lat="33.31982" lon="-116.72599"><ele>1072.0</ele></trkpt>
    <trkpt lat="33.31995" lon="-116.72630"><ele>1072.0</ele></trkpt>
    <trkpt lat="33.32027" lon="-116.72639"><ele>1072.0</ele></trkpt>
    <trkpt lat="33.32067" lon="-116.72714"><ele>1072.0</ele></trkpt>
    <trkpt lat="33.32067" lon="-116.72737"><ele>1072.0</ele></trkpt>
    <trkpt lat="33.32060" lon="-116.72760"><ele>1072.0</ele></trkpt>
    <trkpt lat="33.32064" lon="-116.72795"><ele>1072.0</ele></trkpt>
    <trkpt lat="33.32074" lon="-116.72821"><ele>1085.0</ele></trkpt>
    <trkpt lat="33.32071" lon="-116.72851"><ele>1085.0</ele></trkpt>
    <trkpt lat="33.32075" lon="-116.72873"><ele>1085.0</ele></trkpt>
    <trkpt lat="33.32049" lon="-116.72930"><ele>1085.0</ele></trkpt>
    <trkpt lat="33.32032" lon="-116.72941"><ele>1085.0</ele></trkpt>
    <trkpt lat="33.32015" lon="-116.72935"><ele>1085.0</ele></trkpt>
    <trkpt lat="33.31998" lon="-116.72939"><ele>1114.0</ele></trkpt>
    <trkpt lat="33.31984" lon="-116.72950"><ele>1114.0</ele></trkpt>
    <trkpt lat="33.31927" lon="-116.72962"><ele>1114.0</ele></trkpt>
    <trkpt lat="33.31921" lon="-116.72974"><ele>1114.0</ele></trkpt>
    <trkpt lat="33.31931" lon="-116.72989"><ele>1114.0</ele></trkpt>
    <trkpt lat="33.31931" lon="-116.73009"><ele>1114.0</ele></trkpt>
    <trkpt lat="33.31901" lon="-116.73055"><ele>1114.0</ele></trkpt>
    <trkpt lat="33.31877" lon="-116.73074"><ele>1114.0</ele></trkpt>
    <trkpt lat="33.31853" lon="-116.73115"><ele>1114.0</ele></trkpt>
    <trkpt lat="33.31814" lon="-116.73124"><ele>1114.0</ele></trkpt>
    <trkpt lat="33.31796" lon="-116.73143"><ele>1114.0</ele></trkpt>
    <trkpt lat="33.31758" lon="-116.73151"><ele>1114.0</ele></trkpt>
    <trkpt lat="33.31734" lon="-116.73150"><ele>1114.0</ele></trkpt>
    <trkpt lat="33.31708" lon="-116.73174"><ele>1126.0</ele></trkpt>
    <trkpt lat="33.31712" lon="-116.73195"><ele>1126.0</ele></trkpt>
    <trkpt lat="33.31693" lon="-116.73231"><ele>1126.0</ele></trkpt>
    <trkpt lat="33.31675" lon="-116.73248"><ele>1126.0</ele></trkpt>
    <trkpt lat="33.31673" lon="-116.73281"><ele>1126.0</ele></trkpt>
    <trkpt lat="33.31665" lon="-116.73289"><ele>1126.0</ele></trkpt>
    <trkpt lat="33.31649" lon="-116.73285"><ele>1126.0</ele></trkpt>
    <trkpt lat="33.31638" lon="-116.73287"><ele>1132.0</ele></trkpt>
    <trkpt lat="33.31618" lon="-116.73300"><ele>1132.0</ele></trkpt>
    <trkpt lat="33.31595" lon="-116.73305"><ele>1132.0</ele></trkpt>
    <trkpt lat="33.31566" lon="-116.73303"><ele>1132.0</ele></trkpt>
    <trkpt lat="33.31554" lon="-116.73318"><ele>1132.0</ele></trkpt>
    <trkpt lat="33.31553" lon="-116.73340"><ele>1132.0</ele></trkpt>
    <trkpt lat="33.31589" lon="-116.73387"><ele>1146.0</ele></trkpt>
    <trkpt lat="33.31638" lon="-116.73441"><ele>1146.0</ele></trkpt>
    <trkpt lat="33.31651" lon="-116.73448"><ele>1146.0</ele></trkpt>
    <trkpt lat="33.31653" lon="-116.73461"><ele>1146.0</ele></trkpt>
    <trkpt lat="33.31645" lon="-116.73488"><ele>1146.0</ele></trkpt>
    <trkpt lat="33.31652" lon="-116.73556"><ele>1146.0</ele></trkpt>
    <trkpt lat="33.31658" lon="-116.73566"><ele>1146.0</ele></trkpt>
    <trkpt lat="33.31679" lon="-116.73570"><ele>1155.0</ele></trkpt>
    <trkpt lat="33.31677" lon="-116.73588"><ele>1155.0</ele></trkpt>
    <trkpt lat="33.31672" lon="-116.73613"><ele>1155.0</ele></trkpt>
    <trkpt lat="33.31663" lon="-116.73628"><ele>1155.0</ele></trkpt>
    <trkpt lat="33.31665" lon="-116.73670"><ele>1155.0</ele></trkpt>
    <trkpt lat="33.31660" lon="-116.73682"><ele>1155.0</ele></trkpt>
    <trkpt lat="33.31659" lon="-116.73759"><ele>1155.0</ele></trkpt>
    <trkpt lat="33.31667" lon="-116.73770"><ele>1167.0</ele></trkpt>
    <trkpt lat="33.31732" lon="-116.73797"><ele>1167.0</ele></trkpt>
    <trkpt lat="33.31739" lon="-116.73808"><ele>1167.0</ele></trkpt>
    <trkpt lat="33.31744" lon="-116.73826"><ele>1167.0</ele></trkpt>
    <trkpt lat="33.31765" lon="-116.73829"><ele>1167.0</ele></trkpt>
    <trkpt lat="33.31804" lon="-116.73857"><ele>1167.0</ele></trkpt>
    <trkpt lat="33.31811" lon="-116.73870"><ele>1176.0</ele></trkpt>
    <trkpt lat="33.31824" lon="-116.73903"><ele>1176.0</ele></trkpt>
    <trkpt lat="33.31836" lon="-116.73916"><ele>1176.0</ele></trkpt>
    <trkpt lat="33.31851" lon="-116.73909"><ele>1176.0</ele></trkpt>
    <trkpt lat="33.31867" lon="-116.73909"><ele>1176.0</ele></trkpt>
    <trkpt lat="33.31873" lon="-116.73902"><ele>1176.0</ele></trkpt>
    <trkpt lat="33.31885" lon="-116.73903"><ele>1176.0</ele></trkpt>
    <trkpt lat="33.31899" lon="-116.73921"><ele>1181.0</ele></trkpt>
    <trkpt lat="33.31925" lon="-116.73932"><ele>1181.0</ele></trkpt>
    <trkpt lat="33.31958" lon="-116.73948"><ele>1181.0</ele></trkpt>
    <trkpt lat="33.31974" lon="-116.74000"><ele>1181.0</ele></trkpt>
    <trkpt lat="33.31963" lon="-116.74039"><ele>1181.0</ele></trkpt>
    <trkpt lat="33.31972" lon="-116.74066"><ele>1181.0</ele></trkpt>
    <trkpt lat="33.31971" lon="-116.74080"><ele>1217.0</ele></trkpt>
    <trkpt lat="33.31986" lon="-116.74110"><ele>1217.0</ele></trkpt>
    <trkpt lat="33.32004" lon="-116.74134"><ele>1217.0</ele></trkpt>
    <trkpt lat="33.32014" lon="-116.74174"><ele>1217.0</ele></trkpt>
    <trkpt lat="33.32016" lon="-116.74187"><ele>1217.0</ele></trkpt>
    <trkpt lat="33.32040" lon="-116.74217"><ele>1217.0</ele></trkpt>
    <trkpt lat="33.32040" lon="-116.74237"><ele>1217.0</ele></trkpt>
    <trkpt lat="33.32052" lon="-116.74254"><ele>1232.0</ele></trkpt>
    <trkpt lat="33.32066" lon="-116.74264"><ele>1232.0</ele></trkpt>
    <trkpt lat="33.32073" lon="-116.74288"><ele>1232.0</ele></trkpt>
    <trkpt lat="33.32101" lon="-116.74289"><ele>1232.0</ele></trkpt>
    <trkpt lat="33.32110" lon="-116.74298"><ele>1232.0</ele></trkpt>
    <trkpt lat="33.32105" lon="-116.74325"><ele>1232.0</ele></trkpt>
    <trkpt lat="33.32111" lon="-116.74357"><ele>1252.0</ele></trkpt>
    <trkpt lat="33.32102" lon="-116.74388"><ele>1252.0</ele></trkpt>
    <trkpt lat="33.32096" lon="-116.74415"><ele>1252.0</ele></trkpt>
    <trkpt lat="33.32071" lon="-116.74454"><ele>1252.0</ele></trkpt>
    <trkpt lat="33.32067" lon="-116.74505"><ele>1252.0</ele></trkpt>
    <trkpt lat="33.32078" lon="-116.74531"><ele>1252.0</ele></trkpt>
    <trkpt lat="33.32086" lon="-116.74542"><ele>1252.0</ele></trkpt>
    <trkpt lat="33.32109" lon="-116.74560"><ele>1257.0</ele></trkpt>
    <trkpt lat="33.32111" lon="-116.74589"><ele>1257.0</ele></trkpt>
    <trkpt lat="33.32121" lon="-116.74614"><ele>1257.0</ele></trkpt>
    <trkpt lat="33.32122" lon="-116.74636"><ele>1257.0</ele></trkpt>
    <trkpt lat="33.32136" lon="-116.74645"><ele>1257.0</ele></trkpt>
    <trkpt lat="33.32160" lon="-116.74652"><ele>1257.0</ele></trkpt>
    <trkpt lat="33.32171" lon="-116.74667"><ele>1257.0</ele></trkpt>
    <trkpt lat="33.32186" lon="-116.74666"><ele>1263.0</ele></trkpt>
    <trkpt lat="33.32192" lon="-116.74682"><ele>1263.0</ele></trkpt>
    <trkpt lat="33.32192" lon="-116.74699"><ele>1263.0</ele></trkpt>
    <trkpt lat="33.32196" lon="-116.74714"><ele>1263.0</ele></trkpt>
    <trkpt lat="33.32207" lon="-116.74723"><ele>1263.0</ele></trkpt>
    <trkpt lat="33.32215" lon="-116.74738"><ele>1263.0</ele></trkpt>
    <trkpt lat="33.32245" lon="-116.74742"><ele>1278.0</ele></trkpt>
    <trkpt lat="33.32259" lon="-116.74755"><ele>1278.0</ele></trkpt>
    <trkpt lat="33.32285" lon="-116.74766"><ele>1278.0</ele></trkpt>
    <trkpt lat="33.32319" lon="-116.74809"><ele>1278.0</ele></trkpt>
    <trkpt lat="33.32326" lon="-116.74823"><ele>1278.0</ele></trkpt>
    <trkpt lat="33.32337" lon="-116.74829"><ele>1278.0</ele></trkpt>
    <trkpt lat="33.32345" lon="-116.74822"><ele>1278.0</ele></trkpt>
    <trkpt lat="33.32374" lon="-116.74821"><ele>1291.0</ele></trkpt>
    <trkpt lat="33.32390" lon="-116.74834"><ele>1291.0</ele></trkpt>
    <trkpt lat="33.32411" lon="-116.74831"><ele>1291.0</ele></trkpt>
    <trkpt lat="33.32414" lon="-116.74825"><ele>1291.0</ele></trkpt>
    <trkpt lat="33.32413" lon="-116.74807"><ele>1291.0</ele></trkpt>
    <trkpt lat="33.32432" lon="-116.74781"><ele>1291.0</ele></trkpt>
    <trkpt lat="33.32445" lon="-116.74771"><ele>1297.0</ele></trkpt>
    <trkpt lat="33.32463" lon="-116.74772"><ele>1297.0</ele></trkpt>
    <trkpt lat="33.32484" lon="-116.74784"><ele>1297.0</ele></trkpt>
    <trkpt lat="33.32499" lon="-116.74821"><ele>1297.0</ele></trkpt>
    <trkpt lat="33.32500" lon="-116.74831"><ele>1297.0</ele></trkpt>
    <trkpt lat="33.32528" lon="-116.74855"><ele>1297.0</ele></trkpt>
    <trkpt lat="33.32549" lon="-116.74871"><ele>1297.0</ele></trkpt>
    <trkpt lat="33.32549" lon="-116.74893"><ele>1315.0</ele></trkpt>
    <trkpt lat="33.32566" lon="-116.74895"><ele>1315.0</ele></trkpt>
    <trkpt lat="33.32594" lon="-116.74890"><ele>1315.0</ele></trkpt>
    <trkpt lat="33.32605" lon="-116.74895"><ele>1315.0</ele></trkpt>
    <trkpt lat="33.32617" lon="-116.74893"><ele>1315.0</ele></trkpt>
    <trkpt lat="33.32624" lon="-116.74876"><ele>1315.0</ele></trkpt>
    <trkpt lat="33.32637" lon="-116.74880"><ele>1319.0</ele></trkpt>
    <trkpt lat="33.32639" lon="-116.74911"><ele>1319.0</ele></trkpt>
    <trkpt lat="33.32654" lon="-116.74946"><ele>1319.0</ele></trkpt>
    <trkpt lat="33.32646" lon="-116.74958"><ele>1319.0</ele></trkpt>
    <trkpt lat="33.32638" lon="-116.75049"><ele>1319.0</ele></trkpt>
    <trkpt lat="33.32670" lon="-116.75087"><ele>1319.0</ele></trkpt>
    <trkpt lat="33.32708" lon="-116.75110"><ele>1319.0</ele></trkpt>
    <trkpt lat="33.32743" lon="-116.75120"><ele>1357.0</ele></trkpt>
    <trkpt lat="33.32766" lon="-116.75144"><ele>1357.0</ele></trkpt>
    <trkpt lat="33.32775" lon="-116.75177"><ele>1357.0</ele></trkpt>
    <trkpt lat="33.32751" lon="-116.75263"><ele>1357.0</ele></trkpt>
    <trkpt lat="33.32766" lon="-116.75297"><ele>1357.0</ele></trkpt>
    <trkpt lat="33.32789" lon="-116.75298"><ele>1357.0</ele></trkpt>
    <trkpt lat="33.32810" lon="-116.75305"><ele>1357.0</ele></trkpt>
    <trkpt lat="33.32828" lon="-116.75324"><ele>1371.0</ele></trkpt>
    <trkpt lat="33.32840" lon="-116.75358"><ele>1371.0</ele></trkpt>
    <trkpt lat="33.32881" lon="-116.75408"><ele>1371.0</ele></trkpt>
    <trkpt lat="33.32885" lon="-116.75436"><ele>1371.0</ele></trkpt>
    <trkpt lat="33.32896" lon="-116.75449"><ele>1371.0</ele></trkpt>
    <trkpt lat="33.32921" lon="-116.75462"><ele>1371.0</ele></trkpt>
    <trkpt lat="33.32941" lon="-116.75457"><ele>1372.0</ele></trkpt>
    <trkpt lat="33.32963" lon="-116.75452"><ele>1372.0</ele></trkpt>
    <trkpt lat="33.32994" lon="-116.75448"><ele>1372.0</ele></trkpt>
    <trkpt lat="33.33005" lon="-116.75453"><ele>1372.0</ele></trkpt>
    <trkpt lat="33.33009" lon="-116.75463"><ele>1372.0</ele></trkpt>
    <trkpt lat="33.32988" lon="-116.75480"><ele>1372.0</ele></trkpt>
    <trkpt lat="33.32974" lon="-116.75514"><ele>1372.0</ele></trkpt>
    <trkpt lat="33.32956" lon="-116.75539"><ele>1393.0</ele></trkpt>
    <trkpt lat="33.32951" lon="-116.75561"><ele>1393.0</ele></trkpt>
    <trkpt lat="33.32926" lon="-116.75588"><ele>1393.0</ele></trkpt>
    <trkpt lat="33.32888" lon="-116.75599"><ele>1393.0</ele></trkpt>
    <trkpt lat="33.32867" lon="-116.75620"><ele>1393.0</ele></trkpt>
    <trkpt lat="33.32844" lon="-116.75640"><ele>1393.0</ele></trkpt>
    <trkpt lat="33.32835" lon="-116.75666"><ele>1408.0</ele></trkpt>
    <trkpt lat="33.32833" lon="-116.75721"><ele>1408.0</ele></trkpt>
    <trkpt lat="33.32824" lon="-116.75763"><ele>1408.0</ele></trkpt>
    <trkpt lat="33.32830" lon="-116.75802"><ele>1408.0</ele></trkpt>
    <trkpt lat="33.32818" lon="-116.75853"><ele>1408.0</ele></trkpt>
    <trkpt lat="33.32821" lon="-116.75905"><ele>1408.0</ele></trkpt>
    <trkpt lat="33.32812" lon="-116.75986"><ele>1408.0</ele></trkpt>
    <trkpt lat="33.32803" lon="-116.76068"><ele>1439.0</ele></trkpt>
    <trkpt lat="33.32780" lon="-116.76115"><ele>1439.0</ele></trkpt>
    <trkpt lat="33.32764" lon="-116.76144"><ele>1439.0</ele></trkpt>
    <trkpt lat="33.32751" lon="-116.76153"><ele>1439.0</ele></trkpt>
    <trkpt lat="33.32747" lon="-116.76186"><ele>1439.0</ele></trkpt>
    <trkpt lat="33.32764" lon="-116.76225"><ele>1439.0</ele></trkpt>
    <trkpt lat="33.32779" lon="-116.76256"><ele>1464.0</ele></trkpt>
    <trkpt lat="33.32775" lon="-116.76279"><ele>1464.0</ele></trkpt>
    <trkpt lat="33.32803" lon="-116.76322"><ele>1464.0</ele></trkpt>
    <trkpt lat="33.32809" lon="-116.76362"><ele>1464.0</ele></trkpt>
    <trkpt lat="33.32827" lon="-116.76396"><ele>1464.0</ele></trkpt>
    <trkpt lat="33.32846" lon="-116.76437"><ele>1464.0</ele></trkpt>
    <trkpt lat="33.32843" lon="-116.76455"><ele>1464.0</ele></trkpt>
    <trkpt lat="33.32824" lon="-116.76459"><ele>1463.0</ele></trkpt>
    <trkpt lat="33.32792" lon="-116.76460"><ele>1463.0</ele></trkpt>
    <trkpt lat="33.32778" lon="-116.76477"><ele>1463.0</ele></trkpt>
    <trkpt lat="33.32764" lon="-116.76478"><ele>1463.0</ele></trkpt>
    <trkpt lat="33.32757" lon="-116.76487"><ele>1463.0</ele></trkpt>
    <trkpt lat="33.32770" lon="-116.76576"><ele>1463.0</ele></trkpt>
    <trkpt lat="33.32761" lon="-116.76591"><ele>1463.0</ele></trkpt>
    <trkpt lat="33.32748" lon="-116.76596"><ele>1470.0</ele></trkpt>
    <trkpt lat="33.32740" lon="-116.76609"><ele>1470.0</ele></trkpt>
    <trkpt lat="33.32744" lon="-116.76624"><ele>1470.0</ele></trkpt>
    <trkpt lat="33.32761" lon="-116.76628"><ele>1470.0</ele></trkpt>
    <trkpt lat="33.32801" lon="-116.76611"><ele>1470.0</ele></trkpt>
    <trkpt lat="33.32835" lon="-116.76594"><ele>1470.0</ele></trkpt>
    <trkpt lat="33.32894" lon="-116.76585"><ele>1493.0</ele></trkpt>
    <trkpt lat="33.32941" lon="-116.76595"><ele>1493.0</ele></trkpt>
    <trkpt lat="33.32988" lon="-116.76643"><ele>1493.0</ele></trkpt>
    <trkpt lat="33.33001" lon="-116.76649"><ele>1493.0</ele></trkpt>
    <trkpt lat="33.33001" lon="-116.76649"><ele>1493.0</ele></trkpt>
    <trkpt lat="33.33012" lon="-116.76655"><ele>1493.0</ele></trkpt>
    <trkpt lat="33.33030" lon="-116.76699"><ele>1493.0</ele></trkpt>
    <trkpt lat="33.33048" lon="-116.76719"><ele>1500.0</ele></trkpt>
    <trkpt lat="33.33059" lon="-116.76725"><ele>1500.0</ele></trkpt>
    <trkpt lat="33.33067" lon="-116.76759"><ele>1500.0</ele></trkpt>
    <trkpt lat="33.33060" lon="-116.76805"><ele>1500.0</ele></trkpt>
    <trkpt lat="33.33073" lon="-116.76849"><ele>1500.0</ele></trkpt>
    <trkpt lat="33.33088" lon="-116.76866"><ele>1500.0</ele></trkpt>
    <trkpt lat="33.33124" lon="-116.76856"><ele>1506.0</ele></trkpt>
    <trkpt lat="33.33154" lon="-116.76848"><ele>1506.0</ele></trkpt>
    <trkpt lat="33.33182" lon="-116.76858"><ele>1506.0</ele></trkpt>
    <trkpt lat="33.33193" lon="-116.76862"><ele>1506.0</ele></trkpt>
    <trkpt lat="33.33219" lon="-116.76885"><ele>1506.0</ele></trkpt>
    <trkpt lat="33.33236" lon="-116.76926"><ele>1506.0</ele></trkpt>
    <trkpt lat="33.33246" lon="-116.76948"><ele>1506.0</ele></trkpt>
    <trkpt lat="33.33288" lon="-116.76961"><ele>1507.0</ele></trkpt>
    <trkpt lat="33.33321" lon="-116.76989"><ele>1507.0</ele></trkpt>
    <trkpt lat="33.33324" lon="-116.77015"><ele>1507.0</ele></trkpt>
    <trkpt lat="33.33297" lon="-116.77076"><ele>1507.0</ele></trkpt>
    <trkpt lat="33.33278" lon="-116.77076"><ele>1507.0</ele></trkpt>
    <trkpt lat="33.33249" lon="-116.77121"><ele>1507.0</ele></trkpt>
    <trkpt lat="33.33221" lon="-116.77128"><ele>1507.0</ele></trkpt>
    <trkpt lat="33.33183" lon="-116.77113"><ele>1503.0</ele></trkpt>
    <trkpt lat="33.33174" lon="-116.77112"><ele>1503.0</ele></trkpt>
    <trkpt lat="33.33171" lon="-116.77112"><ele>1503.0</ele></trkpt>
    <trkpt lat="33.33159" lon="-116.77131"><ele>1503.0</ele></trkpt>
    <trkpt lat="33.33131" lon="-116.77129"><ele>1503.0</ele></trkpt>
    <trkpt lat="33.33110" lon="-116.77151"><ele>1503.0</ele></trkpt>
    <trkpt lat="33.33114" lon="-116.77162"><ele>1516.0</ele></trkpt>
    <trkpt lat="33.33149" lon="-116.77168"><ele>1516.0</ele></trkpt>
    <trkpt lat="33.33179" lon="-116.77158"><ele>1516.0</ele></trkpt>
    <trkpt lat="33.33216" lon="-116.77180"><ele>1516.0</ele></trkpt>
    <trkpt lat="33.33240" lon="-116.77175"><ele>1516.0</ele></trkpt>
    <trkpt lat="33.33288" lon="-116.77155"><ele>1516.0</ele></trkpt>
    <trkpt lat="33.33319" lon="-116.77154"><ele>1516.0</ele></trkpt>
    <trkpt lat="33.33350" lon="-116.77140"><ele>1532.0</ele></trkpt>
    <trkpt lat="33.33423" lon="-116.77154"><ele>1532.0</ele></trkpt>
    <trkpt lat="33.33485" lon="-116.77214"><ele>1532.0</ele></trkpt>
    <trkpt lat="33.33514" lon="-116.77234"><ele>1532.0</ele></trkpt>
    <trkpt lat="33.33557" lon="-116.77250"><ele>1532.0</ele></trkpt>
    <trkpt lat="33.33590" lon="-116.77286"><ele>1532.0</ele></trkpt>
    <trkpt lat="33.33625" lon="-116.77337"><ele>1532.0</ele></trkpt>
    <trkpt lat="33.33625" lon="-116.77358"><ele>1532.0</ele></trkpt>
    <trkpt lat="33.33611" lon="-116.77385"><ele>1532.0</ele></trkpt>
    <trkpt lat="33.33610" lon="-116.77452"><ele>1532.0</ele></trkpt>
    <trkpt lat="33.33622" lon="-116.77464"><ele>1532.0</ele></trkpt>
    <trkpt lat="33.33659" lon="-116.77473"><ele>1532.0</ele></trkpt>
    <trkpt lat="33.33672" lon="-116.77486"><ele>1532.0</ele></trkpt>
    <trkpt lat="33.33681" lon="-116.77512"><ele>1516.0</ele></trkpt>
    <trkpt lat="33.33684" lon="-116.77589"><ele>1516.0</ele></trkpt>
    <trkpt lat="33.33676" lon="-116.77641"><ele>1516.0</ele></trkpt>
    <trkpt lat="33.33682" lon="-116.77693"><ele>1516.0</ele></trkpt>
    <trkpt lat="33.33704" lon="-116.77735"><ele>1516.0</ele></trkpt>
    <trkpt lat="33.33706" lon="-116.77786"><ele>1516.0</ele></trkpt>
    <trkpt lat="33.33715" lon="-116.77807"><ele>1519.0</ele></trkpt>
    <trkpt lat="33.33708" lon="-116.77855"><ele>1519.0</ele></trkpt>
    <trkpt lat="33.33703" lon="-116.77894"><ele>1519.0</ele></trkpt>
    <trkpt lat="33.33666" lon="-116.77949"><ele>1519.0</ele></trkpt>
    <trkpt lat="33.33652" lon="-116.77987"><ele>1519.0</ele></trkpt>
    <trkpt lat="33.33587" lon="-116.78079"><ele>1519.0</ele></trkpt>
    <trkpt lat="33.33587" lon="-116.78103"><ele>1519.0</ele></trkpt>
    <trkpt lat="33.33594" lon="-116.78142"><ele>1541.0</ele></trkpt>
    <trkpt lat="33.33586" lon="-116.78184"><ele>1541.0</ele></trkpt>
    <trkpt lat="33.33566" lon="-116.78218"><ele>1541.0</ele></trkpt>
    <trkpt lat="33.33569" lon="-116.78261"><ele>1541.0</ele></trkpt>
    <trkpt lat="33.33581" lon="-116.78277"><ele>1541.0</ele></trkpt>
    <trkpt lat="33.33621" lon="-116.78291"><ele>1541.0</ele></trkpt>
    <trkpt lat="33.33670" lon="-116.78298"><ele>1541.0</ele></trkpt>
    <trkpt lat="33.33688" lon="-116.78329"><ele>1566.0</ele></trkpt>
    <trkpt lat="33.33713" lon="-116.78336"><ele>1566.0</ele></trkpt>
    <trkpt lat="33.33742" lon="-116.78344"><ele>1566.0</ele></trkpt>
    <trkpt lat="33.33757" lon="-116.78369"><ele>1566.0</ele></trkpt>
    <trkpt lat="33.33760" lon="-116.78410"><ele>1566.0</ele></trkpt>
    <trkpt lat="33.33771" lon="-116.78445"><ele>1566.0</ele></trkpt>
    <trkpt lat="33.33790" lon="-116.78476"><ele>1569.0</ele></trkpt>
    <trkpt lat="33.33791" lon="-116.78534"><ele>1569.0</ele></trkpt>
    <trkpt lat="33.33813" lon="-116.78584"><ele>1569.0</ele></trkpt>
    <trkpt lat="33.33879" lon="-116.78620"><ele>1569.0</ele></trkpt>
    <trkpt lat="33.33894" lon="-116.78678"><ele>1569.0</ele></trkpt>
    <trkpt lat="33.33914" lon="-116.78711"><ele>1569.0</ele></trkpt>
    <trkpt lat="33.33931" lon="-116.78755"><ele>1569.0</ele></trkpt>
    <trkpt lat="33.33995" lon="-116.78816"><ele>1587.0</ele></trkpt>
    <trkpt lat="33.34028" lon="-116.78833"><ele>1587.0</ele></trkpt>
    <trkpt lat="33.34107" lon="-116.78830"><ele>1587.0</ele></trkpt>
    <trkpt lat="33.34148" lon="-116.78795"><ele>1587.0</ele></trkpt>
    <trkpt lat="33.34173" lon="-116.78770"><ele>1587.0</ele></trkpt>
    <trkpt lat="33.34215" lon="-116.78782"><ele>1587.0</ele></trkpt>
    <trkpt lat="33.34235" lon="-116.78806"><ele>1601.0</ele></trkpt>
    <trkpt lat="33.34256" lon="-116.78866"><ele>1601.0</ele></trkpt>
    <trkpt lat="33.34254" lon="-116.78896"><ele>1601.0</ele></trkpt>
    <trkpt lat="33.34273" lon="-116.78919"><ele>1601.0</ele></trkpt>
    <trkpt lat="33.34260" lon="-116.79068"><ele>1601.0</ele></trkpt>
    <trkpt lat="33.34251" lon="-116.79103"><ele>1601.0</ele></trkpt>
    <trkpt lat="33.34232" lon="-116.79127"><ele>1601.0</ele></trkpt>
    <trkpt lat="33.34233" lon="-116.79142"><ele>1622.0</ele></trkpt>
    <trkpt lat="33.34235" lon="-116.79160"><ele>1622.0</ele></trkpt>
    <trkpt lat="33.34249" lon="-116.79226"><ele>1622.0</ele></trkpt>
    <trkpt lat="33.34303" lon="-116.79287"><ele>1622.0</ele></trkpt>
    <trkpt lat="33.34310" lon="-116.79314"><ele>1622.0</ele></trkpt>
    <trkpt lat="33.34332" lon="-116.79351"><ele>1622.0</ele></trkpt>
    <trkpt lat="33.34385" lon="-116.79397"><ele>1630.0</ele></trkpt>
    <trkpt lat="33.34387" lon="-116.79466"><ele>1630.0</ele></trkpt>
    <trkpt lat="33.34395" lon="-116.79476"><ele>1630.0</ele></trkpt>
    <trkpt lat="33.34436" lon="-116.79473"><ele>1630.0</ele></trkpt>
    <trkpt lat="33.34461" lon="-116.79480"><ele>1630.0</ele></trkpt>
    <trkpt lat="33.34509" lon="-116.79464"><ele>1630.0</ele></trkpt>
    <trkpt lat="33.34529" lon="-116.79467"><ele>1630.0</ele></trkpt>
    <trkpt lat="33.34537" lon="-116.79481"><ele>1636.0</ele></trkpt>
    <trkpt lat="33.34542" lon="-116.79537"><ele>1636.0</ele></trkpt>
    <trkpt lat="33.34553" lon="-116.79566"><ele>1636.0</ele></trkpt>
    <trkpt lat="33.34574" lon="-116.79587"><ele>1636.0</ele></trkpt>
    <trkpt lat="33.34592" lon="-116.79611"><ele>1636.0</ele></trkpt>
    <trkpt lat="33.34639" lon="-116.79644"><ele>1636.0</ele></trkpt>
    <trkpt lat="33.34699" lon="-116.79646"><ele>1636.0</ele></trkpt>
    <trkpt lat="33.34755" lon="-116.79669"><ele>1629.0</ele></trkpt>
    <trkpt lat="33.34769" lon="-116.79691"><ele>1629.0</ele></trkpt>
    <trkpt lat="33.34761" lon="-116.79713"><ele>1629.0</ele></trkpt>
    <trkpt lat="33.34738" lon="-116.79739"><ele>1629.0</ele></trkpt>
    <trkpt lat="33.34725" lon="-116.79793"><ele>1629.0</ele></trkpt>
    <trkpt lat="33.34683" lon="-116.79840"><ele>1629.0</ele></trkpt>
    <trkpt lat="33.34656" lon="-116.79868"><ele>1650.0</ele></trkpt>
    <trkpt lat="33.34647" lon="-116.79906"><ele>1650.0</ele></trkpt>
    <trkpt lat="33.34618" lon="-116.79902"><ele>1650.0</ele></trkpt>
    <trkpt lat="33.34545" lon="-116.79916"><ele>1650.0</ele></trkpt>
    <trkpt lat="33.34495" lon="-116.79960"><ele>1650.0</ele></trkpt>
    <trkpt lat="33.34492" lon="-116.79973"><ele>1650.0</ele></trkpt>
    <trkpt lat="33.34498" lon="-116.79990"><ele>1650.0</ele></trkpt>
    <trkpt lat="33.34564" lon="-116.80017"><ele>1666.0</ele></trkpt>
    <trkpt lat="33.34606" lon="-116.80045"><ele>1666.0</ele></trkpt>
    <trkpt lat="33.34653" lon="-116.80061"><ele>1666.0</ele></trkpt>
    <trkpt lat="33.34683" lon="-116.80082"><ele>1666.0</ele></trkpt>
    <trkpt lat="33.34712" lon="-116.80088"><ele>1666.0</ele></trkpt>
    <trkpt lat="33.34731" lon="-116.80087"><ele>1666.0</ele></trkpt>
    <trkpt lat="33.34761" lon="-116.80104"><ele>1665.0</ele></trkpt>
    <trkpt lat="33.34800" lon="-116.80119"><ele>1665.0</ele></trkpt>
    <trkpt lat="33.34817" lon="-116.80109"><ele>1665.0</ele></trkpt>
    <trkpt lat="33.34827" lon="-116.80116"><ele>1665.0</ele></trkpt>
    <trkpt lat="33.34834" lon="-116.80135"><ele>1665.0</ele></trkpt>
    <trkpt lat="33.34839" lon="-116.80159"><ele>1665.0</ele></trkpt>
    <trkpt lat="33.34930" lon="-116.80215"><ele>1665.0</ele></trkpt>
    <trkpt lat="33.34951" lon="-116.80263"><ele>1653.0</ele></trkpt>
    <trkpt lat="33.34973" lon="-116.80338"><ele>1653.0</ele></trkpt>
    <trkpt lat="33.35019" lon="-116.80362"><ele>1653.0</ele></trkpt>
    <trkpt lat="33.35100" lon="-116.80425"><ele>1653.0</ele></trkpt>
    <trkpt lat="33.35137" lon="-116.80437"><ele>1653.0</ele></trkpt>
    <trkpt lat="33.35177" lon="-116.80432"><ele>1653.0</ele></trkpt>
    <trkpt lat="33.35185" lon="-116.80446"><ele>1642.0</ele></trkpt>
    <trkpt lat="33.35179" lon="-116.80477"><ele>1642.0</ele></trkpt>
    <trkpt lat="33.35168" lon="-116.80511"><ele>1642.0</ele></trkpt>
    <trkpt lat="33.35174" lon="-116.80579"><ele>1642.0</ele></trkpt>
    <trkpt lat="33.35157" lon="-116.80608"><ele>1642.0</ele></trkpt>
    <trkpt lat="33.35087" lon="-116.80648"><ele>1642.0</ele></trkpt>
    <trkpt lat="33.35079" lon="-116.80681"><ele>1642.0</ele></trkpt>
    <trkpt lat="33.35090" lon="-116.80738"><ele>1657.0</ele></trkpt>
    <trkpt lat="33.35108" lon="-116.80752"><ele>1657.0</ele></trkpt>
    <trkpt lat="33.35143" lon="-116.80771"><ele>1657.0</ele></trkpt>
    <trkpt lat="33.35201" lon="-116.80778"><ele>1657.0</ele></trkpt>
    <trkpt lat="33.35224" lon="-116.80765"><ele>1657.0</ele></trkpt>
    <trkpt lat="33.35255" lon="-116.80779"><ele>1657.0</ele></trkpt>
    <trkpt lat="33.35273" lon="-116.80788"><ele>1657.0</ele></trkpt>
    <trkpt lat="33.35291" lon="-116.80785"><ele>1658.0</ele></trkpt>
    <trkpt lat="33.35296" lon="-116.80785"><ele>1658.0</ele></trkpt>
    <trkpt lat="33.35348" lon="-116.80816"><ele>1658.0</ele></trkpt>
    <trkpt lat="33.35367" lon="-116.80829"><ele>1658.0</ele></trkpt>
    <trkpt lat="33.35371" lon="-116.80857"><ele>1658.0</ele></trkpt>
    <trkpt lat="33.35366" lon="-116.80899"><ele>1658.0</ele></trkpt>
    <trkpt lat="33.35374" lon="-116.80914"><ele>1676.0</ele></trkpt>
    <trkpt lat="33.35401" lon="-116.80935"><ele>1676.0</ele></trkpt>
    <trkpt lat="33.35400" lon="-116.80948"><ele>1676.0</ele></trkpt>
    <trkpt lat="33.35391" lon="-116.80977"><ele>1676.0</ele></trkpt>
    <trkpt lat="33.35458" lon="-116.81010"><ele>1676.0</ele></trkpt>
    <trkpt lat="33.35459" lon="-116.81032"><ele>1676.0</ele></trkpt>
    <trkpt lat="33.35510" lon="-116.81089"><ele>1676.0</ele></trkpt>
    <trkpt lat="33.35510" lon="-116.81125"><ele>1689.0</ele></trkpt>
    <trkpt lat="33.35490" lon="-116.81150"><ele>1689.0</ele></trkpt>
    <trkpt lat="33.35493" lon="-116.81184"><ele>1689.0</ele></trkpt>
    <trkpt lat="33.35514" lon="-116.81279"><ele>1689.0</ele></trkpt>
    <trkpt lat="33.35526" lon="-116.81297"><ele>1689.0</ele></trkpt>
    <trkpt lat="33.35559" lon="-116.81323"><ele>1689.0</ele></trkpt>
    <trkpt lat="33.35591" lon="-116.81396"><ele>1701.0</ele></trkpt>
    <trkpt lat="33.35589" lon="-116.81477"><ele>1701.0</ele></trkpt>
    <trkpt lat="33.35628" lon="-116.81492"><ele>1701.0</ele></trkpt>
    <trkpt lat="33.35634" lon="-116.81530"><ele>1701.0</ele></trkpt>
    <trkpt lat="33.35688" lon="-116.81571"><ele>1701.0</ele></trkpt>
    <trkpt lat="33.35721" lon="-116.81628"><ele>1701.0</ele></trkpt>
    <trkpt lat="33.35744" lon="-116.81644"><ele>1701.0</ele></trkpt>
    <trkpt lat="33.35851" lon="-116.81648"><ele>1684.0</ele></trkpt>
    <trkpt lat="33.35916" lon="-116.81719"><ele>1684.0</ele></trkpt>
    <trkpt lat="33.35953" lon="-116.81825"><ele>1684.0</ele></trkpt>
    <trkpt lat="33.35954" lon="-116.81850"><ele>1684.0</ele></trkpt>
    <trkpt lat="33.35941" lon="-116.81875"><ele>1684.0</ele></trkpt>
    <trkpt lat="33.35900" lon="-116.81906"><ele>1684.0</ele></trkpt>
    <trkpt lat="33.35877" lon="-116.81962"><ele>1695.0</ele></trkpt>
    <trkpt lat="33.35860" lon="-116.81973"><ele>1695.0</ele></trkpt>
    <trkpt lat="33.35837" lon="-116.81984"><ele>1695.0</ele></trkpt>
    <trkpt lat="33.35826" lon="-116.82019"><ele>1695.0</ele></trkpt>
    <trkpt lat="33.35841" lon="-116.82068"><ele>1695.0</ele></trkpt>
    <trkpt lat="33.35817" lon="-116.82107"><ele>1695.0</ele></trkpt>
    <trkpt lat="33.35817" lon="-116.82132"><ele>1695.0</ele></trkpt>
    <trkpt lat="33.35826" lon="-116.82152"><ele>1713.0</ele></trkpt>
    <trkpt lat="33.35841" lon="-116.82174"><ele>1713.0</ele></trkpt>
    <trkpt lat="33.35847" lon="-116.82205"><ele>1713.0</ele></trkpt>
    <trkpt lat="33.35865" lon="-116.82225"><ele>1713.0</ele></trkpt>
    <trkpt lat="33.35881" lon="-116.82227"><ele>1713.0</ele></trkpt>
    <trkpt lat="33.35895" lon="-116.82220"><ele>1713.0</ele></trkpt>
    <trkpt lat="33.35902" lon="-116.82229"><ele>1713.0</ele></trkpt>
    <trkpt lat="33.35899" lon="-116.82273"><ele>1721.0</ele></trkpt>
    <trkpt lat="33.35905" lon="-116.82307"><ele>1721.0</ele></trkpt>
    <trkpt lat="33.35910" lon="-116.82354"><ele>1721.0</ele></trkpt>
    <trkpt lat="33.35920" lon="-116.82372"><ele>1721.0</ele></trkpt>
    <trkpt lat="33.35950" lon="-116.82389"><ele>1721.0</ele></trkpt>
    <trkpt lat="33.35982" lon="-116.82392"><ele>1721.0</ele></trkpt>
    <trkpt lat="33.35999" lon="-116.82403"><ele>1736.0</ele></trkpt>
    <trkpt lat="33.36003" lon="-116.82423"><ele>1736.0</ele></trkpt>
    <trkpt lat="33.36008" lon="-116.82479"><ele>1736.0</ele></trkpt>
    <trkpt lat="33.36022" lon="-116.82523"><ele>1736.0</ele></trkpt>
    <trkpt lat="33.36030" lon="-116.82542"><ele>1736.0</ele></trkpt>
    <trkpt lat="33.36044" lon="-116.82543"><ele>1736.0</ele></trkpt>
    <trkpt lat="33.36063" lon="-116.82541"><ele>1736.0</ele></trkpt>
    <trkpt lat="33.36104" lon="-116.82544"><ele>1724.0</ele></trkpt>
    <trkpt lat="33.36178" lon="-116.82617"><ele>1724.0</ele></trkpt>
    <trkpt lat="33.36251" lon="-116.82657"><ele>1724.0</ele></trkpt>
    <trkpt lat="33.36267" lon="-116.82671"><ele>1724.0</ele></trkpt>
    <trkpt lat="33.36286" lon="-116.82700"><ele>1724.0</ele></trkpt>
    <trkpt lat="33.36293" lon="-116.82721"><ele>1724.0</ele></trkpt>
    <trkpt lat="33.36282" lon="-116.82756"><ele>1736.0</ele></trkpt>
    <trkpt lat="33.36250" lon="-116.82781"><ele>1736.0</ele></trkpt>
    <trkpt lat="33.36210" lon="-116.82835"><ele>1736.0</ele></trkpt>
    <trkpt lat="33.36202" lon="-116.82842"><ele>1736.0</ele></trkpt>
    <trkpt lat="33.36160" lon="-116.82879"><ele>1736.0</ele></trkpt>
    <trkpt lat="33.36153" lon="-116.82894"><ele>1736.0</ele></trkpt>
    <trkpt lat="33.36158" lon="-116.82909"><ele>1736.0</ele></trkpt>
    <trkpt lat="33.36190" lon="-116.82916"><ele>1744.0</ele></trkpt>
    <trkpt lat="33.36219" lon="-116.82919"><ele>1744.0</ele></trkpt>
    <trkpt lat="33.36280" lon="-116.82953"><ele>1744.0</ele></trkpt>
    <trkpt lat="33.36296" lon="-116.82979"><ele>1744.0</ele></trkpt>
    <trkpt lat="33.36353" lon="-116.82999"><ele>1744.0</ele></trkpt>
    <trkpt lat="33.36385" lon="-116.83013"><ele>1744.0</ele></trkpt>
    <trkpt lat="33.36442" lon="-116.83068"><ele>1756.0</ele></trkpt>
    <trkpt lat="33.36452" lon="-116.83099"><ele>1756.0</ele></trkpt>
    <trkpt lat="33.36490" lon="-116.83125"><ele>1756.0</ele></trkpt>
    <trkpt lat="33.36530" lon="-116.83137"><ele>1756.0</ele></trkpt>
    <trkpt lat="33.36560" lon="-116.83151"><ele>1756.0</ele></trkpt>
    <trkpt lat="33.36585" lon="-116.83167"><ele>1756.0</ele></trkpt>
    <trkpt lat="33.36583" lon="-116.83186"><ele>1756.0</ele></trkpt>
    <trkpt lat="33.36552" lon="-116.83217"><ele>1773.0</ele></trkpt>
    <trkpt lat="33.36517" lon="-116.83231"><ele>1773.0</ele></trkpt>
    <trkpt lat="33.36477" lon="-116.83266"><ele>1773.0</ele></trkpt>
    <trkpt lat="33.36462" lon="-116.83305"><ele>1773.0</ele></trkpt>
    <trkpt lat="33.36447" lon="-116.83353"><ele>1773.0</ele></trkpt>
    <trkpt lat="33.36456" lon="-116.83377"><ele>1773.0</ele></trkpt>
    <trkpt lat="33.36464" lon="-116.83392"><ele>1773.0</ele></trkpt>
    <trkpt lat="33.36456" lon="-116.83421"><ele>1793.0</ele></trkpt>
    <trkpt lat="33.36501" lon="-116.83491"><ele>1793.0</ele></trkpt>
    <trkpt lat="33.36512" lon="-116.83532"><ele>1793.0</ele></trkpt>
    <trkpt lat="33.36554" lon="-116.83586"><ele>1793.0</ele></trkpt>
    <trkpt lat="33.36554" lon="-116.83621"><ele>1793.0</ele></trkpt>
    <trkpt lat="33.36570" lon="-116.83677"><ele>1793.0</ele></trkpt>
    <trkpt lat="33.36561" lon="-116.83736"><ele>1815.0</ele></trkpt>
    <trkpt lat="33.36564" lon="-116.83761"><ele>1815.0</ele></trkpt>
    <trkpt lat="33.36531" lon="-116.83826"><ele>1815.0</ele></trkpt>
    <trkpt lat="33.36499" lon="-116.83839"><ele>1815.0</ele></trkpt>
    <trkpt lat="33.36487" lon="-116.83844"><ele>1815.0</ele></trkpt>
    <trkpt lat="33.36433" lon="-116.83843"><ele>1815.0</ele></trkpt>
    <trkpt lat="33.36402" lon="-116.83849"><ele>1815.0</ele></trkpt>
    <trkpt lat="33.36395" lon="-116.83858"><ele>1823.0</ele></trkpt>
    <trkpt lat="33.36397" lon="-116.83871"><ele>1823.0</ele></trkpt>
    <trkpt lat="33.36409" lon="-116.83870"><ele>1823.0</ele></trkpt>
    <trkpt lat="33.36418" lon="-116.83892"><ele>1823.0</ele></trkpt>
    <trkpt lat="33.36414" lon="-116.83902"><ele>1823.0</ele></trkpt>
    <trkpt lat="33.36385" lon="-116.83930"><ele>1823.0</ele></trkpt>
    <trkpt lat="33.36385" lon="-116.83963"><ele>1807.0</ele></trkpt>
    <trkpt lat="33.36391" lon="-116.83974"><ele>1807.0</ele></trkpt>
    <trkpt lat="33.36403" lon="-116.83985"><ele>1807.0</ele></trkpt>
    <trkpt lat="33.36398" lon="-116.84021"><ele>1807.0</ele></trkpt>
    <trkpt lat="33.36404" lon="-116.84052"><ele>1807.0</ele></trkpt>
    <trkpt lat="33.36372" lon="-116.84082"><ele>1807.0</ele></trkpt>
    <trkpt lat="33.36336" lon="-116.84098"><ele>1807.0</ele></trkpt>
    <trkpt lat="33.36327" lon="-116.84112"><ele>1804.0</ele></trkpt>
    <trkpt lat="33.36325" lon="-116.84136"><ele>1804.0</ele></trkpt>
    <trkpt lat="33.36340" lon="-116.84148"><ele>1804.0</ele></trkpt>
    <trkpt lat="33.36372" lon="-116.84177"><ele>1804.0</ele></trkpt>
    <trkpt lat="33.36385" lon="-116.84195"><ele>1804.0</ele></trkpt>
    <trkpt lat="33.36392" lon="-116.84219"><ele>1804.0</ele></trkpt>
    <trkpt lat="33.36416" lon="-116.84224"><ele>1792.0</ele></trkpt>
    <trkpt lat="33.36435" lon="-116.84219"><ele>1792.0</ele></trkpt>
    <trkpt lat="33.36442" lon="-116.84228"><ele>1792.0</ele></trkpt>
    <trkpt lat="33.36440" lon="-116.84230"><ele>1792.0</ele></trkpt>
  </trkseg></trk>
</gpx>
