<?xml version="1.0" encoding="UTF-8"?>
<gpx version="1.1" creator="dirt-bikes build-area-routes (MVUM geometry + SRTM elevation)" xmlns="http://www.topografix.com/GPX/1/1">
  <trk><name>Peace Maker Singletrack</name><trkseg>
    <trkpt lat="32.70731" lon="-116.59730"><ele>1027.0</ele></trkpt>
    <trkpt lat="32.70734" lon="-116.59710"><ele>1027.0</ele></trkpt>
    <trkpt lat="32.70738" lon="-116.59693"><ele>1035.0</ele></trkpt>
    <trkpt lat="32.70749" lon="-116.59666"><ele>1035.0</ele></trkpt>
    <trkpt lat="32.70760" lon="-116.59644"><ele>1035.0</ele></trkpt>
    <trkpt lat="32.70765" lon="-116.59639"><ele>1041.0</ele></trkpt>
    <trkpt lat="32.70775" lon="-116.59633"><ele>1041.0</ele></trkpt>
    <trkpt lat="32.70779" lon="-116.59623"><ele>1041.0</ele></trkpt>
    <trkpt lat="32.70787" lon="-116.59617"><ele>1046.0</ele></trkpt>
    <trkpt lat="32.70797" lon="-116.59612"><ele>1046.0</ele></trkpt>
    <trkpt lat="32.70800" lon="-116.59615"><ele>1046.0</ele></trkpt>
    <trkpt lat="32.70801" lon="-116.59601"><ele>1046.0</ele></trkpt>
    <trkpt lat="32.70798" lon="-116.59580"><ele>1049.0</ele></trkpt>
    <trkpt lat="32.70790" lon="-116.59572"><ele>1049.0</ele></trkpt>
    <trkpt lat="32.70782" lon="-116.59568"><ele>1049.0</ele></trkpt>
    <trkpt lat="32.70773" lon="-116.59556"><ele>1048.0</ele></trkpt>
    <trkpt lat="32.70773" lon="-116.59552"><ele>1048.0</ele></trkpt>
    <trkpt lat="32.70786" lon="-116.59532"><ele>1048.0</ele></trkpt>
    <trkpt lat="32.70788" lon="-116.59520"><ele>1049.0</ele></trkpt>
    <trkpt lat="32.70787" lon="-116.59516"><ele>1049.0</ele></trkpt>
    <trkpt lat="32.70776" lon="-116.59505"><ele>1049.0</ele></trkpt>
    <trkpt lat="32.70761" lon="-116.59500"><ele>1046.0</ele></trkpt>
    <trkpt lat="32.70745" lon="-116.59484"><ele>1046.0</ele></trkpt>
    <trkpt lat="32.70723" lon="-116.59472"><ele>1046.0</ele></trkpt>
    <trkpt lat="32.70703" lon="-116.59468"><ele>1042.0</ele></trkpt>
    <trkpt lat="32.70696" lon="-116.59458"><ele>1042.0</ele></trkpt>
    <trkpt lat="32.70678" lon="-116.59443"><ele>1042.0</ele></trkpt>
    <trkpt lat="32.70685" lon="-116.59421"><ele>1043.0</ele></trkpt>
    <trkpt lat="32.70670" lon="-116.59404"><ele>1043.0</ele></trkpt>
    <trkpt lat="32.70659" lon="-116.59399"><ele>1043.0</ele></trkpt>
    <trkpt lat="32.70640" lon="-116.59404"><ele>1043.0</ele></trkpt>
    <trkpt lat="32.70622" lon="-116.59426"><ele>1028.0</ele></trkpt>
    <trkpt lat="32.70607" lon="-116.59452"><ele>1028.0</ele></trkpt>
    <trkpt lat="32.70592" lon="-116.59457"><ele>1028.0</ele></trkpt>
    <trkpt lat="32.70574" lon="-116.59426"><ele>1024.0</ele></trkpt>
    <trkpt lat="32.70574" lon="-116.59395"><ele>1024.0</ele></trkpt>
    <trkpt lat="32.70562" lon="-116.59360"><ele>1024.0</ele></trkpt>
    <trkpt lat="32.70540" lon="-116.59325"><ele>1010.0</ele></trkpt>
    <trkpt lat="32.70518" lon="-116.59295"><ele>1010.0</ele></trkpt>
    <trkpt lat="32.70514" lon="-116.59268"><ele>1010.0</ele></trkpt>
    <trkpt lat="32.70517" lon="-116.59238"><ele>1016.0</ele></trkpt>
    <trkpt lat="32.70532" lon="-116.59203"><ele>1016.0</ele></trkpt>
    <trkpt lat="32.70536" lon="-116.59159"><ele>1016.0</ele></trkpt>
    <trkpt lat="32.70528" lon="-116.59115"><ele>1024.0</ele></trkpt>
    <trkpt lat="32.70521" lon="-116.59054"><ele>1024.0</ele></trkpt>
    <trkpt lat="32.70517" lon="-116.59014"><ele>1024.0</ele></trkpt>
    <trkpt lat="32.70524" lon="-116.58979"><ele>1028.0</ele></trkpt>
    <trkpt lat="32.70535" lon="-116.58944"><ele>1028.0</ele></trkpt>
    <trkpt lat="32.70561" lon="-116.58961"><ele>1028.0</ele></trkpt>
    <trkpt lat="32.70594" lon="-116.58988"><ele>1028.0</ele></trkpt>
    <trkpt lat="32.70617" lon="-116.59014"><ele>1043.0</ele></trkpt>
    <trkpt lat="32.70628" lon="-116.58983"><ele>1043.0</ele></trkpt>
    <trkpt lat="32.70643" lon="-116.59009"><ele>1043.0</ele></trkpt>
    <trkpt lat="32.70661" lon="-116.59018"><ele>1052.0</ele></trkpt>
    <trkpt lat="32.70683" lon="-116.58992"><ele>1052.0</ele></trkpt>
    <trkpt lat="32.70706" lon="-116.58974"><ele>1052.0</ele></trkpt>
    <trkpt lat="32.70728" lon="-116.58978"><ele>1059.0</ele></trkpt>
    <trkpt lat="32.70743" lon="-116.58982"><ele>1059.0</ele></trkpt>
    <trkpt lat="32.70769" lon="-116.58978"><ele>1059.0</ele></trkpt>
    <trkpt lat="32.70749" lon="-116.58945"><ele>1060.0</ele></trkpt>
    <trkpt lat="32.70745" lon="-116.58943"><ele>1060.0</ele></trkpt>
    <trkpt lat="32.70743" lon="-116.58937"><ele>1060.0</ele></trkpt>
    <trkpt lat="32.70744" lon="-116.58936"><ele>1060.0</ele></trkpt>
    <trkpt lat="32.70741" lon="-116.58925"><ele>1060.0</ele></trkpt>
    <trkpt lat="32.70740" lon="-116.58908"><ele>1060.0</ele></trkpt>
    <trkpt lat="32.70735" lon="-116.58903"><ele>1057.0</ele></trkpt>
    <trkpt lat="32.70721" lon="-116.58907"><ele>1057.0</ele></trkpt>
    <trkpt lat="32.70721" lon="-116.58886"><ele>1057.0</ele></trkpt>
    <trkpt lat="32.70718" lon="-116.58876"><ele>1056.0</ele></trkpt>
    <trkpt lat="32.70699" lon="-116.58842"><ele>1056.0</ele></trkpt>
    <trkpt lat="32.70697" lon="-116.58839"><ele>1056.0</ele></trkpt>
    <trkpt lat="32.70683" lon="-116.58807"><ele>1056.0</ele></trkpt>
    <trkpt lat="32.70672" lon="-116.58799"><ele>1054.0</ele></trkpt>
    <trkpt lat="32.70641" lon="-116.58764"><ele>1054.0</ele></trkpt>
    <trkpt lat="32.70632" lon="-116.58767"><ele>1054.0</ele></trkpt>
    <trkpt lat="32.70624" lon="-116.58766"><ele>1050.0</ele></trkpt>
    <trkpt lat="32.70604" lon="-116.58761"><ele>1050.0</ele></trkpt>
    <trkpt lat="32.70595" lon="-116.58749"><ele>1050.0</ele></trkpt>
    <trkpt lat="32.70584" lon="-116.58741"><ele>1047.0</ele></trkpt>
    <trkpt lat="32.70565" lon="-116.58728"><ele>1047.0</ele></trkpt>
    <trkpt lat="32.70560" lon="-116.58723"><ele>1047.0</ele></trkpt>
    <trkpt lat="32.70535" lon="-116.58718"><ele>1041.0</ele></trkpt>
    <trkpt lat="32.70527" lon="-116.58714"><ele>1041.0</ele></trkpt>
    <trkpt lat="32.70527" lon="-116.58715"><ele>1041.0</ele></trkpt>
    <trkpt lat="32.70527" lon="-116.58715"><ele>1041.0</ele></trkpt>
    <trkpt lat="32.70527" lon="-116.58715"><ele>1041.0</ele></trkpt>
    <trkpt lat="32.70519" lon="-116.58705"><ele>1041.0</ele></trkpt>
    <trkpt lat="32.70518" lon="-116.58705"><ele>1040.0</ele></trkpt>
    <trkpt lat="32.70515" lon="-116.58699"><ele>1040.0</ele></trkpt>
    <trkpt lat="32.70501" lon="-116.58681"><ele>1040.0</ele></trkpt>
    <trkpt lat="32.70496" lon="-116.58677"><ele>1040.0</ele></trkpt>
    <trkpt lat="32.70490" lon="-116.58666"><ele>1040.0</ele></trkpt>
    <trkpt lat="32.70486" lon="-116.58662"><ele>1040.0</ele></trkpt>
    <trkpt lat="32.70481" lon="-116.58661"><ele>1040.0</ele></trkpt>
    <trkpt lat="32.70476" lon="-116.58652"><ele>1041.0</ele></trkpt>
    <trkpt lat="32.70475" lon="-116.58637"><ele>1041.0</ele></trkpt>
    <trkpt lat="32.70465" lon="-116.58604"><ele>1041.0</ele></trkpt>
    <trkpt lat="32.70455" lon="-116.58597"><ele>1046.0</ele></trkpt>
    <trkpt lat="32.70443" lon="-116.58566"><ele>1046.0</ele></trkpt>
    <trkpt lat="32.70434" lon="-116.58563"><ele>1046.0</ele></trkpt>
    <trkpt lat="32.70426" lon="-116.58553"><ele>1045.0</ele></trkpt>
    <trkpt lat="32.70417" lon="-116.58548"><ele>1045.0</ele></trkpt>
    <trkpt lat="32.70405" lon="-116.58543"><ele>1045.0</ele></trkpt>
    <trkpt lat="32.70403" lon="-116.58539"><ele>1045.0</ele></trkpt>
    <trkpt lat="32.70400" lon="-116.58533"><ele>1045.0</ele></trkpt>
    <trkpt lat="32.70386" lon="-116.58521"><ele>1045.0</ele></trkpt>
    <trkpt lat="32.70373" lon="-116.58498"><ele>1047.0</ele></trkpt>
    <trkpt lat="32.70367" lon="-116.58484"><ele>1047.0</ele></trkpt>
    <trkpt lat="32.70362" lon="-116.58465"><ele>1047.0</ele></trkpt>
    <trkpt lat="32.70367" lon="-116.58457"><ele>1047.0</ele></trkpt>
    <trkpt lat="32.70366" lon="-116.58450"><ele>1054.0</ele></trkpt>
    <trkpt lat="32.70369" lon="-116.58441"><ele>1054.0</ele></trkpt>
    <trkpt lat="32.70383" lon="-116.58428"><ele>1054.0</ele></trkpt>
    <trkpt lat="32.70389" lon="-116.58427"><ele>1061.0</ele></trkpt>
    <trkpt lat="32.70402" lon="-116.58435"><ele>1061.0</ele></trkpt>
    <trkpt lat="32.70413" lon="-116.58436"><ele>1061.0</ele></trkpt>
    <trkpt lat="32.70419" lon="-116.58426"><ele>1068.0</ele></trkpt>
    <trkpt lat="32.70427" lon="-116.58419"><ele>1068.0</ele></trkpt>
    <trkpt lat="32.70433" lon="-116.58411"><ele>1068.0</ele></trkpt>
    <trkpt lat="32.70440" lon="-116.58395"><ele>1075.0</ele></trkpt>
    <trkpt lat="32.70449" lon="-116.58377"><ele>1075.0</ele></trkpt>
    <trkpt lat="32.70439" lon="-116.58349"><ele>1075.0</ele></trkpt>
    <trkpt lat="32.70439" lon="-116.58349"><ele>1077.0</ele></trkpt>
    <trkpt lat="32.70442" lon="-116.58349"><ele>1077.0</ele></trkpt>
    <trkpt lat="32.70447" lon="-116.58340"><ele>1077.0</ele></trkpt>
    <trkpt lat="32.70446" lon="-116.58333"><ele>1079.0</ele></trkpt>
    <trkpt lat="32.70450" lon="-116.58329"><ele>1079.0</ele></trkpt>
    <trkpt lat="32.70451" lon="-116.58328"><ele>1079.0</ele></trkpt>
    <trkpt lat="32.70449" lon="-116.58327"><ele>1079.0</ele></trkpt>
    <trkpt lat="32.70446" lon="-116.58318"><ele>1079.0</ele></trkpt>
    <trkpt lat="32.70446" lon="-116.58317"><ele>1079.0</ele></trkpt>
    <trkpt lat="32.70448" lon="-116.58309"><ele>1079.0</ele></trkpt>
    <trkpt lat="32.70435" lon="-116.58292"><ele>1080.0</ele></trkpt>
    <trkpt lat="32.70426" lon="-116.58283"><ele>1080.0</ele></trkpt>
    <trkpt lat="32.70424" lon="-116.58282"><ele>1080.0</ele></trkpt>
    <trkpt lat="32.70424" lon="-116.58281"><ele>1080.0</ele></trkpt>
    <trkpt lat="32.70419" lon="-116.58281"><ele>1080.0</ele></trkpt>
    <trkpt lat="32.70420" lon="-116.58295"><ele>1080.0</ele></trkpt>
    <trkpt lat="32.70418" lon="-116.58299"><ele>1076.0</ele></trkpt>
    <trkpt lat="32.70401" lon="-116.58304"><ele>1076.0</ele></trkpt>
    <trkpt lat="32.70397" lon="-116.58313"><ele>1076.0</ele></trkpt>
    <trkpt lat="32.70392" lon="-116.58308"><ele>1074.0</ele></trkpt>
    <trkpt lat="32.70389" lon="-116.58311"><ele>1074.0</ele></trkpt>
    <trkpt lat="32.70392" lon="-116.58339"><ele>1074.0</ele></trkpt>
    <trkpt lat="32.70390" lon="-116.58343"><ele>1071.0</ele></trkpt>
    <trkpt lat="32.70374" lon="-116.58333"><ele>1071.0</ele></trkpt>
    <trkpt lat="32.70366" lon="-116.58334"><ele>1071.0</ele></trkpt>
    <trkpt lat="32.70358" lon="-116.58328"><ele>1070.0</ele></trkpt>
    <trkpt lat="32.70354" lon="-116.58316"><ele>1070.0</ele></trkpt>
    <trkpt lat="32.70353" lon="-116.58304"><ele>1070.0</ele></trkpt>
    <trkpt lat="32.70354" lon="-116.58294"><ele>1070.0</ele></trkpt>
    <trkpt lat="32.70355" lon="-116.58291"><ele>1072.0</ele></trkpt>
    <trkpt lat="32.70360" lon="-116.58283"><ele>1072.0</ele></trkpt>
    <trkpt lat="32.70372" lon="-116.58274"><ele>1072.0</ele></trkpt>
    <trkpt lat="32.70374" lon="-116.58262"><ele>1076.0</ele></trkpt>
    <trkpt lat="32.70380" lon="-116.58258"><ele>1076.0</ele></trkpt>
    <trkpt lat="32.70377" lon="-116.58249"><ele>1076.0</ele></trkpt>
    <trkpt lat="32.70379" lon="-116.58236"><ele>1077.0</ele></trkpt>
    <trkpt lat="32.70385" lon="-116.58235"><ele>1077.0</ele></trkpt>
    <trkpt lat="32.70389" lon="-116.58230"><ele>1077.0</ele></trkpt>
    <trkpt lat="32.70390" lon="-116.58229"><ele>1078.0</ele></trkpt>
    <trkpt lat="32.70401" lon="-116.58208"><ele>1078.0</ele></trkpt>
    <trkpt lat="32.70410" lon="-116.58195"><ele>1078.0</ele></trkpt>
    <trkpt lat="32.70415" lon="-116.58179"><ele>1080.0</ele></trkpt>
    <trkpt lat="32.70413" lon="-116.58164"><ele>1080.0</ele></trkpt>
    <trkpt lat="32.70406" lon="-116.58143"><ele>1080.0</ele></trkpt>
    <trkpt lat="32.70400" lon="-116.58142"><ele>1079.0</ele></trkpt>
    <trkpt lat="32.70392" lon="-116.58141"><ele>1079.0</ele></trkpt>
    <trkpt lat="32.70389" lon="-116.58132"><ele>1079.0</ele></trkpt>
    <trkpt lat="32.70379" lon="-116.58126"><ele>1079.0</ele></trkpt>
    <trkpt lat="32.70374" lon="-116.58119"><ele>1079.0</ele></trkpt>
    <trkpt lat="32.70370" lon="-116.58108"><ele>1079.0</ele></trkpt>
    <trkpt lat="32.70362" lon="-116.58098"><ele>1079.0</ele></trkpt>
    <trkpt lat="32.70355" lon="-116.58092"><ele>1080.0</ele></trkpt>
    <trkpt lat="32.70355" lon="-116.58083"><ele>1080.0</ele></trkpt>
    <trkpt lat="32.70348" lon="-116.58065"><ele>1080.0</ele></trkpt>
    <trkpt lat="32.70352" lon="-116.58062"><ele>1084.0</ele></trkpt>
    <trkpt lat="32.70364" lon="-116.58062"><ele>1084.0</ele></trkpt>
    <trkpt lat="32.70373" lon="-116.58056"><ele>1084.0</ele></trkpt>
    <trkpt lat="32.70374" lon="-116.58053"><ele>1086.0</ele></trkpt>
    <trkpt lat="32.70375" lon="-116.58048"><ele>1086.0</ele></trkpt>
    <trkpt lat="32.70366" lon="-116.58038"><ele>1086.0</ele></trkpt>
    <trkpt lat="32.70369" lon="-116.58031"><ele>1091.0</ele></trkpt>
    <trkpt lat="32.70367" lon="-116.58010"><ele>1091.0</ele></trkpt>
    <trkpt lat="32.70361" lon="-116.58006"><ele>1091.0</ele></trkpt>
    <trkpt lat="32.70355" lon="-116.58005"><ele>1091.0</ele></trkpt>
    <trkpt lat="32.70354" lon="-116.58001"><ele>1091.0</ele></trkpt>
    <trkpt lat="32.70354" lon="-116.58001"><ele>1091.0</ele></trkpt>
    <trkpt lat="32.70355" lon="-116.57997"><ele>1092.0</ele></trkpt>
    <trkpt lat="32.70356" lon="-116.57996"><ele>1092.0</ele></trkpt>
    <trkpt lat="32.70347" lon="-116.57991"><ele>1092.0</ele></trkpt>
    <trkpt lat="32.70344" lon="-116.57986"><ele>1092.0</ele></trkpt>
    <trkpt lat="32.70335" lon="-116.57981"><ele>1093.0</ele></trkpt>
    <trkpt lat="32.70332" lon="-116.57977"><ele>1093.0</ele></trkpt>
    <trkpt lat="32.70322" lon="-116.57974"><ele>1093.0</ele></trkpt>
    <trkpt lat="32.70312" lon="-116.57962"><ele>1093.0</ele></trkpt>
    <trkpt lat="32.70302" lon="-116.57956"><ele>1093.0</ele></trkpt>
    <trkpt lat="32.70296" lon="-116.57950"><ele>1093.0</ele></trkpt>
    <trkpt lat="32.70284" lon="-116.57932"><ele>1095.0</ele></trkpt>
    <trkpt lat="32.70282" lon="-116.57919"><ele>1095.0</ele></trkpt>
    <trkpt lat="32.70284" lon="-116.57915"><ele>1095.0</ele></trkpt>
    <trkpt lat="32.70271" lon="-116.57898"><ele>1094.0</ele></trkpt>
    <trkpt lat="32.70251" lon="-116.57882"><ele>1094.0</ele></trkpt>
    <trkpt lat="32.70238" lon="-116.57862"><ele>1094.0</ele></trkpt>
    <trkpt lat="32.70221" lon="-116.57848"><ele>1093.0</ele></trkpt>
    <trkpt lat="32.70214" lon="-116.57837"><ele>1093.0</ele></trkpt>
    <trkpt lat="32.70227" lon="-116.57819"><ele>1093.0</ele></trkpt>
    <trkpt lat="32.70238" lon="-116.57818"><ele>1095.0</ele></trkpt>
    <trkpt lat="32.70238" lon="-116.57817"><ele>1095.0</ele></trkpt>
    <trkpt lat="32.70239" lon="-116.57817"><ele>1095.0</ele></trkpt>
    <trkpt lat="32.70259" lon="-116.57817"><ele>1095.0</ele></trkpt>
    <trkpt lat="32.70262" lon="-116.57807"><ele>1098.0</ele></trkpt>
    <trkpt lat="32.70263" lon="-116.57806"><ele>1098.0</ele></trkpt>
    <trkpt lat="32.70267" lon="-116.57800"><ele>1098.0</ele></trkpt>
    <trkpt lat="32.70270" lon="-116.57785"><ele>1099.0</ele></trkpt>
    <trkpt lat="32.70277" lon="-116.57773"><ele>1099.0</ele></trkpt>
    <trkpt lat="32.70285" lon="-116.57767"><ele>1099.0</ele></trkpt>
    <trkpt lat="32.70289" lon="-116.57756"><ele>1101.0</ele></trkpt>
    <trkpt lat="32.70288" lon="-116.57746"><ele>1101.0</ele></trkpt>
    <trkpt lat="32.70292" lon="-116.57737"><ele>1101.0</ele></trkpt>
    <trkpt lat="32.70288" lon="-116.57734"><ele>1098.0</ele></trkpt>
    <trkpt lat="32.70282" lon="-116.57719"><ele>1098.0</ele></trkpt>
    <trkpt lat="32.70280" lon="-116.57692"><ele>1098.0</ele></trkpt>
    <trkpt lat="32.70280" lon="-116.57681"><ele>1095.0</ele></trkpt>
    <trkpt lat="32.70283" lon="-116.57674"><ele>1095.0</ele></trkpt>
    <trkpt lat="32.70285" lon="-116.57672"><ele>1095.0</ele></trkpt>
    <trkpt lat="32.70332" lon="-116.57677"><ele>1101.0</ele></trkpt>
    <trkpt lat="32.70332" lon="-116.57675"><ele>1101.0</ele></trkpt>
    <trkpt lat="32.70339" lon="-116.57664"><ele>1101.0</ele></trkpt>
    <trkpt lat="32.70337" lon="-116.57656"><ele>1101.0</ele></trkpt>
    <trkpt lat="32.70341" lon="-116.57649"><ele>1101.0</ele></trkpt>
    <trkpt lat="32.70346" lon="-116.57652"><ele>1101.0</ele></trkpt>
    <trkpt lat="32.70345" lon="-116.57649"><ele>1101.0</ele></trkpt>
    <trkpt lat="32.70336" lon="-116.57632"><ele>1100.0</ele></trkpt>
    <trkpt lat="32.70329" lon="-116.57612"><ele>1100.0</ele></trkpt>
    <trkpt lat="32.70330" lon="-116.57598"><ele>1100.0</ele></trkpt>
    <trkpt lat="32.70326" lon="-116.57584"><ele>1099.0</ele></trkpt>
    <trkpt lat="32.70324" lon="-116.57577"><ele>1099.0</ele></trkpt>
    <trkpt lat="32.70327" lon="-116.57563"><ele>1099.0</ele></trkpt>
    <trkpt lat="32.70332" lon="-116.57554"><ele>1100.0</ele></trkpt>
    <trkpt lat="32.70335" lon="-116.57537"><ele>1100.0</ele></trkpt>
    <trkpt lat="32.70345" lon="-116.57528"><ele>1100.0</ele></trkpt>
    <trkpt lat="32.70349" lon="-116.57509"><ele>1102.0</ele></trkpt>
    <trkpt lat="32.70354" lon="-116.57504"><ele>1102.0</ele></trkpt>
    <trkpt lat="32.70352" lon="-116.57499"><ele>1102.0</ele></trkpt>
    <trkpt lat="32.70357" lon="-116.57494"><ele>1102.0</ele></trkpt>
    <trkpt lat="32.70362" lon="-116.57488"><ele>1102.0</ele></trkpt>
    <trkpt lat="32.70376" lon="-116.57477"><ele>1102.0</ele></trkpt>
    <trkpt lat="32.70382" lon="-116.57467"><ele>1105.0</ele></trkpt>
    <trkpt lat="32.70384" lon="-116.57456"><ele>1105.0</ele></trkpt>
    <trkpt lat="32.70381" lon="-116.57448"><ele>1105.0</ele></trkpt>
    <trkpt lat="32.70359" lon="-116.57435"><ele>1105.0</ele></trkpt>
    <trkpt lat="32.70358" lon="-116.57425"><ele>1100.0</ele></trkpt>
    <trkpt lat="32.70345" lon="-116.57419"><ele>1100.0</ele></trkpt>
    <trkpt lat="32.70339" lon="-116.57413"><ele>1100.0</ele></trkpt>
    <trkpt lat="32.70330" lon="-116.57410"><ele>1098.0</ele></trkpt>
    <trkpt lat="32.70321" lon="-116.57399"><ele>1098.0</ele></trkpt>
    <trkpt lat="32.70308" lon="-116.57393"><ele>1098.0</ele></trkpt>
    <trkpt lat="32.70298" lon="-116.57399"><ele>1094.0</ele></trkpt>
    <trkpt lat="32.70296" lon="-116.57394"><ele>1094.0</ele></trkpt>
    <trkpt lat="32.70287" lon="-116.57388"><ele>1094.0</ele></trkpt>
    <trkpt lat="32.70284" lon="-116.57373"><ele>1093.0</ele></trkpt>
    <trkpt lat="32.70284" lon="-116.57371"><ele>1093.0</ele></trkpt>
    <trkpt lat="32.70280" lon="-116.57361"><ele>1093.0</ele></trkpt>
    <trkpt lat="32.70261" lon="-116.57332"><ele>1093.0</ele></trkpt>
    <trkpt lat="32.70262" lon="-116.57320"><ele>1093.0</ele></trkpt>
    <trkpt lat="32.70265" lon="-116.57312"><ele>1093.0</ele></trkpt>
    <trkpt lat="32.70266" lon="-116.57309"><ele>1095.0</ele></trkpt>
    <trkpt lat="32.70274" lon="-116.57310"><ele>1095.0</ele></trkpt>
    <trkpt lat="32.70286" lon="-116.57302"><ele>1095.0</ele></trkpt>
    <trkpt lat="32.70318" lon="-116.57291"><ele>1095.0</ele></trkpt>
    <trkpt lat="32.70317" lon="-116.57280"><ele>1102.0</ele></trkpt>
    <trkpt lat="32.70309" lon="-116.57257"><ele>1102.0</ele></trkpt>
    <trkpt lat="32.70307" lon="-116.57227"><ele>1102.0</ele></trkpt>
    <trkpt lat="32.70315" lon="-116.57221"><ele>1104.0</ele></trkpt>
    <trkpt lat="32.70317" lon="-116.57221"><ele>1104.0</ele></trkpt>
    <trkpt lat="32.70319" lon="-116.57217"><ele>1104.0</ele></trkpt>
    <trkpt lat="32.70321" lon="-116.57210"><ele>1106.0</ele></trkpt>
    <trkpt lat="32.70327" lon="-116.57204"><ele>1106.0</ele></trkpt>
    <trkpt lat="32.70329" lon="-116.57194"><ele>1106.0</ele></trkpt>
    <trkpt lat="32.70322" lon="-116.57189"><ele>1109.0</ele></trkpt>
    <trkpt lat="32.70344" lon="-116.57131"><ele>1109.0</ele></trkpt>
  </trkseg></trk>
</gpx>
