<?xml version="1.0" encoding="UTF-8"?>
<gpx version="1.1" creator="dirt-bikes build-area-routes (MVUM geometry + SRTM elevation)" xmlns="http://www.topografix.com/GPX/1/1">
  <trk><name>Pine Creek Road</name><trkseg>
    <trkpt lat="32.85064" lon="-116.52502"><ele>1130.0</ele></trkpt>
    <trkpt lat="32.85092" lon="-116.52505"><ele>1130.0</ele></trkpt>
    <trkpt lat="32.85171" lon="-116.52502"><ele>1132.0</ele></trkpt>
    <trkpt lat="32.85205" lon="-116.52482"><ele>1132.0</ele></trkpt>
    <trkpt lat="32.85230" lon="-116.52470"><ele>1132.0</ele></trkpt>
    <trkpt lat="32.85232" lon="-116.52456"><ele>1128.0</ele></trkpt>
    <trkpt lat="32.85236" lon="-116.52423"><ele>1128.0</ele></trkpt>
    <trkpt lat="32.85282" lon="-116.52369"><ele>1128.0</ele></trkpt>
    <trkpt lat="32.85301" lon="-116.52347"><ele>1128.0</ele></trkpt>
    <trkpt lat="32.85308" lon="-116.52339"><ele>1128.0</ele></trkpt>
    <trkpt lat="32.85329" lon="-116.52330"><ele>1128.0</ele></trkpt>
    <trkpt lat="32.85350" lon="-116.52321"><ele>1131.0</ele></trkpt>
    <trkpt lat="32.85369" lon="-116.52313"><ele>1131.0</ele></trkpt>
    <trkpt lat="32.85383" lon="-116.52307"><ele>1131.0</ele></trkpt>
    <trkpt lat="32.85425" lon="-116.52289"><ele>1133.0</ele></trkpt>
    <trkpt lat="32.85436" lon="-116.52284"><ele>1133.0</ele></trkpt>
    <trkpt lat="32.85475" lon="-116.52287"><ele>1134.0</ele></trkpt>
    <trkpt lat="32.85487" lon="-116.52288"><ele>1134.0</ele></trkpt>
    <trkpt lat="32.85493" lon="-116.52288"><ele>1134.0</ele></trkpt>
    <trkpt lat="32.85535" lon="-116.52286"><ele>1134.0</ele></trkpt>
    <trkpt lat="32.85542" lon="-116.52270"><ele>1134.0</ele></trkpt>
    <trkpt lat="32.85544" lon="-116.52265"><ele>1134.0</ele></trkpt>
    <trkpt lat="32.85553" lon="-116.52202"><ele>1137.0</ele></trkpt>
    <trkpt lat="32.85587" lon="-116.52178"><ele>1137.0</ele></trkpt>
    <trkpt lat="32.85587" lon="-116.52178"><ele>1137.0</ele></trkpt>
    <trkpt lat="32.85613" lon="-116.52160"><ele>1140.0</ele></trkpt>
    <trkpt lat="32.85658" lon="-116.52134"><ele>1140.0</ele></trkpt>
    <trkpt lat="32.85684" lon="-116.52119"><ele>1140.0</ele></trkpt>
    <trkpt lat="32.85709" lon="-116.52105"><ele>1144.0</ele></trkpt>
    <trkpt lat="32.85734" lon="-116.52090"><ele>1144.0</ele></trkpt>
    <trkpt lat="32.85741" lon="-116.52086"><ele>1144.0</ele></trkpt>
    <trkpt lat="32.85748" lon="-116.52082"><ele>1143.0</ele></trkpt>
    <trkpt lat="32.85775" lon="-116.52066"><ele>1143.0</ele></trkpt>
    <trkpt lat="32.85878" lon="-116.51942"><ele>1143.0</ele></trkpt>
    <trkpt lat="32.85941" lon="-116.51910"><ele>1142.0</ele></trkpt>
    <trkpt lat="32.85958" lon="-116.51907"><ele>1142.0</ele></trkpt>
    <trkpt lat="32.86023" lon="-116.51915"><ele>1142.0</ele></trkpt>
    <trkpt lat="32.86061" lon="-116.51880"><ele>1146.0</ele></trkpt>
    <trkpt lat="32.86066" lon="-116.51880"><ele>1146.0</ele></trkpt>
    <trkpt lat="32.86073" lon="-116.51879"><ele>1148.0</ele></trkpt>
    <trkpt lat="32.86126" lon="-116.51897"><ele>1148.0</ele></trkpt>
    <trkpt lat="32.86188" lon="-116.51916"><ele>1148.0</ele></trkpt>
    <trkpt lat="32.86268" lon="-116.51905"><ele>1146.0</ele></trkpt>
    <trkpt lat="32.86322" lon="-116.51953"><ele>1146.0</ele></trkpt>
    <trkpt lat="32.86353" lon="-116.51955"><ele>1146.0</ele></trkpt>
    <trkpt lat="32.86403" lon="-116.51879"><ele>1152.0</ele></trkpt>
    <trkpt lat="32.86463" lon="-116.51827"><ele>1152.0</ele></trkpt>
    <trkpt lat="32.86500" lon="-116.51801"><ele>1152.0</ele></trkpt>
    <trkpt lat="32.86534" lon="-116.51793"><ele>1156.0</ele></trkpt>
    <trkpt lat="32.86545" lon="-116.51790"><ele>1156.0</ele></trkpt>
    <trkpt lat="32.86565" lon="-116.51756"><ele>1156.0</ele></trkpt>
    <trkpt lat="32.86666" lon="-116.51681"><ele>1166.0</ele></trkpt>
    <trkpt lat="32.86712" lon="-116.51642"><ele>1166.0</ele></trkpt>
    <trkpt lat="32.86720" lon="-116.51632"><ele>1166.0</ele></trkpt>
    <trkpt lat="32.86725" lon="-116.51625"><ele>1169.0</ele></trkpt>
    <trkpt lat="32.86735" lon="-116.51588"><ele>1169.0</ele></trkpt>
    <trkpt lat="32.86721" lon="-116.51506"><ele>1169.0</ele></trkpt>
    <trkpt lat="32.86720" lon="-116.51501"><ele>1174.0</ele></trkpt>
    <trkpt lat="32.86747" lon="-116.51471"><ele>1174.0</ele></trkpt>
    <trkpt lat="32.86775" lon="-116.51417"><ele>1174.0</ele></trkpt>
    <trkpt lat="32.86815" lon="-116.51304"><ele>1194.0</ele></trkpt>
    <trkpt lat="32.86844" lon="-116.51285"><ele>1194.0</ele></trkpt>
    <trkpt lat="32.86937" lon="-116.51279"><ele>1220.0</ele></trkpt>
    <trkpt lat="32.86955" lon="-116.51260"><ele>1220.0</ele></trkpt>
    <trkpt lat="32.86968" lon="-116.51178"><ele>1220.0</ele></trkpt>
    <trkpt lat="32.86985" lon="-116.51136"><ele>1230.0</ele></trkpt>
    <trkpt lat="32.87000" lon="-116.51081"><ele>1230.0</ele></trkpt>
    <trkpt lat="32.87076" lon="-116.51030"><ele>1230.0</ele></trkpt>
    <trkpt lat="32.87103" lon="-116.51022"><ele>1227.0</ele></trkpt>
    <trkpt lat="32.87107" lon="-116.50976"><ele>1227.0</ele></trkpt>
    <trkpt lat="32.87207" lon="-116.50907"><ele>1227.0</ele></trkpt>
    <trkpt lat="32.87279" lon="-116.50833"><ele>1239.0</ele></trkpt>
    <trkpt lat="32.87297" lon="-116.50802"><ele>1239.0</ele></trkpt>
    <trkpt lat="32.87402" lon="-116.50710"><ele>1239.0</ele></trkpt>
    <trkpt lat="32.87441" lon="-116.50686"><ele>1254.0</ele></trkpt>
    <trkpt lat="32.87501" lon="-116.50630"><ele>1254.0</ele></trkpt>
    <trkpt lat="32.87604" lon="-116.50590"><ele>1254.0</ele></trkpt>
    <trkpt lat="32.87701" lon="-116.50526"><ele>1270.0</ele></trkpt>
    <trkpt lat="32.87711" lon="-116.50520"><ele>1270.0</ele></trkpt>
    <trkpt lat="32.87817" lon="-116.50485"><ele>1270.0</ele></trkpt>
    <trkpt lat="32.87851" lon="-116.50486"><ele>1279.0</ele></trkpt>
    <trkpt lat="32.87869" lon="-116.50469"><ele>1279.0</ele></trkpt>
    <trkpt lat="32.87907" lon="-116.50471"><ele>1279.0</ele></trkpt>
    <trkpt lat="32.87937" lon="-116.50457"><ele>1285.0</ele></trkpt>
    <trkpt lat="32.87981" lon="-116.50444"><ele>1285.0</ele></trkpt>
    <trkpt lat="32.88034" lon="-116.50439"><ele>1296.0</ele></trkpt>
    <trkpt lat="32.88089" lon="-116.50396"><ele>1296.0</ele></trkpt>
    <trkpt lat="32.88123" lon="-116.50344"><ele>1296.0</ele></trkpt>
    <trkpt lat="32.88183" lon="-116.50328"><ele>1308.0</ele></trkpt>
    <trkpt lat="32.88201" lon="-116.50323"><ele>1308.0</ele></trkpt>
    <trkpt lat="32.88324" lon="-116.50295"><ele>1308.0</ele></trkpt>
    <trkpt lat="32.88393" lon="-116.50284"><ele>1331.0</ele></trkpt>
    <trkpt lat="32.88432" lon="-116.50287"><ele>1331.0</ele></trkpt>
    <trkpt lat="32.88451" lon="-116.50272"><ele>1331.0</ele></trkpt>
    <trkpt lat="32.88471" lon="-116.50256"><ele>1335.0</ele></trkpt>
    <trkpt lat="32.88500" lon="-116.50244"><ele>1335.0</ele></trkpt>
    <trkpt lat="32.88529" lon="-116.50254"><ele>1335.0</ele></trkpt>
    <trkpt lat="32.88547" lon="-116.50268"><ele>1347.0</ele></trkpt>
    <trkpt lat="32.88591" lon="-116.50268"><ele>1347.0</ele></trkpt>
    <trkpt lat="32.88619" lon="-116.50279"><ele>1347.0</ele></trkpt>
    <trkpt lat="32.88661" lon="-116.50270"><ele>1359.0</ele></trkpt>
    <trkpt lat="32.88684" lon="-116.50280"><ele>1359.0</ele></trkpt>
    <trkpt lat="32.88685" lon="-116.50302"><ele>1359.0</ele></trkpt>
    <trkpt lat="32.88708" lon="-116.50302"><ele>1366.0</ele></trkpt>
    <trkpt lat="32.88738" lon="-116.50299"><ele>1366.0</ele></trkpt>
    <trkpt lat="32.88778" lon="-116.50373"><ele>1366.0</ele></trkpt>
    <trkpt lat="32.88803" lon="-116.50374"><ele>1374.0</ele></trkpt>
    <trkpt lat="32.88848" lon="-116.50411"><ele>1374.0</ele></trkpt>
    <trkpt lat="32.88874" lon="-116.50406"><ele>1387.0</ele></trkpt>
    <trkpt lat="32.88885" lon="-116.50385"><ele>1387.0</ele></trkpt>
    <trkpt lat="32.88899" lon="-116.50385"><ele>1387.0</ele></trkpt>
    <trkpt lat="32.88906" lon="-116.50400"><ele>1389.0</ele></trkpt>
    <trkpt lat="32.88911" lon="-116.50422"><ele>1389.0</ele></trkpt>
    <trkpt lat="32.88921" lon="-116.50430"><ele>1389.0</ele></trkpt>
    <trkpt lat="32.88938" lon="-116.50426"><ele>1402.0</ele></trkpt>
    <trkpt lat="32.88975" lon="-116.50389"><ele>1402.0</ele></trkpt>
    <trkpt lat="32.89090" lon="-116.50363"><ele>1402.0</ele></trkpt>
    <trkpt lat="32.89112" lon="-116.50355"><ele>1430.0</ele></trkpt>
    <trkpt lat="32.89123" lon="-116.50376"><ele>1430.0</ele></trkpt>
    <trkpt lat="32.89151" lon="-116.50407"><ele>1430.0</ele></trkpt>
    <trkpt lat="32.89185" lon="-116.50427"><ele>1446.0</ele></trkpt>
    <trkpt lat="32.89227" lon="-116.50431"><ele>1446.0</ele></trkpt>
    <trkpt lat="32.89288" lon="-116.50454"><ele>1446.0</ele></trkpt>
    <trkpt lat="32.89330" lon="-116.50479"><ele>1459.0</ele></trkpt>
    <trkpt lat="32.89350" lon="-116.50497"><ele>1459.0</ele></trkpt>
    <trkpt lat="32.89388" lon="-116.50502"><ele>1459.0</ele></trkpt>
    <trkpt lat="32.89395" lon="-116.50499"><ele>1465.0</ele></trkpt>
    <trkpt lat="32.89419" lon="-116.50489"><ele>1465.0</ele></trkpt>
    <trkpt lat="32.89430" lon="-116.50468"><ele>1465.0</ele></trkpt>
    <trkpt lat="32.89457" lon="-116.50383"><ele>1477.0</ele></trkpt>
    <trkpt lat="32.89457" lon="-116.50343"><ele>1477.0</ele></trkpt>
    <trkpt lat="32.89484" lon="-116.50328"><ele>1495.0</ele></trkpt>
    <trkpt lat="32.89483" lon="-116.50315"><ele>1495.0</ele></trkpt>
    <trkpt lat="32.89448" lon="-116.50295"><ele>1495.0</ele></trkpt>
    <trkpt lat="32.89418" lon="-116.50272"><ele>1506.0</ele></trkpt>
    <trkpt lat="32.89328" lon="-116.50253"><ele>1506.0</ele></trkpt>
    <trkpt lat="32.89305" lon="-116.50238"><ele>1506.0</ele></trkpt>
    <trkpt lat="32.89294" lon="-116.50216"><ele>1524.0</ele></trkpt>
    <trkpt lat="32.89280" lon="-116.50163"><ele>1524.0</ele></trkpt>
    <trkpt lat="32.89256" lon="-116.50133"><ele>1524.0</ele></trkpt>
    <trkpt lat="32.89221" lon="-116.50119"><ele>1517.0</ele></trkpt>
    <trkpt lat="32.89204" lon="-116.50104"><ele>1517.0</ele></trkpt>
    <trkpt lat="32.89202" lon="-116.50079"><ele>1517.0</ele></trkpt>
    <trkpt lat="32.89389" lon="-116.49928"><ele>1557.0</ele></trkpt>
    <trkpt lat="32.89410" lon="-116.49895"><ele>1557.0</ele></trkpt>
    <trkpt lat="32.89405" lon="-116.49867"><ele>1557.0</ele></trkpt>
    <trkpt lat="32.89393" lon="-116.49827"><ele>1545.0</ele></trkpt>
    <trkpt lat="32.89415" lon="-116.49734"><ele>1545.0</ele></trkpt>
    <trkpt lat="32.89403" lon="-116.49689"><ele>1545.0</ele></trkpt>
    <trkpt lat="32.89337" lon="-116.49633"><ele>1536.0</ele></trkpt>
    <trkpt lat="32.89275" lon="-116.49639"><ele>1536.0</ele></trkpt>
    <trkpt lat="32.89253" lon="-116.49627"><ele>1536.0</ele></trkpt>
    <trkpt lat="32.89180" lon="-116.49571"><ele>1559.0</ele></trkpt>
    <trkpt lat="32.89132" lon="-116.49517"><ele>1559.0</ele></trkpt>
    <trkpt lat="32.89129" lon="-116.49514"><ele>1576.0</ele></trkpt>
    <trkpt lat="32.89145" lon="-116.49496"><ele>1576.0</ele></trkpt>
    <trkpt lat="32.89185" lon="-116.49481"><ele>1576.0</ele></trkpt>
    <trkpt lat="32.89204" lon="-116.49455"><ele>1581.0</ele></trkpt>
    <trkpt lat="32.89206" lon="-116.49453"><ele>1581.0</ele></trkpt>
    <trkpt lat="32.89228" lon="-116.49388"><ele>1581.0</ele></trkpt>
    <trkpt lat="32.89219" lon="-116.49351"><ele>1606.0</ele></trkpt>
    <trkpt lat="32.89265" lon="-116.49248"><ele>1606.0</ele></trkpt>
    <trkpt lat="32.89265" lon="-116.49227"><ele>1606.0</ele></trkpt>
    <trkpt lat="32.89233" lon="-116.49198"><ele>1620.0</ele></trkpt>
    <trkpt lat="32.89220" lon="-116.49137"><ele>1620.0</ele></trkpt>
    <trkpt lat="32.89233" lon="-116.49125"><ele>1620.0</ele></trkpt>
    <trkpt lat="32.89251" lon="-116.49130"><ele>1617.0</ele></trkpt>
    <trkpt lat="32.89278" lon="-116.49141"><ele>1617.0</ele></trkpt>
    <trkpt lat="32.89306" lon="-116.49137"><ele>1617.0</ele></trkpt>
    <trkpt lat="32.89331" lon="-116.49114"><ele>1623.0</ele></trkpt>
    <trkpt lat="32.89338" lon="-116.49083"><ele>1623.0</ele></trkpt>
    <trkpt lat="32.89342" lon="-116.48977"><ele>1623.0</ele></trkpt>
    <trkpt lat="32.89356" lon="-116.48946"><ele>1612.0</ele></trkpt>
    <trkpt lat="32.89440" lon="-116.48925"><ele>1612.0</ele></trkpt>
    <trkpt lat="32.89459" lon="-116.48924"><ele>1612.0</ele></trkpt>
    <trkpt lat="32.89506" lon="-116.48765"><ele>1598.0</ele></trkpt>
    <trkpt lat="32.89502" lon="-116.48735"><ele>1598.0</ele></trkpt>
    <trkpt lat="32.89525" lon="-116.48705"><ele>1602.0</ele></trkpt>
    <trkpt lat="32.89559" lon="-116.48623"><ele>1602.0</ele></trkpt>
    <trkpt lat="32.89589" lon="-116.48595"><ele>1602.0</ele></trkpt>
    <trkpt lat="32.89651" lon="-116.48587"><ele>1600.0</ele></trkpt>
    <trkpt lat="32.89696" lon="-116.48567"><ele>1600.0</ele></trkpt>
    <trkpt lat="32.89701" lon="-116.48539"><ele>1600.0</ele></trkpt>
    <trkpt lat="32.89664" lon="-116.48459"><ele>1590.0</ele></trkpt>
    <trkpt lat="32.89647" lon="-116.48410"><ele>1590.0</ele></trkpt>
    <trkpt lat="32.89615" lon="-116.48370"><ele>1590.0</ele></trkpt>
    <trkpt lat="32.89612" lon="-116.48315"><ele>1596.0</ele></trkpt>
    <trkpt lat="32.89622" lon="-116.48254"><ele>1596.0</ele></trkpt>
    <trkpt lat="32.89653" lon="-116.48188"><ele>1596.0</ele></trkpt>
    <trkpt lat="32.89663" lon="-116.48119"><ele>1573.0</ele></trkpt>
    <trkpt lat="32.89672" lon="-116.48112"><ele>1573.0</ele></trkpt>
    <trkpt lat="32.89685" lon="-116.48102"><ele>1573.0</ele></trkpt>
    <trkpt lat="32.89745" lon="-116.48070"><ele>1570.0</ele></trkpt>
    <trkpt lat="32.89801" lon="-116.48053"><ele>1570.0</ele></trkpt>
    <trkpt lat="32.89847" lon="-116.48035"><ele>1570.0</ele></trkpt>
    <trkpt lat="32.89867" lon="-116.48020"><ele>1568.0</ele></trkpt>
    <trkpt lat="32.89875" lon="-116.48014"><ele>1568.0</ele></trkpt>
    <trkpt lat="32.89930" lon="-116.48011"><ele>1568.0</ele></trkpt>
    <trkpt lat="32.89956" lon="-116.47983"><ele>1574.0</ele></trkpt>
    <trkpt lat="32.90024" lon="-116.47925"><ele>1574.0</ele></trkpt>
    <trkpt lat="32.90043" lon="-116.47880"><ele>1596.0</ele></trkpt>
    <trkpt lat="32.90070" lon="-116.47803"><ele>1596.0</ele></trkpt>
    <trkpt lat="32.90109" lon="-116.47790"><ele>1596.0</ele></trkpt>
    <trkpt lat="32.90165" lon="-116.47689"><ele>1623.0</ele></trkpt>
    <trkpt lat="32.90290" lon="-116.47601"><ele>1623.0</ele></trkpt>
    <trkpt lat="32.90328" lon="-116.47602"><ele>1623.0</ele></trkpt>
    <trkpt lat="32.90397" lon="-116.47615"><ele>1635.0</ele></trkpt>
    <trkpt lat="32.90419" lon="-116.47633"><ele>1635.0</ele></trkpt>
    <trkpt lat="32.90445" lon="-116.47654"><ele>1635.0</ele></trkpt>
    <trkpt lat="32.90448" lon="-116.47653"><ele>1634.0</ele></trkpt>
    <trkpt lat="32.90463" lon="-116.47649"><ele>1634.0</ele></trkpt>
    <trkpt lat="32.90481" lon="-116.47603"><ele>1634.0</ele></trkpt>
    <trkpt lat="32.90512" lon="-116.47503"><ele>1643.0</ele></trkpt>
    <trkpt lat="32.90477" lon="-116.47429"><ele>1643.0</ele></trkpt>
    <trkpt lat="32.90463" lon="-116.47400"><ele>1643.0</ele></trkpt>
    <trkpt lat="32.90458" lon="-116.47349"><ele>1648.0</ele></trkpt>
    <trkpt lat="32.90462" lon="-116.47350"><ele>1648.0</ele></trkpt>
    <trkpt lat="32.90479" lon="-116.47351"><ele>1648.0</ele></trkpt>
    <trkpt lat="32.90488" lon="-116.47353"><ele>1640.0</ele></trkpt>
    <trkpt lat="32.90564" lon="-116.47373"><ele>1640.0</ele></trkpt>
    <trkpt lat="32.90589" lon="-116.47359"><ele>1640.0</ele></trkpt>
    <trkpt lat="32.90600" lon="-116.47341"><ele>1642.0</ele></trkpt>
    <trkpt lat="32.90665" lon="-116.47318"><ele>1642.0</ele></trkpt>
    <trkpt lat="32.90683" lon="-116.47297"><ele>1638.0</ele></trkpt>
    <trkpt lat="32.90715" lon="-116.47288"><ele>1638.0</ele></trkpt>
    <trkpt lat="32.90750" lon="-116.47246"><ele>1638.0</ele></trkpt>
    <trkpt lat="32.90776" lon="-116.47216"><ele>1638.0</ele></trkpt>
    <trkpt lat="32.90784" lon="-116.47181"><ele>1638.0</ele></trkpt>
    <trkpt lat="32.90787" lon="-116.47145"><ele>1638.0</ele></trkpt>
    <trkpt lat="32.90766" lon="-116.47100"><ele>1643.0</ele></trkpt>
    <trkpt lat="32.90766" lon="-116.47100"><ele>1643.0</ele></trkpt>
    <trkpt lat="32.90763" lon="-116.47093"><ele>1643.0</ele></trkpt>
    <trkpt lat="32.90768" lon="-116.47026"><ele>1641.0</ele></trkpt>
    <trkpt lat="32.90768" lon="-116.47018"><ele>1641.0</ele></trkpt>
    <trkpt lat="32.90766" lon="-116.46972"><ele>1641.0</ele></trkpt>
    <trkpt lat="32.90741" lon="-116.46844"><ele>1642.0</ele></trkpt>
    <trkpt lat="32.90743" lon="-116.46808"><ele>1642.0</ele></trkpt>
    <trkpt lat="32.90741" lon="-116.46769"><ele>1642.0</ele></trkpt>
    <trkpt lat="32.90731" lon="-116.46709"><ele>1640.0</ele></trkpt>
    <trkpt lat="32.90737" lon="-116.46662"><ele>1640.0</ele></trkpt>
    <trkpt lat="32.90725" lon="-116.46614"><ele>1640.0</ele></trkpt>
    <trkpt lat="32.90710" lon="-116.46578"><ele>1643.0</ele></trkpt>
    <trkpt lat="32.90713" lon="-116.46543"><ele>1643.0</ele></trkpt>
    <trkpt lat="32.90733" lon="-116.46517"><ele>1643.0</ele></trkpt>
    <trkpt lat="32.90768" lon="-116.46514"><ele>1638.0</ele></trkpt>
    <trkpt lat="32.90818" lon="-116.46550"><ele>1638.0</ele></trkpt>
    <trkpt lat="32.90871" lon="-116.46559"><ele>1638.0</ele></trkpt>
    <trkpt lat="32.90932" lon="-116.46524"><ele>1638.0</ele></trkpt>
    <trkpt lat="32.91000" lon="-116.46522"><ele>1638.0</ele></trkpt>
    <trkpt lat="32.91062" lon="-116.46489"><ele>1635.0</ele></trkpt>
    <trkpt lat="32.91104" lon="-116.46440"><ele>1635.0</ele></trkpt>
    <trkpt lat="32.91122" lon="-116.46379"><ele>1635.0</ele></trkpt>
    <trkpt lat="32.91148" lon="-116.46370"><ele>1631.0</ele></trkpt>
    <trkpt lat="32.91204" lon="-116.46388"><ele>1631.0</ele></trkpt>
    <trkpt lat="32.91235" lon="-116.46377"><ele>1631.0</ele></trkpt>
    <trkpt lat="32.91266" lon="-116.46373"><ele>1633.0</ele></trkpt>
    <trkpt lat="32.91292" lon="-116.46360"><ele>1633.0</ele></trkpt>
  </trkseg></trk>
</gpx>
