<?xml version="1.0" encoding="UTF-8"?>
<gpx version="1.1" creator="dirt-bikes build-area-routes (MVUM geometry + SRTM elevation)" xmlns="http://www.topografix.com/GPX/1/1">
  <trk><name>Quatal Canyon OHV</name><trkseg>
    <trkpt lat="34.83633" lon="-119.38291"><ele>1076.0</ele></trkpt>
    <trkpt lat="34.83639" lon="-119.38278"><ele>1076.0</ele></trkpt>
    <trkpt lat="34.83658" lon="-119.38225"><ele>1076.0</ele></trkpt>
    <trkpt lat="34.83825" lon="-119.37743"><ele>1093.0</ele></trkpt>
    <trkpt lat="34.83845" lon="-119.37694"><ele>1093.0</ele></trkpt>
    <trkpt lat="34.83853" lon="-119.37664"><ele>1093.0</ele></trkpt>
    <trkpt lat="34.83859" lon="-119.37633"><ele>1093.0</ele></trkpt>
    <trkpt lat="34.83860" lon="-119.37597"><ele>1095.0</ele></trkpt>
    <trkpt lat="34.83857" lon="-119.37556"><ele>1095.0</ele></trkpt>
    <trkpt lat="34.83852" lon="-119.37514"><ele>1095.0</ele></trkpt>
    <trkpt lat="34.83849" lon="-119.37471"><ele>1095.0</ele></trkpt>
    <trkpt lat="34.83843" lon="-119.37408"><ele>1095.0</ele></trkpt>
    <trkpt lat="34.83833" lon="-119.37305"><ele>1098.0</ele></trkpt>
    <trkpt lat="34.83831" lon="-119.37281"><ele>1098.0</ele></trkpt>
    <trkpt lat="34.83827" lon="-119.37242"><ele>1098.0</ele></trkpt>
    <trkpt lat="34.83821" lon="-119.37174"><ele>1098.0</ele></trkpt>
    <trkpt lat="34.83818" lon="-119.37142"><ele>1101.0</ele></trkpt>
    <trkpt lat="34.83812" lon="-119.37091"><ele>1101.0</ele></trkpt>
    <trkpt lat="34.83808" lon="-119.37049"><ele>1101.0</ele></trkpt>
    <trkpt lat="34.83800" lon="-119.36966"><ele>1101.0</ele></trkpt>
    <trkpt lat="34.83798" lon="-119.36932"><ele>1101.0</ele></trkpt>
    <trkpt lat="34.83796" lon="-119.36905"><ele>1103.0</ele></trkpt>
    <trkpt lat="34.83794" lon="-119.36881"><ele>1103.0</ele></trkpt>
    <trkpt lat="34.83787" lon="-119.36810"><ele>1103.0</ele></trkpt>
    <trkpt lat="34.83785" lon="-119.36762"><ele>1103.0</ele></trkpt>
    <trkpt lat="34.83776" lon="-119.36684"><ele>1113.0</ele></trkpt>
    <trkpt lat="34.83769" lon="-119.36618"><ele>1113.0</ele></trkpt>
    <trkpt lat="34.83763" lon="-119.36535"><ele>1113.0</ele></trkpt>
    <trkpt lat="34.83761" lon="-119.36515"><ele>1113.0</ele></trkpt>
    <trkpt lat="34.83759" lon="-119.36475"><ele>1113.0</ele></trkpt>
    <trkpt lat="34.83755" lon="-119.36447"><ele>1118.0</ele></trkpt>
    <trkpt lat="34.83753" lon="-119.36412"><ele>1118.0</ele></trkpt>
    <trkpt lat="34.83748" lon="-119.36370"><ele>1118.0</ele></trkpt>
    <trkpt lat="34.83744" lon="-119.36339"><ele>1118.0</ele></trkpt>
    <trkpt lat="34.83744" lon="-119.36339"><ele>1125.0</ele></trkpt>
    <trkpt lat="34.83740" lon="-119.36293"><ele>1125.0</ele></trkpt>
    <trkpt lat="34.83737" lon="-119.36262"><ele>1125.0</ele></trkpt>
    <trkpt lat="34.83737" lon="-119.36245"><ele>1125.0</ele></trkpt>
    <trkpt lat="34.83734" lon="-119.36212"><ele>1125.0</ele></trkpt>
    <trkpt lat="34.83727" lon="-119.36148"><ele>1131.0</ele></trkpt>
    <trkpt lat="34.83721" lon="-119.36079"><ele>1131.0</ele></trkpt>
    <trkpt lat="34.83709" lon="-119.35941"><ele>1131.0</ele></trkpt>
    <trkpt lat="34.83706" lon="-119.35906"><ele>1131.0</ele></trkpt>
    <trkpt lat="34.83700" lon="-119.35843"><ele>1140.0</ele></trkpt>
    <trkpt lat="34.83699" lon="-119.35819"><ele>1140.0</ele></trkpt>
    <trkpt lat="34.83694" lon="-119.35783"><ele>1140.0</ele></trkpt>
    <trkpt lat="34.83688" lon="-119.35715"><ele>1140.0</ele></trkpt>
    <trkpt lat="34.83678" lon="-119.35612"><ele>1149.0</ele></trkpt>
    <trkpt lat="34.83667" lon="-119.35511"><ele>1149.0</ele></trkpt>
    <trkpt lat="34.83654" lon="-119.35354"><ele>1149.0</ele></trkpt>
    <trkpt lat="34.83644" lon="-119.35259"><ele>1149.0</ele></trkpt>
    <trkpt lat="34.83635" lon="-119.35142"><ele>1149.0</ele></trkpt>
    <trkpt lat="34.83630" lon="-119.35076"><ele>1163.0</ele></trkpt>
    <trkpt lat="34.83613" lon="-119.34914"><ele>1163.0</ele></trkpt>
    <trkpt lat="34.83591" lon="-119.34682"><ele>1163.0</ele></trkpt>
    <trkpt lat="34.83570" lon="-119.34448"><ele>1163.0</ele></trkpt>
    <trkpt lat="34.83563" lon="-119.34367"><ele>1183.0</ele></trkpt>
    <trkpt lat="34.83556" lon="-119.34291"><ele>1183.0</ele></trkpt>
    <trkpt lat="34.83551" lon="-119.34241"><ele>1183.0</ele></trkpt>
    <trkpt lat="34.83548" lon="-119.34212"><ele>1183.0</ele></trkpt>
    <trkpt lat="34.83542" lon="-119.34182"><ele>1183.0</ele></trkpt>
    <trkpt lat="34.83538" lon="-119.34150"><ele>1184.0</ele></trkpt>
    <trkpt lat="34.83528" lon="-119.34098"><ele>1184.0</ele></trkpt>
    <trkpt lat="34.83516" lon="-119.34029"><ele>1184.0</ele></trkpt>
    <trkpt lat="34.83504" lon="-119.33975"><ele>1184.0</ele></trkpt>
    <trkpt lat="34.83488" lon="-119.33882"><ele>1192.0</ele></trkpt>
    <trkpt lat="34.83473" lon="-119.33786"><ele>1192.0</ele></trkpt>
    <trkpt lat="34.83465" lon="-119.33747"><ele>1192.0</ele></trkpt>
    <trkpt lat="34.83459" lon="-119.33715"><ele>1192.0</ele></trkpt>
    <trkpt lat="34.83451" lon="-119.33668"><ele>1192.0</ele></trkpt>
    <trkpt lat="34.83441" lon="-119.33601"><ele>1197.0</ele></trkpt>
    <trkpt lat="34.83432" lon="-119.33556"><ele>1197.0</ele></trkpt>
    <trkpt lat="34.83428" lon="-119.33507"><ele>1197.0</ele></trkpt>
    <trkpt lat="34.83424" lon="-119.33474"><ele>1197.0</ele></trkpt>
    <trkpt lat="34.83418" lon="-119.33389"><ele>1199.0</ele></trkpt>
    <trkpt lat="34.83408" lon="-119.33284"><ele>1199.0</ele></trkpt>
    <trkpt lat="34.83402" lon="-119.33202"><ele>1199.0</ele></trkpt>
    <trkpt lat="34.83396" lon="-119.33112"><ele>1199.0</ele></trkpt>
    <trkpt lat="34.83393" lon="-119.33074"><ele>1204.0</ele></trkpt>
    <trkpt lat="34.83391" lon="-119.33030"><ele>1204.0</ele></trkpt>
    <trkpt lat="34.83388" lon="-119.33005"><ele>1204.0</ele></trkpt>
    <trkpt lat="34.83391" lon="-119.32975"><ele>1204.0</ele></trkpt>
    <trkpt lat="34.83397" lon="-119.32937"><ele>1204.0</ele></trkpt>
    <trkpt lat="34.83400" lon="-119.32915"><ele>1206.0</ele></trkpt>
    <trkpt lat="34.83410" lon="-119.32880"><ele>1206.0</ele></trkpt>
    <trkpt lat="34.83463" lon="-119.32699"><ele>1206.0</ele></trkpt>
    <trkpt lat="34.83482" lon="-119.32635"><ele>1206.0</ele></trkpt>
    <trkpt lat="34.83502" lon="-119.32562"><ele>1225.0</ele></trkpt>
    <trkpt lat="34.83516" lon="-119.32509"><ele>1225.0</ele></trkpt>
    <trkpt lat="34.83577" lon="-119.32309"><ele>1225.0</ele></trkpt>
    <trkpt lat="34.83600" lon="-119.32227"><ele>1225.0</ele></trkpt>
    <trkpt lat="34.83618" lon="-119.32164"><ele>1225.0</ele></trkpt>
    <trkpt lat="34.83634" lon="-119.32107"><ele>1230.0</ele></trkpt>
    <trkpt lat="34.83652" lon="-119.32043"><ele>1230.0</ele></trkpt>
    <trkpt lat="34.83665" lon="-119.32004"><ele>1230.0</ele></trkpt>
    <trkpt lat="34.83707" lon="-119.31868"><ele>1230.0</ele></trkpt>
    <trkpt lat="34.83724" lon="-119.31805"><ele>1243.0</ele></trkpt>
    <trkpt lat="34.83754" lon="-119.31704"><ele>1243.0</ele></trkpt>
    <trkpt lat="34.83769" lon="-119.31649"><ele>1243.0</ele></trkpt>
    <trkpt lat="34.83832" lon="-119.31441"><ele>1243.0</ele></trkpt>
    <trkpt lat="34.83850" lon="-119.31378"><ele>1243.0</ele></trkpt>
    <trkpt lat="34.83860" lon="-119.31352"><ele>1255.0</ele></trkpt>
    <trkpt lat="34.83876" lon="-119.31291"><ele>1255.0</ele></trkpt>
    <trkpt lat="34.83886" lon="-119.31258"><ele>1255.0</ele></trkpt>
    <trkpt lat="34.83902" lon="-119.31195"><ele>1255.0</ele></trkpt>
    <trkpt lat="34.83924" lon="-119.31117"><ele>1257.0</ele></trkpt>
    <trkpt lat="34.83932" lon="-119.31086"><ele>1257.0</ele></trkpt>
    <trkpt lat="34.83948" lon="-119.31032"><ele>1257.0</ele></trkpt>
    <trkpt lat="34.83959" lon="-119.30996"><ele>1257.0</ele></trkpt>
    <trkpt lat="34.83977" lon="-119.30937"><ele>1257.0</ele></trkpt>
    <trkpt lat="34.83999" lon="-119.30853"><ele>1267.0</ele></trkpt>
    <trkpt lat="34.84061" lon="-119.30643"><ele>1267.0</ele></trkpt>
    <trkpt lat="34.84076" lon="-119.30587"><ele>1267.0</ele></trkpt>
    <trkpt lat="34.84110" lon="-119.30473"><ele>1267.0</ele></trkpt>
    <trkpt lat="34.84133" lon="-119.30384"><ele>1280.0</ele></trkpt>
    <trkpt lat="34.84174" lon="-119.30251"><ele>1280.0</ele></trkpt>
    <trkpt lat="34.84193" lon="-119.30180"><ele>1280.0</ele></trkpt>
    <trkpt lat="34.84209" lon="-119.30123"><ele>1280.0</ele></trkpt>
    <trkpt lat="34.84222" lon="-119.30080"><ele>1291.0</ele></trkpt>
    <trkpt lat="34.84241" lon="-119.30016"><ele>1291.0</ele></trkpt>
    <trkpt lat="34.84266" lon="-119.29929"><ele>1291.0</ele></trkpt>
    <trkpt lat="34.84290" lon="-119.29845"><ele>1291.0</ele></trkpt>
    <trkpt lat="34.84304" lon="-119.29803"><ele>1291.0</ele></trkpt>
    <trkpt lat="34.84320" lon="-119.29744"><ele>1300.0</ele></trkpt>
    <trkpt lat="34.84340" lon="-119.29679"><ele>1300.0</ele></trkpt>
    <trkpt lat="34.84361" lon="-119.29607"><ele>1300.0</ele></trkpt>
    <trkpt lat="34.84373" lon="-119.29564"><ele>1300.0</ele></trkpt>
    <trkpt lat="34.84399" lon="-119.29472"><ele>1310.0</ele></trkpt>
    <trkpt lat="34.84416" lon="-119.29417"><ele>1310.0</ele></trkpt>
    <trkpt lat="34.84445" lon="-119.29322"><ele>1310.0</ele></trkpt>
    <trkpt lat="34.84461" lon="-119.29266"><ele>1310.0</ele></trkpt>
    <trkpt lat="34.84482" lon="-119.29189"><ele>1310.0</ele></trkpt>
    <trkpt lat="34.84508" lon="-119.29098"><ele>1321.0</ele></trkpt>
    <trkpt lat="34.84530" lon="-119.29023"><ele>1321.0</ele></trkpt>
    <trkpt lat="34.84550" lon="-119.28961"><ele>1321.0</ele></trkpt>
    <trkpt lat="34.84568" lon="-119.28895"><ele>1321.0</ele></trkpt>
    <trkpt lat="34.84586" lon="-119.28837"><ele>1334.0</ele></trkpt>
    <trkpt lat="34.84598" lon="-119.28794"><ele>1334.0</ele></trkpt>
    <trkpt lat="34.84616" lon="-119.28729"><ele>1334.0</ele></trkpt>
    <trkpt lat="34.84632" lon="-119.28666"><ele>1334.0</ele></trkpt>
    <trkpt lat="34.84654" lon="-119.28579"><ele>1334.0</ele></trkpt>
    <trkpt lat="34.84674" lon="-119.28502"><ele>1348.0</ele></trkpt>
    <trkpt lat="34.84692" lon="-119.28425"><ele>1348.0</ele></trkpt>
    <trkpt lat="34.84712" lon="-119.28345"><ele>1348.0</ele></trkpt>
    <trkpt lat="34.84733" lon="-119.28275"><ele>1348.0</ele></trkpt>
    <trkpt lat="34.84776" lon="-119.28091"><ele>1365.0</ele></trkpt>
    <trkpt lat="34.84799" lon="-119.27989"><ele>1365.0</ele></trkpt>
    <trkpt lat="34.84817" lon="-119.27913"><ele>1365.0</ele></trkpt>
    <trkpt lat="34.84834" lon="-119.27849"><ele>1365.0</ele></trkpt>
    <trkpt lat="34.84848" lon="-119.27794"><ele>1378.0</ele></trkpt>
    <trkpt lat="34.84877" lon="-119.27675"><ele>1378.0</ele></trkpt>
    <trkpt lat="34.84890" lon="-119.27627"><ele>1378.0</ele></trkpt>
    <trkpt lat="34.84898" lon="-119.27588"><ele>1378.0</ele></trkpt>
    <trkpt lat="34.84906" lon="-119.27556"><ele>1378.0</ele></trkpt>
    <trkpt lat="34.84919" lon="-119.27506"><ele>1392.0</ele></trkpt>
    <trkpt lat="34.84933" lon="-119.27446"><ele>1392.0</ele></trkpt>
    <trkpt lat="34.84942" lon="-119.27406"><ele>1392.0</ele></trkpt>
    <trkpt lat="34.84953" lon="-119.27362"><ele>1392.0</ele></trkpt>
    <trkpt lat="34.84966" lon="-119.27312"><ele>1407.0</ele></trkpt>
    <trkpt lat="34.84985" lon="-119.27236"><ele>1407.0</ele></trkpt>
    <trkpt lat="34.84996" lon="-119.27194"><ele>1407.0</ele></trkpt>
    <trkpt lat="34.85008" lon="-119.27145"><ele>1407.0</ele></trkpt>
    <trkpt lat="34.85019" lon="-119.27110"><ele>1407.0</ele></trkpt>
    <trkpt lat="34.85025" lon="-119.27094"><ele>1412.0</ele></trkpt>
    <trkpt lat="34.85041" lon="-119.27060"><ele>1412.0</ele></trkpt>
    <trkpt lat="34.85065" lon="-119.27031"><ele>1412.0</ele></trkpt>
    <trkpt lat="34.85073" lon="-119.27018"><ele>1412.0</ele></trkpt>
    <trkpt lat="34.85094" lon="-119.26998"><ele>1425.0</ele></trkpt>
    <trkpt lat="34.85119" lon="-119.26983"><ele>1425.0</ele></trkpt>
    <trkpt lat="34.85149" lon="-119.26973"><ele>1425.0</ele></trkpt>
    <trkpt lat="34.85182" lon="-119.26956"><ele>1425.0</ele></trkpt>
    <trkpt lat="34.85199" lon="-119.26950"><ele>1425.0</ele></trkpt>
    <trkpt lat="34.85225" lon="-119.26938"><ele>1429.0</ele></trkpt>
    <trkpt lat="34.85241" lon="-119.26933"><ele>1429.0</ele></trkpt>
    <trkpt lat="34.85271" lon="-119.26914"><ele>1429.0</ele></trkpt>
    <trkpt lat="34.85302" lon="-119.26886"><ele>1429.0</ele></trkpt>
    <trkpt lat="34.85338" lon="-119.26863"><ele>1437.0</ele></trkpt>
    <trkpt lat="34.85382" lon="-119.26827"><ele>1437.0</ele></trkpt>
    <trkpt lat="34.85415" lon="-119.26799"><ele>1437.0</ele></trkpt>
    <trkpt lat="34.85442" lon="-119.26773"><ele>1437.0</ele></trkpt>
    <trkpt lat="34.85458" lon="-119.26748"><ele>1437.0</ele></trkpt>
    <trkpt lat="34.85469" lon="-119.26727"><ele>1442.0</ele></trkpt>
    <trkpt lat="34.85482" lon="-119.26697"><ele>1442.0</ele></trkpt>
    <trkpt lat="34.85497" lon="-119.26649"><ele>1442.0</ele></trkpt>
    <trkpt lat="34.85508" lon="-119.26615"><ele>1442.0</ele></trkpt>
    <trkpt lat="34.85524" lon="-119.26564"><ele>1453.0</ele></trkpt>
    <trkpt lat="34.85535" lon="-119.26519"><ele>1453.0</ele></trkpt>
    <trkpt lat="34.85547" lon="-119.26462"><ele>1453.0</ele></trkpt>
    <trkpt lat="34.85557" lon="-119.26417"><ele>1453.0</ele></trkpt>
    <trkpt lat="34.85568" lon="-119.26376"><ele>1461.0</ele></trkpt>
    <trkpt lat="34.85574" lon="-119.26349"><ele>1461.0</ele></trkpt>
    <trkpt lat="34.85586" lon="-119.26302"><ele>1461.0</ele></trkpt>
    <trkpt lat="34.85598" lon="-119.26253"><ele>1461.0</ele></trkpt>
    <trkpt lat="34.85610" lon="-119.26202"><ele>1461.0</ele></trkpt>
    <trkpt lat="34.85619" lon="-119.26129"><ele>1479.0</ele></trkpt>
    <trkpt lat="34.85625" lon="-119.26080"><ele>1479.0</ele></trkpt>
    <trkpt lat="34.85633" lon="-119.26026"><ele>1479.0</ele></trkpt>
    <trkpt lat="34.85642" lon="-119.25982"><ele>1479.0</ele></trkpt>
    <trkpt lat="34.85644" lon="-119.25950"><ele>1484.0</ele></trkpt>
    <trkpt lat="34.85656" lon="-119.25913"><ele>1484.0</ele></trkpt>
    <trkpt lat="34.85665" lon="-119.25879"><ele>1484.0</ele></trkpt>
    <trkpt lat="34.85687" lon="-119.25820"><ele>1484.0</ele></trkpt>
    <trkpt lat="34.85700" lon="-119.25787"><ele>1484.0</ele></trkpt>
    <trkpt lat="34.85719" lon="-119.25731"><ele>1500.0</ele></trkpt>
    <trkpt lat="34.85730" lon="-119.25703"><ele>1500.0</ele></trkpt>
    <trkpt lat="34.85743" lon="-119.25676"><ele>1500.0</ele></trkpt>
    <trkpt lat="34.85762" lon="-119.25651"><ele>1500.0</ele></trkpt>
    <trkpt lat="34.85781" lon="-119.25625"><ele>1509.0</ele></trkpt>
    <trkpt lat="34.85793" lon="-119.25597"><ele>1509.0</ele></trkpt>
    <trkpt lat="34.85803" lon="-119.25576"><ele>1509.0</ele></trkpt>
    <trkpt lat="34.85820" lon="-119.25527"><ele>1509.0</ele></trkpt>
    <trkpt lat="34.85846" lon="-119.25463"><ele>1509.0</ele></trkpt>
    <trkpt lat="34.85873" lon="-119.25388"><ele>1525.0</ele></trkpt>
    <trkpt lat="34.85886" lon="-119.25349"><ele>1525.0</ele></trkpt>
    <trkpt lat="34.85892" lon="-119.25324"><ele>1525.0</ele></trkpt>
    <trkpt lat="34.85895" lon="-119.25307"><ele>1525.0</ele></trkpt>
    <trkpt lat="34.85901" lon="-119.25266"><ele>1529.0</ele></trkpt>
    <trkpt lat="34.85904" lon="-119.25248"><ele>1529.0</ele></trkpt>
    <trkpt lat="34.85911" lon="-119.25213"><ele>1529.0</ele></trkpt>
    <trkpt lat="34.85917" lon="-119.25195"><ele>1529.0</ele></trkpt>
    <trkpt lat="34.85924" lon="-119.25181"><ele>1534.0</ele></trkpt>
    <trkpt lat="34.85935" lon="-119.25155"><ele>1534.0</ele></trkpt>
    <trkpt lat="34.85948" lon="-119.25125"><ele>1534.0</ele></trkpt>
    <trkpt lat="34.85964" lon="-119.25096"><ele>1534.0</ele></trkpt>
    <trkpt lat="34.85970" lon="-119.25086"><ele>1534.0</ele></trkpt>
    <trkpt lat="34.85980" lon="-119.25070"><ele>1539.0</ele></trkpt>
    <trkpt lat="34.85987" lon="-119.25058"><ele>1539.0</ele></trkpt>
    <trkpt lat="34.85995" lon="-119.25042"><ele>1539.0</ele></trkpt>
    <trkpt lat="34.86000" lon="-119.25026"><ele>1539.0</ele></trkpt>
    <trkpt lat="34.86008" lon="-119.24999"><ele>1546.0</ele></trkpt>
    <trkpt lat="34.86011" lon="-119.24988"><ele>1546.0</ele></trkpt>
    <trkpt lat="34.86018" lon="-119.24950"><ele>1546.0</ele></trkpt>
    <trkpt lat="34.86022" lon="-119.24920"><ele>1546.0</ele></trkpt>
    <trkpt lat="34.86026" lon="-119.24887"><ele>1546.0</ele></trkpt>
    <trkpt lat="34.86030" lon="-119.24852"><ele>1557.0</ele></trkpt>
    <trkpt lat="34.86035" lon="-119.24825"><ele>1557.0</ele></trkpt>
    <trkpt lat="34.86042" lon="-119.24788"><ele>1557.0</ele></trkpt>
    <trkpt lat="34.86049" lon="-119.24764"><ele>1557.0</ele></trkpt>
    <trkpt lat="34.86057" lon="-119.24724"><ele>1565.0</ele></trkpt>
    <trkpt lat="34.86063" lon="-119.24697"><ele>1565.0</ele></trkpt>
    <trkpt lat="34.86070" lon="-119.24666"><ele>1565.0</ele></trkpt>
    <trkpt lat="34.86079" lon="-119.24641"><ele>1565.0</ele></trkpt>
    <trkpt lat="34.86090" lon="-119.24623"><ele>1565.0</ele></trkpt>
    <trkpt lat="34.86104" lon="-119.24606"><ele>1573.0</ele></trkpt>
    <trkpt lat="34.86117" lon="-119.24594"><ele>1573.0</ele></trkpt>
    <trkpt lat="34.86133" lon="-119.24574"><ele>1573.0</ele></trkpt>
    <trkpt lat="34.86150" lon="-119.24547"><ele>1573.0</ele></trkpt>
    <trkpt lat="34.86163" lon="-119.24523"><ele>1586.0</ele></trkpt>
    <trkpt lat="34.86175" lon="-119.24496"><ele>1586.0</ele></trkpt>
    <trkpt lat="34.86182" lon="-119.24479"><ele>1586.0</ele></trkpt>
    <trkpt lat="34.86192" lon="-119.24444"><ele>1586.0</ele></trkpt>
    <trkpt lat="34.86201" lon="-119.24415"><ele>1586.0</ele></trkpt>
    <trkpt lat="34.86199" lon="-119.24409"><ele>1599.0</ele></trkpt>
    <trkpt lat="34.86195" lon="-119.24407"><ele>1599.0</ele></trkpt>
    <trkpt lat="34.86188" lon="-119.24406"><ele>1599.0</ele></trkpt>
    <trkpt lat="34.86185" lon="-119.24407"><ele>1599.0</ele></trkpt>
    <trkpt lat="34.86174" lon="-119.24430"><ele>1587.0</ele></trkpt>
    <trkpt lat="34.86164" lon="-119.24450"><ele>1587.0</ele></trkpt>
    <trkpt lat="34.86150" lon="-119.24472"><ele>1587.0</ele></trkpt>
    <trkpt lat="34.86141" lon="-119.24474"><ele>1587.0</ele></trkpt>
    <trkpt lat="34.86122" lon="-119.24481"><ele>1580.0</ele></trkpt>
    <trkpt lat="34.86111" lon="-119.24487"><ele>1580.0</ele></trkpt>
    <trkpt lat="34.86106" lon="-119.24486"><ele>1580.0</ele></trkpt>
    <trkpt lat="34.86104" lon="-119.24482"><ele>1580.0</ele></trkpt>
    <trkpt lat="34.86104" lon="-119.24482"><ele>1580.0</ele></trkpt>
    <trkpt lat="34.86103" lon="-119.24480"><ele>1581.0</ele></trkpt>
    <trkpt lat="34.86101" lon="-119.24474"><ele>1581.0</ele></trkpt>
    <trkpt lat="34.86102" lon="-119.24455"><ele>1581.0</ele></trkpt>
    <trkpt lat="34.86105" lon="-119.24443"><ele>1581.0</ele></trkpt>
    <trkpt lat="34.86109" lon="-119.24427"><ele>1592.0</ele></trkpt>
    <trkpt lat="34.86112" lon="-119.24411"><ele>1592.0</ele></trkpt>
    <trkpt lat="34.86113" lon="-119.24401"><ele>1592.0</ele></trkpt>
    <trkpt lat="34.86111" lon="-119.24388"><ele>1592.0</ele></trkpt>
    <trkpt lat="34.86105" lon="-119.24374"><ele>1592.0</ele></trkpt>
    <trkpt lat="34.86090" lon="-119.24355"><ele>1599.0</ele></trkpt>
    <trkpt lat="34.86083" lon="-119.24343"><ele>1599.0</ele></trkpt>
    <trkpt lat="34.86084" lon="-119.24331"><ele>1599.0</ele></trkpt>
    <trkpt lat="34.86084" lon="-119.24316"><ele>1599.0</ele></trkpt>
    <trkpt lat="34.86080" lon="-119.24300"><ele>1610.0</ele></trkpt>
    <trkpt lat="34.86074" lon="-119.24289"><ele>1610.0</ele></trkpt>
    <trkpt lat="34.86070" lon="-119.24288"><ele>1610.0</ele></trkpt>
    <trkpt lat="34.86053" lon="-119.24275"><ele>1610.0</ele></trkpt>
    <trkpt lat="34.86051" lon="-119.24270"><ele>1610.0</ele></trkpt>
    <trkpt lat="34.86051" lon="-119.24265"><ele>1616.0</ele></trkpt>
    <trkpt lat="34.86059" lon="-119.24246"><ele>1616.0</ele></trkpt>
    <trkpt lat="34.86069" lon="-119.24225"><ele>1616.0</ele></trkpt>
    <trkpt lat="34.86080" lon="-119.24201"><ele>1616.0</ele></trkpt>
    <trkpt lat="34.86080" lon="-119.24179"><ele>1623.0</ele></trkpt>
    <trkpt lat="34.86063" lon="-119.24168"><ele>1623.0</ele></trkpt>
    <trkpt lat="34.86050" lon="-119.24157"><ele>1623.0</ele></trkpt>
    <trkpt lat="34.86033" lon="-119.24132"><ele>1623.0</ele></trkpt>
    <trkpt lat="34.86027" lon="-119.24123"><ele>1630.0</ele></trkpt>
    <trkpt lat="34.86023" lon="-119.24109"><ele>1630.0</ele></trkpt>
    <trkpt lat="34.86016" lon="-119.24080"><ele>1630.0</ele></trkpt>
    <trkpt lat="34.86015" lon="-119.24062"><ele>1630.0</ele></trkpt>
    <trkpt lat="34.86011" lon="-119.24040"><ele>1630.0</ele></trkpt>
    <trkpt lat="34.86011" lon="-119.24023"><ele>1637.0</ele></trkpt>
    <trkpt lat="34.86013" lon="-119.24004"><ele>1637.0</ele></trkpt>
    <trkpt lat="34.86010" lon="-119.23979"><ele>1637.0</ele></trkpt>
    <trkpt lat="34.86007" lon="-119.23969"><ele>1637.0</ele></trkpt>
    <trkpt lat="34.85997" lon="-119.23952"><ele>1645.0</ele></trkpt>
    <trkpt lat="34.85992" lon="-119.23927"><ele>1645.0</ele></trkpt>
    <trkpt lat="34.85987" lon="-119.23903"><ele>1645.0</ele></trkpt>
    <trkpt lat="34.85986" lon="-119.23883"><ele>1645.0</ele></trkpt>
    <trkpt lat="34.85981" lon="-119.23839"><ele>1645.0</ele></trkpt>
    <trkpt lat="34.85974" lon="-119.23823"><ele>1659.0</ele></trkpt>
    <trkpt lat="34.85961" lon="-119.23794"><ele>1659.0</ele></trkpt>
    <trkpt lat="34.85953" lon="-119.23783"><ele>1659.0</ele></trkpt>
    <trkpt lat="34.85946" lon="-119.23781"><ele>1659.0</ele></trkpt>
    <trkpt lat="34.85931" lon="-119.23782"><ele>1654.0</ele></trkpt>
    <trkpt lat="34.85925" lon="-119.23784"><ele>1654.0</ele></trkpt>
    <trkpt lat="34.85911" lon="-119.23794"><ele>1654.0</ele></trkpt>
    <trkpt lat="34.85902" lon="-119.23795"><ele>1654.0</ele></trkpt>
    <trkpt lat="34.85882" lon="-119.23787"><ele>1654.0</ele></trkpt>
    <trkpt lat="34.85877" lon="-119.23781"><ele>1659.0</ele></trkpt>
    <trkpt lat="34.85872" lon="-119.23759"><ele>1659.0</ele></trkpt>
    <trkpt lat="34.85867" lon="-119.23746"><ele>1659.0</ele></trkpt>
    <trkpt lat="34.85864" lon="-119.23742"><ele>1659.0</ele></trkpt>
    <trkpt lat="34.85844" lon="-119.23730"><ele>1664.0</ele></trkpt>
    <trkpt lat="34.85831" lon="-119.23725"><ele>1664.0</ele></trkpt>
    <trkpt lat="34.85827" lon="-119.23720"><ele>1664.0</ele></trkpt>
    <trkpt lat="34.85826" lon="-119.23715"><ele>1664.0</ele></trkpt>
    <trkpt lat="34.85827" lon="-119.23698"><ele>1664.0</ele></trkpt>
    <trkpt lat="34.85827" lon="-119.23676"><ele>1670.0</ele></trkpt>
    <trkpt lat="34.85828" lon="-119.23653"><ele>1670.0</ele></trkpt>
    <trkpt lat="34.85824" lon="-119.23628"><ele>1670.0</ele></trkpt>
    <trkpt lat="34.85822" lon="-119.23608"><ele>1670.0</ele></trkpt>
    <trkpt lat="34.85819" lon="-119.23574"><ele>1680.0</ele></trkpt>
    <trkpt lat="34.85818" lon="-119.23557"><ele>1680.0</ele></trkpt>
    <trkpt lat="34.85822" lon="-119.23542"><ele>1680.0</ele></trkpt>
    <trkpt lat="34.85826" lon="-119.23528"><ele>1680.0</ele></trkpt>
    <trkpt lat="34.85824" lon="-119.23496"><ele>1687.0</ele></trkpt>
    <trkpt lat="34.85823" lon="-119.23485"><ele>1687.0</ele></trkpt>
    <trkpt lat="34.85816" lon="-119.23456"><ele>1687.0</ele></trkpt>
    <trkpt lat="34.85811" lon="-119.23430"><ele>1687.0</ele></trkpt>
    <trkpt lat="34.85808" lon="-119.23416"><ele>1687.0</ele></trkpt>
    <trkpt lat="34.85804" lon="-119.23379"><ele>1693.0</ele></trkpt>
    <trkpt lat="34.85799" lon="-119.23362"><ele>1693.0</ele></trkpt>
    <trkpt lat="34.85794" lon="-119.23342"><ele>1693.0</ele></trkpt>
    <trkpt lat="34.85793" lon="-119.23325"><ele>1693.0</ele></trkpt>
    <trkpt lat="34.85795" lon="-119.23313"><ele>1699.0</ele></trkpt>
    <trkpt lat="34.85796" lon="-119.23308"><ele>1699.0</ele></trkpt>
    <trkpt lat="34.85798" lon="-119.23283"><ele>1699.0</ele></trkpt>
    <trkpt lat="34.85806" lon="-119.23268"><ele>1699.0</ele></trkpt>
    <trkpt lat="34.85823" lon="-119.23242"><ele>1699.0</ele></trkpt>
    <trkpt lat="34.85834" lon="-119.23229"><ele>1703.0</ele></trkpt>
    <trkpt lat="34.85839" lon="-119.23229"><ele>1703.0</ele></trkpt>
    <trkpt lat="34.85845" lon="-119.23232"><ele>1703.0</ele></trkpt>
    <trkpt lat="34.85851" lon="-119.23238"><ele>1703.0</ele></trkpt>
    <trkpt lat="34.85860" lon="-119.23246"><ele>1708.0</ele></trkpt>
    <trkpt lat="34.85873" lon="-119.23250"><ele>1708.0</ele></trkpt>
    <trkpt lat="34.85893" lon="-119.23248"><ele>1708.0</ele></trkpt>
    <trkpt lat="34.85897" lon="-119.23248"><ele>1708.0</ele></trkpt>
    <trkpt lat="34.85903" lon="-119.23242"><ele>1708.0</ele></trkpt>
    <trkpt lat="34.85907" lon="-119.23228"><ele>1710.0</ele></trkpt>
    <trkpt lat="34.85913" lon="-119.23209"><ele>1710.0</ele></trkpt>
    <trkpt lat="34.85914" lon="-119.23180"><ele>1710.0</ele></trkpt>
    <trkpt lat="34.85913" lon="-119.23159"><ele>1710.0</ele></trkpt>
    <trkpt lat="34.85916" lon="-119.23148"><ele>1710.0</ele></trkpt>
    <trkpt lat="34.85918" lon="-119.23119"><ele>1710.0</ele></trkpt>
    <trkpt lat="34.85921" lon="-119.23106"><ele>1710.0</ele></trkpt>
    <trkpt lat="34.85926" lon="-119.23092"><ele>1710.0</ele></trkpt>
    <trkpt lat="34.85937" lon="-119.23070"><ele>1722.0</ele></trkpt>
    <trkpt lat="34.85957" lon="-119.23040"><ele>1722.0</ele></trkpt>
    <trkpt lat="34.85975" lon="-119.23015"><ele>1722.0</ele></trkpt>
    <trkpt lat="34.85999" lon="-119.22980"><ele>1722.0</ele></trkpt>
    <trkpt lat="34.86020" lon="-119.22954"><ele>1722.0</ele></trkpt>
    <trkpt lat="34.86028" lon="-119.22940"><ele>1730.0</ele></trkpt>
    <trkpt lat="34.86035" lon="-119.22928"><ele>1730.0</ele></trkpt>
    <trkpt lat="34.86040" lon="-119.22909"><ele>1730.0</ele></trkpt>
    <trkpt lat="34.86050" lon="-119.22893"><ele>1730.0</ele></trkpt>
    <trkpt lat="34.86060" lon="-119.22871"><ele>1734.0</ele></trkpt>
    <trkpt lat="34.86071" lon="-119.22851"><ele>1734.0</ele></trkpt>
    <trkpt lat="34.86095" lon="-119.22808"><ele>1734.0</ele></trkpt>
    <trkpt lat="34.86106" lon="-119.22789"><ele>1734.0</ele></trkpt>
    <trkpt lat="34.86115" lon="-119.22775"><ele>1734.0</ele></trkpt>
    <trkpt lat="34.86125" lon="-119.22768"><ele>1739.0</ele></trkpt>
    <trkpt lat="34.86128" lon="-119.22766"><ele>1739.0</ele></trkpt>
    <trkpt lat="34.86136" lon="-119.22769"><ele>1739.0</ele></trkpt>
    <trkpt lat="34.86147" lon="-119.22779"><ele>1739.0</ele></trkpt>
    <trkpt lat="34.86157" lon="-119.22790"><ele>1742.0</ele></trkpt>
    <trkpt lat="34.86164" lon="-119.22791"><ele>1742.0</ele></trkpt>
    <trkpt lat="34.86169" lon="-119.22790"><ele>1742.0</ele></trkpt>
    <trkpt lat="34.86180" lon="-119.22782"><ele>1742.0</ele></trkpt>
    <trkpt lat="34.86191" lon="-119.22775"><ele>1742.0</ele></trkpt>
    <trkpt lat="34.86196" lon="-119.22772"><ele>1747.0</ele></trkpt>
    <trkpt lat="34.86219" lon="-119.22769"><ele>1747.0</ele></trkpt>
    <trkpt lat="34.86228" lon="-119.22768"><ele>1747.0</ele></trkpt>
    <trkpt lat="34.86241" lon="-119.22761"><ele>1747.0</ele></trkpt>
    <trkpt lat="34.86249" lon="-119.22755"><ele>1755.0</ele></trkpt>
    <trkpt lat="34.86267" lon="-119.22737"><ele>1755.0</ele></trkpt>
    <trkpt lat="34.86286" lon="-119.22716"><ele>1755.0</ele></trkpt>
    <trkpt lat="34.86299" lon="-119.22704"><ele>1755.0</ele></trkpt>
    <trkpt lat="34.86309" lon="-119.22694"><ele>1755.0</ele></trkpt>
    <trkpt lat="34.86316" lon="-119.22691"><ele>1759.0</ele></trkpt>
    <trkpt lat="34.86327" lon="-119.22691"><ele>1759.0</ele></trkpt>
  </trkseg></trk>
</gpx>
