<?xml version="1.0" encoding="UTF-8"?>
<gpx version="1.1" creator="dirt-bikes build-area-routes (MVUM geometry + SRTM elevation)" xmlns="http://www.topografix.com/GPX/1/1">
  <trk><name>Queen Bee Loop OHV</name><trkseg>
    <trkpt lat="35.35522" lon="-120.25181"><ele>765.0</ele></trkpt>
    <trkpt lat="35.35511" lon="-120.25179"><ele>765.0</ele></trkpt>
    <trkpt lat="35.35500" lon="-120.25174"><ele>765.0</ele></trkpt>
    <trkpt lat="35.35493" lon="-120.25172"><ele>765.0</ele></trkpt>
    <trkpt lat="35.35485" lon="-120.25171"><ele>774.0</ele></trkpt>
    <trkpt lat="35.35478" lon="-120.25172"><ele>774.0</ele></trkpt>
    <trkpt lat="35.35471" lon="-120.25170"><ele>774.0</ele></trkpt>
    <trkpt lat="35.35465" lon="-120.25157"><ele>774.0</ele></trkpt>
    <trkpt lat="35.35478" lon="-120.25147"><ele>774.0</ele></trkpt>
    <trkpt lat="35.35491" lon="-120.25137"><ele>774.0</ele></trkpt>
    <trkpt lat="35.35502" lon="-120.25128"><ele>764.0</ele></trkpt>
    <trkpt lat="35.35508" lon="-120.25112"><ele>764.0</ele></trkpt>
    <trkpt lat="35.35510" lon="-120.25105"><ele>764.0</ele></trkpt>
    <trkpt lat="35.35509" lon="-120.25100"><ele>764.0</ele></trkpt>
    <trkpt lat="35.35507" lon="-120.25085"><ele>764.0</ele></trkpt>
    <trkpt lat="35.35506" lon="-120.25077"><ele>764.0</ele></trkpt>
    <trkpt lat="35.35503" lon="-120.25065"><ele>767.0</ele></trkpt>
    <trkpt lat="35.35497" lon="-120.25053"><ele>767.0</ele></trkpt>
    <trkpt lat="35.35490" lon="-120.25045"><ele>767.0</ele></trkpt>
    <trkpt lat="35.35474" lon="-120.25037"><ele>767.0</ele></trkpt>
    <trkpt lat="35.35461" lon="-120.25036"><ele>767.0</ele></trkpt>
    <trkpt lat="35.35445" lon="-120.25034"><ele>767.0</ele></trkpt>
    <trkpt lat="35.35435" lon="-120.25037"><ele>767.0</ele></trkpt>
    <trkpt lat="35.35423" lon="-120.25044"><ele>791.0</ele></trkpt>
    <trkpt lat="35.35407" lon="-120.25051"><ele>791.0</ele></trkpt>
    <trkpt lat="35.35397" lon="-120.25060"><ele>791.0</ele></trkpt>
    <trkpt lat="35.35389" lon="-120.25065"><ele>791.0</ele></trkpt>
    <trkpt lat="35.35379" lon="-120.25067"><ele>791.0</ele></trkpt>
    <trkpt lat="35.35372" lon="-120.25064"><ele>791.0</ele></trkpt>
    <trkpt lat="35.35367" lon="-120.25056"><ele>797.0</ele></trkpt>
    <trkpt lat="35.35363" lon="-120.25042"><ele>797.0</ele></trkpt>
    <trkpt lat="35.35366" lon="-120.25025"><ele>797.0</ele></trkpt>
    <trkpt lat="35.35370" lon="-120.25009"><ele>797.0</ele></trkpt>
    <trkpt lat="35.35375" lon="-120.24998"><ele>797.0</ele></trkpt>
    <trkpt lat="35.35382" lon="-120.24989"><ele>797.0</ele></trkpt>
    <trkpt lat="35.35389" lon="-120.24977"><ele>783.0</ele></trkpt>
    <trkpt lat="35.35392" lon="-120.24965"><ele>783.0</ele></trkpt>
    <trkpt lat="35.35393" lon="-120.24948"><ele>783.0</ele></trkpt>
    <trkpt lat="35.35387" lon="-120.24934"><ele>783.0</ele></trkpt>
    <trkpt lat="35.35377" lon="-120.24921"><ele>783.0</ele></trkpt>
    <trkpt lat="35.35367" lon="-120.24913"><ele>783.0</ele></trkpt>
    <trkpt lat="35.35352" lon="-120.24904"><ele>793.0</ele></trkpt>
    <trkpt lat="35.35342" lon="-120.24888"><ele>793.0</ele></trkpt>
    <trkpt lat="35.35334" lon="-120.24866"><ele>793.0</ele></trkpt>
    <trkpt lat="35.35328" lon="-120.24858"><ele>793.0</ele></trkpt>
    <trkpt lat="35.35316" lon="-120.24845"><ele>793.0</ele></trkpt>
    <trkpt lat="35.35301" lon="-120.24838"><ele>793.0</ele></trkpt>
    <trkpt lat="35.35283" lon="-120.24831"><ele>795.0</ele></trkpt>
    <trkpt lat="35.35270" lon="-120.24826"><ele>795.0</ele></trkpt>
    <trkpt lat="35.35256" lon="-120.24817"><ele>795.0</ele></trkpt>
    <trkpt lat="35.35253" lon="-120.24815"><ele>795.0</ele></trkpt>
    <trkpt lat="35.35245" lon="-120.24807"><ele>795.0</ele></trkpt>
    <trkpt lat="35.35232" lon="-120.24786"><ele>795.0</ele></trkpt>
    <trkpt lat="35.35223" lon="-120.24775"><ele>795.0</ele></trkpt>
    <trkpt lat="35.35215" lon="-120.24766"><ele>795.0</ele></trkpt>
    <trkpt lat="35.35205" lon="-120.24755"><ele>795.0</ele></trkpt>
    <trkpt lat="35.35196" lon="-120.24745"><ele>795.0</ele></trkpt>
    <trkpt lat="35.35188" lon="-120.24731"><ele>795.0</ele></trkpt>
    <trkpt lat="35.35179" lon="-120.24713"><ele>795.0</ele></trkpt>
    <trkpt lat="35.35168" lon="-120.24691"><ele>795.0</ele></trkpt>
    <trkpt lat="35.35162" lon="-120.24672"><ele>785.0</ele></trkpt>
    <trkpt lat="35.35157" lon="-120.24659"><ele>785.0</ele></trkpt>
    <trkpt lat="35.35150" lon="-120.24640"><ele>785.0</ele></trkpt>
    <trkpt lat="35.35144" lon="-120.24624"><ele>785.0</ele></trkpt>
    <trkpt lat="35.35137" lon="-120.24610"><ele>785.0</ele></trkpt>
    <trkpt lat="35.35131" lon="-120.24591"><ele>785.0</ele></trkpt>
    <trkpt lat="35.35111" lon="-120.24541"><ele>776.0</ele></trkpt>
    <trkpt lat="35.35107" lon="-120.24528"><ele>776.0</ele></trkpt>
    <trkpt lat="35.35102" lon="-120.24508"><ele>776.0</ele></trkpt>
    <trkpt lat="35.35102" lon="-120.24495"><ele>776.0</ele></trkpt>
    <trkpt lat="35.35105" lon="-120.24479"><ele>776.0</ele></trkpt>
    <trkpt lat="35.35109" lon="-120.24461"><ele>776.0</ele></trkpt>
    <trkpt lat="35.35107" lon="-120.24446"><ele>766.0</ele></trkpt>
    <trkpt lat="35.35103" lon="-120.24430"><ele>766.0</ele></trkpt>
    <trkpt lat="35.35104" lon="-120.24415"><ele>766.0</ele></trkpt>
    <trkpt lat="35.35109" lon="-120.24402"><ele>766.0</ele></trkpt>
    <trkpt lat="35.35116" lon="-120.24392"><ele>766.0</ele></trkpt>
    <trkpt lat="35.35124" lon="-120.24381"><ele>766.0</ele></trkpt>
    <trkpt lat="35.35130" lon="-120.24369"><ele>758.0</ele></trkpt>
    <trkpt lat="35.35136" lon="-120.24355"><ele>758.0</ele></trkpt>
    <trkpt lat="35.35140" lon="-120.24342"><ele>758.0</ele></trkpt>
    <trkpt lat="35.35142" lon="-120.24332"><ele>758.0</ele></trkpt>
    <trkpt lat="35.35144" lon="-120.24318"><ele>758.0</ele></trkpt>
    <trkpt lat="35.35145" lon="-120.24306"><ele>758.0</ele></trkpt>
    <trkpt lat="35.35146" lon="-120.24287"><ele>752.0</ele></trkpt>
    <trkpt lat="35.35147" lon="-120.24271"><ele>752.0</ele></trkpt>
    <trkpt lat="35.35148" lon="-120.24256"><ele>752.0</ele></trkpt>
    <trkpt lat="35.35144" lon="-120.24239"><ele>752.0</ele></trkpt>
    <trkpt lat="35.35141" lon="-120.24222"><ele>752.0</ele></trkpt>
    <trkpt lat="35.35131" lon="-120.24194"><ele>752.0</ele></trkpt>
    <trkpt lat="35.35126" lon="-120.24185"><ele>752.0</ele></trkpt>
    <trkpt lat="35.35118" lon="-120.24175"><ele>746.0</ele></trkpt>
    <trkpt lat="35.35103" lon="-120.24151"><ele>746.0</ele></trkpt>
    <trkpt lat="35.35103" lon="-120.24151"><ele>746.0</ele></trkpt>
    <trkpt lat="35.35072" lon="-120.24109"><ele>746.0</ele></trkpt>
    <trkpt lat="35.35065" lon="-120.24100"><ele>746.0</ele></trkpt>
    <trkpt lat="35.35061" lon="-120.24095"><ele>746.0</ele></trkpt>
    <trkpt lat="35.35054" lon="-120.24085"><ele>732.0</ele></trkpt>
    <trkpt lat="35.35032" lon="-120.24057"><ele>732.0</ele></trkpt>
    <trkpt lat="35.35025" lon="-120.24049"><ele>732.0</ele></trkpt>
    <trkpt lat="35.35019" lon="-120.24041"><ele>732.0</ele></trkpt>
    <trkpt lat="35.35011" lon="-120.24032"><ele>732.0</ele></trkpt>
    <trkpt lat="35.34986" lon="-120.24000"><ele>732.0</ele></trkpt>
    <trkpt lat="35.34979" lon="-120.23992"><ele>719.0</ele></trkpt>
    <trkpt lat="35.34973" lon="-120.23984"><ele>719.0</ele></trkpt>
    <trkpt lat="35.34965" lon="-120.23972"><ele>719.0</ele></trkpt>
    <trkpt lat="35.34956" lon="-120.23961"><ele>719.0</ele></trkpt>
    <trkpt lat="35.34948" lon="-120.23950"><ele>719.0</ele></trkpt>
    <trkpt lat="35.34940" lon="-120.23946"><ele>719.0</ele></trkpt>
    <trkpt lat="35.34931" lon="-120.23943"><ele>714.0</ele></trkpt>
    <trkpt lat="35.34921" lon="-120.23945"><ele>714.0</ele></trkpt>
    <trkpt lat="35.34907" lon="-120.23953"><ele>714.0</ele></trkpt>
    <trkpt lat="35.34902" lon="-120.23955"><ele>714.0</ele></trkpt>
    <trkpt lat="35.34895" lon="-120.23958"><ele>714.0</ele></trkpt>
    <trkpt lat="35.34889" lon="-120.23956"><ele>714.0</ele></trkpt>
    <trkpt lat="35.34883" lon="-120.23952"><ele>708.0</ele></trkpt>
    <trkpt lat="35.34877" lon="-120.23944"><ele>708.0</ele></trkpt>
    <trkpt lat="35.34872" lon="-120.23936"><ele>708.0</ele></trkpt>
    <trkpt lat="35.34865" lon="-120.23928"><ele>708.0</ele></trkpt>
    <trkpt lat="35.34857" lon="-120.23924"><ele>708.0</ele></trkpt>
    <trkpt lat="35.34842" lon="-120.23920"><ele>708.0</ele></trkpt>
    <trkpt lat="35.34837" lon="-120.23917"><ele>708.0</ele></trkpt>
    <trkpt lat="35.34826" lon="-120.23914"><ele>701.0</ele></trkpt>
    <trkpt lat="35.34816" lon="-120.23909"><ele>701.0</ele></trkpt>
    <trkpt lat="35.34809" lon="-120.23900"><ele>701.0</ele></trkpt>
    <trkpt lat="35.34801" lon="-120.23891"><ele>701.0</ele></trkpt>
    <trkpt lat="35.34796" lon="-120.23884"><ele>701.0</ele></trkpt>
    <trkpt lat="35.34791" lon="-120.23876"><ele>701.0</ele></trkpt>
    <trkpt lat="35.34783" lon="-120.23866"><ele>692.0</ele></trkpt>
    <trkpt lat="35.34776" lon="-120.23855"><ele>692.0</ele></trkpt>
    <trkpt lat="35.34769" lon="-120.23846"><ele>692.0</ele></trkpt>
    <trkpt lat="35.34760" lon="-120.23836"><ele>692.0</ele></trkpt>
    <trkpt lat="35.34748" lon="-120.23831"><ele>692.0</ele></trkpt>
    <trkpt lat="35.34736" lon="-120.23829"><ele>692.0</ele></trkpt>
    <trkpt lat="35.34728" lon="-120.23830"><ele>689.0</ele></trkpt>
    <trkpt lat="35.34721" lon="-120.23830"><ele>689.0</ele></trkpt>
    <trkpt lat="35.34714" lon="-120.23827"><ele>689.0</ele></trkpt>
    <trkpt lat="35.34711" lon="-120.23817"><ele>689.0</ele></trkpt>
    <trkpt lat="35.34712" lon="-120.23809"><ele>689.0</ele></trkpt>
    <trkpt lat="35.34714" lon="-120.23797"><ele>689.0</ele></trkpt>
    <trkpt lat="35.34714" lon="-120.23791"><ele>685.0</ele></trkpt>
    <trkpt lat="35.34712" lon="-120.23779"><ele>685.0</ele></trkpt>
    <trkpt lat="35.34710" lon="-120.23764"><ele>685.0</ele></trkpt>
    <trkpt lat="35.34707" lon="-120.23754"><ele>685.0</ele></trkpt>
    <trkpt lat="35.34703" lon="-120.23739"><ele>685.0</ele></trkpt>
    <trkpt lat="35.34698" lon="-120.23726"><ele>685.0</ele></trkpt>
    <trkpt lat="35.34694" lon="-120.23716"><ele>682.0</ele></trkpt>
    <trkpt lat="35.34689" lon="-120.23705"><ele>682.0</ele></trkpt>
    <trkpt lat="35.34684" lon="-120.23694"><ele>682.0</ele></trkpt>
    <trkpt lat="35.34678" lon="-120.23684"><ele>682.0</ele></trkpt>
    <trkpt lat="35.34671" lon="-120.23674"><ele>682.0</ele></trkpt>
    <trkpt lat="35.34664" lon="-120.23662"><ele>682.0</ele></trkpt>
    <trkpt lat="35.34658" lon="-120.23647"><ele>682.0</ele></trkpt>
    <trkpt lat="35.34651" lon="-120.23634"><ele>682.0</ele></trkpt>
    <trkpt lat="35.34644" lon="-120.23619"><ele>682.0</ele></trkpt>
    <trkpt lat="35.34639" lon="-120.23610"><ele>682.0</ele></trkpt>
    <trkpt lat="35.34633" lon="-120.23599"><ele>682.0</ele></trkpt>
    <trkpt lat="35.34628" lon="-120.23583"><ele>682.0</ele></trkpt>
    <trkpt lat="35.34626" lon="-120.23571"><ele>682.0</ele></trkpt>
    <trkpt lat="35.34624" lon="-120.23559"><ele>676.0</ele></trkpt>
    <trkpt lat="35.34619" lon="-120.23547"><ele>676.0</ele></trkpt>
    <trkpt lat="35.34616" lon="-120.23532"><ele>676.0</ele></trkpt>
    <trkpt lat="35.34613" lon="-120.23519"><ele>676.0</ele></trkpt>
    <trkpt lat="35.34607" lon="-120.23504"><ele>676.0</ele></trkpt>
    <trkpt lat="35.34603" lon="-120.23494"><ele>676.0</ele></trkpt>
    <trkpt lat="35.34595" lon="-120.23474"><ele>672.0</ele></trkpt>
    <trkpt lat="35.34589" lon="-120.23456"><ele>672.0</ele></trkpt>
    <trkpt lat="35.34585" lon="-120.23446"><ele>672.0</ele></trkpt>
    <trkpt lat="35.34581" lon="-120.23435"><ele>672.0</ele></trkpt>
    <trkpt lat="35.34576" lon="-120.23426"><ele>672.0</ele></trkpt>
    <trkpt lat="35.34570" lon="-120.23415"><ele>672.0</ele></trkpt>
    <trkpt lat="35.34565" lon="-120.23404"><ele>674.0</ele></trkpt>
    <trkpt lat="35.34559" lon="-120.23387"><ele>674.0</ele></trkpt>
    <trkpt lat="35.34553" lon="-120.23374"><ele>674.0</ele></trkpt>
    <trkpt lat="35.34548" lon="-120.23361"><ele>674.0</ele></trkpt>
    <trkpt lat="35.34540" lon="-120.23340"><ele>674.0</ele></trkpt>
    <trkpt lat="35.34538" lon="-120.23330"><ele>674.0</ele></trkpt>
    <trkpt lat="35.34533" lon="-120.23317"><ele>668.0</ele></trkpt>
    <trkpt lat="35.34531" lon="-120.23313"><ele>668.0</ele></trkpt>
    <trkpt lat="35.34523" lon="-120.23298"><ele>668.0</ele></trkpt>
    <trkpt lat="35.34519" lon="-120.23287"><ele>668.0</ele></trkpt>
    <trkpt lat="35.34517" lon="-120.23282"><ele>668.0</ele></trkpt>
    <trkpt lat="35.34515" lon="-120.23277"><ele>668.0</ele></trkpt>
    <trkpt lat="35.34510" lon="-120.23271"><ele>668.0</ele></trkpt>
    <trkpt lat="35.34504" lon="-120.23264"><ele>665.0</ele></trkpt>
    <trkpt lat="35.34499" lon="-120.23258"><ele>665.0</ele></trkpt>
    <trkpt lat="35.34492" lon="-120.23249"><ele>665.0</ele></trkpt>
    <trkpt lat="35.34488" lon="-120.23244"><ele>665.0</ele></trkpt>
    <trkpt lat="35.34482" lon="-120.23238"><ele>665.0</ele></trkpt>
    <trkpt lat="35.34476" lon="-120.23230"><ele>665.0</ele></trkpt>
    <trkpt lat="35.34472" lon="-120.23226"><ele>668.0</ele></trkpt>
    <trkpt lat="35.34467" lon="-120.23221"><ele>668.0</ele></trkpt>
    <trkpt lat="35.34463" lon="-120.23214"><ele>668.0</ele></trkpt>
    <trkpt lat="35.34458" lon="-120.23207"><ele>668.0</ele></trkpt>
    <trkpt lat="35.34452" lon="-120.23197"><ele>668.0</ele></trkpt>
    <trkpt lat="35.34437" lon="-120.23179"><ele>668.0</ele></trkpt>
    <trkpt lat="35.34433" lon="-120.23173"><ele>668.0</ele></trkpt>
    <trkpt lat="35.34421" lon="-120.23157"><ele>668.0</ele></trkpt>
    <trkpt lat="35.34409" lon="-120.23141"><ele>668.0</ele></trkpt>
    <trkpt lat="35.34395" lon="-120.23127"><ele>668.0</ele></trkpt>
    <trkpt lat="35.34386" lon="-120.23119"><ele>668.0</ele></trkpt>
    <trkpt lat="35.34374" lon="-120.23110"><ele>668.0</ele></trkpt>
    <trkpt lat="35.34365" lon="-120.23101"><ele>667.0</ele></trkpt>
    <trkpt lat="35.34356" lon="-120.23091"><ele>667.0</ele></trkpt>
    <trkpt lat="35.34348" lon="-120.23086"><ele>667.0</ele></trkpt>
    <trkpt lat="35.34336" lon="-120.23079"><ele>667.0</ele></trkpt>
    <trkpt lat="35.34325" lon="-120.23072"><ele>667.0</ele></trkpt>
    <trkpt lat="35.34309" lon="-120.23067"><ele>667.0</ele></trkpt>
    <trkpt lat="35.34299" lon="-120.23063"><ele>665.0</ele></trkpt>
    <trkpt lat="35.34289" lon="-120.23061"><ele>665.0</ele></trkpt>
    <trkpt lat="35.34278" lon="-120.23057"><ele>665.0</ele></trkpt>
    <trkpt lat="35.34269" lon="-120.23054"><ele>665.0</ele></trkpt>
    <trkpt lat="35.34252" lon="-120.23045"><ele>665.0</ele></trkpt>
    <trkpt lat="35.34245" lon="-120.23043"><ele>665.0</ele></trkpt>
    <trkpt lat="35.34235" lon="-120.23039"><ele>669.0</ele></trkpt>
    <trkpt lat="35.34227" lon="-120.23036"><ele>669.0</ele></trkpt>
    <trkpt lat="35.34218" lon="-120.23032"><ele>669.0</ele></trkpt>
    <trkpt lat="35.34210" lon="-120.23029"><ele>669.0</ele></trkpt>
    <trkpt lat="35.34195" lon="-120.23020"><ele>669.0</ele></trkpt>
    <trkpt lat="35.34191" lon="-120.23017"><ele>669.0</ele></trkpt>
    <trkpt lat="35.34187" lon="-120.23012"><ele>669.0</ele></trkpt>
    <trkpt lat="35.34182" lon="-120.23006"><ele>672.0</ele></trkpt>
    <trkpt lat="35.34176" lon="-120.22999"><ele>672.0</ele></trkpt>
    <trkpt lat="35.34169" lon="-120.22994"><ele>672.0</ele></trkpt>
    <trkpt lat="35.34161" lon="-120.22987"><ele>672.0</ele></trkpt>
    <trkpt lat="35.34152" lon="-120.22985"><ele>672.0</ele></trkpt>
    <trkpt lat="35.34145" lon="-120.22984"><ele>672.0</ele></trkpt>
    <trkpt lat="35.34135" lon="-120.22983"><ele>678.0</ele></trkpt>
    <trkpt lat="35.34124" lon="-120.22981"><ele>678.0</ele></trkpt>
    <trkpt lat="35.34116" lon="-120.22982"><ele>678.0</ele></trkpt>
    <trkpt lat="35.34108" lon="-120.22982"><ele>678.0</ele></trkpt>
    <trkpt lat="35.34099" lon="-120.22981"><ele>678.0</ele></trkpt>
    <trkpt lat="35.34090" lon="-120.22982"><ele>678.0</ele></trkpt>
    <trkpt lat="35.34080" lon="-120.22982"><ele>684.0</ele></trkpt>
    <trkpt lat="35.34069" lon="-120.22981"><ele>684.0</ele></trkpt>
    <trkpt lat="35.34057" lon="-120.22981"><ele>684.0</ele></trkpt>
    <trkpt lat="35.34046" lon="-120.22979"><ele>684.0</ele></trkpt>
    <trkpt lat="35.34034" lon="-120.22979"><ele>684.0</ele></trkpt>
    <trkpt lat="35.34021" lon="-120.22975"><ele>684.0</ele></trkpt>
    <trkpt lat="35.34011" lon="-120.22971"><ele>689.0</ele></trkpt>
    <trkpt lat="35.34002" lon="-120.22969"><ele>689.0</ele></trkpt>
    <trkpt lat="35.33998" lon="-120.22966"><ele>689.0</ele></trkpt>
    <trkpt lat="35.33978" lon="-120.22951"><ele>689.0</ele></trkpt>
    <trkpt lat="35.33964" lon="-120.22935"><ele>689.0</ele></trkpt>
    <trkpt lat="35.33948" lon="-120.22917"><ele>689.0</ele></trkpt>
    <trkpt lat="35.33934" lon="-120.22897"><ele>701.0</ele></trkpt>
    <trkpt lat="35.33918" lon="-120.22877"><ele>701.0</ele></trkpt>
    <trkpt lat="35.33908" lon="-120.22866"><ele>701.0</ele></trkpt>
    <trkpt lat="35.33894" lon="-120.22857"><ele>701.0</ele></trkpt>
    <trkpt lat="35.33878" lon="-120.22848"><ele>701.0</ele></trkpt>
    <trkpt lat="35.33862" lon="-120.22841"><ele>701.0</ele></trkpt>
    <trkpt lat="35.33840" lon="-120.22827"><ele>701.0</ele></trkpt>
    <trkpt lat="35.33824" lon="-120.22818"><ele>714.0</ele></trkpt>
    <trkpt lat="35.33811" lon="-120.22808"><ele>714.0</ele></trkpt>
    <trkpt lat="35.33802" lon="-120.22795"><ele>714.0</ele></trkpt>
    <trkpt lat="35.33792" lon="-120.22773"><ele>714.0</ele></trkpt>
    <trkpt lat="35.33783" lon="-120.22758"><ele>714.0</ele></trkpt>
    <trkpt lat="35.33772" lon="-120.22743"><ele>714.0</ele></trkpt>
    <trkpt lat="35.33762" lon="-120.22728"><ele>724.0</ele></trkpt>
    <trkpt lat="35.33756" lon="-120.22719"><ele>724.0</ele></trkpt>
    <trkpt lat="35.33738" lon="-120.22704"><ele>724.0</ele></trkpt>
    <trkpt lat="35.33728" lon="-120.22697"><ele>724.0</ele></trkpt>
    <trkpt lat="35.33705" lon="-120.22675"><ele>724.0</ele></trkpt>
    <trkpt lat="35.33698" lon="-120.22674"><ele>724.0</ele></trkpt>
    <trkpt lat="35.33688" lon="-120.22669"><ele>730.0</ele></trkpt>
    <trkpt lat="35.33672" lon="-120.22660"><ele>730.0</ele></trkpt>
    <trkpt lat="35.33657" lon="-120.22654"><ele>730.0</ele></trkpt>
    <trkpt lat="35.33654" lon="-120.22649"><ele>730.0</ele></trkpt>
    <trkpt lat="35.33649" lon="-120.22645"><ele>730.0</ele></trkpt>
    <trkpt lat="35.33644" lon="-120.22642"><ele>730.0</ele></trkpt>
    <trkpt lat="35.33634" lon="-120.22637"><ele>728.0</ele></trkpt>
    <trkpt lat="35.33628" lon="-120.22634"><ele>728.0</ele></trkpt>
    <trkpt lat="35.33621" lon="-120.22630"><ele>728.0</ele></trkpt>
    <trkpt lat="35.33612" lon="-120.22624"><ele>728.0</ele></trkpt>
    <trkpt lat="35.33602" lon="-120.22620"><ele>728.0</ele></trkpt>
    <trkpt lat="35.33597" lon="-120.22618"><ele>728.0</ele></trkpt>
    <trkpt lat="35.33587" lon="-120.22614"><ele>721.0</ele></trkpt>
    <trkpt lat="35.33577" lon="-120.22610"><ele>721.0</ele></trkpt>
    <trkpt lat="35.33571" lon="-120.22604"><ele>721.0</ele></trkpt>
    <trkpt lat="35.33564" lon="-120.22597"><ele>721.0</ele></trkpt>
    <trkpt lat="35.33560" lon="-120.22589"><ele>721.0</ele></trkpt>
    <trkpt lat="35.33558" lon="-120.22578"><ele>721.0</ele></trkpt>
    <trkpt lat="35.33558" lon="-120.22564"><ele>721.0</ele></trkpt>
    <trkpt lat="35.33560" lon="-120.22550"><ele>711.0</ele></trkpt>
    <trkpt lat="35.33564" lon="-120.22538"><ele>711.0</ele></trkpt>
    <trkpt lat="35.33564" lon="-120.22526"><ele>711.0</ele></trkpt>
    <trkpt lat="35.33564" lon="-120.22513"><ele>711.0</ele></trkpt>
    <trkpt lat="35.33562" lon="-120.22498"><ele>711.0</ele></trkpt>
    <trkpt lat="35.33558" lon="-120.22486"><ele>711.0</ele></trkpt>
    <trkpt lat="35.33553" lon="-120.22477"><ele>700.0</ele></trkpt>
    <trkpt lat="35.33543" lon="-120.22459"><ele>700.0</ele></trkpt>
    <trkpt lat="35.33533" lon="-120.22452"><ele>700.0</ele></trkpt>
    <trkpt lat="35.33523" lon="-120.22443"><ele>700.0</ele></trkpt>
    <trkpt lat="35.33514" lon="-120.22436"><ele>700.0</ele></trkpt>
    <trkpt lat="35.33507" lon="-120.22430"><ele>700.0</ele></trkpt>
    <trkpt lat="35.33500" lon="-120.22423"><ele>691.0</ele></trkpt>
    <trkpt lat="35.33492" lon="-120.22415"><ele>691.0</ele></trkpt>
    <trkpt lat="35.33484" lon="-120.22406"><ele>691.0</ele></trkpt>
    <trkpt lat="35.33478" lon="-120.22398"><ele>691.0</ele></trkpt>
    <trkpt lat="35.33472" lon="-120.22387"><ele>691.0</ele></trkpt>
    <trkpt lat="35.33467" lon="-120.22372"><ele>691.0</ele></trkpt>
    <trkpt lat="35.33468" lon="-120.22362"><ele>691.0</ele></trkpt>
    <trkpt lat="35.33473" lon="-120.22349"><ele>691.0</ele></trkpt>
    <trkpt lat="35.33477" lon="-120.22339"><ele>691.0</ele></trkpt>
    <trkpt lat="35.33478" lon="-120.22328"><ele>691.0</ele></trkpt>
    <trkpt lat="35.33478" lon="-120.22317"><ele>691.0</ele></trkpt>
    <trkpt lat="35.33475" lon="-120.22293"><ele>691.0</ele></trkpt>
    <trkpt lat="35.33474" lon="-120.22282"><ele>689.0</ele></trkpt>
    <trkpt lat="35.33474" lon="-120.22272"><ele>689.0</ele></trkpt>
    <trkpt lat="35.33474" lon="-120.22261"><ele>689.0</ele></trkpt>
    <trkpt lat="35.33474" lon="-120.22252"><ele>689.0</ele></trkpt>
    <trkpt lat="35.33476" lon="-120.22237"><ele>689.0</ele></trkpt>
    <trkpt lat="35.33477" lon="-120.22220"><ele>689.0</ele></trkpt>
    <trkpt lat="35.33478" lon="-120.22206"><ele>689.0</ele></trkpt>
    <trkpt lat="35.33480" lon="-120.22192"><ele>682.0</ele></trkpt>
    <trkpt lat="35.33483" lon="-120.22178"><ele>682.0</ele></trkpt>
    <trkpt lat="35.33483" lon="-120.22164"><ele>682.0</ele></trkpt>
    <trkpt lat="35.33485" lon="-120.22139"><ele>682.0</ele></trkpt>
    <trkpt lat="35.33488" lon="-120.22127"><ele>682.0</ele></trkpt>
    <trkpt lat="35.33489" lon="-120.22113"><ele>682.0</ele></trkpt>
    <trkpt lat="35.33490" lon="-120.22100"><ele>675.0</ele></trkpt>
    <trkpt lat="35.33493" lon="-120.22082"><ele>675.0</ele></trkpt>
    <trkpt lat="35.33495" lon="-120.22064"><ele>675.0</ele></trkpt>
    <trkpt lat="35.33499" lon="-120.22046"><ele>675.0</ele></trkpt>
    <trkpt lat="35.33502" lon="-120.22028"><ele>675.0</ele></trkpt>
    <trkpt lat="35.33506" lon="-120.22008"><ele>675.0</ele></trkpt>
    <trkpt lat="35.33509" lon="-120.21996"><ele>671.0</ele></trkpt>
    <trkpt lat="35.33512" lon="-120.21984"><ele>671.0</ele></trkpt>
    <trkpt lat="35.33517" lon="-120.21973"><ele>671.0</ele></trkpt>
    <trkpt lat="35.33525" lon="-120.21956"><ele>671.0</ele></trkpt>
    <trkpt lat="35.33531" lon="-120.21944"><ele>671.0</ele></trkpt>
    <trkpt lat="35.33539" lon="-120.21933"><ele>671.0</ele></trkpt>
    <trkpt lat="35.33549" lon="-120.21917"><ele>669.0</ele></trkpt>
    <trkpt lat="35.33555" lon="-120.21906"><ele>669.0</ele></trkpt>
    <trkpt lat="35.33560" lon="-120.21895"><ele>669.0</ele></trkpt>
    <trkpt lat="35.33563" lon="-120.21882"><ele>669.0</ele></trkpt>
    <trkpt lat="35.33565" lon="-120.21868"><ele>669.0</ele></trkpt>
    <trkpt lat="35.33570" lon="-120.21848"><ele>669.0</ele></trkpt>
    <trkpt lat="35.33572" lon="-120.21835"><ele>664.0</ele></trkpt>
    <trkpt lat="35.33577" lon="-120.21819"><ele>664.0</ele></trkpt>
    <trkpt lat="35.33584" lon="-120.21805"><ele>664.0</ele></trkpt>
    <trkpt lat="35.33589" lon="-120.21791"><ele>664.0</ele></trkpt>
    <trkpt lat="35.33596" lon="-120.21774"><ele>664.0</ele></trkpt>
    <trkpt lat="35.33602" lon="-120.21757"><ele>664.0</ele></trkpt>
    <trkpt lat="35.33609" lon="-120.21738"><ele>664.0</ele></trkpt>
    <trkpt lat="35.33616" lon="-120.21724"><ele>662.0</ele></trkpt>
    <trkpt lat="35.33623" lon="-120.21706"><ele>662.0</ele></trkpt>
    <trkpt lat="35.33628" lon="-120.21692"><ele>662.0</ele></trkpt>
    <trkpt lat="35.33637" lon="-120.21666"><ele>662.0</ele></trkpt>
    <trkpt lat="35.33641" lon="-120.21654"><ele>662.0</ele></trkpt>
    <trkpt lat="35.33645" lon="-120.21639"><ele>662.0</ele></trkpt>
    <trkpt lat="35.33649" lon="-120.21628"><ele>656.0</ele></trkpt>
    <trkpt lat="35.33652" lon="-120.21617"><ele>656.0</ele></trkpt>
    <trkpt lat="35.33657" lon="-120.21601"><ele>656.0</ele></trkpt>
    <trkpt lat="35.33666" lon="-120.21586"><ele>656.0</ele></trkpt>
    <trkpt lat="35.33675" lon="-120.21577"><ele>656.0</ele></trkpt>
    <trkpt lat="35.33687" lon="-120.21565"><ele>656.0</ele></trkpt>
    <trkpt lat="35.33697" lon="-120.21558"><ele>653.0</ele></trkpt>
    <trkpt lat="35.33712" lon="-120.21549"><ele>653.0</ele></trkpt>
    <trkpt lat="35.33726" lon="-120.21542"><ele>653.0</ele></trkpt>
    <trkpt lat="35.33735" lon="-120.21532"><ele>653.0</ele></trkpt>
    <trkpt lat="35.33740" lon="-120.21519"><ele>653.0</ele></trkpt>
    <trkpt lat="35.33743" lon="-120.21503"><ele>653.0</ele></trkpt>
    <trkpt lat="35.33748" lon="-120.21493"><ele>650.0</ele></trkpt>
    <trkpt lat="35.33755" lon="-120.21477"><ele>650.0</ele></trkpt>
    <trkpt lat="35.33772" lon="-120.21453"><ele>650.0</ele></trkpt>
    <trkpt lat="35.33782" lon="-120.21440"><ele>650.0</ele></trkpt>
    <trkpt lat="35.33790" lon="-120.21428"><ele>650.0</ele></trkpt>
    <trkpt lat="35.33799" lon="-120.21415"><ele>650.0</ele></trkpt>
    <trkpt lat="35.33808" lon="-120.21403"><ele>647.0</ele></trkpt>
    <trkpt lat="35.33812" lon="-120.21394"><ele>647.0</ele></trkpt>
    <trkpt lat="35.33818" lon="-120.21384"><ele>647.0</ele></trkpt>
    <trkpt lat="35.33823" lon="-120.21375"><ele>647.0</ele></trkpt>
    <trkpt lat="35.33826" lon="-120.21367"><ele>647.0</ele></trkpt>
    <trkpt lat="35.33835" lon="-120.21353"><ele>647.0</ele></trkpt>
    <trkpt lat="35.33848" lon="-120.21345"><ele>642.0</ele></trkpt>
    <trkpt lat="35.33861" lon="-120.21336"><ele>642.0</ele></trkpt>
    <trkpt lat="35.33878" lon="-120.21326"><ele>642.0</ele></trkpt>
    <trkpt lat="35.33895" lon="-120.21316"><ele>642.0</ele></trkpt>
    <trkpt lat="35.33908" lon="-120.21316"><ele>642.0</ele></trkpt>
    <trkpt lat="35.33915" lon="-120.21318"><ele>642.0</ele></trkpt>
    <trkpt lat="35.33924" lon="-120.21321"><ele>642.0</ele></trkpt>
    <trkpt lat="35.33930" lon="-120.21324"><ele>645.0</ele></trkpt>
    <trkpt lat="35.33937" lon="-120.21332"><ele>645.0</ele></trkpt>
    <trkpt lat="35.33942" lon="-120.21340"><ele>645.0</ele></trkpt>
    <trkpt lat="35.33951" lon="-120.21348"><ele>645.0</ele></trkpt>
    <trkpt lat="35.33960" lon="-120.21349"><ele>645.0</ele></trkpt>
    <trkpt lat="35.33979" lon="-120.21350"><ele>645.0</ele></trkpt>
    <trkpt lat="35.33988" lon="-120.21349"><ele>652.0</ele></trkpt>
    <trkpt lat="35.34000" lon="-120.21346"><ele>652.0</ele></trkpt>
    <trkpt lat="35.34010" lon="-120.21345"><ele>652.0</ele></trkpt>
    <trkpt lat="35.34020" lon="-120.21336"><ele>652.0</ele></trkpt>
    <trkpt lat="35.34027" lon="-120.21327"><ele>652.0</ele></trkpt>
    <trkpt lat="35.34036" lon="-120.21317"><ele>652.0</ele></trkpt>
    <trkpt lat="35.34045" lon="-120.21312"><ele>653.0</ele></trkpt>
    <trkpt lat="35.34056" lon="-120.21307"><ele>653.0</ele></trkpt>
    <trkpt lat="35.34076" lon="-120.21302"><ele>653.0</ele></trkpt>
    <trkpt lat="35.34091" lon="-120.21300"><ele>653.0</ele></trkpt>
    <trkpt lat="35.34108" lon="-120.21297"><ele>653.0</ele></trkpt>
    <trkpt lat="35.34124" lon="-120.21291"><ele>653.0</ele></trkpt>
    <trkpt lat="35.34136" lon="-120.21284"><ele>650.0</ele></trkpt>
    <trkpt lat="35.34149" lon="-120.21273"><ele>650.0</ele></trkpt>
    <trkpt lat="35.34159" lon="-120.21258"><ele>650.0</ele></trkpt>
    <trkpt lat="35.34164" lon="-120.21245"><ele>650.0</ele></trkpt>
    <trkpt lat="35.34168" lon="-120.21234"><ele>650.0</ele></trkpt>
    <trkpt lat="35.34174" lon="-120.21226"><ele>650.0</ele></trkpt>
    <trkpt lat="35.34182" lon="-120.21216"><ele>650.0</ele></trkpt>
    <trkpt lat="35.34191" lon="-120.21210"><ele>650.0</ele></trkpt>
    <trkpt lat="35.34202" lon="-120.21201"><ele>650.0</ele></trkpt>
    <trkpt lat="35.34206" lon="-120.21199"><ele>650.0</ele></trkpt>
    <trkpt lat="35.34215" lon="-120.21192"><ele>650.0</ele></trkpt>
    <trkpt lat="35.34224" lon="-120.21192"><ele>650.0</ele></trkpt>
    <trkpt lat="35.34234" lon="-120.21197"><ele>650.0</ele></trkpt>
    <trkpt lat="35.34244" lon="-120.21194"><ele>652.0</ele></trkpt>
    <trkpt lat="35.34251" lon="-120.21191"><ele>652.0</ele></trkpt>
    <trkpt lat="35.34255" lon="-120.21180"><ele>652.0</ele></trkpt>
    <trkpt lat="35.34259" lon="-120.21163"><ele>652.0</ele></trkpt>
    <trkpt lat="35.34267" lon="-120.21171"><ele>652.0</ele></trkpt>
    <trkpt lat="35.34275" lon="-120.21180"><ele>652.0</ele></trkpt>
    <trkpt lat="35.34287" lon="-120.21185"><ele>658.0</ele></trkpt>
    <trkpt lat="35.34301" lon="-120.21177"><ele>658.0</ele></trkpt>
    <trkpt lat="35.34314" lon="-120.21182"><ele>658.0</ele></trkpt>
    <trkpt lat="35.34324" lon="-120.21190"><ele>658.0</ele></trkpt>
    <trkpt lat="35.34334" lon="-120.21196"><ele>658.0</ele></trkpt>
    <trkpt lat="35.34346" lon="-120.21199"><ele>658.0</ele></trkpt>
    <trkpt lat="35.34355" lon="-120.21200"><ele>661.0</ele></trkpt>
    <trkpt lat="35.34369" lon="-120.21198"><ele>661.0</ele></trkpt>
    <trkpt lat="35.34382" lon="-120.21195"><ele>661.0</ele></trkpt>
    <trkpt lat="35.34394" lon="-120.21190"><ele>661.0</ele></trkpt>
    <trkpt lat="35.34405" lon="-120.21187"><ele>661.0</ele></trkpt>
    <trkpt lat="35.34417" lon="-120.21180"><ele>661.0</ele></trkpt>
    <trkpt lat="35.34430" lon="-120.21172"><ele>657.0</ele></trkpt>
    <trkpt lat="35.34441" lon="-120.21167"><ele>657.0</ele></trkpt>
    <trkpt lat="35.34449" lon="-120.21161"><ele>657.0</ele></trkpt>
    <trkpt lat="35.34454" lon="-120.21152"><ele>657.0</ele></trkpt>
    <trkpt lat="35.34461" lon="-120.21145"><ele>657.0</ele></trkpt>
    <trkpt lat="35.34469" lon="-120.21143"><ele>657.0</ele></trkpt>
    <trkpt lat="35.34479" lon="-120.21144"><ele>653.0</ele></trkpt>
    <trkpt lat="35.34490" lon="-120.21144"><ele>653.0</ele></trkpt>
    <trkpt lat="35.34493" lon="-120.21140"><ele>653.0</ele></trkpt>
    <trkpt lat="35.34498" lon="-120.21129"><ele>653.0</ele></trkpt>
    <trkpt lat="35.34504" lon="-120.21119"><ele>653.0</ele></trkpt>
    <trkpt lat="35.34512" lon="-120.21107"><ele>653.0</ele></trkpt>
    <trkpt lat="35.34525" lon="-120.21100"><ele>653.0</ele></trkpt>
    <trkpt lat="35.34540" lon="-120.21100"><ele>653.0</ele></trkpt>
    <trkpt lat="35.34557" lon="-120.21101"><ele>653.0</ele></trkpt>
    <trkpt lat="35.34569" lon="-120.21098"><ele>653.0</ele></trkpt>
    <trkpt lat="35.34581" lon="-120.21093"><ele>653.0</ele></trkpt>
    <trkpt lat="35.34590" lon="-120.21087"><ele>653.0</ele></trkpt>
    <trkpt lat="35.34600" lon="-120.21082"><ele>653.0</ele></trkpt>
    <trkpt lat="35.34606" lon="-120.21076"><ele>652.0</ele></trkpt>
    <trkpt lat="35.34612" lon="-120.21066"><ele>652.0</ele></trkpt>
    <trkpt lat="35.34623" lon="-120.21044"><ele>652.0</ele></trkpt>
    <trkpt lat="35.34636" lon="-120.21020"><ele>652.0</ele></trkpt>
    <trkpt lat="35.34644" lon="-120.21003"><ele>652.0</ele></trkpt>
    <trkpt lat="35.34652" lon="-120.20987"><ele>652.0</ele></trkpt>
    <trkpt lat="35.34661" lon="-120.20967"><ele>646.0</ele></trkpt>
    <trkpt lat="35.34669" lon="-120.20954"><ele>646.0</ele></trkpt>
    <trkpt lat="35.34679" lon="-120.20938"><ele>646.0</ele></trkpt>
    <trkpt lat="35.34688" lon="-120.20920"><ele>646.0</ele></trkpt>
    <trkpt lat="35.34693" lon="-120.20907"><ele>646.0</ele></trkpt>
    <trkpt lat="35.34697" lon="-120.20897"><ele>646.0</ele></trkpt>
    <trkpt lat="35.34700" lon="-120.20882"><ele>645.0</ele></trkpt>
    <trkpt lat="35.34699" lon="-120.20870"><ele>645.0</ele></trkpt>
    <trkpt lat="35.34696" lon="-120.20856"><ele>645.0</ele></trkpt>
    <trkpt lat="35.34692" lon="-120.20842"><ele>645.0</ele></trkpt>
    <trkpt lat="35.34685" lon="-120.20832"><ele>645.0</ele></trkpt>
    <trkpt lat="35.34677" lon="-120.20822"><ele>645.0</ele></trkpt>
    <trkpt lat="35.34668" lon="-120.20813"><ele>640.0</ele></trkpt>
    <trkpt lat="35.34663" lon="-120.20805"><ele>640.0</ele></trkpt>
    <trkpt lat="35.34655" lon="-120.20792"><ele>640.0</ele></trkpt>
    <trkpt lat="35.34653" lon="-120.20782"><ele>640.0</ele></trkpt>
    <trkpt lat="35.34651" lon="-120.20768"><ele>640.0</ele></trkpt>
    <trkpt lat="35.34652" lon="-120.20752"><ele>640.0</ele></trkpt>
    <trkpt lat="35.34655" lon="-120.20738"><ele>640.0</ele></trkpt>
    <trkpt lat="35.34660" lon="-120.20725"><ele>639.0</ele></trkpt>
    <trkpt lat="35.34667" lon="-120.20714"><ele>639.0</ele></trkpt>
    <trkpt lat="35.34679" lon="-120.20703"><ele>639.0</ele></trkpt>
    <trkpt lat="35.34691" lon="-120.20694"><ele>639.0</ele></trkpt>
    <trkpt lat="35.34706" lon="-120.20687"><ele>639.0</ele></trkpt>
    <trkpt lat="35.34715" lon="-120.20681"><ele>639.0</ele></trkpt>
    <trkpt lat="35.34724" lon="-120.20677"><ele>633.0</ele></trkpt>
    <trkpt lat="35.34731" lon="-120.20674"><ele>633.0</ele></trkpt>
    <trkpt lat="35.34740" lon="-120.20664"><ele>633.0</ele></trkpt>
    <trkpt lat="35.34746" lon="-120.20655"><ele>633.0</ele></trkpt>
    <trkpt lat="35.34754" lon="-120.20645"><ele>633.0</ele></trkpt>
    <trkpt lat="35.34758" lon="-120.20633"><ele>633.0</ele></trkpt>
    <trkpt lat="35.34766" lon="-120.20615"><ele>629.0</ele></trkpt>
    <trkpt lat="35.34771" lon="-120.20601"><ele>629.0</ele></trkpt>
    <trkpt lat="35.34776" lon="-120.20587"><ele>629.0</ele></trkpt>
    <trkpt lat="35.34780" lon="-120.20576"><ele>629.0</ele></trkpt>
    <trkpt lat="35.34782" lon="-120.20561"><ele>629.0</ele></trkpt>
    <trkpt lat="35.34782" lon="-120.20545"><ele>629.0</ele></trkpt>
    <trkpt lat="35.34786" lon="-120.20530"><ele>621.0</ele></trkpt>
    <trkpt lat="35.34791" lon="-120.20522"><ele>621.0</ele></trkpt>
    <trkpt lat="35.34799" lon="-120.20512"><ele>621.0</ele></trkpt>
    <trkpt lat="35.34809" lon="-120.20507"><ele>621.0</ele></trkpt>
    <trkpt lat="35.34819" lon="-120.20503"><ele>621.0</ele></trkpt>
    <trkpt lat="35.34825" lon="-120.20496"><ele>621.0</ele></trkpt>
    <trkpt lat="35.34830" lon="-120.20489"><ele>610.0</ele></trkpt>
    <trkpt lat="35.34846" lon="-120.20465"><ele>610.0</ele></trkpt>
    <trkpt lat="35.34856" lon="-120.20450"><ele>610.0</ele></trkpt>
    <trkpt lat="35.34864" lon="-120.20442"><ele>610.0</ele></trkpt>
    <trkpt lat="35.34875" lon="-120.20434"><ele>610.0</ele></trkpt>
    <trkpt lat="35.34886" lon="-120.20430"><ele>610.0</ele></trkpt>
    <trkpt lat="35.34901" lon="-120.20432"><ele>596.0</ele></trkpt>
    <trkpt lat="35.34912" lon="-120.20432"><ele>596.0</ele></trkpt>
    <trkpt lat="35.34923" lon="-120.20433"><ele>596.0</ele></trkpt>
    <trkpt lat="35.34934" lon="-120.20429"><ele>596.0</ele></trkpt>
    <trkpt lat="35.34941" lon="-120.20418"><ele>596.0</ele></trkpt>
    <trkpt lat="35.34948" lon="-120.20404"><ele>596.0</ele></trkpt>
    <trkpt lat="35.34954" lon="-120.20394"><ele>596.0</ele></trkpt>
    <trkpt lat="35.34962" lon="-120.20387"><ele>582.0</ele></trkpt>
    <trkpt lat="35.34970" lon="-120.20383"><ele>582.0</ele></trkpt>
    <trkpt lat="35.34977" lon="-120.20382"><ele>582.0</ele></trkpt>
    <trkpt lat="35.34985" lon="-120.20383"><ele>582.0</ele></trkpt>
    <trkpt lat="35.34991" lon="-120.20386"><ele>582.0</ele></trkpt>
    <trkpt lat="35.34996" lon="-120.20393"><ele>582.0</ele></trkpt>
    <trkpt lat="35.35001" lon="-120.20407"><ele>575.0</ele></trkpt>
    <trkpt lat="35.35013" lon="-120.20423"><ele>575.0</ele></trkpt>
    <trkpt lat="35.35021" lon="-120.20434"><ele>575.0</ele></trkpt>
    <trkpt lat="35.35032" lon="-120.20443"><ele>575.0</ele></trkpt>
    <trkpt lat="35.35043" lon="-120.20453"><ele>575.0</ele></trkpt>
    <trkpt lat="35.35058" lon="-120.20464"><ele>575.0</ele></trkpt>
    <trkpt lat="35.35066" lon="-120.20476"><ele>563.0</ele></trkpt>
    <trkpt lat="35.35074" lon="-120.20490"><ele>563.0</ele></trkpt>
    <trkpt lat="35.35079" lon="-120.20501"><ele>563.0</ele></trkpt>
    <trkpt lat="35.35083" lon="-120.20518"><ele>563.0</ele></trkpt>
    <trkpt lat="35.35088" lon="-120.20534"><ele>563.0</ele></trkpt>
    <trkpt lat="35.35092" lon="-120.20545"><ele>563.0</ele></trkpt>
    <trkpt lat="35.35099" lon="-120.20564"><ele>556.0</ele></trkpt>
    <trkpt lat="35.35105" lon="-120.20578"><ele>556.0</ele></trkpt>
    <trkpt lat="35.35113" lon="-120.20592"><ele>556.0</ele></trkpt>
    <trkpt lat="35.35120" lon="-120.20600"><ele>556.0</ele></trkpt>
    <trkpt lat="35.35129" lon="-120.20606"><ele>556.0</ele></trkpt>
    <trkpt lat="35.35140" lon="-120.20606"><ele>556.0</ele></trkpt>
    <trkpt lat="35.35151" lon="-120.20601"><ele>544.0</ele></trkpt>
    <trkpt lat="35.35160" lon="-120.20591"><ele>544.0</ele></trkpt>
    <trkpt lat="35.35165" lon="-120.20570"><ele>544.0</ele></trkpt>
    <trkpt lat="35.35167" lon="-120.20544"><ele>544.0</ele></trkpt>
    <trkpt lat="35.35169" lon="-120.20524"><ele>544.0</ele></trkpt>
    <trkpt lat="35.35168" lon="-120.20504"><ele>544.0</ele></trkpt>
    <trkpt lat="35.35169" lon="-120.20485"><ele>544.0</ele></trkpt>
    <trkpt lat="35.35170" lon="-120.20464"><ele>541.0</ele></trkpt>
    <trkpt lat="35.35170" lon="-120.20441"><ele>541.0</ele></trkpt>
    <trkpt lat="35.35171" lon="-120.20419"><ele>541.0</ele></trkpt>
    <trkpt lat="35.35175" lon="-120.20405"><ele>541.0</ele></trkpt>
    <trkpt lat="35.35181" lon="-120.20386"><ele>541.0</ele></trkpt>
    <trkpt lat="35.35189" lon="-120.20370"><ele>541.0</ele></trkpt>
    <trkpt lat="35.35200" lon="-120.20353"><ele>543.0</ele></trkpt>
    <trkpt lat="35.35207" lon="-120.20341"><ele>543.0</ele></trkpt>
    <trkpt lat="35.35214" lon="-120.20330"><ele>543.0</ele></trkpt>
  </trkseg></trk>
</gpx>
