<?xml version="1.0" encoding="UTF-8"?>
<gpx version="1.1" creator="dirt-bikes build-area-routes (MVUM geometry + SRTM elevation)" xmlns="http://www.topografix.com/GPX/1/1">
  <trk><name>Red Hill Road</name><trkseg>
    <trkpt lat="33.76276" lon="-116.74427"><ele>1837.0</ele></trkpt>
    <trkpt lat="33.76269" lon="-116.74430"><ele>1837.0</ele></trkpt>
    <trkpt lat="33.76262" lon="-116.74430"><ele>1837.0</ele></trkpt>
    <trkpt lat="33.76253" lon="-116.74429"><ele>1837.0</ele></trkpt>
    <trkpt lat="33.76245" lon="-116.74431"><ele>1840.0</ele></trkpt>
    <trkpt lat="33.76237" lon="-116.74436"><ele>1840.0</ele></trkpt>
    <trkpt lat="33.76224" lon="-116.74451"><ele>1840.0</ele></trkpt>
    <trkpt lat="33.76210" lon="-116.74470"><ele>1840.0</ele></trkpt>
    <trkpt lat="33.76198" lon="-116.74483"><ele>1840.0</ele></trkpt>
    <trkpt lat="33.76188" lon="-116.74495"><ele>1840.0</ele></trkpt>
    <trkpt lat="33.76181" lon="-116.74500"><ele>1831.0</ele></trkpt>
    <trkpt lat="33.76172" lon="-116.74505"><ele>1831.0</ele></trkpt>
    <trkpt lat="33.76162" lon="-116.74508"><ele>1831.0</ele></trkpt>
    <trkpt lat="33.76153" lon="-116.74509"><ele>1831.0</ele></trkpt>
    <trkpt lat="33.76140" lon="-116.74504"><ele>1831.0</ele></trkpt>
    <trkpt lat="33.76128" lon="-116.74495"><ele>1842.0</ele></trkpt>
    <trkpt lat="33.76120" lon="-116.74486"><ele>1842.0</ele></trkpt>
    <trkpt lat="33.76114" lon="-116.74482"><ele>1842.0</ele></trkpt>
    <trkpt lat="33.76109" lon="-116.74483"><ele>1842.0</ele></trkpt>
    <trkpt lat="33.76104" lon="-116.74493"><ele>1842.0</ele></trkpt>
    <trkpt lat="33.76102" lon="-116.74508"><ele>1842.0</ele></trkpt>
    <trkpt lat="33.76099" lon="-116.74523"><ele>1830.0</ele></trkpt>
    <trkpt lat="33.76095" lon="-116.74539"><ele>1830.0</ele></trkpt>
    <trkpt lat="33.76088" lon="-116.74554"><ele>1830.0</ele></trkpt>
    <trkpt lat="33.76082" lon="-116.74565"><ele>1830.0</ele></trkpt>
    <trkpt lat="33.76077" lon="-116.74576"><ele>1830.0</ele></trkpt>
    <trkpt lat="33.76072" lon="-116.74598"><ele>1830.0</ele></trkpt>
    <trkpt lat="33.76068" lon="-116.74617"><ele>1821.0</ele></trkpt>
    <trkpt lat="33.76063" lon="-116.74631"><ele>1821.0</ele></trkpt>
    <trkpt lat="33.76058" lon="-116.74651"><ele>1821.0</ele></trkpt>
    <trkpt lat="33.76054" lon="-116.74666"><ele>1821.0</ele></trkpt>
    <trkpt lat="33.76053" lon="-116.74677"><ele>1821.0</ele></trkpt>
    <trkpt lat="33.76053" lon="-116.74688"><ele>1821.0</ele></trkpt>
    <trkpt lat="33.76052" lon="-116.74700"><ele>1813.0</ele></trkpt>
    <trkpt lat="33.76048" lon="-116.74726"><ele>1813.0</ele></trkpt>
    <trkpt lat="33.76046" lon="-116.74738"><ele>1813.0</ele></trkpt>
    <trkpt lat="33.76041" lon="-116.74768"><ele>1813.0</ele></trkpt>
    <trkpt lat="33.76037" lon="-116.74784"><ele>1813.0</ele></trkpt>
    <trkpt lat="33.76036" lon="-116.74797"><ele>1813.0</ele></trkpt>
    <trkpt lat="33.76034" lon="-116.74808"><ele>1806.0</ele></trkpt>
    <trkpt lat="33.76031" lon="-116.74817"><ele>1806.0</ele></trkpt>
    <trkpt lat="33.76025" lon="-116.74826"><ele>1806.0</ele></trkpt>
    <trkpt lat="33.76020" lon="-116.74838"><ele>1806.0</ele></trkpt>
    <trkpt lat="33.76012" lon="-116.74850"><ele>1806.0</ele></trkpt>
    <trkpt lat="33.76005" lon="-116.74858"><ele>1806.0</ele></trkpt>
    <trkpt lat="33.76001" lon="-116.74865"><ele>1806.0</ele></trkpt>
    <trkpt lat="33.76001" lon="-116.74874"><ele>1806.0</ele></trkpt>
    <trkpt lat="33.76002" lon="-116.74881"><ele>1806.0</ele></trkpt>
    <trkpt lat="33.76005" lon="-116.74888"><ele>1806.0</ele></trkpt>
    <trkpt lat="33.76005" lon="-116.74895"><ele>1806.0</ele></trkpt>
    <trkpt lat="33.76003" lon="-116.74907"><ele>1796.0</ele></trkpt>
    <trkpt lat="33.75999" lon="-116.74923"><ele>1796.0</ele></trkpt>
    <trkpt lat="33.76001" lon="-116.74936"><ele>1796.0</ele></trkpt>
    <trkpt lat="33.76005" lon="-116.74952"><ele>1796.0</ele></trkpt>
    <trkpt lat="33.76005" lon="-116.74968"><ele>1796.0</ele></trkpt>
    <trkpt lat="33.76003" lon="-116.74981"><ele>1796.0</ele></trkpt>
    <trkpt lat="33.75999" lon="-116.74994"><ele>1786.0</ele></trkpt>
    <trkpt lat="33.75993" lon="-116.75004"><ele>1786.0</ele></trkpt>
    <trkpt lat="33.75985" lon="-116.75011"><ele>1786.0</ele></trkpt>
    <trkpt lat="33.75976" lon="-116.75018"><ele>1786.0</ele></trkpt>
    <trkpt lat="33.75967" lon="-116.75028"><ele>1786.0</ele></trkpt>
    <trkpt lat="33.75960" lon="-116.75040"><ele>1786.0</ele></trkpt>
    <trkpt lat="33.75955" lon="-116.75056"><ele>1779.0</ele></trkpt>
    <trkpt lat="33.75953" lon="-116.75068"><ele>1779.0</ele></trkpt>
    <trkpt lat="33.75947" lon="-116.75075"><ele>1779.0</ele></trkpt>
    <trkpt lat="33.75939" lon="-116.75079"><ele>1779.0</ele></trkpt>
    <trkpt lat="33.75926" lon="-116.75087"><ele>1779.0</ele></trkpt>
    <trkpt lat="33.75916" lon="-116.75094"><ele>1779.0</ele></trkpt>
    <trkpt lat="33.75904" lon="-116.75104"><ele>1776.0</ele></trkpt>
    <trkpt lat="33.75895" lon="-116.75107"><ele>1776.0</ele></trkpt>
    <trkpt lat="33.75885" lon="-116.75112"><ele>1776.0</ele></trkpt>
    <trkpt lat="33.75880" lon="-116.75112"><ele>1776.0</ele></trkpt>
    <trkpt lat="33.75870" lon="-116.75106"><ele>1776.0</ele></trkpt>
    <trkpt lat="33.75859" lon="-116.75097"><ele>1782.0</ele></trkpt>
    <trkpt lat="33.75849" lon="-116.75089"><ele>1782.0</ele></trkpt>
    <trkpt lat="33.75843" lon="-116.75083"><ele>1782.0</ele></trkpt>
    <trkpt lat="33.75836" lon="-116.75080"><ele>1782.0</ele></trkpt>
    <trkpt lat="33.75828" lon="-116.75082"><ele>1782.0</ele></trkpt>
    <trkpt lat="33.75819" lon="-116.75088"><ele>1782.0</ele></trkpt>
    <trkpt lat="33.75809" lon="-116.75097"><ele>1776.0</ele></trkpt>
    <trkpt lat="33.75802" lon="-116.75109"><ele>1776.0</ele></trkpt>
    <trkpt lat="33.75800" lon="-116.75119"><ele>1776.0</ele></trkpt>
    <trkpt lat="33.75798" lon="-116.75134"><ele>1776.0</ele></trkpt>
    <trkpt lat="33.75795" lon="-116.75146"><ele>1776.0</ele></trkpt>
    <trkpt lat="33.75792" lon="-116.75155"><ele>1776.0</ele></trkpt>
    <trkpt lat="33.75785" lon="-116.75163"><ele>1768.0</ele></trkpt>
    <trkpt lat="33.75776" lon="-116.75168"><ele>1768.0</ele></trkpt>
    <trkpt lat="33.75770" lon="-116.75169"><ele>1768.0</ele></trkpt>
    <trkpt lat="33.75765" lon="-116.75170"><ele>1768.0</ele></trkpt>
    <trkpt lat="33.75759" lon="-116.75171"><ele>1768.0</ele></trkpt>
    <trkpt lat="33.75752" lon="-116.75169"><ele>1768.0</ele></trkpt>
    <trkpt lat="33.75746" lon="-116.75165"><ele>1773.0</ele></trkpt>
    <trkpt lat="33.75742" lon="-116.75161"><ele>1773.0</ele></trkpt>
    <trkpt lat="33.75738" lon="-116.75157"><ele>1773.0</ele></trkpt>
    <trkpt lat="33.75732" lon="-116.75152"><ele>1773.0</ele></trkpt>
    <trkpt lat="33.75727" lon="-116.75148"><ele>1773.0</ele></trkpt>
    <trkpt lat="33.75720" lon="-116.75142"><ele>1773.0</ele></trkpt>
    <trkpt lat="33.75715" lon="-116.75138"><ele>1779.0</ele></trkpt>
    <trkpt lat="33.75709" lon="-116.75137"><ele>1779.0</ele></trkpt>
    <trkpt lat="33.75705" lon="-116.75139"><ele>1779.0</ele></trkpt>
    <trkpt lat="33.75705" lon="-116.75146"><ele>1779.0</ele></trkpt>
    <trkpt lat="33.75706" lon="-116.75158"><ele>1779.0</ele></trkpt>
    <trkpt lat="33.75706" lon="-116.75170"><ele>1774.0</ele></trkpt>
    <trkpt lat="33.75707" lon="-116.75180"><ele>1774.0</ele></trkpt>
    <trkpt lat="33.75708" lon="-116.75189"><ele>1774.0</ele></trkpt>
    <trkpt lat="33.75708" lon="-116.75200"><ele>1774.0</ele></trkpt>
    <trkpt lat="33.75708" lon="-116.75207"><ele>1774.0</ele></trkpt>
    <trkpt lat="33.75707" lon="-116.75216"><ele>1774.0</ele></trkpt>
    <trkpt lat="33.75706" lon="-116.75224"><ele>1770.0</ele></trkpt>
    <trkpt lat="33.75704" lon="-116.75231"><ele>1770.0</ele></trkpt>
    <trkpt lat="33.75702" lon="-116.75239"><ele>1770.0</ele></trkpt>
    <trkpt lat="33.75700" lon="-116.75248"><ele>1770.0</ele></trkpt>
    <trkpt lat="33.75699" lon="-116.75256"><ele>1770.0</ele></trkpt>
    <trkpt lat="33.75694" lon="-116.75267"><ele>1770.0</ele></trkpt>
    <trkpt lat="33.75691" lon="-116.75277"><ele>1764.0</ele></trkpt>
    <trkpt lat="33.75688" lon="-116.75285"><ele>1764.0</ele></trkpt>
    <trkpt lat="33.75684" lon="-116.75293"><ele>1764.0</ele></trkpt>
    <trkpt lat="33.75679" lon="-116.75304"><ele>1764.0</ele></trkpt>
    <trkpt lat="33.75673" lon="-116.75313"><ele>1764.0</ele></trkpt>
    <trkpt lat="33.75659" lon="-116.75334"><ele>1764.0</ele></trkpt>
    <trkpt lat="33.75647" lon="-116.75351"><ele>1755.0</ele></trkpt>
    <trkpt lat="33.75642" lon="-116.75361"><ele>1755.0</ele></trkpt>
    <trkpt lat="33.75637" lon="-116.75378"><ele>1755.0</ele></trkpt>
    <trkpt lat="33.75630" lon="-116.75392"><ele>1755.0</ele></trkpt>
    <trkpt lat="33.75621" lon="-116.75406"><ele>1755.0</ele></trkpt>
    <trkpt lat="33.75615" lon="-116.75415"><ele>1755.0</ele></trkpt>
    <trkpt lat="33.75614" lon="-116.75420"><ele>1748.0</ele></trkpt>
    <trkpt lat="33.75616" lon="-116.75429"><ele>1748.0</ele></trkpt>
    <trkpt lat="33.75617" lon="-116.75441"><ele>1748.0</ele></trkpt>
    <trkpt lat="33.75617" lon="-116.75448"><ele>1748.0</ele></trkpt>
    <trkpt lat="33.75616" lon="-116.75454"><ele>1748.0</ele></trkpt>
    <trkpt lat="33.75613" lon="-116.75460"><ele>1745.0</ele></trkpt>
    <trkpt lat="33.75610" lon="-116.75465"><ele>1745.0</ele></trkpt>
    <trkpt lat="33.75606" lon="-116.75468"><ele>1745.0</ele></trkpt>
    <trkpt lat="33.75602" lon="-116.75472"><ele>1745.0</ele></trkpt>
    <trkpt lat="33.75598" lon="-116.75476"><ele>1745.0</ele></trkpt>
    <trkpt lat="33.75595" lon="-116.75480"><ele>1745.0</ele></trkpt>
    <trkpt lat="33.75593" lon="-116.75487"><ele>1743.0</ele></trkpt>
    <trkpt lat="33.75591" lon="-116.75493"><ele>1743.0</ele></trkpt>
    <trkpt lat="33.75590" lon="-116.75499"><ele>1743.0</ele></trkpt>
    <trkpt lat="33.75590" lon="-116.75507"><ele>1743.0</ele></trkpt>
    <trkpt lat="33.75590" lon="-116.75517"><ele>1743.0</ele></trkpt>
    <trkpt lat="33.75589" lon="-116.75525"><ele>1743.0</ele></trkpt>
    <trkpt lat="33.75586" lon="-116.75530"><ele>1737.0</ele></trkpt>
    <trkpt lat="33.75583" lon="-116.75534"><ele>1737.0</ele></trkpt>
    <trkpt lat="33.75582" lon="-116.75540"><ele>1737.0</ele></trkpt>
    <trkpt lat="33.75583" lon="-116.75547"><ele>1737.0</ele></trkpt>
    <trkpt lat="33.75587" lon="-116.75553"><ele>1737.0</ele></trkpt>
    <trkpt lat="33.75591" lon="-116.75558"><ele>1737.0</ele></trkpt>
    <trkpt lat="33.75595" lon="-116.75563"><ele>1725.0</ele></trkpt>
    <trkpt lat="33.75595" lon="-116.75570"><ele>1725.0</ele></trkpt>
    <trkpt lat="33.75590" lon="-116.75605"><ele>1725.0</ele></trkpt>
    <trkpt lat="33.75588" lon="-116.75619"><ele>1725.0</ele></trkpt>
    <trkpt lat="33.75589" lon="-116.75632"><ele>1725.0</ele></trkpt>
    <trkpt lat="33.75592" lon="-116.75645"><ele>1725.0</ele></trkpt>
    <trkpt lat="33.75600" lon="-116.75665"><ele>1711.0</ele></trkpt>
    <trkpt lat="33.75609" lon="-116.75684"><ele>1711.0</ele></trkpt>
    <trkpt lat="33.75615" lon="-116.75697"><ele>1711.0</ele></trkpt>
    <trkpt lat="33.75619" lon="-116.75709"><ele>1711.0</ele></trkpt>
    <trkpt lat="33.75618" lon="-116.75716"><ele>1711.0</ele></trkpt>
    <trkpt lat="33.75616" lon="-116.75727"><ele>1704.0</ele></trkpt>
    <trkpt lat="33.75608" lon="-116.75749"><ele>1704.0</ele></trkpt>
    <trkpt lat="33.75601" lon="-116.75768"><ele>1704.0</ele></trkpt>
    <trkpt lat="33.75598" lon="-116.75779"><ele>1704.0</ele></trkpt>
    <trkpt lat="33.75596" lon="-116.75790"><ele>1704.0</ele></trkpt>
    <trkpt lat="33.75593" lon="-116.75804"><ele>1704.0</ele></trkpt>
    <trkpt lat="33.75589" lon="-116.75819"><ele>1700.0</ele></trkpt>
    <trkpt lat="33.75587" lon="-116.75826"><ele>1700.0</ele></trkpt>
    <trkpt lat="33.75585" lon="-116.75833"><ele>1700.0</ele></trkpt>
    <trkpt lat="33.75579" lon="-116.75839"><ele>1700.0</ele></trkpt>
    <trkpt lat="33.75573" lon="-116.75844"><ele>1700.0</ele></trkpt>
    <trkpt lat="33.75568" lon="-116.75848"><ele>1700.0</ele></trkpt>
    <trkpt lat="33.75563" lon="-116.75852"><ele>1694.0</ele></trkpt>
    <trkpt lat="33.75558" lon="-116.75856"><ele>1694.0</ele></trkpt>
    <trkpt lat="33.75552" lon="-116.75858"><ele>1694.0</ele></trkpt>
    <trkpt lat="33.75547" lon="-116.75858"><ele>1694.0</ele></trkpt>
    <trkpt lat="33.75542" lon="-116.75857"><ele>1694.0</ele></trkpt>
    <trkpt lat="33.75537" lon="-116.75854"><ele>1694.0</ele></trkpt>
    <trkpt lat="33.75531" lon="-116.75850"><ele>1692.0</ele></trkpt>
    <trkpt lat="33.75527" lon="-116.75843"><ele>1692.0</ele></trkpt>
    <trkpt lat="33.75522" lon="-116.75838"><ele>1692.0</ele></trkpt>
    <trkpt lat="33.75518" lon="-116.75831"><ele>1692.0</ele></trkpt>
    <trkpt lat="33.75512" lon="-116.75821"><ele>1692.0</ele></trkpt>
    <trkpt lat="33.75507" lon="-116.75813"><ele>1692.0</ele></trkpt>
    <trkpt lat="33.75502" lon="-116.75808"><ele>1691.0</ele></trkpt>
    <trkpt lat="33.75494" lon="-116.75805"><ele>1691.0</ele></trkpt>
    <trkpt lat="33.75486" lon="-116.75800"><ele>1691.0</ele></trkpt>
    <trkpt lat="33.75478" lon="-116.75794"><ele>1691.0</ele></trkpt>
    <trkpt lat="33.75469" lon="-116.75787"><ele>1691.0</ele></trkpt>
    <trkpt lat="33.75463" lon="-116.75782"><ele>1691.0</ele></trkpt>
    <trkpt lat="33.75458" lon="-116.75781"><ele>1691.0</ele></trkpt>
    <trkpt lat="33.75445" lon="-116.75782"><ele>1691.0</ele></trkpt>
    <trkpt lat="33.75434" lon="-116.75783"><ele>1691.0</ele></trkpt>
    <trkpt lat="33.75426" lon="-116.75783"><ele>1691.0</ele></trkpt>
    <trkpt lat="33.75416" lon="-116.75783"><ele>1691.0</ele></trkpt>
    <trkpt lat="33.75404" lon="-116.75783"><ele>1690.0</ele></trkpt>
    <trkpt lat="33.75391" lon="-116.75783"><ele>1690.0</ele></trkpt>
    <trkpt lat="33.75378" lon="-116.75783"><ele>1690.0</ele></trkpt>
    <trkpt lat="33.75369" lon="-116.75782"><ele>1690.0</ele></trkpt>
    <trkpt lat="33.75362" lon="-116.75783"><ele>1690.0</ele></trkpt>
    <trkpt lat="33.75355" lon="-116.75785"><ele>1690.0</ele></trkpt>
    <trkpt lat="33.75347" lon="-116.75789"><ele>1685.0</ele></trkpt>
    <trkpt lat="33.75339" lon="-116.75796"><ele>1685.0</ele></trkpt>
    <trkpt lat="33.75331" lon="-116.75803"><ele>1685.0</ele></trkpt>
    <trkpt lat="33.75323" lon="-116.75812"><ele>1685.0</ele></trkpt>
    <trkpt lat="33.75314" lon="-116.75821"><ele>1685.0</ele></trkpt>
    <trkpt lat="33.75308" lon="-116.75827"><ele>1685.0</ele></trkpt>
    <trkpt lat="33.75297" lon="-116.75837"><ele>1679.0</ele></trkpt>
    <trkpt lat="33.75286" lon="-116.75844"><ele>1679.0</ele></trkpt>
    <trkpt lat="33.75280" lon="-116.75848"><ele>1679.0</ele></trkpt>
    <trkpt lat="33.75277" lon="-116.75850"><ele>1679.0</ele></trkpt>
    <trkpt lat="33.75266" lon="-116.75853"><ele>1679.0</ele></trkpt>
    <trkpt lat="33.75257" lon="-116.75853"><ele>1679.0</ele></trkpt>
    <trkpt lat="33.75248" lon="-116.75855"><ele>1679.0</ele></trkpt>
    <trkpt lat="33.75242" lon="-116.75855"><ele>1679.0</ele></trkpt>
    <trkpt lat="33.75236" lon="-116.75858"><ele>1679.0</ele></trkpt>
    <trkpt lat="33.75227" lon="-116.75865"><ele>1679.0</ele></trkpt>
    <trkpt lat="33.75215" lon="-116.75869"><ele>1679.0</ele></trkpt>
    <trkpt lat="33.75204" lon="-116.75872"><ele>1678.0</ele></trkpt>
    <trkpt lat="33.75195" lon="-116.75873"><ele>1678.0</ele></trkpt>
    <trkpt lat="33.75187" lon="-116.75877"><ele>1678.0</ele></trkpt>
    <trkpt lat="33.75183" lon="-116.75877"><ele>1678.0</ele></trkpt>
    <trkpt lat="33.75178" lon="-116.75878"><ele>1678.0</ele></trkpt>
    <trkpt lat="33.75166" lon="-116.75880"><ele>1678.0</ele></trkpt>
    <trkpt lat="33.75156" lon="-116.75881"><ele>1677.0</ele></trkpt>
    <trkpt lat="33.75147" lon="-116.75883"><ele>1677.0</ele></trkpt>
    <trkpt lat="33.75137" lon="-116.75885"><ele>1677.0</ele></trkpt>
    <trkpt lat="33.75126" lon="-116.75887"><ele>1677.0</ele></trkpt>
    <trkpt lat="33.75116" lon="-116.75889"><ele>1677.0</ele></trkpt>
    <trkpt lat="33.75106" lon="-116.75892"><ele>1677.0</ele></trkpt>
    <trkpt lat="33.75099" lon="-116.75895"><ele>1675.0</ele></trkpt>
    <trkpt lat="33.75093" lon="-116.75899"><ele>1675.0</ele></trkpt>
    <trkpt lat="33.75089" lon="-116.75904"><ele>1675.0</ele></trkpt>
    <trkpt lat="33.75083" lon="-116.75910"><ele>1675.0</ele></trkpt>
    <trkpt lat="33.75078" lon="-116.75913"><ele>1675.0</ele></trkpt>
    <trkpt lat="33.75073" lon="-116.75917"><ele>1675.0</ele></trkpt>
    <trkpt lat="33.75066" lon="-116.75920"><ele>1671.0</ele></trkpt>
    <trkpt lat="33.75058" lon="-116.75924"><ele>1671.0</ele></trkpt>
    <trkpt lat="33.75058" lon="-116.75924"><ele>1671.0</ele></trkpt>
    <trkpt lat="33.75047" lon="-116.75927"><ele>1671.0</ele></trkpt>
    <trkpt lat="33.75032" lon="-116.75928"><ele>1671.0</ele></trkpt>
    <trkpt lat="33.75010" lon="-116.75926"><ele>1671.0</ele></trkpt>
    <trkpt lat="33.74998" lon="-116.75926"><ele>1671.0</ele></trkpt>
    <trkpt lat="33.74981" lon="-116.75929"><ele>1671.0</ele></trkpt>
    <trkpt lat="33.74965" lon="-116.75934"><ele>1671.0</ele></trkpt>
    <trkpt lat="33.74950" lon="-116.75942"><ele>1671.0</ele></trkpt>
    <trkpt lat="33.74929" lon="-116.75954"><ele>1671.0</ele></trkpt>
    <trkpt lat="33.74912" lon="-116.75967"><ele>1663.0</ele></trkpt>
    <trkpt lat="33.74903" lon="-116.75980"><ele>1663.0</ele></trkpt>
    <trkpt lat="33.74889" lon="-116.76003"><ele>1663.0</ele></trkpt>
    <trkpt lat="33.74885" lon="-116.76007"><ele>1663.0</ele></trkpt>
    <trkpt lat="33.74878" lon="-116.76012"><ele>1663.0</ele></trkpt>
    <trkpt lat="33.74869" lon="-116.76017"><ele>1663.0</ele></trkpt>
    <trkpt lat="33.74862" lon="-116.76022"><ele>1655.0</ele></trkpt>
    <trkpt lat="33.74853" lon="-116.76029"><ele>1655.0</ele></trkpt>
    <trkpt lat="33.74845" lon="-116.76034"><ele>1655.0</ele></trkpt>
    <trkpt lat="33.74839" lon="-116.76035"><ele>1655.0</ele></trkpt>
    <trkpt lat="33.74833" lon="-116.76033"><ele>1655.0</ele></trkpt>
    <trkpt lat="33.74827" lon="-116.76029"><ele>1655.0</ele></trkpt>
    <trkpt lat="33.74821" lon="-116.76028"><ele>1653.0</ele></trkpt>
    <trkpt lat="33.74816" lon="-116.76028"><ele>1653.0</ele></trkpt>
    <trkpt lat="33.74810" lon="-116.76030"><ele>1653.0</ele></trkpt>
    <trkpt lat="33.74804" lon="-116.76032"><ele>1653.0</ele></trkpt>
    <trkpt lat="33.74799" lon="-116.76037"><ele>1653.0</ele></trkpt>
    <trkpt lat="33.74792" lon="-116.76044"><ele>1653.0</ele></trkpt>
    <trkpt lat="33.74786" lon="-116.76049"><ele>1645.0</ele></trkpt>
    <trkpt lat="33.74782" lon="-116.76051"><ele>1645.0</ele></trkpt>
    <trkpt lat="33.74778" lon="-116.76050"><ele>1645.0</ele></trkpt>
    <trkpt lat="33.74772" lon="-116.76046"><ele>1645.0</ele></trkpt>
    <trkpt lat="33.74765" lon="-116.76040"><ele>1645.0</ele></trkpt>
    <trkpt lat="33.74759" lon="-116.76034"><ele>1646.0</ele></trkpt>
    <trkpt lat="33.74753" lon="-116.76026"><ele>1646.0</ele></trkpt>
    <trkpt lat="33.74749" lon="-116.76017"><ele>1646.0</ele></trkpt>
    <trkpt lat="33.74744" lon="-116.76008"><ele>1646.0</ele></trkpt>
    <trkpt lat="33.74741" lon="-116.75996"><ele>1646.0</ele></trkpt>
    <trkpt lat="33.74737" lon="-116.75989"><ele>1646.0</ele></trkpt>
    <trkpt lat="33.74729" lon="-116.75981"><ele>1645.0</ele></trkpt>
    <trkpt lat="33.74718" lon="-116.75971"><ele>1645.0</ele></trkpt>
    <trkpt lat="33.74710" lon="-116.75964"><ele>1645.0</ele></trkpt>
    <trkpt lat="33.74699" lon="-116.75960"><ele>1645.0</ele></trkpt>
    <trkpt lat="33.74690" lon="-116.75956"><ele>1645.0</ele></trkpt>
    <trkpt lat="33.74682" lon="-116.75949"><ele>1645.0</ele></trkpt>
    <trkpt lat="33.74676" lon="-116.75942"><ele>1637.0</ele></trkpt>
    <trkpt lat="33.74671" lon="-116.75941"><ele>1637.0</ele></trkpt>
    <trkpt lat="33.74667" lon="-116.75943"><ele>1637.0</ele></trkpt>
    <trkpt lat="33.74665" lon="-116.75949"><ele>1637.0</ele></trkpt>
    <trkpt lat="33.74665" lon="-116.75955"><ele>1637.0</ele></trkpt>
    <trkpt lat="33.74668" lon="-116.75961"><ele>1637.0</ele></trkpt>
    <trkpt lat="33.74672" lon="-116.75964"><ele>1636.0</ele></trkpt>
    <trkpt lat="33.74676" lon="-116.75966"><ele>1636.0</ele></trkpt>
    <trkpt lat="33.74681" lon="-116.75969"><ele>1636.0</ele></trkpt>
    <trkpt lat="33.74686" lon="-116.75971"><ele>1636.0</ele></trkpt>
    <trkpt lat="33.74691" lon="-116.75976"><ele>1636.0</ele></trkpt>
    <trkpt lat="33.74694" lon="-116.75980"><ele>1636.0</ele></trkpt>
    <trkpt lat="33.74697" lon="-116.75986"><ele>1636.0</ele></trkpt>
    <trkpt lat="33.74699" lon="-116.75991"><ele>1636.0</ele></trkpt>
    <trkpt lat="33.74700" lon="-116.75997"><ele>1636.0</ele></trkpt>
    <trkpt lat="33.74699" lon="-116.76004"><ele>1636.0</ele></trkpt>
    <trkpt lat="33.74698" lon="-116.76011"><ele>1636.0</ele></trkpt>
    <trkpt lat="33.74698" lon="-116.76018"><ele>1633.0</ele></trkpt>
    <trkpt lat="33.74700" lon="-116.76023"><ele>1633.0</ele></trkpt>
    <trkpt lat="33.74702" lon="-116.76027"><ele>1633.0</ele></trkpt>
    <trkpt lat="33.74706" lon="-116.76031"><ele>1633.0</ele></trkpt>
    <trkpt lat="33.74710" lon="-116.76035"><ele>1633.0</ele></trkpt>
    <trkpt lat="33.74711" lon="-116.76039"><ele>1633.0</ele></trkpt>
    <trkpt lat="33.74711" lon="-116.76043"><ele>1632.0</ele></trkpt>
    <trkpt lat="33.74710" lon="-116.76048"><ele>1632.0</ele></trkpt>
    <trkpt lat="33.74707" lon="-116.76053"><ele>1632.0</ele></trkpt>
    <trkpt lat="33.74703" lon="-116.76058"><ele>1632.0</ele></trkpt>
    <trkpt lat="33.74691" lon="-116.76070"><ele>1632.0</ele></trkpt>
    <trkpt lat="33.74682" lon="-116.76080"><ele>1632.0</ele></trkpt>
    <trkpt lat="33.74672" lon="-116.76089"><ele>1620.0</ele></trkpt>
    <trkpt lat="33.74665" lon="-116.76096"><ele>1620.0</ele></trkpt>
    <trkpt lat="33.74662" lon="-116.76101"><ele>1620.0</ele></trkpt>
    <trkpt lat="33.74659" lon="-116.76107"><ele>1620.0</ele></trkpt>
    <trkpt lat="33.74658" lon="-116.76113"><ele>1620.0</ele></trkpt>
    <trkpt lat="33.74657" lon="-116.76117"><ele>1620.0</ele></trkpt>
    <trkpt lat="33.74656" lon="-116.76123"><ele>1618.0</ele></trkpt>
    <trkpt lat="33.74654" lon="-116.76128"><ele>1618.0</ele></trkpt>
    <trkpt lat="33.74652" lon="-116.76132"><ele>1618.0</ele></trkpt>
    <trkpt lat="33.74648" lon="-116.76134"><ele>1618.0</ele></trkpt>
    <trkpt lat="33.74645" lon="-116.76134"><ele>1618.0</ele></trkpt>
    <trkpt lat="33.74641" lon="-116.76135"><ele>1618.0</ele></trkpt>
    <trkpt lat="33.74637" lon="-116.76134"><ele>1612.0</ele></trkpt>
    <trkpt lat="33.74633" lon="-116.76133"><ele>1612.0</ele></trkpt>
    <trkpt lat="33.74629" lon="-116.76133"><ele>1612.0</ele></trkpt>
    <trkpt lat="33.74625" lon="-116.76135"><ele>1612.0</ele></trkpt>
    <trkpt lat="33.74622" lon="-116.76137"><ele>1612.0</ele></trkpt>
    <trkpt lat="33.74618" lon="-116.76140"><ele>1608.0</ele></trkpt>
    <trkpt lat="33.74616" lon="-116.76144"><ele>1608.0</ele></trkpt>
    <trkpt lat="33.74613" lon="-116.76148"><ele>1608.0</ele></trkpt>
    <trkpt lat="33.74612" lon="-116.76153"><ele>1608.0</ele></trkpt>
    <trkpt lat="33.74612" lon="-116.76159"><ele>1608.0</ele></trkpt>
    <trkpt lat="33.74612" lon="-116.76164"><ele>1608.0</ele></trkpt>
    <trkpt lat="33.74610" lon="-116.76170"><ele>1606.0</ele></trkpt>
    <trkpt lat="33.74609" lon="-116.76174"><ele>1606.0</ele></trkpt>
    <trkpt lat="33.74606" lon="-116.76176"><ele>1606.0</ele></trkpt>
    <trkpt lat="33.74601" lon="-116.76177"><ele>1606.0</ele></trkpt>
    <trkpt lat="33.74593" lon="-116.76178"><ele>1606.0</ele></trkpt>
    <trkpt lat="33.74582" lon="-116.76178"><ele>1606.0</ele></trkpt>
    <trkpt lat="33.74578" lon="-116.76179"><ele>1598.0</ele></trkpt>
    <trkpt lat="33.74575" lon="-116.76182"><ele>1598.0</ele></trkpt>
    <trkpt lat="33.74572" lon="-116.76184"><ele>1598.0</ele></trkpt>
    <trkpt lat="33.74569" lon="-116.76189"><ele>1598.0</ele></trkpt>
    <trkpt lat="33.74566" lon="-116.76193"><ele>1598.0</ele></trkpt>
    <trkpt lat="33.74562" lon="-116.76202"><ele>1598.0</ele></trkpt>
    <trkpt lat="33.74555" lon="-116.76216"><ele>1594.0</ele></trkpt>
    <trkpt lat="33.74551" lon="-116.76219"><ele>1594.0</ele></trkpt>
    <trkpt lat="33.74547" lon="-116.76223"><ele>1594.0</ele></trkpt>
    <trkpt lat="33.74544" lon="-116.76225"><ele>1594.0</ele></trkpt>
    <trkpt lat="33.74539" lon="-116.76228"><ele>1594.0</ele></trkpt>
    <trkpt lat="33.74534" lon="-116.76229"><ele>1594.0</ele></trkpt>
    <trkpt lat="33.74529" lon="-116.76228"><ele>1588.0</ele></trkpt>
    <trkpt lat="33.74525" lon="-116.76226"><ele>1588.0</ele></trkpt>
    <trkpt lat="33.74520" lon="-116.76225"><ele>1588.0</ele></trkpt>
    <trkpt lat="33.74516" lon="-116.76226"><ele>1588.0</ele></trkpt>
    <trkpt lat="33.74513" lon="-116.76228"><ele>1588.0</ele></trkpt>
    <trkpt lat="33.74511" lon="-116.76233"><ele>1587.0</ele></trkpt>
    <trkpt lat="33.74509" lon="-116.76239"><ele>1587.0</ele></trkpt>
    <trkpt lat="33.74509" lon="-116.76246"><ele>1587.0</ele></trkpt>
    <trkpt lat="33.74510" lon="-116.76259"><ele>1587.0</ele></trkpt>
    <trkpt lat="33.74509" lon="-116.76269"><ele>1587.0</ele></trkpt>
    <trkpt lat="33.74508" lon="-116.76277"><ele>1587.0</ele></trkpt>
    <trkpt lat="33.74508" lon="-116.76284"><ele>1582.0</ele></trkpt>
    <trkpt lat="33.74508" lon="-116.76294"><ele>1582.0</ele></trkpt>
    <trkpt lat="33.74506" lon="-116.76306"><ele>1582.0</ele></trkpt>
    <trkpt lat="33.74505" lon="-116.76318"><ele>1582.0</ele></trkpt>
    <trkpt lat="33.74505" lon="-116.76325"><ele>1582.0</ele></trkpt>
    <trkpt lat="33.74506" lon="-116.76333"><ele>1582.0</ele></trkpt>
    <trkpt lat="33.74508" lon="-116.76341"><ele>1576.0</ele></trkpt>
    <trkpt lat="33.74509" lon="-116.76348"><ele>1576.0</ele></trkpt>
    <trkpt lat="33.74512" lon="-116.76355"><ele>1576.0</ele></trkpt>
    <trkpt lat="33.74514" lon="-116.76361"><ele>1576.0</ele></trkpt>
    <trkpt lat="33.74517" lon="-116.76367"><ele>1576.0</ele></trkpt>
    <trkpt lat="33.74520" lon="-116.76374"><ele>1576.0</ele></trkpt>
    <trkpt lat="33.74521" lon="-116.76379"><ele>1570.0</ele></trkpt>
    <trkpt lat="33.74519" lon="-116.76383"><ele>1570.0</ele></trkpt>
    <trkpt lat="33.74518" lon="-116.76385"><ele>1570.0</ele></trkpt>
    <trkpt lat="33.74515" lon="-116.76385"><ele>1570.0</ele></trkpt>
    <trkpt lat="33.74511" lon="-116.76385"><ele>1570.0</ele></trkpt>
    <trkpt lat="33.74508" lon="-116.76384"><ele>1570.0</ele></trkpt>
    <trkpt lat="33.74506" lon="-116.76383"><ele>1572.0</ele></trkpt>
    <trkpt lat="33.74504" lon="-116.76380"><ele>1572.0</ele></trkpt>
    <trkpt lat="33.74503" lon="-116.76378"><ele>1572.0</ele></trkpt>
    <trkpt lat="33.74502" lon="-116.76375"><ele>1572.0</ele></trkpt>
    <trkpt lat="33.74501" lon="-116.76370"><ele>1572.0</ele></trkpt>
    <trkpt lat="33.74501" lon="-116.76364"><ele>1575.0</ele></trkpt>
    <trkpt lat="33.74500" lon="-116.76359"><ele>1575.0</ele></trkpt>
    <trkpt lat="33.74499" lon="-116.76354"><ele>1575.0</ele></trkpt>
    <trkpt lat="33.74494" lon="-116.76345"><ele>1575.0</ele></trkpt>
    <trkpt lat="33.74489" lon="-116.76339"><ele>1575.0</ele></trkpt>
    <trkpt lat="33.74481" lon="-116.76333"><ele>1575.0</ele></trkpt>
    <trkpt lat="33.74477" lon="-116.76330"><ele>1572.0</ele></trkpt>
    <trkpt lat="33.74473" lon="-116.76325"><ele>1572.0</ele></trkpt>
    <trkpt lat="33.74470" lon="-116.76320"><ele>1572.0</ele></trkpt>
    <trkpt lat="33.74466" lon="-116.76315"><ele>1572.0</ele></trkpt>
    <trkpt lat="33.74463" lon="-116.76308"><ele>1572.0</ele></trkpt>
    <trkpt lat="33.74461" lon="-116.76301"><ele>1572.0</ele></trkpt>
    <trkpt lat="33.74458" lon="-116.76296"><ele>1569.0</ele></trkpt>
    <trkpt lat="33.74452" lon="-116.76291"><ele>1569.0</ele></trkpt>
    <trkpt lat="33.74446" lon="-116.76287"><ele>1569.0</ele></trkpt>
    <trkpt lat="33.74439" lon="-116.76282"><ele>1569.0</ele></trkpt>
    <trkpt lat="33.74433" lon="-116.76275"><ele>1569.0</ele></trkpt>
    <trkpt lat="33.74428" lon="-116.76267"><ele>1569.0</ele></trkpt>
    <trkpt lat="33.74421" lon="-116.76256"><ele>1562.0</ele></trkpt>
    <trkpt lat="33.74413" lon="-116.76242"><ele>1562.0</ele></trkpt>
    <trkpt lat="33.74412" lon="-116.76235"><ele>1562.0</ele></trkpt>
    <trkpt lat="33.74412" lon="-116.76229"><ele>1562.0</ele></trkpt>
    <trkpt lat="33.74412" lon="-116.76225"><ele>1562.0</ele></trkpt>
    <trkpt lat="33.74412" lon="-116.76220"><ele>1562.0</ele></trkpt>
    <trkpt lat="33.74410" lon="-116.76211"><ele>1558.0</ele></trkpt>
    <trkpt lat="33.74408" lon="-116.76201"><ele>1558.0</ele></trkpt>
    <trkpt lat="33.74404" lon="-116.76192"><ele>1558.0</ele></trkpt>
    <trkpt lat="33.74402" lon="-116.76185"><ele>1558.0</ele></trkpt>
    <trkpt lat="33.74401" lon="-116.76179"><ele>1558.0</ele></trkpt>
    <trkpt lat="33.74402" lon="-116.76173"><ele>1558.0</ele></trkpt>
    <trkpt lat="33.74403" lon="-116.76165"><ele>1558.0</ele></trkpt>
    <trkpt lat="33.74407" lon="-116.76150"><ele>1558.0</ele></trkpt>
    <trkpt lat="33.74410" lon="-116.76142"><ele>1558.0</ele></trkpt>
    <trkpt lat="33.74411" lon="-116.76137"><ele>1558.0</ele></trkpt>
    <trkpt lat="33.74410" lon="-116.76132"><ele>1558.0</ele></trkpt>
    <trkpt lat="33.74409" lon="-116.76127"><ele>1558.0</ele></trkpt>
    <trkpt lat="33.74407" lon="-116.76123"><ele>1558.0</ele></trkpt>
    <trkpt lat="33.74403" lon="-116.76119"><ele>1558.0</ele></trkpt>
    <trkpt lat="33.74399" lon="-116.76116"><ele>1558.0</ele></trkpt>
    <trkpt lat="33.74389" lon="-116.76110"><ele>1558.0</ele></trkpt>
    <trkpt lat="33.74377" lon="-116.76104"><ele>1558.0</ele></trkpt>
    <trkpt lat="33.74371" lon="-116.76101"><ele>1549.0</ele></trkpt>
    <trkpt lat="33.74367" lon="-116.76101"><ele>1549.0</ele></trkpt>
    <trkpt lat="33.74362" lon="-116.76102"><ele>1549.0</ele></trkpt>
    <trkpt lat="33.74357" lon="-116.76104"><ele>1549.0</ele></trkpt>
    <trkpt lat="33.74352" lon="-116.76107"><ele>1549.0</ele></trkpt>
    <trkpt lat="33.74347" lon="-116.76109"><ele>1549.0</ele></trkpt>
    <trkpt lat="33.74339" lon="-116.76111"><ele>1542.0</ele></trkpt>
    <trkpt lat="33.74333" lon="-116.76114"><ele>1542.0</ele></trkpt>
    <trkpt lat="33.74327" lon="-116.76116"><ele>1542.0</ele></trkpt>
    <trkpt lat="33.74322" lon="-116.76117"><ele>1542.0</ele></trkpt>
    <trkpt lat="33.74318" lon="-116.76116"><ele>1542.0</ele></trkpt>
    <trkpt lat="33.74314" lon="-116.76113"><ele>1542.0</ele></trkpt>
    <trkpt lat="33.74312" lon="-116.76108"><ele>1540.0</ele></trkpt>
    <trkpt lat="33.74311" lon="-116.76102"><ele>1540.0</ele></trkpt>
    <trkpt lat="33.74309" lon="-116.76094"><ele>1540.0</ele></trkpt>
    <trkpt lat="33.74308" lon="-116.76090"><ele>1540.0</ele></trkpt>
    <trkpt lat="33.74305" lon="-116.76088"><ele>1540.0</ele></trkpt>
    <trkpt lat="33.74302" lon="-116.76088"><ele>1537.0</ele></trkpt>
    <trkpt lat="33.74298" lon="-116.76089"><ele>1537.0</ele></trkpt>
    <trkpt lat="33.74290" lon="-116.76092"><ele>1537.0</ele></trkpt>
    <trkpt lat="33.74284" lon="-116.76095"><ele>1537.0</ele></trkpt>
    <trkpt lat="33.74280" lon="-116.76094"><ele>1537.0</ele></trkpt>
    <trkpt lat="33.74277" lon="-116.76093"><ele>1537.0</ele></trkpt>
    <trkpt lat="33.74274" lon="-116.76090"><ele>1535.0</ele></trkpt>
    <trkpt lat="33.74271" lon="-116.76087"><ele>1535.0</ele></trkpt>
    <trkpt lat="33.74269" lon="-116.76082"><ele>1535.0</ele></trkpt>
    <trkpt lat="33.74267" lon="-116.76077"><ele>1535.0</ele></trkpt>
    <trkpt lat="33.74266" lon="-116.76070"><ele>1535.0</ele></trkpt>
    <trkpt lat="33.74265" lon="-116.76063"><ele>1535.0</ele></trkpt>
    <trkpt lat="33.74266" lon="-116.76055"><ele>1537.0</ele></trkpt>
    <trkpt lat="33.74265" lon="-116.76050"><ele>1537.0</ele></trkpt>
    <trkpt lat="33.74263" lon="-116.76045"><ele>1537.0</ele></trkpt>
    <trkpt lat="33.74259" lon="-116.76041"><ele>1537.0</ele></trkpt>
    <trkpt lat="33.74252" lon="-116.76040"><ele>1537.0</ele></trkpt>
    <trkpt lat="33.74236" lon="-116.76042"><ele>1537.0</ele></trkpt>
    <trkpt lat="33.74229" lon="-116.76044"><ele>1527.0</ele></trkpt>
    <trkpt lat="33.74220" lon="-116.76052"><ele>1527.0</ele></trkpt>
    <trkpt lat="33.74208" lon="-116.76068"><ele>1527.0</ele></trkpt>
    <trkpt lat="33.74199" lon="-116.76076"><ele>1527.0</ele></trkpt>
    <trkpt lat="33.74194" lon="-116.76078"><ele>1527.0</ele></trkpt>
    <trkpt lat="33.74189" lon="-116.76079"><ele>1527.0</ele></trkpt>
    <trkpt lat="33.74183" lon="-116.76078"><ele>1521.0</ele></trkpt>
    <trkpt lat="33.74178" lon="-116.76077"><ele>1521.0</ele></trkpt>
    <trkpt lat="33.74172" lon="-116.76074"><ele>1521.0</ele></trkpt>
    <trkpt lat="33.74164" lon="-116.76068"><ele>1521.0</ele></trkpt>
    <trkpt lat="33.74153" lon="-116.76059"><ele>1521.0</ele></trkpt>
    <trkpt lat="33.74144" lon="-116.76049"><ele>1517.0</ele></trkpt>
    <trkpt lat="33.74139" lon="-116.76041"><ele>1517.0</ele></trkpt>
    <trkpt lat="33.74137" lon="-116.76033"><ele>1517.0</ele></trkpt>
    <trkpt lat="33.74134" lon="-116.76018"><ele>1517.0</ele></trkpt>
    <trkpt lat="33.74131" lon="-116.76009"><ele>1517.0</ele></trkpt>
    <trkpt lat="33.74126" lon="-116.76000"><ele>1517.0</ele></trkpt>
    <trkpt lat="33.74121" lon="-116.75994"><ele>1513.0</ele></trkpt>
    <trkpt lat="33.74114" lon="-116.75990"><ele>1513.0</ele></trkpt>
    <trkpt lat="33.74106" lon="-116.75989"><ele>1513.0</ele></trkpt>
    <trkpt lat="33.74097" lon="-116.75990"><ele>1513.0</ele></trkpt>
    <trkpt lat="33.74089" lon="-116.75990"><ele>1513.0</ele></trkpt>
    <trkpt lat="33.74083" lon="-116.76000"><ele>1513.0</ele></trkpt>
    <trkpt lat="33.74078" lon="-116.76009"><ele>1506.0</ele></trkpt>
    <trkpt lat="33.74068" lon="-116.76021"><ele>1506.0</ele></trkpt>
    <trkpt lat="33.74062" lon="-116.76024"><ele>1506.0</ele></trkpt>
    <trkpt lat="33.74057" lon="-116.76027"><ele>1506.0</ele></trkpt>
    <trkpt lat="33.74050" lon="-116.76029"><ele>1506.0</ele></trkpt>
    <trkpt lat="33.74043" lon="-116.76030"><ele>1506.0</ele></trkpt>
    <trkpt lat="33.74035" lon="-116.76032"><ele>1500.0</ele></trkpt>
    <trkpt lat="33.74027" lon="-116.76034"><ele>1500.0</ele></trkpt>
    <trkpt lat="33.74020" lon="-116.76035"><ele>1500.0</ele></trkpt>
    <trkpt lat="33.74013" lon="-116.76036"><ele>1500.0</ele></trkpt>
    <trkpt lat="33.74007" lon="-116.76036"><ele>1500.0</ele></trkpt>
    <trkpt lat="33.74001" lon="-116.76035"><ele>1500.0</ele></trkpt>
    <trkpt lat="33.73995" lon="-116.76032"><ele>1496.0</ele></trkpt>
    <trkpt lat="33.73987" lon="-116.76026"><ele>1496.0</ele></trkpt>
    <trkpt lat="33.73977" lon="-116.76017"><ele>1496.0</ele></trkpt>
    <trkpt lat="33.73972" lon="-116.76014"><ele>1496.0</ele></trkpt>
    <trkpt lat="33.73967" lon="-116.76013"><ele>1496.0</ele></trkpt>
    <trkpt lat="33.73959" lon="-116.76012"><ele>1494.0</ele></trkpt>
    <trkpt lat="33.73950" lon="-116.76011"><ele>1494.0</ele></trkpt>
    <trkpt lat="33.73942" lon="-116.76009"><ele>1494.0</ele></trkpt>
    <trkpt lat="33.73935" lon="-116.76007"><ele>1494.0</ele></trkpt>
    <trkpt lat="33.73927" lon="-116.76005"><ele>1494.0</ele></trkpt>
    <trkpt lat="33.73919" lon="-116.76004"><ele>1494.0</ele></trkpt>
    <trkpt lat="33.73907" lon="-116.76003"><ele>1489.0</ele></trkpt>
    <trkpt lat="33.73897" lon="-116.76004"><ele>1489.0</ele></trkpt>
    <trkpt lat="33.73885" lon="-116.76005"><ele>1489.0</ele></trkpt>
    <trkpt lat="33.73872" lon="-116.76005"><ele>1489.0</ele></trkpt>
    <trkpt lat="33.73864" lon="-116.76004"><ele>1489.0</ele></trkpt>
    <trkpt lat="33.73859" lon="-116.76001"><ele>1489.0</ele></trkpt>
    <trkpt lat="33.73855" lon="-116.75995"><ele>1487.0</ele></trkpt>
    <trkpt lat="33.73852" lon="-116.75988"><ele>1487.0</ele></trkpt>
    <trkpt lat="33.73846" lon="-116.75975"><ele>1487.0</ele></trkpt>
  </trkseg></trk>
</gpx>
