<?xml version="1.0" encoding="UTF-8"?>
<gpx version="1.1" creator="dirt-bikes build-area-routes (MVUM geometry + SRTM elevation)" xmlns="http://www.topografix.com/GPX/1/1">
  <trk><name>Reyes Peak Road</name><trkseg>
    <trkpt lat="34.64962" lon="-119.38548"><ele>1565.0</ele></trkpt>
    <trkpt lat="34.64959" lon="-119.38523"><ele>1565.0</ele></trkpt>
    <trkpt lat="34.64954" lon="-119.38507"><ele>1565.0</ele></trkpt>
    <trkpt lat="34.64949" lon="-119.38500"><ele>1557.0</ele></trkpt>
    <trkpt lat="34.64942" lon="-119.38495"><ele>1557.0</ele></trkpt>
    <trkpt lat="34.64914" lon="-119.38489"><ele>1557.0</ele></trkpt>
    <trkpt lat="34.64907" lon="-119.38488"><ele>1557.0</ele></trkpt>
    <trkpt lat="34.64886" lon="-119.38476"><ele>1557.0</ele></trkpt>
    <trkpt lat="34.64882" lon="-119.38466"><ele>1553.0</ele></trkpt>
    <trkpt lat="34.64880" lon="-119.38453"><ele>1553.0</ele></trkpt>
    <trkpt lat="34.64890" lon="-119.38442"><ele>1553.0</ele></trkpt>
    <trkpt lat="34.64904" lon="-119.38429"><ele>1553.0</ele></trkpt>
    <trkpt lat="34.64931" lon="-119.38404"><ele>1553.0</ele></trkpt>
    <trkpt lat="34.64946" lon="-119.38404"><ele>1553.0</ele></trkpt>
    <trkpt lat="34.64970" lon="-119.38403"><ele>1574.0</ele></trkpt>
    <trkpt lat="34.64979" lon="-119.38398"><ele>1574.0</ele></trkpt>
    <trkpt lat="34.64984" lon="-119.38381"><ele>1574.0</ele></trkpt>
    <trkpt lat="34.64988" lon="-119.38366"><ele>1574.0</ele></trkpt>
    <trkpt lat="34.65004" lon="-119.38340"><ele>1574.0</ele></trkpt>
    <trkpt lat="34.65018" lon="-119.38311"><ele>1583.0</ele></trkpt>
    <trkpt lat="34.65023" lon="-119.38290"><ele>1583.0</ele></trkpt>
    <trkpt lat="34.65017" lon="-119.38279"><ele>1583.0</ele></trkpt>
    <trkpt lat="34.65011" lon="-119.38269"><ele>1583.0</ele></trkpt>
    <trkpt lat="34.64989" lon="-119.38235"><ele>1583.0</ele></trkpt>
    <trkpt lat="34.64982" lon="-119.38224"><ele>1576.0</ele></trkpt>
    <trkpt lat="34.64981" lon="-119.38213"><ele>1576.0</ele></trkpt>
    <trkpt lat="34.64981" lon="-119.38204"><ele>1576.0</ele></trkpt>
    <trkpt lat="34.64990" lon="-119.38186"><ele>1576.0</ele></trkpt>
    <trkpt lat="34.65008" lon="-119.38174"><ele>1576.0</ele></trkpt>
    <trkpt lat="34.65023" lon="-119.38165"><ele>1587.0</ele></trkpt>
    <trkpt lat="34.65030" lon="-119.38157"><ele>1587.0</ele></trkpt>
    <trkpt lat="34.65039" lon="-119.38157"><ele>1587.0</ele></trkpt>
    <trkpt lat="34.65059" lon="-119.38157"><ele>1587.0</ele></trkpt>
    <trkpt lat="34.65068" lon="-119.38155"><ele>1587.0</ele></trkpt>
    <trkpt lat="34.65079" lon="-119.38143"><ele>1587.0</ele></trkpt>
    <trkpt lat="34.65082" lon="-119.38130"><ele>1589.0</ele></trkpt>
    <trkpt lat="34.65091" lon="-119.38108"><ele>1589.0</ele></trkpt>
    <trkpt lat="34.65114" lon="-119.38081"><ele>1589.0</ele></trkpt>
    <trkpt lat="34.65115" lon="-119.38069"><ele>1589.0</ele></trkpt>
    <trkpt lat="34.65115" lon="-119.38055"><ele>1589.0</ele></trkpt>
    <trkpt lat="34.65113" lon="-119.38027"><ele>1600.0</ele></trkpt>
    <trkpt lat="34.65112" lon="-119.38015"><ele>1600.0</ele></trkpt>
    <trkpt lat="34.65108" lon="-119.38010"><ele>1600.0</ele></trkpt>
    <trkpt lat="34.65085" lon="-119.37989"><ele>1600.0</ele></trkpt>
    <trkpt lat="34.65079" lon="-119.37979"><ele>1600.0</ele></trkpt>
    <trkpt lat="34.65077" lon="-119.37971"><ele>1599.0</ele></trkpt>
    <trkpt lat="34.65078" lon="-119.37965"><ele>1599.0</ele></trkpt>
    <trkpt lat="34.65090" lon="-119.37952"><ele>1599.0</ele></trkpt>
    <trkpt lat="34.65125" lon="-119.37931"><ele>1599.0</ele></trkpt>
    <trkpt lat="34.65154" lon="-119.37909"><ele>1599.0</ele></trkpt>
    <trkpt lat="34.65179" lon="-119.37882"><ele>1590.0</ele></trkpt>
    <trkpt lat="34.65194" lon="-119.37869"><ele>1590.0</ele></trkpt>
    <trkpt lat="34.65204" lon="-119.37866"><ele>1590.0</ele></trkpt>
    <trkpt lat="34.65225" lon="-119.37860"><ele>1590.0</ele></trkpt>
    <trkpt lat="34.65254" lon="-119.37861"><ele>1590.0</ele></trkpt>
    <trkpt lat="34.65300" lon="-119.37865"><ele>1590.0</ele></trkpt>
    <trkpt lat="34.65321" lon="-119.37869"><ele>1587.0</ele></trkpt>
    <trkpt lat="34.65329" lon="-119.37871"><ele>1587.0</ele></trkpt>
    <trkpt lat="34.65340" lon="-119.37869"><ele>1587.0</ele></trkpt>
    <trkpt lat="34.65347" lon="-119.37861"><ele>1587.0</ele></trkpt>
    <trkpt lat="34.65350" lon="-119.37856"><ele>1587.0</ele></trkpt>
    <trkpt lat="34.65349" lon="-119.37845"><ele>1594.0</ele></trkpt>
    <trkpt lat="34.65344" lon="-119.37834"><ele>1594.0</ele></trkpt>
    <trkpt lat="34.65342" lon="-119.37825"><ele>1594.0</ele></trkpt>
    <trkpt lat="34.65345" lon="-119.37806"><ele>1594.0</ele></trkpt>
    <trkpt lat="34.65363" lon="-119.37785"><ele>1594.0</ele></trkpt>
    <trkpt lat="34.65375" lon="-119.37762"><ele>1600.0</ele></trkpt>
    <trkpt lat="34.65375" lon="-119.37746"><ele>1600.0</ele></trkpt>
    <trkpt lat="34.65370" lon="-119.37736"><ele>1600.0</ele></trkpt>
    <trkpt lat="34.65358" lon="-119.37723"><ele>1600.0</ele></trkpt>
    <trkpt lat="34.65352" lon="-119.37712"><ele>1600.0</ele></trkpt>
    <trkpt lat="34.65352" lon="-119.37685"><ele>1601.0</ele></trkpt>
    <trkpt lat="34.65350" lon="-119.37657"><ele>1601.0</ele></trkpt>
    <trkpt lat="34.65350" lon="-119.37654"><ele>1601.0</ele></trkpt>
    <trkpt lat="34.65346" lon="-119.37643"><ele>1601.0</ele></trkpt>
    <trkpt lat="34.65333" lon="-119.37637"><ele>1601.0</ele></trkpt>
    <trkpt lat="34.65322" lon="-119.37635"><ele>1601.0</ele></trkpt>
    <trkpt lat="34.65315" lon="-119.37629"><ele>1599.0</ele></trkpt>
    <trkpt lat="34.65312" lon="-119.37622"><ele>1599.0</ele></trkpt>
    <trkpt lat="34.65307" lon="-119.37597"><ele>1599.0</ele></trkpt>
    <trkpt lat="34.65306" lon="-119.37584"><ele>1599.0</ele></trkpt>
    <trkpt lat="34.65295" lon="-119.37583"><ele>1599.0</ele></trkpt>
    <trkpt lat="34.65279" lon="-119.37580"><ele>1595.0</ele></trkpt>
    <trkpt lat="34.65273" lon="-119.37575"><ele>1595.0</ele></trkpt>
    <trkpt lat="34.65260" lon="-119.37557"><ele>1595.0</ele></trkpt>
    <trkpt lat="34.65260" lon="-119.37551"><ele>1595.0</ele></trkpt>
    <trkpt lat="34.65264" lon="-119.37531"><ele>1595.0</ele></trkpt>
    <trkpt lat="34.65267" lon="-119.37520"><ele>1608.0</ele></trkpt>
    <trkpt lat="34.65269" lon="-119.37511"><ele>1608.0</ele></trkpt>
    <trkpt lat="34.65266" lon="-119.37496"><ele>1608.0</ele></trkpt>
    <trkpt lat="34.65261" lon="-119.37488"><ele>1608.0</ele></trkpt>
    <trkpt lat="34.65254" lon="-119.37482"><ele>1608.0</ele></trkpt>
    <trkpt lat="34.65248" lon="-119.37480"><ele>1599.0</ele></trkpt>
    <trkpt lat="34.65230" lon="-119.37480"><ele>1599.0</ele></trkpt>
    <trkpt lat="34.65222" lon="-119.37479"><ele>1599.0</ele></trkpt>
    <trkpt lat="34.65215" lon="-119.37473"><ele>1599.0</ele></trkpt>
    <trkpt lat="34.65213" lon="-119.37467"><ele>1599.0</ele></trkpt>
    <trkpt lat="34.65210" lon="-119.37437"><ele>1599.0</ele></trkpt>
    <trkpt lat="34.65210" lon="-119.37430"><ele>1597.0</ele></trkpt>
    <trkpt lat="34.65204" lon="-119.37422"><ele>1597.0</ele></trkpt>
    <trkpt lat="34.65188" lon="-119.37389"><ele>1597.0</ele></trkpt>
    <trkpt lat="34.65185" lon="-119.37383"><ele>1597.0</ele></trkpt>
    <trkpt lat="34.65186" lon="-119.37371"><ele>1597.0</ele></trkpt>
    <trkpt lat="34.65198" lon="-119.37349"><ele>1610.0</ele></trkpt>
    <trkpt lat="34.65212" lon="-119.37339"><ele>1610.0</ele></trkpt>
    <trkpt lat="34.65223" lon="-119.37328"><ele>1610.0</ele></trkpt>
    <trkpt lat="34.65226" lon="-119.37320"><ele>1610.0</ele></trkpt>
    <trkpt lat="34.65227" lon="-119.37300"><ele>1610.0</ele></trkpt>
    <trkpt lat="34.65228" lon="-119.37257"><ele>1611.0</ele></trkpt>
    <trkpt lat="34.65236" lon="-119.37244"><ele>1611.0</ele></trkpt>
    <trkpt lat="34.65253" lon="-119.37227"><ele>1611.0</ele></trkpt>
    <trkpt lat="34.65269" lon="-119.37204"><ele>1611.0</ele></trkpt>
    <trkpt lat="34.65272" lon="-119.37186"><ele>1611.0</ele></trkpt>
    <trkpt lat="34.65276" lon="-119.37166"><ele>1608.0</ele></trkpt>
    <trkpt lat="34.65276" lon="-119.37154"><ele>1608.0</ele></trkpt>
    <trkpt lat="34.65270" lon="-119.37139"><ele>1608.0</ele></trkpt>
    <trkpt lat="34.65264" lon="-119.37129"><ele>1608.0</ele></trkpt>
    <trkpt lat="34.65240" lon="-119.37106"><ele>1608.0</ele></trkpt>
    <trkpt lat="34.65234" lon="-119.37097"><ele>1608.0</ele></trkpt>
    <trkpt lat="34.65227" lon="-119.37074"><ele>1613.0</ele></trkpt>
    <trkpt lat="34.65226" lon="-119.37056"><ele>1613.0</ele></trkpt>
    <trkpt lat="34.65223" lon="-119.37049"><ele>1613.0</ele></trkpt>
    <trkpt lat="34.65209" lon="-119.37018"><ele>1613.0</ele></trkpt>
    <trkpt lat="34.65204" lon="-119.37009"><ele>1613.0</ele></trkpt>
    <trkpt lat="34.65181" lon="-119.36951"><ele>1631.0</ele></trkpt>
    <trkpt lat="34.65176" lon="-119.36934"><ele>1631.0</ele></trkpt>
    <trkpt lat="34.65172" lon="-119.36924"><ele>1631.0</ele></trkpt>
    <trkpt lat="34.65168" lon="-119.36913"><ele>1631.0</ele></trkpt>
    <trkpt lat="34.65158" lon="-119.36903"><ele>1631.0</ele></trkpt>
    <trkpt lat="34.65152" lon="-119.36902"><ele>1628.0</ele></trkpt>
    <trkpt lat="34.65132" lon="-119.36909"><ele>1628.0</ele></trkpt>
    <trkpt lat="34.65121" lon="-119.36917"><ele>1628.0</ele></trkpt>
    <trkpt lat="34.65111" lon="-119.36920"><ele>1628.0</ele></trkpt>
    <trkpt lat="34.65101" lon="-119.36923"><ele>1628.0</ele></trkpt>
    <trkpt lat="34.65095" lon="-119.36922"><ele>1630.0</ele></trkpt>
    <trkpt lat="34.65089" lon="-119.36913"><ele>1630.0</ele></trkpt>
    <trkpt lat="34.65082" lon="-119.36903"><ele>1630.0</ele></trkpt>
    <trkpt lat="34.65071" lon="-119.36892"><ele>1630.0</ele></trkpt>
    <trkpt lat="34.65062" lon="-119.36893"><ele>1630.0</ele></trkpt>
    <trkpt lat="34.65040" lon="-119.36893"><ele>1630.0</ele></trkpt>
    <trkpt lat="34.65036" lon="-119.36892"><ele>1625.0</ele></trkpt>
    <trkpt lat="34.65024" lon="-119.36888"><ele>1625.0</ele></trkpt>
    <trkpt lat="34.65019" lon="-119.36881"><ele>1625.0</ele></trkpt>
    <trkpt lat="34.65001" lon="-119.36840"><ele>1625.0</ele></trkpt>
    <trkpt lat="34.64998" lon="-119.36831"><ele>1625.0</ele></trkpt>
    <trkpt lat="34.64982" lon="-119.36800"><ele>1627.0</ele></trkpt>
    <trkpt lat="34.64972" lon="-119.36790"><ele>1627.0</ele></trkpt>
    <trkpt lat="34.64958" lon="-119.36781"><ele>1627.0</ele></trkpt>
    <trkpt lat="34.64944" lon="-119.36756"><ele>1627.0</ele></trkpt>
    <trkpt lat="34.64941" lon="-119.36745"><ele>1627.0</ele></trkpt>
    <trkpt lat="34.64943" lon="-119.36737"><ele>1634.0</ele></trkpt>
    <trkpt lat="34.64958" lon="-119.36728"><ele>1634.0</ele></trkpt>
    <trkpt lat="34.64990" lon="-119.36716"><ele>1634.0</ele></trkpt>
    <trkpt lat="34.65002" lon="-119.36715"><ele>1634.0</ele></trkpt>
    <trkpt lat="34.65031" lon="-119.36731"><ele>1634.0</ele></trkpt>
    <trkpt lat="34.65059" lon="-119.36730"><ele>1655.0</ele></trkpt>
    <trkpt lat="34.65085" lon="-119.36725"><ele>1655.0</ele></trkpt>
    <trkpt lat="34.65111" lon="-119.36716"><ele>1655.0</ele></trkpt>
    <trkpt lat="34.65133" lon="-119.36705"><ele>1655.0</ele></trkpt>
    <trkpt lat="34.65149" lon="-119.36692"><ele>1655.0</ele></trkpt>
    <trkpt lat="34.65163" lon="-119.36676"><ele>1655.0</ele></trkpt>
    <trkpt lat="34.65168" lon="-119.36664"><ele>1657.0</ele></trkpt>
    <trkpt lat="34.65176" lon="-119.36620"><ele>1657.0</ele></trkpt>
    <trkpt lat="34.65177" lon="-119.36605"><ele>1657.0</ele></trkpt>
    <trkpt lat="34.65176" lon="-119.36586"><ele>1657.0</ele></trkpt>
    <trkpt lat="34.65176" lon="-119.36540"><ele>1657.0</ele></trkpt>
    <trkpt lat="34.65172" lon="-119.36525"><ele>1662.0</ele></trkpt>
    <trkpt lat="34.65162" lon="-119.36496"><ele>1662.0</ele></trkpt>
    <trkpt lat="34.65156" lon="-119.36462"><ele>1662.0</ele></trkpt>
    <trkpt lat="34.65145" lon="-119.36441"><ele>1662.0</ele></trkpt>
    <trkpt lat="34.65143" lon="-119.36416"><ele>1662.0</ele></trkpt>
    <trkpt lat="34.65138" lon="-119.36408"><ele>1673.0</ele></trkpt>
    <trkpt lat="34.65121" lon="-119.36381"><ele>1673.0</ele></trkpt>
    <trkpt lat="34.65113" lon="-119.36367"><ele>1673.0</ele></trkpt>
    <trkpt lat="34.65107" lon="-119.36356"><ele>1673.0</ele></trkpt>
    <trkpt lat="34.65090" lon="-119.36337"><ele>1673.0</ele></trkpt>
    <trkpt lat="34.65080" lon="-119.36330"><ele>1675.0</ele></trkpt>
    <trkpt lat="34.65056" lon="-119.36315"><ele>1675.0</ele></trkpt>
    <trkpt lat="34.65051" lon="-119.36306"><ele>1675.0</ele></trkpt>
    <trkpt lat="34.65051" lon="-119.36297"><ele>1675.0</ele></trkpt>
    <trkpt lat="34.65054" lon="-119.36279"><ele>1675.0</ele></trkpt>
    <trkpt lat="34.65058" lon="-119.36264"><ele>1675.0</ele></trkpt>
    <trkpt lat="34.65064" lon="-119.36240"><ele>1693.0</ele></trkpt>
    <trkpt lat="34.65062" lon="-119.36226"><ele>1693.0</ele></trkpt>
    <trkpt lat="34.65059" lon="-119.36214"><ele>1693.0</ele></trkpt>
    <trkpt lat="34.65053" lon="-119.36210"><ele>1693.0</ele></trkpt>
    <trkpt lat="34.65032" lon="-119.36197"><ele>1693.0</ele></trkpt>
    <trkpt lat="34.65028" lon="-119.36182"><ele>1696.0</ele></trkpt>
    <trkpt lat="34.65031" lon="-119.36174"><ele>1696.0</ele></trkpt>
    <trkpt lat="34.65040" lon="-119.36150"><ele>1696.0</ele></trkpt>
    <trkpt lat="34.65053" lon="-119.36123"><ele>1696.0</ele></trkpt>
    <trkpt lat="34.65056" lon="-119.36110"><ele>1696.0</ele></trkpt>
    <trkpt lat="34.65055" lon="-119.36072"><ele>1720.0</ele></trkpt>
    <trkpt lat="34.65054" lon="-119.36058"><ele>1720.0</ele></trkpt>
    <trkpt lat="34.65048" lon="-119.36050"><ele>1720.0</ele></trkpt>
    <trkpt lat="34.65045" lon="-119.36046"><ele>1720.0</ele></trkpt>
    <trkpt lat="34.65018" lon="-119.36034"><ele>1720.0</ele></trkpt>
    <trkpt lat="34.65009" lon="-119.36025"><ele>1719.0</ele></trkpt>
    <trkpt lat="34.65001" lon="-119.36019"><ele>1719.0</ele></trkpt>
    <trkpt lat="34.64985" lon="-119.36018"><ele>1719.0</ele></trkpt>
    <trkpt lat="34.64978" lon="-119.36019"><ele>1719.0</ele></trkpt>
    <trkpt lat="34.64968" lon="-119.36018"><ele>1719.0</ele></trkpt>
    <trkpt lat="34.64957" lon="-119.36018"><ele>1719.0</ele></trkpt>
    <trkpt lat="34.64951" lon="-119.36011"><ele>1722.0</ele></trkpt>
    <trkpt lat="34.64943" lon="-119.36001"><ele>1722.0</ele></trkpt>
    <trkpt lat="34.64935" lon="-119.35996"><ele>1722.0</ele></trkpt>
    <trkpt lat="34.64915" lon="-119.35994"><ele>1722.0</ele></trkpt>
    <trkpt lat="34.64910" lon="-119.35991"><ele>1722.0</ele></trkpt>
    <trkpt lat="34.64902" lon="-119.35983"><ele>1716.0</ele></trkpt>
    <trkpt lat="34.64900" lon="-119.35975"><ele>1716.0</ele></trkpt>
    <trkpt lat="34.64900" lon="-119.35965"><ele>1716.0</ele></trkpt>
    <trkpt lat="34.64911" lon="-119.35947"><ele>1716.0</ele></trkpt>
    <trkpt lat="34.64913" lon="-119.35922"><ele>1716.0</ele></trkpt>
    <trkpt lat="34.64908" lon="-119.35910"><ele>1716.0</ele></trkpt>
    <trkpt lat="34.64896" lon="-119.35882"><ele>1716.0</ele></trkpt>
    <trkpt lat="34.64895" lon="-119.35875"><ele>1716.0</ele></trkpt>
    <trkpt lat="34.64900" lon="-119.35853"><ele>1716.0</ele></trkpt>
    <trkpt lat="34.64903" lon="-119.35844"><ele>1716.0</ele></trkpt>
    <trkpt lat="34.64903" lon="-119.35831"><ele>1723.0</ele></trkpt>
    <trkpt lat="34.64901" lon="-119.35823"><ele>1723.0</ele></trkpt>
    <trkpt lat="34.64897" lon="-119.35817"><ele>1723.0</ele></trkpt>
    <trkpt lat="34.64880" lon="-119.35786"><ele>1723.0</ele></trkpt>
    <trkpt lat="34.64874" lon="-119.35776"><ele>1723.0</ele></trkpt>
    <trkpt lat="34.64853" lon="-119.35747"><ele>1723.0</ele></trkpt>
    <trkpt lat="34.64850" lon="-119.35728"><ele>1735.0</ele></trkpt>
    <trkpt lat="34.64848" lon="-119.35701"><ele>1735.0</ele></trkpt>
    <trkpt lat="34.64845" lon="-119.35687"><ele>1735.0</ele></trkpt>
    <trkpt lat="34.64840" lon="-119.35683"><ele>1735.0</ele></trkpt>
    <trkpt lat="34.64815" lon="-119.35668"><ele>1735.0</ele></trkpt>
    <trkpt lat="34.64809" lon="-119.35663"><ele>1731.0</ele></trkpt>
    <trkpt lat="34.64801" lon="-119.35655"><ele>1731.0</ele></trkpt>
    <trkpt lat="34.64798" lon="-119.35647"><ele>1731.0</ele></trkpt>
    <trkpt lat="34.64798" lon="-119.35619"><ele>1731.0</ele></trkpt>
    <trkpt lat="34.64796" lon="-119.35607"><ele>1731.0</ele></trkpt>
    <trkpt lat="34.64793" lon="-119.35596"><ele>1741.0</ele></trkpt>
    <trkpt lat="34.64788" lon="-119.35587"><ele>1741.0</ele></trkpt>
    <trkpt lat="34.64774" lon="-119.35566"><ele>1741.0</ele></trkpt>
    <trkpt lat="34.64770" lon="-119.35548"><ele>1741.0</ele></trkpt>
    <trkpt lat="34.64766" lon="-119.35534"><ele>1741.0</ele></trkpt>
    <trkpt lat="34.64761" lon="-119.35524"><ele>1756.0</ele></trkpt>
    <trkpt lat="34.64756" lon="-119.35518"><ele>1756.0</ele></trkpt>
    <trkpt lat="34.64734" lon="-119.35506"><ele>1756.0</ele></trkpt>
    <trkpt lat="34.64723" lon="-119.35497"><ele>1756.0</ele></trkpt>
    <trkpt lat="34.64703" lon="-119.35491"><ele>1756.0</ele></trkpt>
    <trkpt lat="34.64697" lon="-119.35491"><ele>1756.0</ele></trkpt>
    <trkpt lat="34.64672" lon="-119.35504"><ele>1747.0</ele></trkpt>
    <trkpt lat="34.64663" lon="-119.35510"><ele>1747.0</ele></trkpt>
    <trkpt lat="34.64646" lon="-119.35515"><ele>1747.0</ele></trkpt>
    <trkpt lat="34.64637" lon="-119.35514"><ele>1747.0</ele></trkpt>
    <trkpt lat="34.64628" lon="-119.35508"><ele>1747.0</ele></trkpt>
    <trkpt lat="34.64624" lon="-119.35501"><ele>1760.0</ele></trkpt>
    <trkpt lat="34.64623" lon="-119.35493"><ele>1760.0</ele></trkpt>
    <trkpt lat="34.64623" lon="-119.35454"><ele>1760.0</ele></trkpt>
    <trkpt lat="34.64624" lon="-119.35435"><ele>1760.0</ele></trkpt>
    <trkpt lat="34.64623" lon="-119.35423"><ele>1760.0</ele></trkpt>
    <trkpt lat="34.64620" lon="-119.35409"><ele>1772.0</ele></trkpt>
    <trkpt lat="34.64614" lon="-119.35403"><ele>1772.0</ele></trkpt>
    <trkpt lat="34.64593" lon="-119.35385"><ele>1772.0</ele></trkpt>
    <trkpt lat="34.64590" lon="-119.35378"><ele>1772.0</ele></trkpt>
    <trkpt lat="34.64576" lon="-119.35349"><ele>1772.0</ele></trkpt>
    <trkpt lat="34.64570" lon="-119.35339"><ele>1791.0</ele></trkpt>
    <trkpt lat="34.64563" lon="-119.35333"><ele>1791.0</ele></trkpt>
    <trkpt lat="34.64558" lon="-119.35329"><ele>1791.0</ele></trkpt>
    <trkpt lat="34.64539" lon="-119.35324"><ele>1791.0</ele></trkpt>
    <trkpt lat="34.64533" lon="-119.35325"><ele>1791.0</ele></trkpt>
    <trkpt lat="34.64507" lon="-119.35331"><ele>1791.0</ele></trkpt>
    <trkpt lat="34.64480" lon="-119.35335"><ele>1803.0</ele></trkpt>
    <trkpt lat="34.64470" lon="-119.35336"><ele>1803.0</ele></trkpt>
    <trkpt lat="34.64445" lon="-119.35335"><ele>1803.0</ele></trkpt>
    <trkpt lat="34.64437" lon="-119.35324"><ele>1803.0</ele></trkpt>
    <trkpt lat="34.64423" lon="-119.35294"><ele>1803.0</ele></trkpt>
    <trkpt lat="34.64404" lon="-119.35237"><ele>1821.0</ele></trkpt>
    <trkpt lat="34.64398" lon="-119.35223"><ele>1821.0</ele></trkpt>
    <trkpt lat="34.64394" lon="-119.35211"><ele>1821.0</ele></trkpt>
    <trkpt lat="34.64373" lon="-119.35179"><ele>1821.0</ele></trkpt>
    <trkpt lat="34.64353" lon="-119.35153"><ele>1821.0</ele></trkpt>
    <trkpt lat="34.64344" lon="-119.35139"><ele>1824.0</ele></trkpt>
    <trkpt lat="34.64335" lon="-119.35107"><ele>1824.0</ele></trkpt>
    <trkpt lat="34.64336" lon="-119.35080"><ele>1824.0</ele></trkpt>
    <trkpt lat="34.64332" lon="-119.35028"><ele>1824.0</ele></trkpt>
    <trkpt lat="34.64321" lon="-119.34991"><ele>1824.0</ele></trkpt>
    <trkpt lat="34.64313" lon="-119.34965"><ele>1816.0</ele></trkpt>
    <trkpt lat="34.64302" lon="-119.34950"><ele>1816.0</ele></trkpt>
    <trkpt lat="34.64294" lon="-119.34931"><ele>1816.0</ele></trkpt>
    <trkpt lat="34.64288" lon="-119.34917"><ele>1816.0</ele></trkpt>
    <trkpt lat="34.64286" lon="-119.34901"><ele>1816.0</ele></trkpt>
    <trkpt lat="34.64284" lon="-119.34894"><ele>1816.0</ele></trkpt>
    <trkpt lat="34.64267" lon="-119.34856"><ele>1839.0</ele></trkpt>
    <trkpt lat="34.64264" lon="-119.34842"><ele>1839.0</ele></trkpt>
    <trkpt lat="34.64260" lon="-119.34828"><ele>1839.0</ele></trkpt>
    <trkpt lat="34.64257" lon="-119.34821"><ele>1839.0</ele></trkpt>
    <trkpt lat="34.64228" lon="-119.34796"><ele>1839.0</ele></trkpt>
    <trkpt lat="34.64217" lon="-119.34786"><ele>1844.0</ele></trkpt>
    <trkpt lat="34.64210" lon="-119.34782"><ele>1844.0</ele></trkpt>
    <trkpt lat="34.64178" lon="-119.34775"><ele>1844.0</ele></trkpt>
    <trkpt lat="34.64164" lon="-119.34767"><ele>1844.0</ele></trkpt>
    <trkpt lat="34.64151" lon="-119.34748"><ele>1844.0</ele></trkpt>
    <trkpt lat="34.64142" lon="-119.34723"><ele>1868.0</ele></trkpt>
    <trkpt lat="34.64137" lon="-119.34703"><ele>1868.0</ele></trkpt>
    <trkpt lat="34.64124" lon="-119.34691"><ele>1868.0</ele></trkpt>
    <trkpt lat="34.64119" lon="-119.34687"><ele>1868.0</ele></trkpt>
    <trkpt lat="34.64096" lon="-119.34674"><ele>1868.0</ele></trkpt>
    <trkpt lat="34.64088" lon="-119.34669"><ele>1865.0</ele></trkpt>
    <trkpt lat="34.64080" lon="-119.34669"><ele>1865.0</ele></trkpt>
    <trkpt lat="34.64073" lon="-119.34671"><ele>1865.0</ele></trkpt>
    <trkpt lat="34.64064" lon="-119.34687"><ele>1865.0</ele></trkpt>
    <trkpt lat="34.64055" lon="-119.34693"><ele>1865.0</ele></trkpt>
    <trkpt lat="34.64047" lon="-119.34695"><ele>1865.0</ele></trkpt>
    <trkpt lat="34.64030" lon="-119.34693"><ele>1856.0</ele></trkpt>
    <trkpt lat="34.64025" lon="-119.34685"><ele>1856.0</ele></trkpt>
    <trkpt lat="34.64025" lon="-119.34677"><ele>1856.0</ele></trkpt>
    <trkpt lat="34.64029" lon="-119.34656"><ele>1856.0</ele></trkpt>
    <trkpt lat="34.64054" lon="-119.34614"><ele>1856.0</ele></trkpt>
    <trkpt lat="34.64067" lon="-119.34582"><ele>1881.0</ele></trkpt>
    <trkpt lat="34.64070" lon="-119.34554"><ele>1881.0</ele></trkpt>
    <trkpt lat="34.64068" lon="-119.34543"><ele>1881.0</ele></trkpt>
    <trkpt lat="34.64064" lon="-119.34518"><ele>1881.0</ele></trkpt>
    <trkpt lat="34.64063" lon="-119.34498"><ele>1881.0</ele></trkpt>
    <trkpt lat="34.64057" lon="-119.34447"><ele>1894.0</ele></trkpt>
    <trkpt lat="34.64055" lon="-119.34428"><ele>1894.0</ele></trkpt>
    <trkpt lat="34.64050" lon="-119.34412"><ele>1894.0</ele></trkpt>
    <trkpt lat="34.64048" lon="-119.34396"><ele>1894.0</ele></trkpt>
    <trkpt lat="34.64047" lon="-119.34384"><ele>1894.0</ele></trkpt>
    <trkpt lat="34.64053" lon="-119.34358"><ele>1906.0</ele></trkpt>
    <trkpt lat="34.64061" lon="-119.34341"><ele>1906.0</ele></trkpt>
    <trkpt lat="34.64064" lon="-119.34332"><ele>1906.0</ele></trkpt>
    <trkpt lat="34.64060" lon="-119.34318"><ele>1906.0</ele></trkpt>
    <trkpt lat="34.64049" lon="-119.34300"><ele>1906.0</ele></trkpt>
    <trkpt lat="34.64046" lon="-119.34288"><ele>1906.0</ele></trkpt>
    <trkpt lat="34.64047" lon="-119.34280"><ele>1915.0</ele></trkpt>
    <trkpt lat="34.64059" lon="-119.34259"><ele>1915.0</ele></trkpt>
    <trkpt lat="34.64075" lon="-119.34242"><ele>1915.0</ele></trkpt>
    <trkpt lat="34.64087" lon="-119.34238"><ele>1915.0</ele></trkpt>
    <trkpt lat="34.64107" lon="-119.34225"><ele>1915.0</ele></trkpt>
    <trkpt lat="34.64111" lon="-119.34215"><ele>1920.0</ele></trkpt>
    <trkpt lat="34.64116" lon="-119.34189"><ele>1920.0</ele></trkpt>
    <trkpt lat="34.64129" lon="-119.34160"><ele>1920.0</ele></trkpt>
    <trkpt lat="34.64145" lon="-119.34117"><ele>1920.0</ele></trkpt>
    <trkpt lat="34.64147" lon="-119.34098"><ele>1920.0</ele></trkpt>
    <trkpt lat="34.64148" lon="-119.34082"><ele>1939.0</ele></trkpt>
    <trkpt lat="34.64148" lon="-119.34043"><ele>1939.0</ele></trkpt>
    <trkpt lat="34.64151" lon="-119.34006"><ele>1939.0</ele></trkpt>
    <trkpt lat="34.64153" lon="-119.33963"><ele>1939.0</ele></trkpt>
    <trkpt lat="34.64154" lon="-119.33943"><ele>1939.0</ele></trkpt>
    <trkpt lat="34.64153" lon="-119.33929"><ele>1950.0</ele></trkpt>
    <trkpt lat="34.64149" lon="-119.33910"><ele>1950.0</ele></trkpt>
    <trkpt lat="34.64148" lon="-119.33896"><ele>1950.0</ele></trkpt>
    <trkpt lat="34.64149" lon="-119.33876"><ele>1950.0</ele></trkpt>
    <trkpt lat="34.64157" lon="-119.33850"><ele>1950.0</ele></trkpt>
    <trkpt lat="34.64173" lon="-119.33803"><ele>1950.0</ele></trkpt>
    <trkpt lat="34.64175" lon="-119.33788"><ele>1963.0</ele></trkpt>
    <trkpt lat="34.64173" lon="-119.33768"><ele>1963.0</ele></trkpt>
    <trkpt lat="34.64169" lon="-119.33752"><ele>1963.0</ele></trkpt>
    <trkpt lat="34.64156" lon="-119.33721"><ele>1963.0</ele></trkpt>
    <trkpt lat="34.64151" lon="-119.33693"><ele>1963.0</ele></trkpt>
    <trkpt lat="34.64150" lon="-119.33670"><ele>1975.0</ele></trkpt>
    <trkpt lat="34.64148" lon="-119.33659"><ele>1975.0</ele></trkpt>
    <trkpt lat="34.64142" lon="-119.33615"><ele>1975.0</ele></trkpt>
    <trkpt lat="34.64139" lon="-119.33602"><ele>1975.0</ele></trkpt>
    <trkpt lat="34.64127" lon="-119.33569"><ele>1975.0</ele></trkpt>
    <trkpt lat="34.64122" lon="-119.33559"><ele>1990.0</ele></trkpt>
    <trkpt lat="34.64118" lon="-119.33555"><ele>1990.0</ele></trkpt>
    <trkpt lat="34.64098" lon="-119.33540"><ele>1990.0</ele></trkpt>
    <trkpt lat="34.64085" lon="-119.33543"><ele>1990.0</ele></trkpt>
    <trkpt lat="34.64056" lon="-119.33553"><ele>1990.0</ele></trkpt>
    <trkpt lat="34.64047" lon="-119.33555"><ele>1986.0</ele></trkpt>
    <trkpt lat="34.64041" lon="-119.33553"><ele>1986.0</ele></trkpt>
    <trkpt lat="34.64028" lon="-119.33531"><ele>1986.0</ele></trkpt>
    <trkpt lat="34.64022" lon="-119.33522"><ele>1986.0</ele></trkpt>
    <trkpt lat="34.64005" lon="-119.33480"><ele>1986.0</ele></trkpt>
    <trkpt lat="34.63983" lon="-119.33430"><ele>1986.0</ele></trkpt>
    <trkpt lat="34.63974" lon="-119.33400"><ele>1991.0</ele></trkpt>
    <trkpt lat="34.63968" lon="-119.33371"><ele>1991.0</ele></trkpt>
    <trkpt lat="34.63972" lon="-119.33343"><ele>1991.0</ele></trkpt>
    <trkpt lat="34.63984" lon="-119.33307"><ele>1991.0</ele></trkpt>
    <trkpt lat="34.63987" lon="-119.33296"><ele>1991.0</ele></trkpt>
    <trkpt lat="34.63985" lon="-119.33285"><ele>2001.0</ele></trkpt>
    <trkpt lat="34.63978" lon="-119.33275"><ele>2001.0</ele></trkpt>
    <trkpt lat="34.63973" lon="-119.33273"><ele>2001.0</ele></trkpt>
    <trkpt lat="34.63939" lon="-119.33260"><ele>2001.0</ele></trkpt>
    <trkpt lat="34.63918" lon="-119.33244"><ele>2001.0</ele></trkpt>
    <trkpt lat="34.63901" lon="-119.33224"><ele>2006.0</ele></trkpt>
    <trkpt lat="34.63894" lon="-119.33210"><ele>2006.0</ele></trkpt>
    <trkpt lat="34.63890" lon="-119.33200"><ele>2006.0</ele></trkpt>
    <trkpt lat="34.63887" lon="-119.33190"><ele>2006.0</ele></trkpt>
    <trkpt lat="34.63883" lon="-119.33179"><ele>2006.0</ele></trkpt>
    <trkpt lat="34.63882" lon="-119.33147"><ele>2018.0</ele></trkpt>
    <trkpt lat="34.63887" lon="-119.33120"><ele>2018.0</ele></trkpt>
    <trkpt lat="34.63888" lon="-119.33091"><ele>2018.0</ele></trkpt>
    <trkpt lat="34.63893" lon="-119.33043"><ele>2018.0</ele></trkpt>
    <trkpt lat="34.63901" lon="-119.32975"><ele>2018.0</ele></trkpt>
    <trkpt lat="34.63908" lon="-119.32925"><ele>2018.0</ele></trkpt>
    <trkpt lat="34.63903" lon="-119.32906"><ele>2034.0</ele></trkpt>
    <trkpt lat="34.63898" lon="-119.32892"><ele>2034.0</ele></trkpt>
    <trkpt lat="34.63898" lon="-119.32875"><ele>2034.0</ele></trkpt>
    <trkpt lat="34.63903" lon="-119.32830"><ele>2034.0</ele></trkpt>
    <trkpt lat="34.63905" lon="-119.32793"><ele>2034.0</ele></trkpt>
    <trkpt lat="34.63904" lon="-119.32764"><ele>2043.0</ele></trkpt>
    <trkpt lat="34.63904" lon="-119.32737"><ele>2043.0</ele></trkpt>
    <trkpt lat="34.63905" lon="-119.32714"><ele>2043.0</ele></trkpt>
    <trkpt lat="34.63906" lon="-119.32701"><ele>2043.0</ele></trkpt>
    <trkpt lat="34.63907" lon="-119.32680"><ele>2043.0</ele></trkpt>
    <trkpt lat="34.63910" lon="-119.32664"><ele>2047.0</ele></trkpt>
    <trkpt lat="34.63913" lon="-119.32647"><ele>2047.0</ele></trkpt>
    <trkpt lat="34.63919" lon="-119.32602"><ele>2047.0</ele></trkpt>
    <trkpt lat="34.63926" lon="-119.32557"><ele>2047.0</ele></trkpt>
    <trkpt lat="34.63928" lon="-119.32534"><ele>2047.0</ele></trkpt>
    <trkpt lat="34.63933" lon="-119.32504"><ele>2056.0</ele></trkpt>
    <trkpt lat="34.63942" lon="-119.32441"><ele>2056.0</ele></trkpt>
    <trkpt lat="34.63941" lon="-119.32422"><ele>2056.0</ele></trkpt>
    <trkpt lat="34.63937" lon="-119.32403"><ele>2056.0</ele></trkpt>
    <trkpt lat="34.63936" lon="-119.32391"><ele>2056.0</ele></trkpt>
    <trkpt lat="34.63937" lon="-119.32354"><ele>2056.0</ele></trkpt>
    <trkpt lat="34.63940" lon="-119.32314"><ele>2074.0</ele></trkpt>
    <trkpt lat="34.63941" lon="-119.32293"><ele>2074.0</ele></trkpt>
    <trkpt lat="34.63937" lon="-119.32272"><ele>2074.0</ele></trkpt>
    <trkpt lat="34.63934" lon="-119.32263"><ele>2074.0</ele></trkpt>
    <trkpt lat="34.63918" lon="-119.32258"><ele>2074.0</ele></trkpt>
    <trkpt lat="34.63912" lon="-119.32260"><ele>2079.0</ele></trkpt>
    <trkpt lat="34.63883" lon="-119.32290"><ele>2079.0</ele></trkpt>
    <trkpt lat="34.63852" lon="-119.32315"><ele>2079.0</ele></trkpt>
    <trkpt lat="34.63821" lon="-119.32333"><ele>2079.0</ele></trkpt>
    <trkpt lat="34.63793" lon="-119.32345"><ele>2079.0</ele></trkpt>
    <trkpt lat="34.63785" lon="-119.32345"><ele>2079.0</ele></trkpt>
    <trkpt lat="34.63778" lon="-119.32340"><ele>2079.0</ele></trkpt>
    <trkpt lat="34.63777" lon="-119.32332"><ele>2079.0</ele></trkpt>
    <trkpt lat="34.63780" lon="-119.32323"><ele>2079.0</ele></trkpt>
    <trkpt lat="34.63789" lon="-119.32316"><ele>2079.0</ele></trkpt>
    <trkpt lat="34.63808" lon="-119.32312"><ele>2084.0</ele></trkpt>
    <trkpt lat="34.63824" lon="-119.32302"><ele>2084.0</ele></trkpt>
    <trkpt lat="34.63830" lon="-119.32296"><ele>2084.0</ele></trkpt>
    <trkpt lat="34.63843" lon="-119.32277"><ele>2084.0</ele></trkpt>
    <trkpt lat="34.63848" lon="-119.32269"><ele>2084.0</ele></trkpt>
    <trkpt lat="34.63855" lon="-119.32239"><ele>2084.0</ele></trkpt>
    <trkpt lat="34.63854" lon="-119.32216"><ele>2101.0</ele></trkpt>
    <trkpt lat="34.63854" lon="-119.32159"><ele>2101.0</ele></trkpt>
    <trkpt lat="34.63858" lon="-119.32134"><ele>2101.0</ele></trkpt>
    <trkpt lat="34.63865" lon="-119.32106"><ele>2101.0</ele></trkpt>
    <trkpt lat="34.63875" lon="-119.32074"><ele>2101.0</ele></trkpt>
    <trkpt lat="34.63898" lon="-119.32021"><ele>2121.0</ele></trkpt>
    <trkpt lat="34.63915" lon="-119.31973"><ele>2121.0</ele></trkpt>
    <trkpt lat="34.63917" lon="-119.31946"><ele>2121.0</ele></trkpt>
    <trkpt lat="34.63919" lon="-119.31911"><ele>2121.0</ele></trkpt>
    <trkpt lat="34.63920" lon="-119.31887"><ele>2121.0</ele></trkpt>
    <trkpt lat="34.63920" lon="-119.31864"><ele>2137.0</ele></trkpt>
    <trkpt lat="34.63917" lon="-119.31850"><ele>2137.0</ele></trkpt>
    <trkpt lat="34.63909" lon="-119.31836"><ele>2137.0</ele></trkpt>
    <trkpt lat="34.63897" lon="-119.31817"><ele>2137.0</ele></trkpt>
    <trkpt lat="34.63891" lon="-119.31784"><ele>2137.0</ele></trkpt>
    <trkpt lat="34.63892" lon="-119.31746"><ele>2156.0</ele></trkpt>
    <trkpt lat="34.63886" lon="-119.31721"><ele>2156.0</ele></trkpt>
    <trkpt lat="34.63882" lon="-119.31702"><ele>2156.0</ele></trkpt>
    <trkpt lat="34.63877" lon="-119.31689"><ele>2156.0</ele></trkpt>
    <trkpt lat="34.63865" lon="-119.31669"><ele>2156.0</ele></trkpt>
    <trkpt lat="34.63853" lon="-119.31655"><ele>2156.0</ele></trkpt>
    <trkpt lat="34.63839" lon="-119.31643"><ele>2159.0</ele></trkpt>
    <trkpt lat="34.63825" lon="-119.31628"><ele>2159.0</ele></trkpt>
    <trkpt lat="34.63804" lon="-119.31610"><ele>2159.0</ele></trkpt>
    <trkpt lat="34.63785" lon="-119.31587"><ele>2159.0</ele></trkpt>
    <trkpt lat="34.63766" lon="-119.31559"><ele>2159.0</ele></trkpt>
    <trkpt lat="34.63752" lon="-119.31537"><ele>2163.0</ele></trkpt>
    <trkpt lat="34.63746" lon="-119.31527"><ele>2163.0</ele></trkpt>
    <trkpt lat="34.63743" lon="-119.31519"><ele>2163.0</ele></trkpt>
    <trkpt lat="34.63739" lon="-119.31516"><ele>2163.0</ele></trkpt>
    <trkpt lat="34.63716" lon="-119.31485"><ele>2163.0</ele></trkpt>
    <trkpt lat="34.63706" lon="-119.31471"><ele>2162.0</ele></trkpt>
    <trkpt lat="34.63696" lon="-119.31451"><ele>2162.0</ele></trkpt>
    <trkpt lat="34.63694" lon="-119.31447"><ele>2162.0</ele></trkpt>
  </trkseg></trk>
</gpx>
