<?xml version="1.0" encoding="UTF-8"?>
<gpx version="1.1" creator="dirt-bikes build-area-routes (MVUM geometry + SRTM elevation)" xmlns="http://www.topografix.com/GPX/1/1">
  <trk><name>Rock Front OHV Road</name><trkseg>
    <trkpt lat="35.11083" lon="-120.09567"><ele>383.0</ele></trkpt>
    <trkpt lat="35.11100" lon="-120.09570"><ele>383.0</ele></trkpt>
    <trkpt lat="35.11128" lon="-120.09576"><ele>384.0</ele></trkpt>
    <trkpt lat="35.11147" lon="-120.09583"><ele>384.0</ele></trkpt>
    <trkpt lat="35.11158" lon="-120.09595"><ele>384.0</ele></trkpt>
    <trkpt lat="35.11165" lon="-120.09604"><ele>386.0</ele></trkpt>
    <trkpt lat="35.11170" lon="-120.09621"><ele>386.0</ele></trkpt>
    <trkpt lat="35.11177" lon="-120.09644"><ele>386.0</ele></trkpt>
    <trkpt lat="35.11185" lon="-120.09665"><ele>386.0</ele></trkpt>
    <trkpt lat="35.11196" lon="-120.09678"><ele>393.0</ele></trkpt>
    <trkpt lat="35.11227" lon="-120.09695"><ele>393.0</ele></trkpt>
    <trkpt lat="35.11265" lon="-120.09709"><ele>393.0</ele></trkpt>
    <trkpt lat="35.11306" lon="-120.09730"><ele>397.0</ele></trkpt>
    <trkpt lat="35.11342" lon="-120.09745"><ele>397.0</ele></trkpt>
    <trkpt lat="35.11360" lon="-120.09747"><ele>397.0</ele></trkpt>
    <trkpt lat="35.11373" lon="-120.09744"><ele>395.0</ele></trkpt>
    <trkpt lat="35.11392" lon="-120.09741"><ele>395.0</ele></trkpt>
    <trkpt lat="35.11407" lon="-120.09745"><ele>395.0</ele></trkpt>
    <trkpt lat="35.11429" lon="-120.09761"><ele>398.0</ele></trkpt>
    <trkpt lat="35.11466" lon="-120.09795"><ele>398.0</ele></trkpt>
    <trkpt lat="35.11494" lon="-120.09822"><ele>398.0</ele></trkpt>
    <trkpt lat="35.11524" lon="-120.09853"><ele>403.0</ele></trkpt>
    <trkpt lat="35.11550" lon="-120.09867"><ele>403.0</ele></trkpt>
    <trkpt lat="35.11571" lon="-120.09864"><ele>403.0</ele></trkpt>
    <trkpt lat="35.11599" lon="-120.09859"><ele>403.0</ele></trkpt>
    <trkpt lat="35.11624" lon="-120.09853"><ele>401.0</ele></trkpt>
    <trkpt lat="35.11642" lon="-120.09856"><ele>401.0</ele></trkpt>
    <trkpt lat="35.11660" lon="-120.09869"><ele>401.0</ele></trkpt>
    <trkpt lat="35.11664" lon="-120.09891"><ele>402.0</ele></trkpt>
    <trkpt lat="35.11673" lon="-120.09947"><ele>402.0</ele></trkpt>
    <trkpt lat="35.11684" lon="-120.09966"><ele>402.0</ele></trkpt>
    <trkpt lat="35.11697" lon="-120.09971"><ele>405.0</ele></trkpt>
    <trkpt lat="35.11715" lon="-120.09971"><ele>405.0</ele></trkpt>
    <trkpt lat="35.11741" lon="-120.09969"><ele>405.0</ele></trkpt>
    <trkpt lat="35.11757" lon="-120.09975"><ele>408.0</ele></trkpt>
    <trkpt lat="35.11772" lon="-120.09992"><ele>408.0</ele></trkpt>
    <trkpt lat="35.11799" lon="-120.10023"><ele>408.0</ele></trkpt>
    <trkpt lat="35.11824" lon="-120.10055"><ele>408.0</ele></trkpt>
    <trkpt lat="35.11853" lon="-120.10093"><ele>415.0</ele></trkpt>
    <trkpt lat="35.11882" lon="-120.10120"><ele>415.0</ele></trkpt>
    <trkpt lat="35.11902" lon="-120.10144"><ele>415.0</ele></trkpt>
    <trkpt lat="35.11923" lon="-120.10172"><ele>418.0</ele></trkpt>
    <trkpt lat="35.11959" lon="-120.10204"><ele>418.0</ele></trkpt>
    <trkpt lat="35.11995" lon="-120.10234"><ele>418.0</ele></trkpt>
    <trkpt lat="35.12014" lon="-120.10252"><ele>428.0</ele></trkpt>
    <trkpt lat="35.12019" lon="-120.10263"><ele>428.0</ele></trkpt>
    <trkpt lat="35.12014" lon="-120.10272"><ele>428.0</ele></trkpt>
    <trkpt lat="35.12004" lon="-120.10283"><ele>432.0</ele></trkpt>
    <trkpt lat="35.12002" lon="-120.10286"><ele>432.0</ele></trkpt>
    <trkpt lat="35.11989" lon="-120.10302"><ele>432.0</ele></trkpt>
    <trkpt lat="35.11981" lon="-120.10318"><ele>442.0</ele></trkpt>
    <trkpt lat="35.11983" lon="-120.10334"><ele>442.0</ele></trkpt>
    <trkpt lat="35.11989" lon="-120.10352"><ele>442.0</ele></trkpt>
    <trkpt lat="35.11997" lon="-120.10376"><ele>442.0</ele></trkpt>
    <trkpt lat="35.12012" lon="-120.10392"><ele>453.0</ele></trkpt>
    <trkpt lat="35.12021" lon="-120.10414"><ele>453.0</ele></trkpt>
    <trkpt lat="35.12028" lon="-120.10449"><ele>453.0</ele></trkpt>
    <trkpt lat="35.12038" lon="-120.10466"><ele>464.0</ele></trkpt>
    <trkpt lat="35.12049" lon="-120.10480"><ele>464.0</ele></trkpt>
    <trkpt lat="35.12053" lon="-120.10501"><ele>464.0</ele></trkpt>
    <trkpt lat="35.12051" lon="-120.10527"><ele>465.0</ele></trkpt>
    <trkpt lat="35.12049" lon="-120.10541"><ele>465.0</ele></trkpt>
    <trkpt lat="35.12058" lon="-120.10552"><ele>465.0</ele></trkpt>
    <trkpt lat="35.12070" lon="-120.10568"><ele>466.0</ele></trkpt>
    <trkpt lat="35.12078" lon="-120.10587"><ele>466.0</ele></trkpt>
    <trkpt lat="35.12093" lon="-120.10604"><ele>466.0</ele></trkpt>
    <trkpt lat="35.12110" lon="-120.10611"><ele>475.0</ele></trkpt>
    <trkpt lat="35.12123" lon="-120.10620"><ele>475.0</ele></trkpt>
    <trkpt lat="35.12131" lon="-120.10634"><ele>475.0</ele></trkpt>
    <trkpt lat="35.12142" lon="-120.10658"><ele>475.0</ele></trkpt>
    <trkpt lat="35.12153" lon="-120.10684"><ele>478.0</ele></trkpt>
    <trkpt lat="35.12167" lon="-120.10703"><ele>478.0</ele></trkpt>
    <trkpt lat="35.12183" lon="-120.10713"><ele>478.0</ele></trkpt>
    <trkpt lat="35.12203" lon="-120.10729"><ele>483.0</ele></trkpt>
    <trkpt lat="35.12222" lon="-120.10746"><ele>483.0</ele></trkpt>
    <trkpt lat="35.12239" lon="-120.10768"><ele>483.0</ele></trkpt>
    <trkpt lat="35.12260" lon="-120.10785"><ele>486.0</ele></trkpt>
    <trkpt lat="35.12278" lon="-120.10804"><ele>486.0</ele></trkpt>
    <trkpt lat="35.12286" lon="-120.10825"><ele>486.0</ele></trkpt>
    <trkpt lat="35.12300" lon="-120.10857"><ele>490.0</ele></trkpt>
    <trkpt lat="35.12310" lon="-120.10879"><ele>490.0</ele></trkpt>
    <trkpt lat="35.12333" lon="-120.10914"><ele>490.0</ele></trkpt>
    <trkpt lat="35.12355" lon="-120.10949"><ele>490.0</ele></trkpt>
    <trkpt lat="35.12366" lon="-120.10972"><ele>507.0</ele></trkpt>
    <trkpt lat="35.12368" lon="-120.10995"><ele>507.0</ele></trkpt>
    <trkpt lat="35.12373" lon="-120.11016"><ele>507.0</ele></trkpt>
    <trkpt lat="35.12385" lon="-120.11034"><ele>513.0</ele></trkpt>
    <trkpt lat="35.12396" lon="-120.11055"><ele>513.0</ele></trkpt>
    <trkpt lat="35.12400" lon="-120.11078"><ele>513.0</ele></trkpt>
    <trkpt lat="35.12397" lon="-120.11108"><ele>514.0</ele></trkpt>
    <trkpt lat="35.12397" lon="-120.11138"><ele>514.0</ele></trkpt>
    <trkpt lat="35.12404" lon="-120.11161"><ele>514.0</ele></trkpt>
    <trkpt lat="35.12416" lon="-120.11178"><ele>519.0</ele></trkpt>
    <trkpt lat="35.12425" lon="-120.11197"><ele>519.0</ele></trkpt>
    <trkpt lat="35.12431" lon="-120.11218"><ele>519.0</ele></trkpt>
    <trkpt lat="35.12449" lon="-120.11239"><ele>524.0</ele></trkpt>
    <trkpt lat="35.12462" lon="-120.11254"><ele>524.0</ele></trkpt>
    <trkpt lat="35.12468" lon="-120.11275"><ele>524.0</ele></trkpt>
    <trkpt lat="35.12470" lon="-120.11299"><ele>524.0</ele></trkpt>
    <trkpt lat="35.12476" lon="-120.11325"><ele>539.0</ele></trkpt>
    <trkpt lat="35.12485" lon="-120.11357"><ele>539.0</ele></trkpt>
    <trkpt lat="35.12488" lon="-120.11381"><ele>539.0</ele></trkpt>
    <trkpt lat="35.12497" lon="-120.11388"><ele>544.0</ele></trkpt>
    <trkpt lat="35.12510" lon="-120.11400"><ele>544.0</ele></trkpt>
    <trkpt lat="35.12515" lon="-120.11405"><ele>544.0</ele></trkpt>
    <trkpt lat="35.12520" lon="-120.11419"><ele>550.0</ele></trkpt>
    <trkpt lat="35.12526" lon="-120.11440"><ele>550.0</ele></trkpt>
    <trkpt lat="35.12534" lon="-120.11470"><ele>550.0</ele></trkpt>
    <trkpt lat="35.12542" lon="-120.11489"><ele>556.0</ele></trkpt>
    <trkpt lat="35.12548" lon="-120.11505"><ele>556.0</ele></trkpt>
    <trkpt lat="35.12553" lon="-120.11522"><ele>556.0</ele></trkpt>
    <trkpt lat="35.12564" lon="-120.11541"><ele>561.0</ele></trkpt>
    <trkpt lat="35.12584" lon="-120.11566"><ele>561.0</ele></trkpt>
    <trkpt lat="35.12620" lon="-120.11598"><ele>561.0</ele></trkpt>
    <trkpt lat="35.12643" lon="-120.11603"><ele>561.0</ele></trkpt>
    <trkpt lat="35.12666" lon="-120.11601"><ele>568.0</ele></trkpt>
    <trkpt lat="35.12677" lon="-120.11607"><ele>568.0</ele></trkpt>
    <trkpt lat="35.12688" lon="-120.11624"><ele>568.0</ele></trkpt>
    <trkpt lat="35.12702" lon="-120.11646"><ele>574.0</ele></trkpt>
    <trkpt lat="35.12741" lon="-120.11667"><ele>574.0</ele></trkpt>
    <trkpt lat="35.12762" lon="-120.11696"><ele>574.0</ele></trkpt>
    <trkpt lat="35.12787" lon="-120.11738"><ele>577.0</ele></trkpt>
    <trkpt lat="35.12793" lon="-120.11749"><ele>577.0</ele></trkpt>
    <trkpt lat="35.12802" lon="-120.11764"><ele>577.0</ele></trkpt>
    <trkpt lat="35.12827" lon="-120.11805"><ele>565.0</ele></trkpt>
    <trkpt lat="35.12891" lon="-120.11901"><ele>565.0</ele></trkpt>
    <trkpt lat="35.12921" lon="-120.11934"><ele>565.0</ele></trkpt>
    <trkpt lat="35.12934" lon="-120.11947"><ele>565.0</ele></trkpt>
    <trkpt lat="35.12943" lon="-120.11958"><ele>555.0</ele></trkpt>
    <trkpt lat="35.12961" lon="-120.12017"><ele>555.0</ele></trkpt>
    <trkpt lat="35.12963" lon="-120.12029"><ele>555.0</ele></trkpt>
    <trkpt lat="35.12957" lon="-120.12041"><ele>553.0</ele></trkpt>
    <trkpt lat="35.12954" lon="-120.12052"><ele>553.0</ele></trkpt>
    <trkpt lat="35.12947" lon="-120.12074"><ele>553.0</ele></trkpt>
    <trkpt lat="35.12945" lon="-120.12091"><ele>552.0</ele></trkpt>
    <trkpt lat="35.12950" lon="-120.12109"><ele>552.0</ele></trkpt>
    <trkpt lat="35.12968" lon="-120.12161"><ele>552.0</ele></trkpt>
    <trkpt lat="35.12974" lon="-120.12167"><ele>544.0</ele></trkpt>
    <trkpt lat="35.12982" lon="-120.12167"><ele>544.0</ele></trkpt>
    <trkpt lat="35.12987" lon="-120.12161"><ele>544.0</ele></trkpt>
    <trkpt lat="35.12992" lon="-120.12150"><ele>539.0</ele></trkpt>
    <trkpt lat="35.12997" lon="-120.12151"><ele>539.0</ele></trkpt>
    <trkpt lat="35.13018" lon="-120.12162"><ele>539.0</ele></trkpt>
    <trkpt lat="35.13034" lon="-120.12161"><ele>539.0</ele></trkpt>
    <trkpt lat="35.13045" lon="-120.12152"><ele>529.0</ele></trkpt>
    <trkpt lat="35.13061" lon="-120.12142"><ele>529.0</ele></trkpt>
    <trkpt lat="35.13075" lon="-120.12140"><ele>529.0</ele></trkpt>
    <trkpt lat="35.13092" lon="-120.12140"><ele>523.0</ele></trkpt>
    <trkpt lat="35.13104" lon="-120.12143"><ele>523.0</ele></trkpt>
    <trkpt lat="35.13118" lon="-120.12145"><ele>523.0</ele></trkpt>
    <trkpt lat="35.13129" lon="-120.12150"><ele>515.0</ele></trkpt>
    <trkpt lat="35.13138" lon="-120.12159"><ele>515.0</ele></trkpt>
    <trkpt lat="35.13148" lon="-120.12168"><ele>515.0</ele></trkpt>
    <trkpt lat="35.13161" lon="-120.12184"><ele>509.0</ele></trkpt>
    <trkpt lat="35.13184" lon="-120.12197"><ele>509.0</ele></trkpt>
    <trkpt lat="35.13203" lon="-120.12201"><ele>509.0</ele></trkpt>
    <trkpt lat="35.13222" lon="-120.12204"><ele>507.0</ele></trkpt>
    <trkpt lat="35.13238" lon="-120.12206"><ele>507.0</ele></trkpt>
    <trkpt lat="35.13256" lon="-120.12210"><ele>507.0</ele></trkpt>
    <trkpt lat="35.13271" lon="-120.12211"><ele>507.0</ele></trkpt>
    <trkpt lat="35.13286" lon="-120.12208"><ele>502.0</ele></trkpt>
    <trkpt lat="35.13302" lon="-120.12207"><ele>502.0</ele></trkpt>
    <trkpt lat="35.13312" lon="-120.12209"><ele>502.0</ele></trkpt>
    <trkpt lat="35.13322" lon="-120.12214"><ele>498.0</ele></trkpt>
    <trkpt lat="35.13353" lon="-120.12226"><ele>498.0</ele></trkpt>
    <trkpt lat="35.13370" lon="-120.12229"><ele>498.0</ele></trkpt>
    <trkpt lat="35.13390" lon="-120.12227"><ele>492.0</ele></trkpt>
    <trkpt lat="35.13416" lon="-120.12218"><ele>492.0</ele></trkpt>
    <trkpt lat="35.13438" lon="-120.12203"><ele>492.0</ele></trkpt>
    <trkpt lat="35.13453" lon="-120.12200"><ele>487.0</ele></trkpt>
    <trkpt lat="35.13457" lon="-120.12213"><ele>487.0</ele></trkpt>
    <trkpt lat="35.13465" lon="-120.12222"><ele>487.0</ele></trkpt>
    <trkpt lat="35.13472" lon="-120.12230"><ele>487.0</ele></trkpt>
    <trkpt lat="35.13479" lon="-120.12238"><ele>482.0</ele></trkpt>
    <trkpt lat="35.13485" lon="-120.12248"><ele>482.0</ele></trkpt>
    <trkpt lat="35.13487" lon="-120.12261"><ele>482.0</ele></trkpt>
    <trkpt lat="35.13489" lon="-120.12283"><ele>481.0</ele></trkpt>
    <trkpt lat="35.13490" lon="-120.12309"><ele>481.0</ele></trkpt>
    <trkpt lat="35.13500" lon="-120.12334"><ele>481.0</ele></trkpt>
    <trkpt lat="35.13545" lon="-120.12439"><ele>477.0</ele></trkpt>
    <trkpt lat="35.13578" lon="-120.12520"><ele>477.0</ele></trkpt>
    <trkpt lat="35.13587" lon="-120.12549"><ele>477.0</ele></trkpt>
    <trkpt lat="35.13601" lon="-120.12574"><ele>478.0</ele></trkpt>
    <trkpt lat="35.13609" lon="-120.12578"><ele>478.0</ele></trkpt>
    <trkpt lat="35.13624" lon="-120.12581"><ele>478.0</ele></trkpt>
    <trkpt lat="35.13643" lon="-120.12593"><ele>483.0</ele></trkpt>
    <trkpt lat="35.13651" lon="-120.12597"><ele>483.0</ele></trkpt>
    <trkpt lat="35.13660" lon="-120.12609"><ele>483.0</ele></trkpt>
    <trkpt lat="35.13665" lon="-120.12620"><ele>483.0</ele></trkpt>
    <trkpt lat="35.13673" lon="-120.12646"><ele>486.0</ele></trkpt>
    <trkpt lat="35.13677" lon="-120.12668"><ele>486.0</ele></trkpt>
    <trkpt lat="35.13684" lon="-120.12695"><ele>486.0</ele></trkpt>
    <trkpt lat="35.13694" lon="-120.12707"><ele>485.0</ele></trkpt>
    <trkpt lat="35.13709" lon="-120.12716"><ele>485.0</ele></trkpt>
    <trkpt lat="35.13720" lon="-120.12728"><ele>485.0</ele></trkpt>
    <trkpt lat="35.13729" lon="-120.12748"><ele>479.0</ele></trkpt>
    <trkpt lat="35.13732" lon="-120.12769"><ele>479.0</ele></trkpt>
    <trkpt lat="35.13730" lon="-120.12789"><ele>479.0</ele></trkpt>
    <trkpt lat="35.13723" lon="-120.12804"><ele>472.0</ele></trkpt>
    <trkpt lat="35.13712" lon="-120.12814"><ele>472.0</ele></trkpt>
    <trkpt lat="35.13697" lon="-120.12823"><ele>472.0</ele></trkpt>
    <trkpt lat="35.13689" lon="-120.12830"><ele>465.0</ele></trkpt>
    <trkpt lat="35.13687" lon="-120.12841"><ele>465.0</ele></trkpt>
    <trkpt lat="35.13692" lon="-120.12856"><ele>465.0</ele></trkpt>
    <trkpt lat="35.13696" lon="-120.12876"><ele>465.0</ele></trkpt>
    <trkpt lat="35.13693" lon="-120.12896"><ele>454.0</ele></trkpt>
    <trkpt lat="35.13681" lon="-120.12928"><ele>454.0</ele></trkpt>
    <trkpt lat="35.13673" lon="-120.12946"><ele>454.0</ele></trkpt>
    <trkpt lat="35.13660" lon="-120.12958"><ele>452.0</ele></trkpt>
    <trkpt lat="35.13647" lon="-120.12969"><ele>452.0</ele></trkpt>
    <trkpt lat="35.13639" lon="-120.12983"><ele>452.0</ele></trkpt>
    <trkpt lat="35.13638" lon="-120.13000"><ele>452.0</ele></trkpt>
    <trkpt lat="35.13641" lon="-120.13017"><ele>452.0</ele></trkpt>
    <trkpt lat="35.13650" lon="-120.13034"><ele>452.0</ele></trkpt>
    <trkpt lat="35.13658" lon="-120.13054"><ele>445.0</ele></trkpt>
    <trkpt lat="35.13662" lon="-120.13082"><ele>445.0</ele></trkpt>
    <trkpt lat="35.13667" lon="-120.13105"><ele>445.0</ele></trkpt>
    <trkpt lat="35.13671" lon="-120.13122"><ele>445.0</ele></trkpt>
    <trkpt lat="35.13684" lon="-120.13143"><ele>446.0</ele></trkpt>
    <trkpt lat="35.13699" lon="-120.13168"><ele>446.0</ele></trkpt>
    <trkpt lat="35.13713" lon="-120.13192"><ele>446.0</ele></trkpt>
    <trkpt lat="35.13730" lon="-120.13219"><ele>442.0</ele></trkpt>
    <trkpt lat="35.13748" lon="-120.13233"><ele>442.0</ele></trkpt>
    <trkpt lat="35.13766" lon="-120.13244"><ele>442.0</ele></trkpt>
    <trkpt lat="35.13778" lon="-120.13256"><ele>446.0</ele></trkpt>
    <trkpt lat="35.13794" lon="-120.13280"><ele>446.0</ele></trkpt>
    <trkpt lat="35.13813" lon="-120.13313"><ele>446.0</ele></trkpt>
    <trkpt lat="35.13836" lon="-120.13348"><ele>445.0</ele></trkpt>
    <trkpt lat="35.13862" lon="-120.13393"><ele>445.0</ele></trkpt>
    <trkpt lat="35.13883" lon="-120.13423"><ele>445.0</ele></trkpt>
    <trkpt lat="35.13895" lon="-120.13438"><ele>440.0</ele></trkpt>
    <trkpt lat="35.13900" lon="-120.13454"><ele>440.0</ele></trkpt>
    <trkpt lat="35.13902" lon="-120.13472"><ele>440.0</ele></trkpt>
    <trkpt lat="35.13903" lon="-120.13487"><ele>440.0</ele></trkpt>
    <trkpt lat="35.13911" lon="-120.13496"><ele>437.0</ele></trkpt>
    <trkpt lat="35.13924" lon="-120.13503"><ele>437.0</ele></trkpt>
    <trkpt lat="35.13937" lon="-120.13506"><ele>437.0</ele></trkpt>
    <trkpt lat="35.13952" lon="-120.13506"><ele>437.0</ele></trkpt>
    <trkpt lat="35.13972" lon="-120.13507"><ele>437.0</ele></trkpt>
    <trkpt lat="35.13986" lon="-120.13515"><ele>437.0</ele></trkpt>
    <trkpt lat="35.13996" lon="-120.13531"><ele>436.0</ele></trkpt>
    <trkpt lat="35.14003" lon="-120.13547"><ele>436.0</ele></trkpt>
    <trkpt lat="35.14017" lon="-120.13560"><ele>436.0</ele></trkpt>
    <trkpt lat="35.14033" lon="-120.13574"><ele>435.0</ele></trkpt>
    <trkpt lat="35.14041" lon="-120.13584"><ele>435.0</ele></trkpt>
    <trkpt lat="35.14049" lon="-120.13602"><ele>435.0</ele></trkpt>
    <trkpt lat="35.14051" lon="-120.13619"><ele>433.0</ele></trkpt>
    <trkpt lat="35.14049" lon="-120.13637"><ele>433.0</ele></trkpt>
    <trkpt lat="35.14046" lon="-120.13653"><ele>433.0</ele></trkpt>
    <trkpt lat="35.14042" lon="-120.13666"><ele>433.0</ele></trkpt>
    <trkpt lat="35.14033" lon="-120.13679"><ele>432.0</ele></trkpt>
    <trkpt lat="35.14020" lon="-120.13685"><ele>432.0</ele></trkpt>
    <trkpt lat="35.14008" lon="-120.13689"><ele>432.0</ele></trkpt>
    <trkpt lat="35.13995" lon="-120.13696"><ele>431.0</ele></trkpt>
    <trkpt lat="35.13983" lon="-120.13712"><ele>431.0</ele></trkpt>
    <trkpt lat="35.13973" lon="-120.13731"><ele>431.0</ele></trkpt>
    <trkpt lat="35.13966" lon="-120.13754"><ele>427.0</ele></trkpt>
    <trkpt lat="35.13964" lon="-120.13768"><ele>427.0</ele></trkpt>
    <trkpt lat="35.13969" lon="-120.13787"><ele>427.0</ele></trkpt>
    <trkpt lat="35.13972" lon="-120.13806"><ele>427.0</ele></trkpt>
    <trkpt lat="35.13968" lon="-120.13823"><ele>427.0</ele></trkpt>
    <trkpt lat="35.13959" lon="-120.13845"><ele>427.0</ele></trkpt>
    <trkpt lat="35.13945" lon="-120.13861"><ele>427.0</ele></trkpt>
    <trkpt lat="35.13930" lon="-120.13867"><ele>419.0</ele></trkpt>
    <trkpt lat="35.13910" lon="-120.13872"><ele>419.0</ele></trkpt>
    <trkpt lat="35.13900" lon="-120.13882"><ele>419.0</ele></trkpt>
    <trkpt lat="35.13895" lon="-120.13895"><ele>422.0</ele></trkpt>
    <trkpt lat="35.13897" lon="-120.13911"><ele>422.0</ele></trkpt>
    <trkpt lat="35.13902" lon="-120.13927"><ele>422.0</ele></trkpt>
    <trkpt lat="35.13912" lon="-120.13936"><ele>419.0</ele></trkpt>
    <trkpt lat="35.13926" lon="-120.13948"><ele>419.0</ele></trkpt>
    <trkpt lat="35.13931" lon="-120.13963"><ele>419.0</ele></trkpt>
    <trkpt lat="35.13930" lon="-120.13982"><ele>420.0</ele></trkpt>
    <trkpt lat="35.13924" lon="-120.13999"><ele>420.0</ele></trkpt>
    <trkpt lat="35.13914" lon="-120.14015"><ele>420.0</ele></trkpt>
    <trkpt lat="35.13899" lon="-120.14033"><ele>426.0</ele></trkpt>
    <trkpt lat="35.13889" lon="-120.14051"><ele>426.0</ele></trkpt>
    <trkpt lat="35.13886" lon="-120.14071"><ele>426.0</ele></trkpt>
    <trkpt lat="35.13892" lon="-120.14089"><ele>426.0</ele></trkpt>
    <trkpt lat="35.13897" lon="-120.14108"><ele>421.0</ele></trkpt>
    <trkpt lat="35.13897" lon="-120.14130"><ele>421.0</ele></trkpt>
    <trkpt lat="35.13895" lon="-120.14144"><ele>421.0</ele></trkpt>
    <trkpt lat="35.13892" lon="-120.14154"><ele>422.0</ele></trkpt>
    <trkpt lat="35.13888" lon="-120.14166"><ele>422.0</ele></trkpt>
    <trkpt lat="35.13884" lon="-120.14192"><ele>422.0</ele></trkpt>
    <trkpt lat="35.13883" lon="-120.14214"><ele>420.0</ele></trkpt>
    <trkpt lat="35.13885" lon="-120.14238"><ele>420.0</ele></trkpt>
  </trkseg></trk>
</gpx>
