<?xml version="1.0" encoding="UTF-8"?>
<gpx version="1.1" creator="dirt-bikes build-angeles-routes (TrailNFS/RoadBasic geometry + SRTM elevation)" xmlns="http://www.topografix.com/GPX/1/1">
  <trk><name>Rowher Singletrack (Silverking, Yucca &amp; King Snake)</name>
    <trkseg>
      <trkpt lat="34.51642" lon="-118.40607"><ele>660.0</ele></trkpt>
      <trkpt lat="34.51638" lon="-118.40596"><ele>660.0</ele></trkpt>
      <trkpt lat="34.51638" lon="-118.40577"><ele>660.0</ele></trkpt>
      <trkpt lat="34.51639" lon="-118.40548"><ele>660.0</ele></trkpt>
      <trkpt lat="34.51637" lon="-118.40534"><ele>664.0</ele></trkpt>
      <trkpt lat="34.51639" lon="-118.40523"><ele>664.0</ele></trkpt>
      <trkpt lat="34.51640" lon="-118.40509"><ele>664.0</ele></trkpt>
      <trkpt lat="34.51636" lon="-118.40495"><ele>664.0</ele></trkpt>
      <trkpt lat="34.51631" lon="-118.40482"><ele>664.0</ele></trkpt>
      <trkpt lat="34.51632" lon="-118.40470"><ele>664.0</ele></trkpt>
      <trkpt lat="34.51634" lon="-118.40461"><ele>665.0</ele></trkpt>
      <trkpt lat="34.51642" lon="-118.40455"><ele>665.0</ele></trkpt>
      <trkpt lat="34.51656" lon="-118.40451"><ele>665.0</ele></trkpt>
      <trkpt lat="34.51667" lon="-118.40444"><ele>665.0</ele></trkpt>
      <trkpt lat="34.51674" lon="-118.40437"><ele>665.0</ele></trkpt>
      <trkpt lat="34.51679" lon="-118.40422"><ele>665.0</ele></trkpt>
      <trkpt lat="34.51685" lon="-118.40390"><ele>665.0</ele></trkpt>
      <trkpt lat="34.51684" lon="-118.40380"><ele>665.0</ele></trkpt>
      <trkpt lat="34.51680" lon="-118.40370"><ele>665.0</ele></trkpt>
      <trkpt lat="34.51678" lon="-118.40363"><ele>665.0</ele></trkpt>
      <trkpt lat="34.51681" lon="-118.40355"><ele>665.0</ele></trkpt>
      <trkpt lat="34.51686" lon="-118.40347"><ele>667.0</ele></trkpt>
      <trkpt lat="34.51692" lon="-118.40342"><ele>667.0</ele></trkpt>
      <trkpt lat="34.51696" lon="-118.40332"><ele>667.0</ele></trkpt>
      <trkpt lat="34.51698" lon="-118.40319"><ele>667.0</ele></trkpt>
      <trkpt lat="34.51701" lon="-118.40309"><ele>667.0</ele></trkpt>
      <trkpt lat="34.51704" lon="-118.40293"><ele>667.0</ele></trkpt>
      <trkpt lat="34.51703" lon="-118.40281"><ele>678.0</ele></trkpt>
      <trkpt lat="34.51706" lon="-118.40264"><ele>678.0</ele></trkpt>
      <trkpt lat="34.51709" lon="-118.40253"><ele>678.0</ele></trkpt>
      <trkpt lat="34.51712" lon="-118.40241"><ele>678.0</ele></trkpt>
      <trkpt lat="34.51715" lon="-118.40228"><ele>678.0</ele></trkpt>
      <trkpt lat="34.51725" lon="-118.40223"><ele>678.0</ele></trkpt>
      <trkpt lat="34.51732" lon="-118.40219"><ele>679.0</ele></trkpt>
      <trkpt lat="34.51734" lon="-118.40215"><ele>679.0</ele></trkpt>
      <trkpt lat="34.51731" lon="-118.40197"><ele>679.0</ele></trkpt>
      <trkpt lat="34.51730" lon="-118.40184"><ele>679.0</ele></trkpt>
      <trkpt lat="34.51730" lon="-118.40173"><ele>679.0</ele></trkpt>
      <trkpt lat="34.51732" lon="-118.40162"><ele>682.0</ele></trkpt>
      <trkpt lat="34.51731" lon="-118.40154"><ele>682.0</ele></trkpt>
      <trkpt lat="34.51731" lon="-118.40148"><ele>682.0</ele></trkpt>
      <trkpt lat="34.51735" lon="-118.40143"><ele>682.0</ele></trkpt>
      <trkpt lat="34.51745" lon="-118.40140"><ele>682.0</ele></trkpt>
      <trkpt lat="34.51754" lon="-118.40138"><ele>682.0</ele></trkpt>
      <trkpt lat="34.51760" lon="-118.40131"><ele>675.0</ele></trkpt>
      <trkpt lat="34.51759" lon="-118.40120"><ele>675.0</ele></trkpt>
      <trkpt lat="34.51754" lon="-118.40107"><ele>675.0</ele></trkpt>
      <trkpt lat="34.51747" lon="-118.40100"><ele>675.0</ele></trkpt>
      <trkpt lat="34.51735" lon="-118.40094"><ele>675.0</ele></trkpt>
      <trkpt lat="34.51724" lon="-118.40089"><ele>675.0</ele></trkpt>
      <trkpt lat="34.51708" lon="-118.40087"><ele>703.0</ele></trkpt>
      <trkpt lat="34.51693" lon="-118.40082"><ele>703.0</ele></trkpt>
      <trkpt lat="34.51679" lon="-118.40077"><ele>703.0</ele></trkpt>
      <trkpt lat="34.51675" lon="-118.40072"><ele>703.0</ele></trkpt>
      <trkpt lat="34.51676" lon="-118.40062"><ele>703.0</ele></trkpt>
      <trkpt lat="34.51677" lon="-118.40051"><ele>703.0</ele></trkpt>
      <trkpt lat="34.51675" lon="-118.40046"><ele>707.0</ele></trkpt>
      <trkpt lat="34.51670" lon="-118.40041"><ele>707.0</ele></trkpt>
      <trkpt lat="34.51668" lon="-118.40036"><ele>707.0</ele></trkpt>
      <trkpt lat="34.51669" lon="-118.40026"><ele>707.0</ele></trkpt>
      <trkpt lat="34.51673" lon="-118.40019"><ele>707.0</ele></trkpt>
      <trkpt lat="34.51681" lon="-118.40015"><ele>696.0</ele></trkpt>
      <trkpt lat="34.51686" lon="-118.40010"><ele>696.0</ele></trkpt>
      <trkpt lat="34.51691" lon="-118.40002"><ele>696.0</ele></trkpt>
      <trkpt lat="34.51694" lon="-118.39993"><ele>696.0</ele></trkpt>
      <trkpt lat="34.51699" lon="-118.39982"><ele>696.0</ele></trkpt>
      <trkpt lat="34.51704" lon="-118.39972"><ele>696.0</ele></trkpt>
      <trkpt lat="34.51706" lon="-118.39965"><ele>694.0</ele></trkpt>
      <trkpt lat="34.51707" lon="-118.39954"><ele>694.0</ele></trkpt>
      <trkpt lat="34.51706" lon="-118.39946"><ele>694.0</ele></trkpt>
      <trkpt lat="34.51703" lon="-118.39938"><ele>694.0</ele></trkpt>
      <trkpt lat="34.51702" lon="-118.39933"><ele>694.0</ele></trkpt>
      <trkpt lat="34.51706" lon="-118.39931"><ele>694.0</ele></trkpt>
      <trkpt lat="34.51713" lon="-118.39932"><ele>689.0</ele></trkpt>
      <trkpt lat="34.51718" lon="-118.39935"><ele>689.0</ele></trkpt>
      <trkpt lat="34.51722" lon="-118.39938"><ele>689.0</ele></trkpt>
      <trkpt lat="34.51726" lon="-118.39937"><ele>689.0</ele></trkpt>
      <trkpt lat="34.51731" lon="-118.39927"><ele>689.0</ele></trkpt>
      <trkpt lat="34.51735" lon="-118.39918"><ele>689.0</ele></trkpt>
      <trkpt lat="34.51738" lon="-118.39914"><ele>682.0</ele></trkpt>
      <trkpt lat="34.51749" lon="-118.39911"><ele>682.0</ele></trkpt>
      <trkpt lat="34.51757" lon="-118.39909"><ele>682.0</ele></trkpt>
      <trkpt lat="34.51765" lon="-118.39904"><ele>682.0</ele></trkpt>
      <trkpt lat="34.51775" lon="-118.39900"><ele>682.0</ele></trkpt>
      <trkpt lat="34.51792" lon="-118.39898"><ele>679.0</ele></trkpt>
      <trkpt lat="34.51807" lon="-118.39896"><ele>679.0</ele></trkpt>
      <trkpt lat="34.51823" lon="-118.39894"><ele>679.0</ele></trkpt>
      <trkpt lat="34.51829" lon="-118.39889"><ele>679.0</ele></trkpt>
      <trkpt lat="34.51829" lon="-118.39879"><ele>679.0</ele></trkpt>
      <trkpt lat="34.51823" lon="-118.39867"><ele>679.0</ele></trkpt>
      <trkpt lat="34.51816" lon="-118.39857"><ele>684.0</ele></trkpt>
      <trkpt lat="34.51803" lon="-118.39845"><ele>684.0</ele></trkpt>
      <trkpt lat="34.51797" lon="-118.39841"><ele>684.0</ele></trkpt>
      <trkpt lat="34.51781" lon="-118.39833"><ele>684.0</ele></trkpt>
      <trkpt lat="34.51770" lon="-118.39826"><ele>684.0</ele></trkpt>
      <trkpt lat="34.51756" lon="-118.39817"><ele>684.0</ele></trkpt>
      <trkpt lat="34.51747" lon="-118.39805"><ele>695.0</ele></trkpt>
      <trkpt lat="34.51740" lon="-118.39796"><ele>695.0</ele></trkpt>
      <trkpt lat="34.51734" lon="-118.39787"><ele>695.0</ele></trkpt>
      <trkpt lat="34.51737" lon="-118.39779"><ele>695.0</ele></trkpt>
      <trkpt lat="34.51739" lon="-118.39766"><ele>695.0</ele></trkpt>
      <trkpt lat="34.51740" lon="-118.39756"><ele>695.0</ele></trkpt>
      <trkpt lat="34.51741" lon="-118.39754"><ele>696.0</ele></trkpt>
      <trkpt lat="34.51745" lon="-118.39756"><ele>696.0</ele></trkpt>
      <trkpt lat="34.51750" lon="-118.39762"><ele>696.0</ele></trkpt>
      <trkpt lat="34.51756" lon="-118.39770"><ele>696.0</ele></trkpt>
      <trkpt lat="34.51761" lon="-118.39772"><ele>696.0</ele></trkpt>
      <trkpt lat="34.51773" lon="-118.39773"><ele>689.0</ele></trkpt>
      <trkpt lat="34.51783" lon="-118.39776"><ele>689.0</ele></trkpt>
      <trkpt lat="34.51794" lon="-118.39782"><ele>689.0</ele></trkpt>
      <trkpt lat="34.51802" lon="-118.39786"><ele>689.0</ele></trkpt>
      <trkpt lat="34.51811" lon="-118.39786"><ele>689.0</ele></trkpt>
      <trkpt lat="34.51822" lon="-118.39783"><ele>689.0</ele></trkpt>
      <trkpt lat="34.51827" lon="-118.39778"><ele>688.0</ele></trkpt>
      <trkpt lat="34.51827" lon="-118.39766"><ele>688.0</ele></trkpt>
      <trkpt lat="34.51825" lon="-118.39755"><ele>688.0</ele></trkpt>
      <trkpt lat="34.51821" lon="-118.39747"><ele>688.0</ele></trkpt>
      <trkpt lat="34.51816" lon="-118.39736"><ele>688.0</ele></trkpt>
      <trkpt lat="34.51816" lon="-118.39735"><ele>688.0</ele></trkpt>
      <trkpt lat="34.51815" lon="-118.39734"><ele>693.0</ele></trkpt>
      <trkpt lat="34.51809" lon="-118.39723"><ele>693.0</ele></trkpt>
      <trkpt lat="34.51804" lon="-118.39713"><ele>693.0</ele></trkpt>
      <trkpt lat="34.51804" lon="-118.39702"><ele>693.0</ele></trkpt>
      <trkpt lat="34.51807" lon="-118.39687"><ele>693.0</ele></trkpt>
      <trkpt lat="34.51803" lon="-118.39667"><ele>693.0</ele></trkpt>
      <trkpt lat="34.51797" lon="-118.39655"><ele>699.0</ele></trkpt>
      <trkpt lat="34.51786" lon="-118.39650"><ele>699.0</ele></trkpt>
      <trkpt lat="34.51774" lon="-118.39643"><ele>699.0</ele></trkpt>
      <trkpt lat="34.51769" lon="-118.39644"><ele>699.0</ele></trkpt>
      <trkpt lat="34.51763" lon="-118.39644"><ele>699.0</ele></trkpt>
      <trkpt lat="34.51759" lon="-118.39642"><ele>703.0</ele></trkpt>
      <trkpt lat="34.51749" lon="-118.39633"><ele>703.0</ele></trkpt>
      <trkpt lat="34.51738" lon="-118.39632"><ele>703.0</ele></trkpt>
      <trkpt lat="34.51726" lon="-118.39634"><ele>703.0</ele></trkpt>
      <trkpt lat="34.51717" lon="-118.39635"><ele>703.0</ele></trkpt>
      <trkpt lat="34.51711" lon="-118.39634"><ele>703.0</ele></trkpt>
      <trkpt lat="34.51709" lon="-118.39627"><ele>708.0</ele></trkpt>
      <trkpt lat="34.51709" lon="-118.39619"><ele>708.0</ele></trkpt>
      <trkpt lat="34.51706" lon="-118.39613"><ele>708.0</ele></trkpt>
      <trkpt lat="34.51706" lon="-118.39604"><ele>708.0</ele></trkpt>
      <trkpt lat="34.51713" lon="-118.39598"><ele>708.0</ele></trkpt>
      <trkpt lat="34.51724" lon="-118.39594"><ele>708.0</ele></trkpt>
      <trkpt lat="34.51736" lon="-118.39593"><ele>695.0</ele></trkpt>
      <trkpt lat="34.51748" lon="-118.39589"><ele>695.0</ele></trkpt>
      <trkpt lat="34.51752" lon="-118.39582"><ele>695.0</ele></trkpt>
      <trkpt lat="34.51755" lon="-118.39568"><ele>695.0</ele></trkpt>
      <trkpt lat="34.51756" lon="-118.39560"><ele>695.0</ele></trkpt>
      <trkpt lat="34.51754" lon="-118.39548"><ele>695.0</ele></trkpt>
      <trkpt lat="34.51750" lon="-118.39536"><ele>706.0</ele></trkpt>
      <trkpt lat="34.51748" lon="-118.39530"><ele>706.0</ele></trkpt>
      <trkpt lat="34.51743" lon="-118.39520"><ele>706.0</ele></trkpt>
      <trkpt lat="34.51739" lon="-118.39513"><ele>706.0</ele></trkpt>
      <trkpt lat="34.51740" lon="-118.39506"><ele>706.0</ele></trkpt>
      <trkpt lat="34.51745" lon="-118.39494"><ele>715.0</ele></trkpt>
      <trkpt lat="34.51753" lon="-118.39476"><ele>715.0</ele></trkpt>
      <trkpt lat="34.51760" lon="-118.39463"><ele>715.0</ele></trkpt>
      <trkpt lat="34.51769" lon="-118.39449"><ele>715.0</ele></trkpt>
      <trkpt lat="34.51775" lon="-118.39438"><ele>715.0</ele></trkpt>
      <trkpt lat="34.51784" lon="-118.39421"><ele>715.0</ele></trkpt>
      <trkpt lat="34.51793" lon="-118.39409"><ele>715.0</ele></trkpt>
      <trkpt lat="34.51800" lon="-118.39403"><ele>715.0</ele></trkpt>
      <trkpt lat="34.51810" lon="-118.39403"><ele>715.0</ele></trkpt>
      <trkpt lat="34.51823" lon="-118.39402"><ele>715.0</ele></trkpt>
      <trkpt lat="34.51833" lon="-118.39400"><ele>715.0</ele></trkpt>
      <trkpt lat="34.51853" lon="-118.39399"><ele>715.0</ele></trkpt>
      <trkpt lat="34.51864" lon="-118.39400"><ele>700.0</ele></trkpt>
      <trkpt lat="34.51876" lon="-118.39399"><ele>700.0</ele></trkpt>
      <trkpt lat="34.51882" lon="-118.39401"><ele>700.0</ele></trkpt>
      <trkpt lat="34.51886" lon="-118.39401"><ele>700.0</ele></trkpt>
      <trkpt lat="34.51886" lon="-118.39396"><ele>700.0</ele></trkpt>
      <trkpt lat="34.51897" lon="-118.39389"><ele>700.0</ele></trkpt>
      <trkpt lat="34.51911" lon="-118.39388"><ele>699.0</ele></trkpt>
      <trkpt lat="34.51922" lon="-118.39387"><ele>699.0</ele></trkpt>
      <trkpt lat="34.51929" lon="-118.39382"><ele>699.0</ele></trkpt>
      <trkpt lat="34.51934" lon="-118.39373"><ele>699.0</ele></trkpt>
      <trkpt lat="34.51941" lon="-118.39363"><ele>699.0</ele></trkpt>
      <trkpt lat="34.51946" lon="-118.39359"><ele>703.0</ele></trkpt>
      <trkpt lat="34.51960" lon="-118.39356"><ele>703.0</ele></trkpt>
      <trkpt lat="34.51975" lon="-118.39355"><ele>703.0</ele></trkpt>
      <trkpt lat="34.51980" lon="-118.39352"><ele>703.0</ele></trkpt>
      <trkpt lat="34.51990" lon="-118.39347"><ele>703.0</ele></trkpt>
      <trkpt lat="34.52001" lon="-118.39343"><ele>703.0</ele></trkpt>
      <trkpt lat="34.52009" lon="-118.39335"><ele>706.0</ele></trkpt>
      <trkpt lat="34.52018" lon="-118.39329"><ele>706.0</ele></trkpt>
      <trkpt lat="34.52023" lon="-118.39326"><ele>706.0</ele></trkpt>
      <trkpt lat="34.52027" lon="-118.39324"><ele>706.0</ele></trkpt>
      <trkpt lat="34.52031" lon="-118.39327"><ele>706.0</ele></trkpt>
      <trkpt lat="34.52037" lon="-118.39337"><ele>706.0</ele></trkpt>
      <trkpt lat="34.52041" lon="-118.39347"><ele>715.0</ele></trkpt>
      <trkpt lat="34.52044" lon="-118.39355"><ele>715.0</ele></trkpt>
      <trkpt lat="34.52041" lon="-118.39373"><ele>715.0</ele></trkpt>
      <trkpt lat="34.52039" lon="-118.39388"><ele>715.0</ele></trkpt>
      <trkpt lat="34.52040" lon="-118.39416"><ele>715.0</ele></trkpt>
      <trkpt lat="34.52041" lon="-118.39459"><ele>715.0</ele></trkpt>
      <trkpt lat="34.52042" lon="-118.39475"><ele>725.0</ele></trkpt>
      <trkpt lat="34.52047" lon="-118.39483"><ele>725.0</ele></trkpt>
      <trkpt lat="34.52052" lon="-118.39493"><ele>725.0</ele></trkpt>
      <trkpt lat="34.52060" lon="-118.39499"><ele>725.0</ele></trkpt>
      <trkpt lat="34.52071" lon="-118.39504"><ele>725.0</ele></trkpt>
      <trkpt lat="34.52082" lon="-118.39503"><ele>1347.0</ele></trkpt>
    </trkseg>
    <trkseg>
      <trkpt lat="34.55634" lon="-118.35821"><ele>1347.0</ele></trkpt>
      <trkpt lat="34.55634" lon="-118.35826"><ele>1347.0</ele></trkpt>
      <trkpt lat="34.55636" lon="-118.35832"><ele>1347.0</ele></trkpt>
      <trkpt lat="34.55641" lon="-118.35837"><ele>1347.0</ele></trkpt>
      <trkpt lat="34.55647" lon="-118.35846"><ele>1347.0</ele></trkpt>
      <trkpt lat="34.55653" lon="-118.35857"><ele>1347.0</ele></trkpt>
      <trkpt lat="34.55659" lon="-118.35870"><ele>1347.0</ele></trkpt>
      <trkpt lat="34.55666" lon="-118.35876"><ele>1347.0</ele></trkpt>
      <trkpt lat="34.55670" lon="-118.35878"><ele>1347.0</ele></trkpt>
      <trkpt lat="34.55672" lon="-118.35881"><ele>1347.0</ele></trkpt>
      <trkpt lat="34.55672" lon="-118.35887"><ele>1347.0</ele></trkpt>
      <trkpt lat="34.55669" lon="-118.35890"><ele>1343.0</ele></trkpt>
      <trkpt lat="34.55665" lon="-118.35895"><ele>1343.0</ele></trkpt>
      <trkpt lat="34.55663" lon="-118.35899"><ele>1343.0</ele></trkpt>
      <trkpt lat="34.55664" lon="-118.35906"><ele>1343.0</ele></trkpt>
      <trkpt lat="34.55666" lon="-118.35911"><ele>1343.0</ele></trkpt>
      <trkpt lat="34.55669" lon="-118.35917"><ele>1343.0</ele></trkpt>
      <trkpt lat="34.55669" lon="-118.35922"><ele>1337.0</ele></trkpt>
      <trkpt lat="34.55665" lon="-118.35930"><ele>1337.0</ele></trkpt>
      <trkpt lat="34.55659" lon="-118.35936"><ele>1337.0</ele></trkpt>
      <trkpt lat="34.55653" lon="-118.35941"><ele>1337.0</ele></trkpt>
      <trkpt lat="34.55651" lon="-118.35948"><ele>1337.0</ele></trkpt>
      <trkpt lat="34.55651" lon="-118.35953"><ele>1332.0</ele></trkpt>
      <trkpt lat="34.55655" lon="-118.35959"><ele>1332.0</ele></trkpt>
      <trkpt lat="34.55657" lon="-118.35964"><ele>1332.0</ele></trkpt>
      <trkpt lat="34.55655" lon="-118.35970"><ele>1332.0</ele></trkpt>
      <trkpt lat="34.55651" lon="-118.35979"><ele>1332.0</ele></trkpt>
      <trkpt lat="34.55645" lon="-118.35989"><ele>1332.0</ele></trkpt>
      <trkpt lat="34.55643" lon="-118.35992"><ele>1322.0</ele></trkpt>
      <trkpt lat="34.55643" lon="-118.35998"><ele>1322.0</ele></trkpt>
      <trkpt lat="34.55641" lon="-118.36003"><ele>1322.0</ele></trkpt>
      <trkpt lat="34.55639" lon="-118.36011"><ele>1322.0</ele></trkpt>
      <trkpt lat="34.55639" lon="-118.36014"><ele>1322.0</ele></trkpt>
      <trkpt lat="34.55641" lon="-118.36017"><ele>1322.0</ele></trkpt>
      <trkpt lat="34.55645" lon="-118.36020"><ele>1319.0</ele></trkpt>
      <trkpt lat="34.55649" lon="-118.36022"><ele>1319.0</ele></trkpt>
      <trkpt lat="34.55653" lon="-118.36024"><ele>1319.0</ele></trkpt>
      <trkpt lat="34.55658" lon="-118.36027"><ele>1319.0</ele></trkpt>
      <trkpt lat="34.55659" lon="-118.36027"><ele>1319.0</ele></trkpt>
      <trkpt lat="34.55662" lon="-118.36029"><ele>1319.0</ele></trkpt>
      <trkpt lat="34.55666" lon="-118.36031"><ele>1321.0</ele></trkpt>
      <trkpt lat="34.55671" lon="-118.36030"><ele>1321.0</ele></trkpt>
      <trkpt lat="34.55678" lon="-118.36029"><ele>1321.0</ele></trkpt>
      <trkpt lat="34.55684" lon="-118.36032"><ele>1321.0</ele></trkpt>
      <trkpt lat="34.55689" lon="-118.36037"><ele>1321.0</ele></trkpt>
      <trkpt lat="34.55694" lon="-118.36039"><ele>1316.0</ele></trkpt>
      <trkpt lat="34.55698" lon="-118.36044"><ele>1316.0</ele></trkpt>
      <trkpt lat="34.55703" lon="-118.36058"><ele>1316.0</ele></trkpt>
      <trkpt lat="34.55708" lon="-118.36077"><ele>1316.0</ele></trkpt>
      <trkpt lat="34.55710" lon="-118.36093"><ele>1316.0</ele></trkpt>
      <trkpt lat="34.55713" lon="-118.36097"><ele>1316.0</ele></trkpt>
      <trkpt lat="34.55717" lon="-118.36100"><ele>1305.0</ele></trkpt>
      <trkpt lat="34.55722" lon="-118.36104"><ele>1305.0</ele></trkpt>
      <trkpt lat="34.55724" lon="-118.36108"><ele>1305.0</ele></trkpt>
      <trkpt lat="34.55729" lon="-118.36115"><ele>1305.0</ele></trkpt>
      <trkpt lat="34.55733" lon="-118.36118"><ele>1305.0</ele></trkpt>
      <trkpt lat="34.55737" lon="-118.36119"><ele>1305.0</ele></trkpt>
      <trkpt lat="34.55740" lon="-118.36120"><ele>1300.0</ele></trkpt>
      <trkpt lat="34.55742" lon="-118.36125"><ele>1300.0</ele></trkpt>
      <trkpt lat="34.55741" lon="-118.36129"><ele>1300.0</ele></trkpt>
      <trkpt lat="34.55738" lon="-118.36134"><ele>1300.0</ele></trkpt>
      <trkpt lat="34.55736" lon="-118.36142"><ele>1300.0</ele></trkpt>
      <trkpt lat="34.55737" lon="-118.36149"><ele>1300.0</ele></trkpt>
      <trkpt lat="34.55737" lon="-118.36156"><ele>1286.0</ele></trkpt>
      <trkpt lat="34.55738" lon="-118.36167"><ele>1286.0</ele></trkpt>
      <trkpt lat="34.55742" lon="-118.36178"><ele>1286.0</ele></trkpt>
      <trkpt lat="34.55745" lon="-118.36182"><ele>1286.0</ele></trkpt>
      <trkpt lat="34.55743" lon="-118.36188"><ele>1286.0</ele></trkpt>
      <trkpt lat="34.55739" lon="-118.36191"><ele>1279.0</ele></trkpt>
      <trkpt lat="34.55732" lon="-118.36192"><ele>1279.0</ele></trkpt>
      <trkpt lat="34.55728" lon="-118.36192"><ele>1279.0</ele></trkpt>
      <trkpt lat="34.55724" lon="-118.36193"><ele>1279.0</ele></trkpt>
      <trkpt lat="34.55722" lon="-118.36198"><ele>1279.0</ele></trkpt>
      <trkpt lat="34.55720" lon="-118.36204"><ele>1279.0</ele></trkpt>
      <trkpt lat="34.55716" lon="-118.36212"><ele>1265.0</ele></trkpt>
      <trkpt lat="34.55709" lon="-118.36222"><ele>1265.0</ele></trkpt>
      <trkpt lat="34.55704" lon="-118.36227"><ele>1265.0</ele></trkpt>
      <trkpt lat="34.55703" lon="-118.36230"><ele>1265.0</ele></trkpt>
      <trkpt lat="34.55705" lon="-118.36234"><ele>1265.0</ele></trkpt>
      <trkpt lat="34.55704" lon="-118.36239"><ele>1265.0</ele></trkpt>
      <trkpt lat="34.55699" lon="-118.36245"><ele>1252.0</ele></trkpt>
      <trkpt lat="34.55689" lon="-118.36251"><ele>1252.0</ele></trkpt>
      <trkpt lat="34.55682" lon="-118.36260"><ele>1252.0</ele></trkpt>
      <trkpt lat="34.55676" lon="-118.36267"><ele>1252.0</ele></trkpt>
      <trkpt lat="34.55672" lon="-118.36274"><ele>1252.0</ele></trkpt>
      <trkpt lat="34.55669" lon="-118.36278"><ele>1252.0</ele></trkpt>
      <trkpt lat="34.55671" lon="-118.36282"><ele>1246.0</ele></trkpt>
      <trkpt lat="34.55677" lon="-118.36283"><ele>1246.0</ele></trkpt>
      <trkpt lat="34.55684" lon="-118.36281"><ele>1246.0</ele></trkpt>
      <trkpt lat="34.55697" lon="-118.36277"><ele>1246.0</ele></trkpt>
      <trkpt lat="34.55707" lon="-118.36274"><ele>1246.0</ele></trkpt>
      <trkpt lat="34.55718" lon="-118.36269"><ele>1256.0</ele></trkpt>
      <trkpt lat="34.55724" lon="-118.36267"><ele>1256.0</ele></trkpt>
      <trkpt lat="34.55728" lon="-118.36268"><ele>1256.0</ele></trkpt>
      <trkpt lat="34.55728" lon="-118.36270"><ele>1256.0</ele></trkpt>
      <trkpt lat="34.55723" lon="-118.36275"><ele>1256.0</ele></trkpt>
      <trkpt lat="34.55712" lon="-118.36283"><ele>1256.0</ele></trkpt>
      <trkpt lat="34.55702" lon="-118.36291"><ele>1240.0</ele></trkpt>
      <trkpt lat="34.55694" lon="-118.36296"><ele>1240.0</ele></trkpt>
      <trkpt lat="34.55684" lon="-118.36301"><ele>1240.0</ele></trkpt>
      <trkpt lat="34.55669" lon="-118.36308"><ele>1240.0</ele></trkpt>
      <trkpt lat="34.55660" lon="-118.36312"><ele>1240.0</ele></trkpt>
      <trkpt lat="34.55655" lon="-118.36316"><ele>1240.0</ele></trkpt>
      <trkpt lat="34.55650" lon="-118.36318"><ele>1227.0</ele></trkpt>
      <trkpt lat="34.55648" lon="-118.36321"><ele>1227.0</ele></trkpt>
      <trkpt lat="34.55649" lon="-118.36324"><ele>1227.0</ele></trkpt>
      <trkpt lat="34.55653" lon="-118.36328"><ele>1227.0</ele></trkpt>
      <trkpt lat="34.55662" lon="-118.36330"><ele>1227.0</ele></trkpt>
      <trkpt lat="34.55669" lon="-118.36332"><ele>1227.0</ele></trkpt>
      <trkpt lat="34.55671" lon="-118.36334"><ele>1224.0</ele></trkpt>
      <trkpt lat="34.55670" lon="-118.36339"><ele>1224.0</ele></trkpt>
      <trkpt lat="34.55666" lon="-118.36342"><ele>1224.0</ele></trkpt>
      <trkpt lat="34.55660" lon="-118.36347"><ele>1224.0</ele></trkpt>
      <trkpt lat="34.55652" lon="-118.36354"><ele>1224.0</ele></trkpt>
      <trkpt lat="34.55647" lon="-118.36360"><ele>1212.0</ele></trkpt>
      <trkpt lat="34.55642" lon="-118.36366"><ele>1212.0</ele></trkpt>
      <trkpt lat="34.55641" lon="-118.36369"><ele>1212.0</ele></trkpt>
      <trkpt lat="34.55643" lon="-118.36372"><ele>1212.0</ele></trkpt>
      <trkpt lat="34.55648" lon="-118.36373"><ele>1212.0</ele></trkpt>
      <trkpt lat="34.55655" lon="-118.36373"><ele>1212.0</ele></trkpt>
      <trkpt lat="34.55659" lon="-118.36373"><ele>1213.0</ele></trkpt>
      <trkpt lat="34.55659" lon="-118.36377"><ele>1213.0</ele></trkpt>
      <trkpt lat="34.55657" lon="-118.36380"><ele>1213.0</ele></trkpt>
      <trkpt lat="34.55650" lon="-118.36384"><ele>1213.0</ele></trkpt>
      <trkpt lat="34.55645" lon="-118.36387"><ele>1213.0</ele></trkpt>
      <trkpt lat="34.55644" lon="-118.36389"><ele>1213.0</ele></trkpt>
      <trkpt lat="34.55646" lon="-118.36391"><ele>1209.0</ele></trkpt>
      <trkpt lat="34.55653" lon="-118.36394"><ele>1209.0</ele></trkpt>
      <trkpt lat="34.55661" lon="-118.36397"><ele>1209.0</ele></trkpt>
      <trkpt lat="34.55667" lon="-118.36399"><ele>1209.0</ele></trkpt>
      <trkpt lat="34.55675" lon="-118.36399"><ele>1209.0</ele></trkpt>
      <trkpt lat="34.55680" lon="-118.36399"><ele>1209.0</ele></trkpt>
      <trkpt lat="34.55683" lon="-118.36402"><ele>1212.0</ele></trkpt>
      <trkpt lat="34.55684" lon="-118.36405"><ele>1212.0</ele></trkpt>
      <trkpt lat="34.55684" lon="-118.36410"><ele>1212.0</ele></trkpt>
      <trkpt lat="34.55682" lon="-118.36424"><ele>1212.0</ele></trkpt>
      <trkpt lat="34.55680" lon="-118.36434"><ele>1212.0</ele></trkpt>
      <trkpt lat="34.55682" lon="-118.36442"><ele>1209.0</ele></trkpt>
      <trkpt lat="34.55686" lon="-118.36447"><ele>1209.0</ele></trkpt>
      <trkpt lat="34.55690" lon="-118.36448"><ele>1209.0</ele></trkpt>
      <trkpt lat="34.55694" lon="-118.36446"><ele>1209.0</ele></trkpt>
      <trkpt lat="34.55697" lon="-118.36442"><ele>1209.0</ele></trkpt>
      <trkpt lat="34.55698" lon="-118.36436"><ele>1209.0</ele></trkpt>
      <trkpt lat="34.55699" lon="-118.36430"><ele>1216.0</ele></trkpt>
      <trkpt lat="34.55701" lon="-118.36427"><ele>1216.0</ele></trkpt>
      <trkpt lat="34.55705" lon="-118.36427"><ele>1216.0</ele></trkpt>
      <trkpt lat="34.55710" lon="-118.36426"><ele>1216.0</ele></trkpt>
      <trkpt lat="34.55714" lon="-118.36423"><ele>1216.0</ele></trkpt>
      <trkpt lat="34.55718" lon="-118.36418"><ele>1216.0</ele></trkpt>
      <trkpt lat="34.55722" lon="-118.36417"><ele>1224.0</ele></trkpt>
      <trkpt lat="34.55727" lon="-118.36417"><ele>1224.0</ele></trkpt>
      <trkpt lat="34.55732" lon="-118.36423"><ele>1224.0</ele></trkpt>
      <trkpt lat="34.55736" lon="-118.36430"><ele>1224.0</ele></trkpt>
      <trkpt lat="34.55749" lon="-118.36456"><ele>1224.0</ele></trkpt>
      <trkpt lat="34.55756" lon="-118.36469"><ele>1224.0</ele></trkpt>
      <trkpt lat="34.55758" lon="-118.36472"><ele>1228.0</ele></trkpt>
      <trkpt lat="34.55760" lon="-118.36475"><ele>1228.0</ele></trkpt>
      <trkpt lat="34.55761" lon="-118.36481"><ele>1228.0</ele></trkpt>
      <trkpt lat="34.55762" lon="-118.36484"><ele>1228.0</ele></trkpt>
      <trkpt lat="34.55766" lon="-118.36487"><ele>1228.0</ele></trkpt>
      <trkpt lat="34.55770" lon="-118.36487"><ele>1231.0</ele></trkpt>
      <trkpt lat="34.55778" lon="-118.36489"><ele>1231.0</ele></trkpt>
      <trkpt lat="34.55784" lon="-118.36493"><ele>1231.0</ele></trkpt>
      <trkpt lat="34.55793" lon="-118.36501"><ele>1231.0</ele></trkpt>
      <trkpt lat="34.55803" lon="-118.36509"><ele>1231.0</ele></trkpt>
      <trkpt lat="34.55817" lon="-118.36522"><ele>1231.0</ele></trkpt>
      <trkpt lat="34.55827" lon="-118.36533"><ele>1238.0</ele></trkpt>
      <trkpt lat="34.55834" lon="-118.36542"><ele>1238.0</ele></trkpt>
      <trkpt lat="34.55837" lon="-118.36544"><ele>1238.0</ele></trkpt>
      <trkpt lat="34.55837" lon="-118.36545"><ele>1238.0</ele></trkpt>
      <trkpt lat="34.55839" lon="-118.36546"><ele>1238.0</ele></trkpt>
    </trkseg>
    <trkseg>
      <trkpt lat="34.53563" lon="-118.39381"><ele>1238.0</ele></trkpt>
      <trkpt lat="34.53570" lon="-118.39375"><ele>848.0</ele></trkpt>
      <trkpt lat="34.53579" lon="-118.39368"><ele>848.0</ele></trkpt>
      <trkpt lat="34.53584" lon="-118.39361"><ele>848.0</ele></trkpt>
      <trkpt lat="34.53589" lon="-118.39356"><ele>848.0</ele></trkpt>
      <trkpt lat="34.53595" lon="-118.39356"><ele>848.0</ele></trkpt>
      <trkpt lat="34.53599" lon="-118.39358"><ele>848.0</ele></trkpt>
      <trkpt lat="34.53605" lon="-118.39366"><ele>854.0</ele></trkpt>
      <trkpt lat="34.53611" lon="-118.39371"><ele>854.0</ele></trkpt>
      <trkpt lat="34.53622" lon="-118.39378"><ele>854.0</ele></trkpt>
      <trkpt lat="34.53630" lon="-118.39385"><ele>854.0</ele></trkpt>
      <trkpt lat="34.53637" lon="-118.39391"><ele>854.0</ele></trkpt>
      <trkpt lat="34.53644" lon="-118.39398"><ele>861.0</ele></trkpt>
      <trkpt lat="34.53651" lon="-118.39400"><ele>861.0</ele></trkpt>
      <trkpt lat="34.53659" lon="-118.39401"><ele>861.0</ele></trkpt>
      <trkpt lat="34.53667" lon="-118.39405"><ele>861.0</ele></trkpt>
      <trkpt lat="34.53678" lon="-118.39406"><ele>861.0</ele></trkpt>
      <trkpt lat="34.53689" lon="-118.39405"><ele>861.0</ele></trkpt>
      <trkpt lat="34.53700" lon="-118.39405"><ele>878.0</ele></trkpt>
      <trkpt lat="34.53709" lon="-118.39408"><ele>878.0</ele></trkpt>
      <trkpt lat="34.53722" lon="-118.39411"><ele>878.0</ele></trkpt>
      <trkpt lat="34.53737" lon="-118.39417"><ele>878.0</ele></trkpt>
      <trkpt lat="34.53749" lon="-118.39426"><ele>878.0</ele></trkpt>
      <trkpt lat="34.53764" lon="-118.39443"><ele>878.0</ele></trkpt>
      <trkpt lat="34.53773" lon="-118.39457"><ele>894.0</ele></trkpt>
      <trkpt lat="34.53779" lon="-118.39468"><ele>894.0</ele></trkpt>
      <trkpt lat="34.53787" lon="-118.39476"><ele>894.0</ele></trkpt>
      <trkpt lat="34.53798" lon="-118.39479"><ele>894.0</ele></trkpt>
      <trkpt lat="34.53821" lon="-118.39482"><ele>894.0</ele></trkpt>
      <trkpt lat="34.53840" lon="-118.39485"><ele>894.0</ele></trkpt>
      <trkpt lat="34.53852" lon="-118.39493"><ele>927.0</ele></trkpt>
      <trkpt lat="34.53860" lon="-118.39502"><ele>927.0</ele></trkpt>
      <trkpt lat="34.53866" lon="-118.39508"><ele>927.0</ele></trkpt>
      <trkpt lat="34.53868" lon="-118.39514"><ele>927.0</ele></trkpt>
      <trkpt lat="34.53866" lon="-118.39525"><ele>927.0</ele></trkpt>
      <trkpt lat="34.53862" lon="-118.39537"><ele>922.0</ele></trkpt>
      <trkpt lat="34.53858" lon="-118.39557"><ele>922.0</ele></trkpt>
      <trkpt lat="34.53860" lon="-118.39569"><ele>922.0</ele></trkpt>
      <trkpt lat="34.53866" lon="-118.39582"><ele>922.0</ele></trkpt>
      <trkpt lat="34.53872" lon="-118.39589"><ele>922.0</ele></trkpt>
      <trkpt lat="34.53877" lon="-118.39596"><ele>922.0</ele></trkpt>
      <trkpt lat="34.53882" lon="-118.39599"><ele>930.0</ele></trkpt>
      <trkpt lat="34.53894" lon="-118.39600"><ele>930.0</ele></trkpt>
      <trkpt lat="34.53901" lon="-118.39598"><ele>930.0</ele></trkpt>
      <trkpt lat="34.53908" lon="-118.39594"><ele>930.0</ele></trkpt>
      <trkpt lat="34.53917" lon="-118.39593"><ele>930.0</ele></trkpt>
      <trkpt lat="34.53928" lon="-118.39591"><ele>930.0</ele></trkpt>
      <trkpt lat="34.53949" lon="-118.39587"><ele>945.0</ele></trkpt>
      <trkpt lat="34.53959" lon="-118.39583"><ele>945.0</ele></trkpt>
      <trkpt lat="34.53969" lon="-118.39574"><ele>945.0</ele></trkpt>
      <trkpt lat="34.53979" lon="-118.39561"><ele>945.0</ele></trkpt>
      <trkpt lat="34.53986" lon="-118.39544"><ele>945.0</ele></trkpt>
      <trkpt lat="34.53989" lon="-118.39524"><ele>945.0</ele></trkpt>
      <trkpt lat="34.53989" lon="-118.39508"><ele>970.0</ele></trkpt>
      <trkpt lat="34.53987" lon="-118.39495"><ele>970.0</ele></trkpt>
      <trkpt lat="34.53985" lon="-118.39488"><ele>970.0</ele></trkpt>
      <trkpt lat="34.53983" lon="-118.39478"><ele>970.0</ele></trkpt>
      <trkpt lat="34.53983" lon="-118.39471"><ele>970.0</ele></trkpt>
      <trkpt lat="34.53985" lon="-118.39467"><ele>976.0</ele></trkpt>
      <trkpt lat="34.53991" lon="-118.39462"><ele>976.0</ele></trkpt>
      <trkpt lat="34.54001" lon="-118.39452"><ele>976.0</ele></trkpt>
      <trkpt lat="34.54010" lon="-118.39446"><ele>976.0</ele></trkpt>
      <trkpt lat="34.54023" lon="-118.39441"><ele>976.0</ele></trkpt>
      <trkpt lat="34.54032" lon="-118.39437"><ele>976.0</ele></trkpt>
      <trkpt lat="34.54039" lon="-118.39432"><ele>990.0</ele></trkpt>
      <trkpt lat="34.54049" lon="-118.39431"><ele>990.0</ele></trkpt>
      <trkpt lat="34.54061" lon="-118.39430"><ele>990.0</ele></trkpt>
      <trkpt lat="34.54070" lon="-118.39426"><ele>990.0</ele></trkpt>
      <trkpt lat="34.54080" lon="-118.39419"><ele>990.0</ele></trkpt>
      <trkpt lat="34.54096" lon="-118.39412"><ele>990.0</ele></trkpt>
      <trkpt lat="34.54107" lon="-118.39408"><ele>1004.0</ele></trkpt>
      <trkpt lat="34.54113" lon="-118.39403"><ele>1004.0</ele></trkpt>
      <trkpt lat="34.54118" lon="-118.39394"><ele>1004.0</ele></trkpt>
      <trkpt lat="34.54125" lon="-118.39388"><ele>1004.0</ele></trkpt>
      <trkpt lat="34.54131" lon="-118.39385"><ele>1004.0</ele></trkpt>
      <trkpt lat="34.54135" lon="-118.39378"><ele>1004.0</ele></trkpt>
      <trkpt lat="34.54140" lon="-118.39370"><ele>1019.0</ele></trkpt>
      <trkpt lat="34.54145" lon="-118.39365"><ele>1019.0</ele></trkpt>
      <trkpt lat="34.54154" lon="-118.39358"><ele>1019.0</ele></trkpt>
      <trkpt lat="34.54164" lon="-118.39350"><ele>1019.0</ele></trkpt>
      <trkpt lat="34.54171" lon="-118.39339"><ele>1019.0</ele></trkpt>
      <trkpt lat="34.54175" lon="-118.39334"><ele>1033.0</ele></trkpt>
      <trkpt lat="34.54187" lon="-118.39329"><ele>1033.0</ele></trkpt>
      <trkpt lat="34.54199" lon="-118.39318"><ele>1033.0</ele></trkpt>
      <trkpt lat="34.54208" lon="-118.39309"><ele>1033.0</ele></trkpt>
      <trkpt lat="34.54213" lon="-118.39305"><ele>1033.0</ele></trkpt>
      <trkpt lat="34.54219" lon="-118.39305"><ele>1033.0</ele></trkpt>
      <trkpt lat="34.54225" lon="-118.39305"><ele>1040.0</ele></trkpt>
      <trkpt lat="34.54232" lon="-118.39301"><ele>1040.0</ele></trkpt>
      <trkpt lat="34.54238" lon="-118.39295"><ele>1040.0</ele></trkpt>
      <trkpt lat="34.54245" lon="-118.39290"><ele>1040.0</ele></trkpt>
      <trkpt lat="34.54258" lon="-118.39284"><ele>1040.0</ele></trkpt>
      <trkpt lat="34.54267" lon="-118.39277"><ele>1040.0</ele></trkpt>
      <trkpt lat="34.54274" lon="-118.39271"><ele>1049.0</ele></trkpt>
      <trkpt lat="34.54279" lon="-118.39265"><ele>1049.0</ele></trkpt>
      <trkpt lat="34.54284" lon="-118.39262"><ele>1049.0</ele></trkpt>
      <trkpt lat="34.54294" lon="-118.39261"><ele>1049.0</ele></trkpt>
      <trkpt lat="34.54304" lon="-118.39261"><ele>1049.0</ele></trkpt>
      <trkpt lat="34.54310" lon="-118.39259"><ele>1049.0</ele></trkpt>
      <trkpt lat="34.54315" lon="-118.39252"><ele>1061.0</ele></trkpt>
      <trkpt lat="34.54322" lon="-118.39236"><ele>1061.0</ele></trkpt>
      <trkpt lat="34.54332" lon="-118.39225"><ele>1061.0</ele></trkpt>
      <trkpt lat="34.54338" lon="-118.39213"><ele>1061.0</ele></trkpt>
      <trkpt lat="34.54344" lon="-118.39194"><ele>1061.0</ele></trkpt>
      <trkpt lat="34.54352" lon="-118.39179"><ele>1076.0</ele></trkpt>
      <trkpt lat="34.54360" lon="-118.39163"><ele>1076.0</ele></trkpt>
      <trkpt lat="34.54367" lon="-118.39152"><ele>1076.0</ele></trkpt>
      <trkpt lat="34.54377" lon="-118.39141"><ele>1076.0</ele></trkpt>
      <trkpt lat="34.54379" lon="-118.39133"><ele>1076.0</ele></trkpt>
      <trkpt lat="34.54384" lon="-118.39122"><ele>1076.0</ele></trkpt>
      <trkpt lat="34.54393" lon="-118.39113"><ele>1098.0</ele></trkpt>
      <trkpt lat="34.54401" lon="-118.39108"><ele>1098.0</ele></trkpt>
      <trkpt lat="34.54410" lon="-118.39104"><ele>1098.0</ele></trkpt>
      <trkpt lat="34.54417" lon="-118.39099"><ele>1098.0</ele></trkpt>
      <trkpt lat="34.54427" lon="-118.39087"><ele>1098.0</ele></trkpt>
      <trkpt lat="34.54435" lon="-118.39076"><ele>1098.0</ele></trkpt>
      <trkpt lat="34.54447" lon="-118.39058"><ele>1116.0</ele></trkpt>
      <trkpt lat="34.54453" lon="-118.39048"><ele>1116.0</ele></trkpt>
      <trkpt lat="34.54458" lon="-118.39044"><ele>1116.0</ele></trkpt>
      <trkpt lat="34.54467" lon="-118.39037"><ele>1116.0</ele></trkpt>
      <trkpt lat="34.54474" lon="-118.39031"><ele>1116.0</ele></trkpt>
      <trkpt lat="34.54483" lon="-118.39021"><ele>1116.0</ele></trkpt>
      <trkpt lat="34.54490" lon="-118.39010"><ele>1138.0</ele></trkpt>
      <trkpt lat="34.54496" lon="-118.39000"><ele>1138.0</ele></trkpt>
      <trkpt lat="34.54507" lon="-118.38988"><ele>1138.0</ele></trkpt>
      <trkpt lat="34.54518" lon="-118.38976"><ele>1138.0</ele></trkpt>
      <trkpt lat="34.54525" lon="-118.38968"><ele>1138.0</ele></trkpt>
      <trkpt lat="34.54531" lon="-118.38958"><ele>1150.0</ele></trkpt>
      <trkpt lat="34.54541" lon="-118.38950"><ele>1150.0</ele></trkpt>
      <trkpt lat="34.54549" lon="-118.38942"><ele>1150.0</ele></trkpt>
      <trkpt lat="34.54558" lon="-118.38931"><ele>1150.0</ele></trkpt>
      <trkpt lat="34.54564" lon="-118.38918"><ele>1150.0</ele></trkpt>
      <trkpt lat="34.54568" lon="-118.38908"><ele>1150.0</ele></trkpt>
      <trkpt lat="34.54573" lon="-118.38900"><ele>1167.0</ele></trkpt>
      <trkpt lat="34.54579" lon="-118.38894"><ele>1167.0</ele></trkpt>
      <trkpt lat="34.54584" lon="-118.38889"><ele>1167.0</ele></trkpt>
      <trkpt lat="34.54586" lon="-118.38882"><ele>1167.0</ele></trkpt>
      <trkpt lat="34.54591" lon="-118.38873"><ele>1167.0</ele></trkpt>
      <trkpt lat="34.54598" lon="-118.38865"><ele>1167.0</ele></trkpt>
      <trkpt lat="34.54603" lon="-118.38855"><ele>1175.0</ele></trkpt>
      <trkpt lat="34.54604" lon="-118.38850"><ele>1175.0</ele></trkpt>
      <trkpt lat="34.54606" lon="-118.38842"><ele>1175.0</ele></trkpt>
    </trkseg>
  </trk>
</gpx>
