<?xml version="1.0" encoding="UTF-8"?>
<gpx version="1.1" creator="dirt-bikes build-angeles-routes (TrailNFS/RoadBasic geometry + SRTM elevation)" xmlns="http://www.topografix.com/GPX/1/1">
  <trk><name>Buffer, Spring &amp; Stage</name>
    <trkseg>
      <trkpt lat="34.53087" lon="-118.36762"><ele>819.0</ele></trkpt>
      <trkpt lat="34.53069" lon="-118.36769"><ele>819.0</ele></trkpt>
      <trkpt lat="34.53053" lon="-118.36778"><ele>819.0</ele></trkpt>
      <trkpt lat="34.53038" lon="-118.36786"><ele>819.0</ele></trkpt>
      <trkpt lat="34.53000" lon="-118.36803"><ele>810.0</ele></trkpt>
      <trkpt lat="34.52981" lon="-118.36810"><ele>810.0</ele></trkpt>
      <trkpt lat="34.52971" lon="-118.36820"><ele>810.0</ele></trkpt>
      <trkpt lat="34.52968" lon="-118.36827"><ele>810.0</ele></trkpt>
      <trkpt lat="34.52956" lon="-118.36833"><ele>810.0</ele></trkpt>
      <trkpt lat="34.52933" lon="-118.36851"><ele>810.0</ele></trkpt>
      <trkpt lat="34.52901" lon="-118.36873"><ele>810.0</ele></trkpt>
      <trkpt lat="34.52888" lon="-118.36889"><ele>805.0</ele></trkpt>
      <trkpt lat="34.52878" lon="-118.36908"><ele>805.0</ele></trkpt>
      <trkpt lat="34.52871" lon="-118.36923"><ele>805.0</ele></trkpt>
      <trkpt lat="34.52864" lon="-118.36933"><ele>805.0</ele></trkpt>
      <trkpt lat="34.52853" lon="-118.36951"><ele>805.0</ele></trkpt>
      <trkpt lat="34.52844" lon="-118.36964"><ele>805.0</ele></trkpt>
      <trkpt lat="34.52832" lon="-118.36968"><ele>805.0</ele></trkpt>
      <trkpt lat="34.52821" lon="-118.36969"><ele>799.0</ele></trkpt>
      <trkpt lat="34.52813" lon="-118.36977"><ele>799.0</ele></trkpt>
      <trkpt lat="34.52806" lon="-118.36992"><ele>799.0</ele></trkpt>
      <trkpt lat="34.52801" lon="-118.37009"><ele>799.0</ele></trkpt>
      <trkpt lat="34.52797" lon="-118.37020"><ele>799.0</ele></trkpt>
      <trkpt lat="34.52789" lon="-118.37024"><ele>799.0</ele></trkpt>
      <trkpt lat="34.52771" lon="-118.37027"><ele>799.0</ele></trkpt>
      <trkpt lat="34.52762" lon="-118.37032"><ele>792.0</ele></trkpt>
      <trkpt lat="34.52755" lon="-118.37039"><ele>792.0</ele></trkpt>
      <trkpt lat="34.52735" lon="-118.37060"><ele>792.0</ele></trkpt>
      <trkpt lat="34.52720" lon="-118.37076"><ele>792.0</ele></trkpt>
      <trkpt lat="34.52714" lon="-118.37085"><ele>792.0</ele></trkpt>
      <trkpt lat="34.52711" lon="-118.37100"><ele>792.0</ele></trkpt>
      <trkpt lat="34.52698" lon="-118.37116"><ele>792.0</ele></trkpt>
      <trkpt lat="34.52689" lon="-118.37130"><ele>786.0</ele></trkpt>
      <trkpt lat="34.52672" lon="-118.37146"><ele>786.0</ele></trkpt>
      <trkpt lat="34.52659" lon="-118.37162"><ele>786.0</ele></trkpt>
      <trkpt lat="34.52648" lon="-118.37181"><ele>786.0</ele></trkpt>
      <trkpt lat="34.52645" lon="-118.37194"><ele>786.0</ele></trkpt>
      <trkpt lat="34.52633" lon="-118.37217"><ele>786.0</ele></trkpt>
      <trkpt lat="34.52617" lon="-118.37250"><ele>786.0</ele></trkpt>
      <trkpt lat="34.52599" lon="-118.37286"><ele>779.0</ele></trkpt>
      <trkpt lat="34.52589" lon="-118.37304"><ele>779.0</ele></trkpt>
      <trkpt lat="34.52577" lon="-118.37313"><ele>779.0</ele></trkpt>
      <trkpt lat="34.52564" lon="-118.37327"><ele>779.0</ele></trkpt>
      <trkpt lat="34.52551" lon="-118.37342"><ele>779.0</ele></trkpt>
      <trkpt lat="34.52544" lon="-118.37350"><ele>779.0</ele></trkpt>
      <trkpt lat="34.52531" lon="-118.37354"><ele>779.0</ele></trkpt>
      <trkpt lat="34.52524" lon="-118.37362"><ele>775.0</ele></trkpt>
      <trkpt lat="34.52516" lon="-118.37375"><ele>775.0</ele></trkpt>
      <trkpt lat="34.52508" lon="-118.37388"><ele>775.0</ele></trkpt>
      <trkpt lat="34.52507" lon="-118.37399"><ele>775.0</ele></trkpt>
      <trkpt lat="34.52502" lon="-118.37414"><ele>775.0</ele></trkpt>
      <trkpt lat="34.52495" lon="-118.37428"><ele>775.0</ele></trkpt>
      <trkpt lat="34.52489" lon="-118.37449"><ele>775.0</ele></trkpt>
      <trkpt lat="34.52487" lon="-118.37459"><ele>769.0</ele></trkpt>
      <trkpt lat="34.52479" lon="-118.37470"><ele>769.0</ele></trkpt>
      <trkpt lat="34.52467" lon="-118.37478"><ele>769.0</ele></trkpt>
      <trkpt lat="34.52451" lon="-118.37489"><ele>769.0</ele></trkpt>
      <trkpt lat="34.52440" lon="-118.37498"><ele>769.0</ele></trkpt>
      <trkpt lat="34.52435" lon="-118.37506"><ele>769.0</ele></trkpt>
      <trkpt lat="34.52430" lon="-118.37514"><ele>769.0</ele></trkpt>
      <trkpt lat="34.52420" lon="-118.37526"><ele>762.0</ele></trkpt>
      <trkpt lat="34.52415" lon="-118.37540"><ele>762.0</ele></trkpt>
      <trkpt lat="34.52409" lon="-118.37546"><ele>762.0</ele></trkpt>
      <trkpt lat="34.52399" lon="-118.37546"><ele>762.0</ele></trkpt>
      <trkpt lat="34.52387" lon="-118.37541"><ele>762.0</ele></trkpt>
      <trkpt lat="34.52377" lon="-118.37535"><ele>762.0</ele></trkpt>
      <trkpt lat="34.52368" lon="-118.37529"><ele>762.0</ele></trkpt>
      <trkpt lat="34.52367" lon="-118.37524"><ele>771.0</ele></trkpt>
      <trkpt lat="34.52369" lon="-118.37514"><ele>771.0</ele></trkpt>
      <trkpt lat="34.52372" lon="-118.37502"><ele>771.0</ele></trkpt>
      <trkpt lat="34.52372" lon="-118.37490"><ele>771.0</ele></trkpt>
      <trkpt lat="34.52369" lon="-118.37487"><ele>771.0</ele></trkpt>
      <trkpt lat="34.52361" lon="-118.37488"><ele>771.0</ele></trkpt>
      <trkpt lat="34.52347" lon="-118.37488"><ele>771.0</ele></trkpt>
      <trkpt lat="34.52336" lon="-118.37486"><ele>763.0</ele></trkpt>
      <trkpt lat="34.52322" lon="-118.37494"><ele>763.0</ele></trkpt>
      <trkpt lat="34.52301" lon="-118.37509"><ele>763.0</ele></trkpt>
      <trkpt lat="34.52280" lon="-118.37519"><ele>763.0</ele></trkpt>
      <trkpt lat="34.52265" lon="-118.37529"><ele>763.0</ele></trkpt>
      <trkpt lat="34.52256" lon="-118.37541"><ele>763.0</ele></trkpt>
      <trkpt lat="34.52252" lon="-118.37542"><ele>763.0</ele></trkpt>
      <trkpt lat="34.52250" lon="-118.37539"><ele>763.0</ele></trkpt>
      <trkpt lat="34.52252" lon="-118.37533"><ele>761.0</ele></trkpt>
      <trkpt lat="34.52258" lon="-118.37527"><ele>761.0</ele></trkpt>
      <trkpt lat="34.52262" lon="-118.37519"><ele>761.0</ele></trkpt>
      <trkpt lat="34.52268" lon="-118.37511"><ele>761.0</ele></trkpt>
      <trkpt lat="34.52277" lon="-118.37501"><ele>761.0</ele></trkpt>
      <trkpt lat="34.52286" lon="-118.37491"><ele>761.0</ele></trkpt>
      <trkpt lat="34.52295" lon="-118.37486"><ele>761.0</ele></trkpt>
      <trkpt lat="34.52303" lon="-118.37482"><ele>767.0</ele></trkpt>
      <trkpt lat="34.52305" lon="-118.37470"><ele>767.0</ele></trkpt>
      <trkpt lat="34.52308" lon="-118.37461"><ele>767.0</ele></trkpt>
      <trkpt lat="34.52314" lon="-118.37454"><ele>767.0</ele></trkpt>
      <trkpt lat="34.52327" lon="-118.37445"><ele>767.0</ele></trkpt>
      <trkpt lat="34.52339" lon="-118.37434"><ele>767.0</ele></trkpt>
      <trkpt lat="34.52349" lon="-118.37423"><ele>767.0</ele></trkpt>
      <trkpt lat="34.52360" lon="-118.37418"><ele>772.0</ele></trkpt>
      <trkpt lat="34.52364" lon="-118.37414"><ele>772.0</ele></trkpt>
      <trkpt lat="34.52366" lon="-118.37410"><ele>772.0</ele></trkpt>
      <trkpt lat="34.52365" lon="-118.37404"><ele>772.0</ele></trkpt>
      <trkpt lat="34.52359" lon="-118.37396"><ele>772.0</ele></trkpt>
      <trkpt lat="34.52357" lon="-118.37393"><ele>772.0</ele></trkpt>
      <trkpt lat="34.52359" lon="-118.37386"><ele>772.0</ele></trkpt>
      <trkpt lat="34.52360" lon="-118.37376"><ele>770.0</ele></trkpt>
      <trkpt lat="34.52360" lon="-118.37370"><ele>770.0</ele></trkpt>
      <trkpt lat="34.52358" lon="-118.37369"><ele>770.0</ele></trkpt>
      <trkpt lat="34.52352" lon="-118.37372"><ele>770.0</ele></trkpt>
      <trkpt lat="34.52344" lon="-118.37378"><ele>770.0</ele></trkpt>
      <trkpt lat="34.52338" lon="-118.37390"><ele>770.0</ele></trkpt>
      <trkpt lat="34.52329" lon="-118.37403"><ele>770.0</ele></trkpt>
      <trkpt lat="34.52321" lon="-118.37409"><ele>766.0</ele></trkpt>
      <trkpt lat="34.52311" lon="-118.37412"><ele>766.0</ele></trkpt>
      <trkpt lat="34.52307" lon="-118.37408"><ele>766.0</ele></trkpt>
      <trkpt lat="34.52305" lon="-118.37403"><ele>766.0</ele></trkpt>
      <trkpt lat="34.52309" lon="-118.37398"><ele>766.0</ele></trkpt>
      <trkpt lat="34.52320" lon="-118.37393"><ele>766.0</ele></trkpt>
      <trkpt lat="34.52327" lon="-118.37387"><ele>766.0</ele></trkpt>
      <trkpt lat="34.52332" lon="-118.37377"><ele>771.0</ele></trkpt>
      <trkpt lat="34.52340" lon="-118.37366"><ele>771.0</ele></trkpt>
      <trkpt lat="34.52352" lon="-118.37357"><ele>771.0</ele></trkpt>
      <trkpt lat="34.52364" lon="-118.37345"><ele>771.0</ele></trkpt>
      <trkpt lat="34.52378" lon="-118.37334"><ele>771.0</ele></trkpt>
      <trkpt lat="34.52389" lon="-118.37324"><ele>771.0</ele></trkpt>
      <trkpt lat="34.52394" lon="-118.37319"><ele>771.0</ele></trkpt>
      <trkpt lat="34.52406" lon="-118.37309"><ele>776.0</ele></trkpt>
      <trkpt lat="34.52417" lon="-118.37296"><ele>776.0</ele></trkpt>
      <trkpt lat="34.52421" lon="-118.37284"><ele>776.0</ele></trkpt>
      <trkpt lat="34.52428" lon="-118.37271"><ele>776.0</ele></trkpt>
      <trkpt lat="34.52437" lon="-118.37262"><ele>776.0</ele></trkpt>
      <trkpt lat="34.52444" lon="-118.37251"><ele>776.0</ele></trkpt>
      <trkpt lat="34.52449" lon="-118.37241"><ele>776.0</ele></trkpt>
      <trkpt lat="34.52457" lon="-118.37231"><ele>780.0</ele></trkpt>
      <trkpt lat="34.52460" lon="-118.37223"><ele>780.0</ele></trkpt>
      <trkpt lat="34.52458" lon="-118.37213"><ele>780.0</ele></trkpt>
      <trkpt lat="34.52456" lon="-118.37204"><ele>780.0</ele></trkpt>
      <trkpt lat="34.52454" lon="-118.37197"><ele>780.0</ele></trkpt>
      <trkpt lat="34.52454" lon="-118.37190"><ele>780.0</ele></trkpt>
      <trkpt lat="34.52456" lon="-118.37182"><ele>780.0</ele></trkpt>
      <trkpt lat="34.52458" lon="-118.37177"><ele>780.0</ele></trkpt>
      <trkpt lat="34.52456" lon="-118.37174"><ele>780.0</ele></trkpt>
      <trkpt lat="34.52450" lon="-118.37178"><ele>780.0</ele></trkpt>
      <trkpt lat="34.52440" lon="-118.37188"><ele>780.0</ele></trkpt>
      <trkpt lat="34.52431" lon="-118.37201"><ele>780.0</ele></trkpt>
      <trkpt lat="34.52423" lon="-118.37202"><ele>780.0</ele></trkpt>
      <trkpt lat="34.52410" lon="-118.37205"><ele>780.0</ele></trkpt>
      <trkpt lat="34.52400" lon="-118.37207"><ele>776.0</ele></trkpt>
      <trkpt lat="34.52394" lon="-118.37210"><ele>776.0</ele></trkpt>
      <trkpt lat="34.52389" lon="-118.37220"><ele>776.0</ele></trkpt>
      <trkpt lat="34.52386" lon="-118.37232"><ele>776.0</ele></trkpt>
      <trkpt lat="34.52381" lon="-118.37244"><ele>776.0</ele></trkpt>
      <trkpt lat="34.52375" lon="-118.37250"><ele>776.0</ele></trkpt>
      <trkpt lat="34.52355" lon="-118.37259"><ele>776.0</ele></trkpt>
      <trkpt lat="34.52346" lon="-118.37260"><ele>773.0</ele></trkpt>
      <trkpt lat="34.52334" lon="-118.37261"><ele>773.0</ele></trkpt>
      <trkpt lat="34.52325" lon="-118.37262"><ele>773.0</ele></trkpt>
      <trkpt lat="34.52320" lon="-118.37269"><ele>773.0</ele></trkpt>
      <trkpt lat="34.52317" lon="-118.37282"><ele>773.0</ele></trkpt>
      <trkpt lat="34.52316" lon="-118.37292"><ele>773.0</ele></trkpt>
      <trkpt lat="34.52314" lon="-118.37302"><ele>773.0</ele></trkpt>
      <trkpt lat="34.52308" lon="-118.37309"><ele>769.0</ele></trkpt>
      <trkpt lat="34.52296" lon="-118.37315"><ele>769.0</ele></trkpt>
      <trkpt lat="34.52281" lon="-118.37321"><ele>769.0</ele></trkpt>
      <trkpt lat="34.52268" lon="-118.37324"><ele>769.0</ele></trkpt>
      <trkpt lat="34.52260" lon="-118.37321"><ele>769.0</ele></trkpt>
      <trkpt lat="34.52245" lon="-118.37313"><ele>769.0</ele></trkpt>
      <trkpt lat="34.52234" lon="-118.37310"><ele>769.0</ele></trkpt>
      <trkpt lat="34.52225" lon="-118.37311"><ele>770.0</ele></trkpt>
      <trkpt lat="34.52209" lon="-118.37319"><ele>770.0</ele></trkpt>
      <trkpt lat="34.52196" lon="-118.37321"><ele>770.0</ele></trkpt>
      <trkpt lat="34.52184" lon="-118.37324"><ele>770.0</ele></trkpt>
      <trkpt lat="34.52172" lon="-118.37325"><ele>770.0</ele></trkpt>
      <trkpt lat="34.52157" lon="-118.37326"><ele>770.0</ele></trkpt>
      <trkpt lat="34.52149" lon="-118.37330"><ele>770.0</ele></trkpt>
      <trkpt lat="34.52141" lon="-118.37336"><ele>766.0</ele></trkpt>
      <trkpt lat="34.52133" lon="-118.37341"><ele>766.0</ele></trkpt>
      <trkpt lat="34.52124" lon="-118.37343"><ele>766.0</ele></trkpt>
      <trkpt lat="34.52115" lon="-118.37345"><ele>766.0</ele></trkpt>
      <trkpt lat="34.52110" lon="-118.37347"><ele>766.0</ele></trkpt>
      <trkpt lat="34.52100" lon="-118.37357"><ele>766.0</ele></trkpt>
      <trkpt lat="34.52096" lon="-118.37363"><ele>766.0</ele></trkpt>
      <trkpt lat="34.52091" lon="-118.37367"><ele>765.0</ele></trkpt>
      <trkpt lat="34.52087" lon="-118.37366"><ele>765.0</ele></trkpt>
      <trkpt lat="34.52086" lon="-118.37360"><ele>765.0</ele></trkpt>
      <trkpt lat="34.52088" lon="-118.37357"><ele>765.0</ele></trkpt>
      <trkpt lat="34.52097" lon="-118.37353"><ele>765.0</ele></trkpt>
      <trkpt lat="34.52103" lon="-118.37345"><ele>765.0</ele></trkpt>
      <trkpt lat="34.52108" lon="-118.37335"><ele>765.0</ele></trkpt>
      <trkpt lat="34.52112" lon="-118.37329"><ele>767.0</ele></trkpt>
      <trkpt lat="34.52115" lon="-118.37317"><ele>767.0</ele></trkpt>
      <trkpt lat="34.52118" lon="-118.37311"><ele>767.0</ele></trkpt>
      <trkpt lat="34.52128" lon="-118.37307"><ele>767.0</ele></trkpt>
      <trkpt lat="34.52138" lon="-118.37305"><ele>767.0</ele></trkpt>
      <trkpt lat="34.52150" lon="-118.37297"><ele>767.0</ele></trkpt>
      <trkpt lat="34.52156" lon="-118.37290"><ele>767.0</ele></trkpt>
      <trkpt lat="34.52157" lon="-118.37284"><ele>768.0</ele></trkpt>
      <trkpt lat="34.52155" lon="-118.37279"><ele>768.0</ele></trkpt>
      <trkpt lat="34.52151" lon="-118.37276"><ele>768.0</ele></trkpt>
      <trkpt lat="34.52139" lon="-118.37276"><ele>768.0</ele></trkpt>
      <trkpt lat="34.52129" lon="-118.37276"><ele>768.0</ele></trkpt>
      <trkpt lat="34.52122" lon="-118.37274"><ele>768.0</ele></trkpt>
      <trkpt lat="34.52115" lon="-118.37270"><ele>768.0</ele></trkpt>
      <trkpt lat="34.52111" lon="-118.37270"><ele>765.0</ele></trkpt>
      <trkpt lat="34.52102" lon="-118.37275"><ele>765.0</ele></trkpt>
      <trkpt lat="34.52094" lon="-118.37281"><ele>765.0</ele></trkpt>
      <trkpt lat="34.52090" lon="-118.37283"><ele>765.0</ele></trkpt>
      <trkpt lat="34.52086" lon="-118.37281"><ele>765.0</ele></trkpt>
      <trkpt lat="34.52081" lon="-118.37277"><ele>765.0</ele></trkpt>
      <trkpt lat="34.52080" lon="-118.37270"><ele>765.0</ele></trkpt>
      <trkpt lat="34.52077" lon="-118.37264"><ele>762.0</ele></trkpt>
      <trkpt lat="34.52071" lon="-118.37260"><ele>762.0</ele></trkpt>
      <trkpt lat="34.52068" lon="-118.37257"><ele>762.0</ele></trkpt>
      <trkpt lat="34.52067" lon="-118.37252"><ele>762.0</ele></trkpt>
      <trkpt lat="34.52070" lon="-118.37247"><ele>762.0</ele></trkpt>
      <trkpt lat="34.52079" lon="-118.37242"><ele>762.0</ele></trkpt>
      <trkpt lat="34.52093" lon="-118.37228"><ele>762.0</ele></trkpt>
      <trkpt lat="34.52115" lon="-118.37213"><ele>768.0</ele></trkpt>
      <trkpt lat="34.52125" lon="-118.37212"><ele>768.0</ele></trkpt>
      <trkpt lat="34.52137" lon="-118.37214"><ele>768.0</ele></trkpt>
      <trkpt lat="34.52153" lon="-118.37218"><ele>768.0</ele></trkpt>
      <trkpt lat="34.52161" lon="-118.37219"><ele>768.0</ele></trkpt>
      <trkpt lat="34.52171" lon="-118.37216"><ele>768.0</ele></trkpt>
      <trkpt lat="34.52185" lon="-118.37212"><ele>768.0</ele></trkpt>
      <trkpt lat="34.52201" lon="-118.37209"><ele>774.0</ele></trkpt>
      <trkpt lat="34.52209" lon="-118.37204"><ele>774.0</ele></trkpt>
      <trkpt lat="34.52225" lon="-118.37196"><ele>774.0</ele></trkpt>
      <trkpt lat="34.52241" lon="-118.37195"><ele>774.0</ele></trkpt>
      <trkpt lat="34.52260" lon="-118.37191"><ele>774.0</ele></trkpt>
      <trkpt lat="34.52273" lon="-118.37184"><ele>774.0</ele></trkpt>
      <trkpt lat="34.52298" lon="-118.37164"><ele>774.0</ele></trkpt>
      <trkpt lat="34.52314" lon="-118.37153"><ele>779.0</ele></trkpt>
      <trkpt lat="34.52321" lon="-118.37142"><ele>779.0</ele></trkpt>
      <trkpt lat="34.52325" lon="-118.37131"><ele>779.0</ele></trkpt>
      <trkpt lat="34.52330" lon="-118.37121"><ele>779.0</ele></trkpt>
      <trkpt lat="34.52334" lon="-118.37117"><ele>779.0</ele></trkpt>
      <trkpt lat="34.52343" lon="-118.37115"><ele>779.0</ele></trkpt>
      <trkpt lat="34.52352" lon="-118.37116"><ele>779.0</ele></trkpt>
      <trkpt lat="34.52362" lon="-118.37113"><ele>779.0</ele></trkpt>
      <trkpt lat="34.52371" lon="-118.37108"><ele>782.0</ele></trkpt>
      <trkpt lat="34.52375" lon="-118.37106"><ele>782.0</ele></trkpt>
      <trkpt lat="34.52384" lon="-118.37105"><ele>782.0</ele></trkpt>
      <trkpt lat="34.52392" lon="-118.37103"><ele>782.0</ele></trkpt>
      <trkpt lat="34.52402" lon="-118.37099"><ele>782.0</ele></trkpt>
      <trkpt lat="34.52416" lon="-118.37092"><ele>782.0</ele></trkpt>
      <trkpt lat="34.52431" lon="-118.37082"><ele>782.0</ele></trkpt>
      <trkpt lat="34.52447" lon="-118.37071"><ele>786.0</ele></trkpt>
      <trkpt lat="34.52450" lon="-118.37062"><ele>786.0</ele></trkpt>
      <trkpt lat="34.52446" lon="-118.37052"><ele>786.0</ele></trkpt>
      <trkpt lat="34.52439" lon="-118.37047"><ele>786.0</ele></trkpt>
      <trkpt lat="34.52432" lon="-118.37041"><ele>786.0</ele></trkpt>
      <trkpt lat="34.52421" lon="-118.37037"><ele>786.0</ele></trkpt>
      <trkpt lat="34.52410" lon="-118.37037"><ele>786.0</ele></trkpt>
      <trkpt lat="34.52395" lon="-118.37038"><ele>783.0</ele></trkpt>
      <trkpt lat="34.52385" lon="-118.37038"><ele>783.0</ele></trkpt>
      <trkpt lat="34.52381" lon="-118.37036"><ele>783.0</ele></trkpt>
      <trkpt lat="34.52382" lon="-118.37030"><ele>783.0</ele></trkpt>
      <trkpt lat="34.52387" lon="-118.37018"><ele>783.0</ele></trkpt>
      <trkpt lat="34.52392" lon="-118.37001"><ele>783.0</ele></trkpt>
      <trkpt lat="34.52395" lon="-118.36987"><ele>783.0</ele></trkpt>
      <trkpt lat="34.52396" lon="-118.36980"><ele>784.0</ele></trkpt>
      <trkpt lat="34.52394" lon="-118.36974"><ele>784.0</ele></trkpt>
      <trkpt lat="34.52388" lon="-118.36975"><ele>784.0</ele></trkpt>
      <trkpt lat="34.52370" lon="-118.36981"><ele>784.0</ele></trkpt>
      <trkpt lat="34.52343" lon="-118.36988"><ele>784.0</ele></trkpt>
      <trkpt lat="34.52325" lon="-118.36994"><ele>784.0</ele></trkpt>
      <trkpt lat="34.52317" lon="-118.36994"><ele>784.0</ele></trkpt>
      <trkpt lat="34.52312" lon="-118.36990"><ele>780.0</ele></trkpt>
      <trkpt lat="34.52306" lon="-118.36987"><ele>780.0</ele></trkpt>
      <trkpt lat="34.52300" lon="-118.36987"><ele>780.0</ele></trkpt>
      <trkpt lat="34.52292" lon="-118.36992"><ele>780.0</ele></trkpt>
      <trkpt lat="34.52280" lon="-118.36998"><ele>780.0</ele></trkpt>
      <trkpt lat="34.52270" lon="-118.37001"><ele>780.0</ele></trkpt>
      <trkpt lat="34.52257" lon="-118.37010"><ele>780.0</ele></trkpt>
      <trkpt lat="34.52235" lon="-118.37023"><ele>771.0</ele></trkpt>
      <trkpt lat="34.52214" lon="-118.37041"><ele>771.0</ele></trkpt>
      <trkpt lat="34.52199" lon="-118.37051"><ele>771.0</ele></trkpt>
      <trkpt lat="34.52192" lon="-118.37055"><ele>771.0</ele></trkpt>
      <trkpt lat="34.52179" lon="-118.37059"><ele>771.0</ele></trkpt>
      <trkpt lat="34.52167" lon="-118.37064"><ele>771.0</ele></trkpt>
      <trkpt lat="34.52151" lon="-118.37068"><ele>771.0</ele></trkpt>
      <trkpt lat="34.52144" lon="-118.37066"><ele>772.0</ele></trkpt>
      <trkpt lat="34.52144" lon="-118.37058"><ele>772.0</ele></trkpt>
      <trkpt lat="34.52148" lon="-118.37032"><ele>772.0</ele></trkpt>
      <trkpt lat="34.52149" lon="-118.37009"><ele>772.0</ele></trkpt>
      <trkpt lat="34.52144" lon="-118.36993"><ele>772.0</ele></trkpt>
      <trkpt lat="34.52143" lon="-118.36980"><ele>772.0</ele></trkpt>
      <trkpt lat="34.52147" lon="-118.36968"><ele>772.0</ele></trkpt>
      <trkpt lat="34.52151" lon="-118.36959"><ele>777.0</ele></trkpt>
      <trkpt lat="34.52164" lon="-118.36951"><ele>777.0</ele></trkpt>
      <trkpt lat="34.52181" lon="-118.36941"><ele>777.0</ele></trkpt>
      <trkpt lat="34.52213" lon="-118.36925"><ele>777.0</ele></trkpt>
      <trkpt lat="34.52240" lon="-118.36916"><ele>777.0</ele></trkpt>
      <trkpt lat="34.52263" lon="-118.36909"><ele>777.0</ele></trkpt>
      <trkpt lat="34.52291" lon="-118.36900"><ele>777.0</ele></trkpt>
      <trkpt lat="34.52300" lon="-118.36897"><ele>784.0</ele></trkpt>
      <trkpt lat="34.52308" lon="-118.36892"><ele>784.0</ele></trkpt>
      <trkpt lat="34.52318" lon="-118.36882"><ele>784.0</ele></trkpt>
      <trkpt lat="34.52337" lon="-118.36866"><ele>784.0</ele></trkpt>
      <trkpt lat="34.52354" lon="-118.36849"><ele>784.0</ele></trkpt>
      <trkpt lat="34.52368" lon="-118.36829"><ele>784.0</ele></trkpt>
      <trkpt lat="34.52375" lon="-118.36812"><ele>784.0</ele></trkpt>
      <trkpt lat="34.52388" lon="-118.36784"><ele>786.0</ele></trkpt>
      <trkpt lat="34.52396" lon="-118.36759"><ele>786.0</ele></trkpt>
      <trkpt lat="34.52405" lon="-118.36738"><ele>786.0</ele></trkpt>
      <trkpt lat="34.52413" lon="-118.36732"><ele>786.0</ele></trkpt>
      <trkpt lat="34.52422" lon="-118.36731"><ele>786.0</ele></trkpt>
      <trkpt lat="34.52431" lon="-118.36736"><ele>786.0</ele></trkpt>
      <trkpt lat="34.52439" lon="-118.36747"><ele>786.0</ele></trkpt>
      <trkpt lat="34.52447" lon="-118.36761"><ele>792.0</ele></trkpt>
      <trkpt lat="34.52459" lon="-118.36773"><ele>792.0</ele></trkpt>
      <trkpt lat="34.52470" lon="-118.36784"><ele>792.0</ele></trkpt>
      <trkpt lat="34.52484" lon="-118.36797"><ele>792.0</ele></trkpt>
      <trkpt lat="34.52496" lon="-118.36806"><ele>792.0</ele></trkpt>
      <trkpt lat="34.52509" lon="-118.36814"><ele>792.0</ele></trkpt>
      <trkpt lat="34.52559" lon="-118.36829"><ele>792.0</ele></trkpt>
      <trkpt lat="34.52592" lon="-118.36833"><ele>804.0</ele></trkpt>
      <trkpt lat="34.52634" lon="-118.36836"><ele>804.0</ele></trkpt>
      <trkpt lat="34.52673" lon="-118.36839"><ele>804.0</ele></trkpt>
      <trkpt lat="34.52762" lon="-118.36849"><ele>804.0</ele></trkpt>
      <trkpt lat="34.52788" lon="-118.36848"><ele>804.0</ele></trkpt>
      <trkpt lat="34.52818" lon="-118.36843"><ele>804.0</ele></trkpt>
      <trkpt lat="34.52854" lon="-118.36838"><ele>804.0</ele></trkpt>
      <trkpt lat="34.52868" lon="-118.36834"><ele>811.0</ele></trkpt>
      <trkpt lat="34.52886" lon="-118.36823"><ele>811.0</ele></trkpt>
      <trkpt lat="34.52899" lon="-118.36812"><ele>811.0</ele></trkpt>
      <trkpt lat="34.52923" lon="-118.36798"><ele>811.0</ele></trkpt>
      <trkpt lat="34.52951" lon="-118.36785"><ele>811.0</ele></trkpt>
      <trkpt lat="34.52973" lon="-118.36775"><ele>811.0</ele></trkpt>
      <trkpt lat="34.52996" lon="-118.36763"><ele>811.0</ele></trkpt>
      <trkpt lat="34.53025" lon="-118.36742"><ele>819.0</ele></trkpt>
      <trkpt lat="34.53056" lon="-118.36713"><ele>819.0</ele></trkpt>
      <trkpt lat="34.53065" lon="-118.36701"><ele>819.0</ele></trkpt>
      <trkpt lat="34.53068" lon="-118.36699"><ele>819.0</ele></trkpt>
      <trkpt lat="34.53169" lon="-118.36651"><ele>819.0</ele></trkpt>
      <trkpt lat="34.53175" lon="-118.36659"><ele>819.0</ele></trkpt>
      <trkpt lat="34.53177" lon="-118.36664"><ele>819.0</ele></trkpt>
      <trkpt lat="34.53182" lon="-118.36679"><ele>824.0</ele></trkpt>
      <trkpt lat="34.53186" lon="-118.36695"><ele>824.0</ele></trkpt>
      <trkpt lat="34.53188" lon="-118.36707"><ele>824.0</ele></trkpt>
      <trkpt lat="34.53188" lon="-118.36717"><ele>824.0</ele></trkpt>
      <trkpt lat="34.53186" lon="-118.36724"><ele>824.0</ele></trkpt>
      <trkpt lat="34.53182" lon="-118.36737"><ele>824.0</ele></trkpt>
      <trkpt lat="34.53176" lon="-118.36749"><ele>824.0</ele></trkpt>
      <trkpt lat="34.53172" lon="-118.36757"><ele>820.0</ele></trkpt>
      <trkpt lat="34.53167" lon="-118.36763"><ele>820.0</ele></trkpt>
      <trkpt lat="34.53163" lon="-118.36772"><ele>820.0</ele></trkpt>
      <trkpt lat="34.53159" lon="-118.36782"><ele>820.0</ele></trkpt>
      <trkpt lat="34.53157" lon="-118.36787"><ele>820.0</ele></trkpt>
      <trkpt lat="34.53156" lon="-118.36789"><ele>820.0</ele></trkpt>
      <trkpt lat="34.53152" lon="-118.36792"><ele>820.0</ele></trkpt>
      <trkpt lat="34.53149" lon="-118.36794"><ele>819.0</ele></trkpt>
      <trkpt lat="34.53147" lon="-118.36795"><ele>819.0</ele></trkpt>
      <trkpt lat="34.53143" lon="-118.36795"><ele>819.0</ele></trkpt>
      <trkpt lat="34.53138" lon="-118.36795"><ele>819.0</ele></trkpt>
      <trkpt lat="34.53134" lon="-118.36796"><ele>819.0</ele></trkpt>
      <trkpt lat="34.53127" lon="-118.36798"><ele>819.0</ele></trkpt>
      <trkpt lat="34.53124" lon="-118.36800"><ele>819.0</ele></trkpt>
      <trkpt lat="34.53120" lon="-118.36803"><ele>815.0</ele></trkpt>
      <trkpt lat="34.53110" lon="-118.36810"><ele>815.0</ele></trkpt>
      <trkpt lat="34.53101" lon="-118.36814"><ele>815.0</ele></trkpt>
      <trkpt lat="34.53091" lon="-118.36815"><ele>815.0</ele></trkpt>
      <trkpt lat="34.53080" lon="-118.36818"><ele>815.0</ele></trkpt>
      <trkpt lat="34.53070" lon="-118.36821"><ele>815.0</ele></trkpt>
      <trkpt lat="34.53063" lon="-118.36824"><ele>815.0</ele></trkpt>
      <trkpt lat="34.53055" lon="-118.36832"><ele>811.0</ele></trkpt>
      <trkpt lat="34.53052" lon="-118.36844"><ele>811.0</ele></trkpt>
      <trkpt lat="34.53050" lon="-118.36851"><ele>811.0</ele></trkpt>
      <trkpt lat="34.53043" lon="-118.36857"><ele>811.0</ele></trkpt>
      <trkpt lat="34.53039" lon="-118.36862"><ele>811.0</ele></trkpt>
      <trkpt lat="34.53036" lon="-118.36869"><ele>811.0</ele></trkpt>
      <trkpt lat="34.53032" lon="-118.36873"><ele>811.0</ele></trkpt>
      <trkpt lat="34.53026" lon="-118.36873"><ele>809.0</ele></trkpt>
      <trkpt lat="34.53021" lon="-118.36872"><ele>809.0</ele></trkpt>
      <trkpt lat="34.53015" lon="-118.36868"><ele>809.0</ele></trkpt>
      <trkpt lat="34.53011" lon="-118.36865"><ele>809.0</ele></trkpt>
      <trkpt lat="34.53004" lon="-118.36864"><ele>809.0</ele></trkpt>
      <trkpt lat="34.52996" lon="-118.36864"><ele>809.0</ele></trkpt>
      <trkpt lat="34.52992" lon="-118.36863"><ele>809.0</ele></trkpt>
      <trkpt lat="34.52988" lon="-118.36862"><ele>808.0</ele></trkpt>
      <trkpt lat="34.52982" lon="-118.36863"><ele>808.0</ele></trkpt>
      <trkpt lat="34.52975" lon="-118.36868"><ele>808.0</ele></trkpt>
      <trkpt lat="34.52970" lon="-118.36874"><ele>808.0</ele></trkpt>
      <trkpt lat="34.52966" lon="-118.36881"><ele>808.0</ele></trkpt>
      <trkpt lat="34.52960" lon="-118.36891"><ele>808.0</ele></trkpt>
      <trkpt lat="34.52956" lon="-118.36904"><ele>808.0</ele></trkpt>
      <trkpt lat="34.52955" lon="-118.36919"><ele>803.0</ele></trkpt>
      <trkpt lat="34.52949" lon="-118.36928"><ele>803.0</ele></trkpt>
      <trkpt lat="34.52935" lon="-118.36941"><ele>803.0</ele></trkpt>
      <trkpt lat="34.52916" lon="-118.36957"><ele>803.0</ele></trkpt>
      <trkpt lat="34.52900" lon="-118.36975"><ele>803.0</ele></trkpt>
      <trkpt lat="34.52893" lon="-118.36987"><ele>803.0</ele></trkpt>
      <trkpt lat="34.52886" lon="-118.37000"><ele>803.0</ele></trkpt>
      <trkpt lat="34.52882" lon="-118.37016"><ele>803.0</ele></trkpt>
      <trkpt lat="34.52877" lon="-118.37026"><ele>797.0</ele></trkpt>
      <trkpt lat="34.52869" lon="-118.37031"><ele>797.0</ele></trkpt>
      <trkpt lat="34.52854" lon="-118.37039"><ele>797.0</ele></trkpt>
      <trkpt lat="34.52845" lon="-118.37044"><ele>797.0</ele></trkpt>
      <trkpt lat="34.52841" lon="-118.37054"><ele>797.0</ele></trkpt>
      <trkpt lat="34.52832" lon="-118.37069"><ele>797.0</ele></trkpt>
      <trkpt lat="34.52817" lon="-118.37086"><ele>797.0</ele></trkpt>
      <trkpt lat="34.52803" lon="-118.37097"><ele>791.0</ele></trkpt>
      <trkpt lat="34.52795" lon="-118.37101"><ele>791.0</ele></trkpt>
      <trkpt lat="34.52786" lon="-118.37102"><ele>791.0</ele></trkpt>
      <trkpt lat="34.52779" lon="-118.37104"><ele>791.0</ele></trkpt>
      <trkpt lat="34.52773" lon="-118.37109"><ele>791.0</ele></trkpt>
      <trkpt lat="34.52761" lon="-118.37127"><ele>791.0</ele></trkpt>
      <trkpt lat="34.52750" lon="-118.37145"><ele>791.0</ele></trkpt>
      <trkpt lat="34.52735" lon="-118.37161"><ele>787.0</ele></trkpt>
      <trkpt lat="34.52724" lon="-118.37171"><ele>787.0</ele></trkpt>
      <trkpt lat="34.52711" lon="-118.37181"><ele>787.0</ele></trkpt>
      <trkpt lat="34.52706" lon="-118.37191"><ele>787.0</ele></trkpt>
      <trkpt lat="34.52700" lon="-118.37203"><ele>787.0</ele></trkpt>
      <trkpt lat="34.52698" lon="-118.37215"><ele>787.0</ele></trkpt>
      <trkpt lat="34.52696" lon="-118.37237"><ele>787.0</ele></trkpt>
      <trkpt lat="34.52692" lon="-118.37250"><ele>780.0</ele></trkpt>
      <trkpt lat="34.52684" lon="-118.37259"><ele>780.0</ele></trkpt>
      <trkpt lat="34.52675" lon="-118.37269"><ele>780.0</ele></trkpt>
      <trkpt lat="34.52666" lon="-118.37282"><ele>780.0</ele></trkpt>
      <trkpt lat="34.52658" lon="-118.37306"><ele>780.0</ele></trkpt>
      <trkpt lat="34.52652" lon="-118.37323"><ele>780.0</ele></trkpt>
      <trkpt lat="34.52646" lon="-118.37338"><ele>780.0</ele></trkpt>
      <trkpt lat="34.52630" lon="-118.37359"><ele>770.0</ele></trkpt>
      <trkpt lat="34.52618" lon="-118.37380"><ele>770.0</ele></trkpt>
      <trkpt lat="34.52603" lon="-118.37400"><ele>770.0</ele></trkpt>
      <trkpt lat="34.52583" lon="-118.37436"><ele>770.0</ele></trkpt>
      <trkpt lat="34.52577" lon="-118.37451"><ele>770.0</ele></trkpt>
      <trkpt lat="34.52571" lon="-118.37472"><ele>770.0</ele></trkpt>
      <trkpt lat="34.52568" lon="-118.37484"><ele>770.0</ele></trkpt>
      <trkpt lat="34.52572" lon="-118.37488"><ele>769.0</ele></trkpt>
      <trkpt lat="34.52574" lon="-118.37492"><ele>769.0</ele></trkpt>
      <trkpt lat="34.52573" lon="-118.37497"><ele>769.0</ele></trkpt>
      <trkpt lat="34.52568" lon="-118.37505"><ele>769.0</ele></trkpt>
      <trkpt lat="34.52560" lon="-118.37517"><ele>769.0</ele></trkpt>
      <trkpt lat="34.52553" lon="-118.37528"><ele>769.0</ele></trkpt>
      <trkpt lat="34.52544" lon="-118.37539"><ele>769.0</ele></trkpt>
      <trkpt lat="34.52536" lon="-118.37552"><ele>761.0</ele></trkpt>
      <trkpt lat="34.52531" lon="-118.37568"><ele>761.0</ele></trkpt>
      <trkpt lat="34.52531" lon="-118.37582"><ele>761.0</ele></trkpt>
      <trkpt lat="34.52536" lon="-118.37591"><ele>761.0</ele></trkpt>
      <trkpt lat="34.52542" lon="-118.37597"><ele>761.0</ele></trkpt>
      <trkpt lat="34.52547" lon="-118.37605"><ele>761.0</ele></trkpt>
      <trkpt lat="34.52551" lon="-118.37610"><ele>761.0</ele></trkpt>
      <trkpt lat="34.52558" lon="-118.37612"><ele>764.0</ele></trkpt>
      <trkpt lat="34.52571" lon="-118.37611"><ele>764.0</ele></trkpt>
      <trkpt lat="34.52584" lon="-118.37608"><ele>764.0</ele></trkpt>
      <trkpt lat="34.52594" lon="-118.37603"><ele>764.0</ele></trkpt>
      <trkpt lat="34.52606" lon="-118.37591"><ele>764.0</ele></trkpt>
      <trkpt lat="34.52618" lon="-118.37583"><ele>764.0</ele></trkpt>
      <trkpt lat="34.52625" lon="-118.37578"><ele>764.0</ele></trkpt>
      <trkpt lat="34.52630" lon="-118.37576"><ele>765.0</ele></trkpt>
      <trkpt lat="34.52637" lon="-118.37580"><ele>765.0</ele></trkpt>
      <trkpt lat="34.52643" lon="-118.37584"><ele>765.0</ele></trkpt>
      <trkpt lat="34.52648" lon="-118.37587"><ele>765.0</ele></trkpt>
      <trkpt lat="34.52648" lon="-118.37592"><ele>765.0</ele></trkpt>
      <trkpt lat="34.52644" lon="-118.37597"><ele>765.0</ele></trkpt>
      <trkpt lat="34.52636" lon="-118.37598"><ele>765.0</ele></trkpt>
      <trkpt lat="34.52626" lon="-118.37603"><ele>759.0</ele></trkpt>
      <trkpt lat="34.52618" lon="-118.37612"><ele>759.0</ele></trkpt>
      <trkpt lat="34.52610" lon="-118.37622"><ele>759.0</ele></trkpt>
      <trkpt lat="34.52597" lon="-118.37635"><ele>759.0</ele></trkpt>
      <trkpt lat="34.52582" lon="-118.37650"><ele>759.0</ele></trkpt>
      <trkpt lat="34.52569" lon="-118.37662"><ele>759.0</ele></trkpt>
      <trkpt lat="34.52565" lon="-118.37671"><ele>759.0</ele></trkpt>
      <trkpt lat="34.52559" lon="-118.37680"><ele>756.0</ele></trkpt>
      <trkpt lat="34.52553" lon="-118.37683"><ele>756.0</ele></trkpt>
      <trkpt lat="34.52545" lon="-118.37685"><ele>756.0</ele></trkpt>
      <trkpt lat="34.52536" lon="-118.37687"><ele>756.0</ele></trkpt>
      <trkpt lat="34.52529" lon="-118.37696"><ele>756.0</ele></trkpt>
      <trkpt lat="34.52525" lon="-118.37711"><ele>756.0</ele></trkpt>
      <trkpt lat="34.52517" lon="-118.37727"><ele>756.0</ele></trkpt>
      <trkpt lat="34.52513" lon="-118.37743"><ele>751.0</ele></trkpt>
      <trkpt lat="34.52510" lon="-118.37760"><ele>751.0</ele></trkpt>
      <trkpt lat="34.52503" lon="-118.37780"><ele>751.0</ele></trkpt>
      <trkpt lat="34.52500" lon="-118.37800"><ele>751.0</ele></trkpt>
      <trkpt lat="34.52497" lon="-118.37810"><ele>751.0</ele></trkpt>
      <trkpt lat="34.52493" lon="-118.37818"><ele>751.0</ele></trkpt>
      <trkpt lat="34.52483" lon="-118.37831"><ele>751.0</ele></trkpt>
      <trkpt lat="34.52471" lon="-118.37850"><ele>752.0</ele></trkpt>
      <trkpt lat="34.52466" lon="-118.37865"><ele>752.0</ele></trkpt>
      <trkpt lat="34.52461" lon="-118.37878"><ele>752.0</ele></trkpt>
      <trkpt lat="34.52456" lon="-118.37885"><ele>752.0</ele></trkpt>
      <trkpt lat="34.52444" lon="-118.37893"><ele>752.0</ele></trkpt>
      <trkpt lat="34.52428" lon="-118.37902"><ele>752.0</ele></trkpt>
      <trkpt lat="34.52410" lon="-118.37909"><ele>752.0</ele></trkpt>
      <trkpt lat="34.52393" lon="-118.37915"><ele>745.0</ele></trkpt>
      <trkpt lat="34.52382" lon="-118.37918"><ele>745.0</ele></trkpt>
      <trkpt lat="34.52372" lon="-118.37918"><ele>745.0</ele></trkpt>
      <trkpt lat="34.52361" lon="-118.37917"><ele>745.0</ele></trkpt>
      <trkpt lat="34.52352" lon="-118.37918"><ele>745.0</ele></trkpt>
      <trkpt lat="34.52339" lon="-118.37923"><ele>745.0</ele></trkpt>
      <trkpt lat="34.52330" lon="-118.37926"><ele>745.0</ele></trkpt>
      <trkpt lat="34.52320" lon="-118.37932"><ele>742.0</ele></trkpt>
      <trkpt lat="34.52313" lon="-118.37942"><ele>742.0</ele></trkpt>
      <trkpt lat="34.52308" lon="-118.37951"><ele>742.0</ele></trkpt>
      <trkpt lat="34.52308" lon="-118.37963"><ele>742.0</ele></trkpt>
      <trkpt lat="34.52310" lon="-118.37971"><ele>742.0</ele></trkpt>
      <trkpt lat="34.52315" lon="-118.37988"><ele>742.0</ele></trkpt>
      <trkpt lat="34.52322" lon="-118.38004"><ele>742.0</ele></trkpt>
      <trkpt lat="34.52325" lon="-118.38016"><ele>745.0</ele></trkpt>
      <trkpt lat="34.52329" lon="-118.38018"><ele>745.0</ele></trkpt>
      <trkpt lat="34.52334" lon="-118.38020"><ele>745.0</ele></trkpt>
      <trkpt lat="34.52339" lon="-118.38024"><ele>745.0</ele></trkpt>
      <trkpt lat="34.52342" lon="-118.38027"><ele>745.0</ele></trkpt>
      <trkpt lat="34.52343" lon="-118.38037"><ele>745.0</ele></trkpt>
      <trkpt lat="34.52341" lon="-118.38042"><ele>745.0</ele></trkpt>
      <trkpt lat="34.52340" lon="-118.38050"><ele>750.0</ele></trkpt>
      <trkpt lat="34.52342" lon="-118.38057"><ele>750.0</ele></trkpt>
      <trkpt lat="34.52348" lon="-118.38070"><ele>750.0</ele></trkpt>
      <trkpt lat="34.52353" lon="-118.38077"><ele>750.0</ele></trkpt>
      <trkpt lat="34.52361" lon="-118.38083"><ele>750.0</ele></trkpt>
      <trkpt lat="34.52371" lon="-118.38086"><ele>750.0</ele></trkpt>
      <trkpt lat="34.52378" lon="-118.38097"><ele>750.0</ele></trkpt>
      <trkpt lat="34.52384" lon="-118.38114"><ele>761.0</ele></trkpt>
      <trkpt lat="34.52387" lon="-118.38126"><ele>761.0</ele></trkpt>
      <trkpt lat="34.52387" lon="-118.38139"><ele>761.0</ele></trkpt>
      <trkpt lat="34.52387" lon="-118.38162"><ele>761.0</ele></trkpt>
      <trkpt lat="34.52385" lon="-118.38181"><ele>761.0</ele></trkpt>
      <trkpt lat="34.52378" lon="-118.38194"><ele>761.0</ele></trkpt>
      <trkpt lat="34.52372" lon="-118.38200"><ele>761.0</ele></trkpt>
      <trkpt lat="34.52372" lon="-118.38209"><ele>766.0</ele></trkpt>
      <trkpt lat="34.52376" lon="-118.38215"><ele>766.0</ele></trkpt>
      <trkpt lat="34.52383" lon="-118.38219"><ele>766.0</ele></trkpt>
      <trkpt lat="34.52391" lon="-118.38221"><ele>766.0</ele></trkpt>
      <trkpt lat="34.52396" lon="-118.38221"><ele>766.0</ele></trkpt>
      <trkpt lat="34.52403" lon="-118.38217"><ele>766.0</ele></trkpt>
      <trkpt lat="34.52415" lon="-118.38216"><ele>766.0</ele></trkpt>
      <trkpt lat="34.52420" lon="-118.38216"><ele>808.0</ele></trkpt>
      <trkpt lat="34.52428" lon="-118.38218"><ele>808.0</ele></trkpt>
    </trkseg>
    <trkseg>
      <trkpt lat="34.53211" lon="-118.37652"><ele>808.0</ele></trkpt>
      <trkpt lat="34.53214" lon="-118.37648"><ele>808.0</ele></trkpt>
      <trkpt lat="34.53213" lon="-118.37642"><ele>808.0</ele></trkpt>
      <trkpt lat="34.53206" lon="-118.37640"><ele>808.0</ele></trkpt>
      <trkpt lat="34.53199" lon="-118.37632"><ele>808.0</ele></trkpt>
      <trkpt lat="34.53195" lon="-118.37623"><ele>821.0</ele></trkpt>
      <trkpt lat="34.53197" lon="-118.37606"><ele>821.0</ele></trkpt>
      <trkpt lat="34.53204" lon="-118.37579"><ele>821.0</ele></trkpt>
      <trkpt lat="34.53209" lon="-118.37552"><ele>821.0</ele></trkpt>
      <trkpt lat="34.53214" lon="-118.37533"><ele>821.0</ele></trkpt>
      <trkpt lat="34.53215" lon="-118.37515"><ele>821.0</ele></trkpt>
      <trkpt lat="34.53215" lon="-118.37491"><ele>821.0</ele></trkpt>
      <trkpt lat="34.53214" lon="-118.37467"><ele>847.0</ele></trkpt>
      <trkpt lat="34.53217" lon="-118.37459"><ele>847.0</ele></trkpt>
      <trkpt lat="34.53220" lon="-118.37451"><ele>847.0</ele></trkpt>
      <trkpt lat="34.53220" lon="-118.37442"><ele>847.0</ele></trkpt>
      <trkpt lat="34.53215" lon="-118.37438"><ele>847.0</ele></trkpt>
      <trkpt lat="34.53210" lon="-118.37430"><ele>847.0</ele></trkpt>
      <trkpt lat="34.53207" lon="-118.37418"><ele>847.0</ele></trkpt>
      <trkpt lat="34.53208" lon="-118.37405"><ele>847.0</ele></trkpt>
      <trkpt lat="34.53210" lon="-118.37392"><ele>862.0</ele></trkpt>
      <trkpt lat="34.53205" lon="-118.37380"><ele>862.0</ele></trkpt>
      <trkpt lat="34.53199" lon="-118.37364"><ele>862.0</ele></trkpt>
      <trkpt lat="34.53192" lon="-118.37340"><ele>862.0</ele></trkpt>
      <trkpt lat="34.53184" lon="-118.37329"><ele>862.0</ele></trkpt>
      <trkpt lat="34.53179" lon="-118.37325"><ele>862.0</ele></trkpt>
      <trkpt lat="34.53179" lon="-118.37321"><ele>862.0</ele></trkpt>
      <trkpt lat="34.53184" lon="-118.37314"><ele>865.0</ele></trkpt>
      <trkpt lat="34.53205" lon="-118.37301"><ele>865.0</ele></trkpt>
      <trkpt lat="34.53219" lon="-118.37293"><ele>865.0</ele></trkpt>
      <trkpt lat="34.53227" lon="-118.37294"><ele>865.0</ele></trkpt>
      <trkpt lat="34.53233" lon="-118.37297"><ele>865.0</ele></trkpt>
      <trkpt lat="34.53238" lon="-118.37298"><ele>865.0</ele></trkpt>
      <trkpt lat="34.53248" lon="-118.37295"><ele>865.0</ele></trkpt>
      <trkpt lat="34.53261" lon="-118.37290"><ele>867.0</ele></trkpt>
      <trkpt lat="34.53266" lon="-118.37281"><ele>867.0</ele></trkpt>
      <trkpt lat="34.53268" lon="-118.37264"><ele>867.0</ele></trkpt>
      <trkpt lat="34.53269" lon="-118.37244"><ele>867.0</ele></trkpt>
      <trkpt lat="34.53276" lon="-118.37226"><ele>867.0</ele></trkpt>
      <trkpt lat="34.53289" lon="-118.37209"><ele>867.0</ele></trkpt>
      <trkpt lat="34.53296" lon="-118.37201"><ele>867.0</ele></trkpt>
      <trkpt lat="34.53308" lon="-118.37198"><ele>873.0</ele></trkpt>
      <trkpt lat="34.53314" lon="-118.37193"><ele>873.0</ele></trkpt>
      <trkpt lat="34.53321" lon="-118.37184"><ele>873.0</ele></trkpt>
      <trkpt lat="34.53330" lon="-118.37177"><ele>873.0</ele></trkpt>
      <trkpt lat="34.53339" lon="-118.37167"><ele>873.0</ele></trkpt>
      <trkpt lat="34.53350" lon="-118.37154"><ele>873.0</ele></trkpt>
      <trkpt lat="34.53357" lon="-118.37144"><ele>873.0</ele></trkpt>
      <trkpt lat="34.53366" lon="-118.37141"><ele>880.0</ele></trkpt>
      <trkpt lat="34.53376" lon="-118.37142"><ele>880.0</ele></trkpt>
      <trkpt lat="34.53384" lon="-118.37145"><ele>880.0</ele></trkpt>
      <trkpt lat="34.53391" lon="-118.37146"><ele>880.0</ele></trkpt>
      <trkpt lat="34.53401" lon="-118.37142"><ele>880.0</ele></trkpt>
      <trkpt lat="34.53410" lon="-118.37137"><ele>880.0</ele></trkpt>
      <trkpt lat="34.53418" lon="-118.37134"><ele>880.0</ele></trkpt>
      <trkpt lat="34.53423" lon="-118.37128"><ele>891.0</ele></trkpt>
      <trkpt lat="34.53428" lon="-118.37126"><ele>891.0</ele></trkpt>
      <trkpt lat="34.53436" lon="-118.37128"><ele>891.0</ele></trkpt>
      <trkpt lat="34.53447" lon="-118.37132"><ele>891.0</ele></trkpt>
      <trkpt lat="34.53453" lon="-118.37135"><ele>891.0</ele></trkpt>
      <trkpt lat="34.53459" lon="-118.37135"><ele>891.0</ele></trkpt>
      <trkpt lat="34.53460" lon="-118.37130"><ele>891.0</ele></trkpt>
      <trkpt lat="34.53460" lon="-118.37117"><ele>884.0</ele></trkpt>
      <trkpt lat="34.53457" lon="-118.37097"><ele>884.0</ele></trkpt>
      <trkpt lat="34.53453" lon="-118.37084"><ele>884.0</ele></trkpt>
      <trkpt lat="34.53447" lon="-118.37056"><ele>884.0</ele></trkpt>
      <trkpt lat="34.53443" lon="-118.37035"><ele>884.0</ele></trkpt>
      <trkpt lat="34.53437" lon="-118.37025"><ele>884.0</ele></trkpt>
      <trkpt lat="34.53427" lon="-118.37016"><ele>884.0</ele></trkpt>
      <trkpt lat="34.53418" lon="-118.37006"><ele>871.0</ele></trkpt>
      <trkpt lat="34.53416" lon="-118.36997"><ele>871.0</ele></trkpt>
      <trkpt lat="34.53419" lon="-118.36985"><ele>871.0</ele></trkpt>
      <trkpt lat="34.53429" lon="-118.36966"><ele>871.0</ele></trkpt>
      <trkpt lat="34.53442" lon="-118.36946"><ele>871.0</ele></trkpt>
      <trkpt lat="34.53454" lon="-118.36937"><ele>871.0</ele></trkpt>
      <trkpt lat="34.53464" lon="-118.36930"><ele>871.0</ele></trkpt>
      <trkpt lat="34.53475" lon="-118.36927"><ele>880.0</ele></trkpt>
      <trkpt lat="34.53479" lon="-118.36920"><ele>880.0</ele></trkpt>
      <trkpt lat="34.53478" lon="-118.36913"><ele>880.0</ele></trkpt>
      <trkpt lat="34.53472" lon="-118.36906"><ele>880.0</ele></trkpt>
      <trkpt lat="34.53461" lon="-118.36897"><ele>880.0</ele></trkpt>
      <trkpt lat="34.53448" lon="-118.36891"><ele>880.0</ele></trkpt>
      <trkpt lat="34.53443" lon="-118.36883"><ele>880.0</ele></trkpt>
      <trkpt lat="34.53444" lon="-118.36875"><ele>872.0</ele></trkpt>
      <trkpt lat="34.53451" lon="-118.36867"><ele>872.0</ele></trkpt>
      <trkpt lat="34.53467" lon="-118.36857"><ele>872.0</ele></trkpt>
      <trkpt lat="34.53470" lon="-118.36849"><ele>872.0</ele></trkpt>
      <trkpt lat="34.53472" lon="-118.36817"><ele>872.0</ele></trkpt>
      <trkpt lat="34.53475" lon="-118.36791"><ele>872.0</ele></trkpt>
      <trkpt lat="34.53472" lon="-118.36779"><ele>872.0</ele></trkpt>
      <trkpt lat="34.53465" lon="-118.36762"><ele>854.0</ele></trkpt>
      <trkpt lat="34.53459" lon="-118.36749"><ele>854.0</ele></trkpt>
      <trkpt lat="34.53458" lon="-118.36739"><ele>854.0</ele></trkpt>
      <trkpt lat="34.53461" lon="-118.36730"><ele>854.0</ele></trkpt>
      <trkpt lat="34.53466" lon="-118.36708"><ele>854.0</ele></trkpt>
      <trkpt lat="34.53466" lon="-118.36692"><ele>854.0</ele></trkpt>
      <trkpt lat="34.53464" lon="-118.36676"><ele>854.0</ele></trkpt>
      <trkpt lat="34.53460" lon="-118.36662"><ele>845.0</ele></trkpt>
      <trkpt lat="34.53456" lon="-118.36645"><ele>845.0</ele></trkpt>
      <trkpt lat="34.53455" lon="-118.36630"><ele>845.0</ele></trkpt>
      <trkpt lat="34.53456" lon="-118.36609"><ele>845.0</ele></trkpt>
    </trkseg>
  </trk>
</gpx>
