<?xml version="1.0" encoding="UTF-8"?>
<gpx version="1.1" creator="dirt-bikes build-angeles-routes (TrailNFS/RoadBasic geometry + SRTM elevation)" xmlns="http://www.topografix.com/GPX/1/1">
  <trk><name>Rowher 4x4 Trail</name>
    <trkseg>
      <trkpt lat="34.53158" lon="-118.36656"><ele>824.0</ele></trkpt>
      <trkpt lat="34.53159" lon="-118.36650"><ele>824.0</ele></trkpt>
      <trkpt lat="34.53164" lon="-118.36642"><ele>824.0</ele></trkpt>
      <trkpt lat="34.53173" lon="-118.36632"><ele>824.0</ele></trkpt>
      <trkpt lat="34.53181" lon="-118.36620"><ele>819.0</ele></trkpt>
      <trkpt lat="34.53188" lon="-118.36603"><ele>819.0</ele></trkpt>
      <trkpt lat="34.53192" lon="-118.36591"><ele>819.0</ele></trkpt>
      <trkpt lat="34.53197" lon="-118.36580"><ele>819.0</ele></trkpt>
      <trkpt lat="34.53205" lon="-118.36570"><ele>819.0</ele></trkpt>
      <trkpt lat="34.53209" lon="-118.36564"><ele>819.0</ele></trkpt>
      <trkpt lat="34.53231" lon="-118.36535"><ele>819.0</ele></trkpt>
      <trkpt lat="34.53243" lon="-118.36520"><ele>819.0</ele></trkpt>
      <trkpt lat="34.53256" lon="-118.36513"><ele>819.0</ele></trkpt>
      <trkpt lat="34.53267" lon="-118.36508"><ele>819.0</ele></trkpt>
      <trkpt lat="34.53279" lon="-118.36500"><ele>819.0</ele></trkpt>
      <trkpt lat="34.53294" lon="-118.36489"><ele>819.0</ele></trkpt>
      <trkpt lat="34.53305" lon="-118.36475"><ele>825.0</ele></trkpt>
      <trkpt lat="34.53315" lon="-118.36461"><ele>825.0</ele></trkpt>
      <trkpt lat="34.53320" lon="-118.36449"><ele>825.0</ele></trkpt>
      <trkpt lat="34.53323" lon="-118.36436"><ele>825.0</ele></trkpt>
      <trkpt lat="34.53324" lon="-118.36424"><ele>825.0</ele></trkpt>
      <trkpt lat="34.53326" lon="-118.36409"><ele>825.0</ele></trkpt>
      <trkpt lat="34.53332" lon="-118.36399"><ele>833.0</ele></trkpt>
      <trkpt lat="34.53341" lon="-118.36391"><ele>833.0</ele></trkpt>
      <trkpt lat="34.53351" lon="-118.36379"><ele>833.0</ele></trkpt>
      <trkpt lat="34.53356" lon="-118.36367"><ele>833.0</ele></trkpt>
      <trkpt lat="34.53360" lon="-118.36354"><ele>833.0</ele></trkpt>
      <trkpt lat="34.53360" lon="-118.36342"><ele>833.0</ele></trkpt>
      <trkpt lat="34.53359" lon="-118.36329"><ele>843.0</ele></trkpt>
      <trkpt lat="34.53360" lon="-118.36319"><ele>843.0</ele></trkpt>
      <trkpt lat="34.53363" lon="-118.36309"><ele>843.0</ele></trkpt>
      <trkpt lat="34.53367" lon="-118.36299"><ele>843.0</ele></trkpt>
      <trkpt lat="34.53374" lon="-118.36287"><ele>843.0</ele></trkpt>
      <trkpt lat="34.53383" lon="-118.36266"><ele>843.0</ele></trkpt>
      <trkpt lat="34.53388" lon="-118.36245"><ele>861.0</ele></trkpt>
      <trkpt lat="34.53390" lon="-118.36230"><ele>861.0</ele></trkpt>
      <trkpt lat="34.53393" lon="-118.36210"><ele>861.0</ele></trkpt>
      <trkpt lat="34.53394" lon="-118.36193"><ele>861.0</ele></trkpt>
      <trkpt lat="34.53394" lon="-118.36182"><ele>861.0</ele></trkpt>
      <trkpt lat="34.53391" lon="-118.36166"><ele>861.0</ele></trkpt>
      <trkpt lat="34.53389" lon="-118.36154"><ele>879.0</ele></trkpt>
      <trkpt lat="34.53391" lon="-118.36144"><ele>879.0</ele></trkpt>
      <trkpt lat="34.53393" lon="-118.36133"><ele>879.0</ele></trkpt>
      <trkpt lat="34.53395" lon="-118.36122"><ele>879.0</ele></trkpt>
      <trkpt lat="34.53393" lon="-118.36108"><ele>879.0</ele></trkpt>
      <trkpt lat="34.53390" lon="-118.36096"><ele>879.0</ele></trkpt>
      <trkpt lat="34.53388" lon="-118.36088"><ele>891.0</ele></trkpt>
      <trkpt lat="34.53385" lon="-118.36081"><ele>891.0</ele></trkpt>
      <trkpt lat="34.53382" lon="-118.36071"><ele>891.0</ele></trkpt>
      <trkpt lat="34.53383" lon="-118.36065"><ele>891.0</ele></trkpt>
      <trkpt lat="34.53387" lon="-118.36060"><ele>891.0</ele></trkpt>
      <trkpt lat="34.53396" lon="-118.36056"><ele>891.0</ele></trkpt>
      <trkpt lat="34.53424" lon="-118.36047"><ele>907.0</ele></trkpt>
      <trkpt lat="34.53451" lon="-118.36040"><ele>907.0</ele></trkpt>
      <trkpt lat="34.53469" lon="-118.36035"><ele>907.0</ele></trkpt>
      <trkpt lat="34.53480" lon="-118.36030"><ele>907.0</ele></trkpt>
      <trkpt lat="34.53487" lon="-118.36021"><ele>907.0</ele></trkpt>
      <trkpt lat="34.53497" lon="-118.36013"><ele>907.0</ele></trkpt>
      <trkpt lat="34.53519" lon="-118.35997"><ele>914.0</ele></trkpt>
      <trkpt lat="34.53540" lon="-118.35985"><ele>914.0</ele></trkpt>
      <trkpt lat="34.53567" lon="-118.35969"><ele>914.0</ele></trkpt>
      <trkpt lat="34.53577" lon="-118.35965"><ele>914.0</ele></trkpt>
      <trkpt lat="34.53587" lon="-118.35958"><ele>914.0</ele></trkpt>
      <trkpt lat="34.53598" lon="-118.35949"><ele>914.0</ele></trkpt>
      <trkpt lat="34.53609" lon="-118.35941"><ele>933.0</ele></trkpt>
      <trkpt lat="34.53625" lon="-118.35932"><ele>933.0</ele></trkpt>
      <trkpt lat="34.53637" lon="-118.35922"><ele>933.0</ele></trkpt>
      <trkpt lat="34.53653" lon="-118.35910"><ele>933.0</ele></trkpt>
      <trkpt lat="34.53665" lon="-118.35901"><ele>933.0</ele></trkpt>
      <trkpt lat="34.53678" lon="-118.35894"><ele>933.0</ele></trkpt>
      <trkpt lat="34.53691" lon="-118.35892"><ele>959.0</ele></trkpt>
      <trkpt lat="34.53706" lon="-118.35887"><ele>959.0</ele></trkpt>
      <trkpt lat="34.53723" lon="-118.35877"><ele>959.0</ele></trkpt>
      <trkpt lat="34.53732" lon="-118.35869"><ele>959.0</ele></trkpt>
      <trkpt lat="34.53741" lon="-118.35848"><ele>959.0</ele></trkpt>
      <trkpt lat="34.53749" lon="-118.35821"><ele>959.0</ele></trkpt>
      <trkpt lat="34.53755" lon="-118.35805"><ele>984.0</ele></trkpt>
      <trkpt lat="34.53760" lon="-118.35789"><ele>984.0</ele></trkpt>
      <trkpt lat="34.53761" lon="-118.35776"><ele>984.0</ele></trkpt>
      <trkpt lat="34.53763" lon="-118.35759"><ele>984.0</ele></trkpt>
      <trkpt lat="34.53768" lon="-118.35743"><ele>984.0</ele></trkpt>
      <trkpt lat="34.53776" lon="-118.35717"><ele>984.0</ele></trkpt>
      <trkpt lat="34.53786" lon="-118.35694"><ele>1001.0</ele></trkpt>
      <trkpt lat="34.53793" lon="-118.35678"><ele>1001.0</ele></trkpt>
      <trkpt lat="34.53797" lon="-118.35663"><ele>1001.0</ele></trkpt>
      <trkpt lat="34.53802" lon="-118.35643"><ele>1001.0</ele></trkpt>
      <trkpt lat="34.53812" lon="-118.35613"><ele>1001.0</ele></trkpt>
      <trkpt lat="34.53832" lon="-118.35581"><ele>1001.0</ele></trkpt>
      <trkpt lat="34.53846" lon="-118.35558"><ele>1019.0</ele></trkpt>
      <trkpt lat="34.53858" lon="-118.35541"><ele>1019.0</ele></trkpt>
      <trkpt lat="34.53869" lon="-118.35527"><ele>1019.0</ele></trkpt>
      <trkpt lat="34.53891" lon="-118.35512"><ele>1019.0</ele></trkpt>
      <trkpt lat="34.53916" lon="-118.35493"><ele>1019.0</ele></trkpt>
      <trkpt lat="34.53944" lon="-118.35470"><ele>1019.0</ele></trkpt>
      <trkpt lat="34.53972" lon="-118.35444"><ele>1035.0</ele></trkpt>
      <trkpt lat="34.53987" lon="-118.35429"><ele>1035.0</ele></trkpt>
      <trkpt lat="34.53999" lon="-118.35412"><ele>1035.0</ele></trkpt>
      <trkpt lat="34.54006" lon="-118.35397"><ele>1035.0</ele></trkpt>
      <trkpt lat="34.54016" lon="-118.35387"><ele>1035.0</ele></trkpt>
      <trkpt lat="34.54034" lon="-118.35373"><ele>1035.0</ele></trkpt>
      <trkpt lat="34.54050" lon="-118.35363"><ele>1039.0</ele></trkpt>
      <trkpt lat="34.54070" lon="-118.35354"><ele>1039.0</ele></trkpt>
      <trkpt lat="34.54085" lon="-118.35349"><ele>1039.0</ele></trkpt>
      <trkpt lat="34.54104" lon="-118.35348"><ele>1039.0</ele></trkpt>
      <trkpt lat="34.54132" lon="-118.35345"><ele>1039.0</ele></trkpt>
      <trkpt lat="34.54155" lon="-118.35341"><ele>1039.0</ele></trkpt>
      <trkpt lat="34.54167" lon="-118.35334"><ele>1040.0</ele></trkpt>
      <trkpt lat="34.54186" lon="-118.35327"><ele>1040.0</ele></trkpt>
      <trkpt lat="34.54203" lon="-118.35320"><ele>1040.0</ele></trkpt>
      <trkpt lat="34.54223" lon="-118.35312"><ele>1040.0</ele></trkpt>
      <trkpt lat="34.54239" lon="-118.35309"><ele>1040.0</ele></trkpt>
      <trkpt lat="34.54254" lon="-118.35306"><ele>1040.0</ele></trkpt>
      <trkpt lat="34.54264" lon="-118.35299"><ele>1047.0</ele></trkpt>
      <trkpt lat="34.54278" lon="-118.35288"><ele>1047.0</ele></trkpt>
      <trkpt lat="34.54284" lon="-118.35283"><ele>1047.0</ele></trkpt>
      <trkpt lat="34.54293" lon="-118.35276"><ele>1047.0</ele></trkpt>
      <trkpt lat="34.54302" lon="-118.35273"><ele>1047.0</ele></trkpt>
      <trkpt lat="34.54314" lon="-118.35273"><ele>1047.0</ele></trkpt>
      <trkpt lat="34.54325" lon="-118.35273"><ele>1055.0</ele></trkpt>
      <trkpt lat="34.54340" lon="-118.35276"><ele>1055.0</ele></trkpt>
      <trkpt lat="34.54359" lon="-118.35281"><ele>1055.0</ele></trkpt>
      <trkpt lat="34.54387" lon="-118.35287"><ele>1055.0</ele></trkpt>
      <trkpt lat="34.54416" lon="-118.35290"><ele>1055.0</ele></trkpt>
      <trkpt lat="34.54432" lon="-118.35288"><ele>1055.0</ele></trkpt>
      <trkpt lat="34.54447" lon="-118.35283"><ele>1079.0</ele></trkpt>
      <trkpt lat="34.54459" lon="-118.35274"><ele>1079.0</ele></trkpt>
      <trkpt lat="34.54476" lon="-118.35256"><ele>1079.0</ele></trkpt>
      <trkpt lat="34.54493" lon="-118.35226"><ele>1079.0</ele></trkpt>
      <trkpt lat="34.54507" lon="-118.35203"><ele>1079.0</ele></trkpt>
      <trkpt lat="34.54514" lon="-118.35194"><ele>1079.0</ele></trkpt>
      <trkpt lat="34.54535" lon="-118.35168"><ele>1102.0</ele></trkpt>
      <trkpt lat="34.54541" lon="-118.35152"><ele>1102.0</ele></trkpt>
      <trkpt lat="34.54550" lon="-118.35129"><ele>1102.0</ele></trkpt>
      <trkpt lat="34.54557" lon="-118.35112"><ele>1102.0</ele></trkpt>
      <trkpt lat="34.54562" lon="-118.35103"><ele>1102.0</ele></trkpt>
      <trkpt lat="34.54570" lon="-118.35095"><ele>1102.0</ele></trkpt>
      <trkpt lat="34.54582" lon="-118.35091"><ele>1118.0</ele></trkpt>
      <trkpt lat="34.54601" lon="-118.35088"><ele>1118.0</ele></trkpt>
      <trkpt lat="34.54614" lon="-118.35087"><ele>1118.0</ele></trkpt>
      <trkpt lat="34.54627" lon="-118.35090"><ele>1118.0</ele></trkpt>
      <trkpt lat="34.54641" lon="-118.35095"><ele>1118.0</ele></trkpt>
      <trkpt lat="34.54650" lon="-118.35095"><ele>1118.0</ele></trkpt>
      <trkpt lat="34.54663" lon="-118.35092"><ele>1126.0</ele></trkpt>
      <trkpt lat="34.54683" lon="-118.35082"><ele>1126.0</ele></trkpt>
      <trkpt lat="34.54707" lon="-118.35067"><ele>1126.0</ele></trkpt>
      <trkpt lat="34.54735" lon="-118.35046"><ele>1126.0</ele></trkpt>
      <trkpt lat="34.54761" lon="-118.35030"><ele>1126.0</ele></trkpt>
      <trkpt lat="34.54792" lon="-118.35006"><ele>1126.0</ele></trkpt>
      <trkpt lat="34.54818" lon="-118.34991"><ele>1150.0</ele></trkpt>
      <trkpt lat="34.54836" lon="-118.34976"><ele>1150.0</ele></trkpt>
      <trkpt lat="34.54852" lon="-118.34960"><ele>1150.0</ele></trkpt>
      <trkpt lat="34.54866" lon="-118.34946"><ele>1150.0</ele></trkpt>
      <trkpt lat="34.54881" lon="-118.34930"><ele>1150.0</ele></trkpt>
      <trkpt lat="34.54893" lon="-118.34922"><ele>1150.0</ele></trkpt>
      <trkpt lat="34.54911" lon="-118.34913"><ele>1182.0</ele></trkpt>
      <trkpt lat="34.54918" lon="-118.34909"><ele>1182.0</ele></trkpt>
      <trkpt lat="34.54937" lon="-118.34900"><ele>1182.0</ele></trkpt>
      <trkpt lat="34.54958" lon="-118.34892"><ele>1182.0</ele></trkpt>
      <trkpt lat="34.54984" lon="-118.34880"><ele>1182.0</ele></trkpt>
      <trkpt lat="34.55003" lon="-118.34872"><ele>1182.0</ele></trkpt>
      <trkpt lat="34.55026" lon="-118.34868"><ele>1212.0</ele></trkpt>
      <trkpt lat="34.55040" lon="-118.34866"><ele>1212.0</ele></trkpt>
      <trkpt lat="34.55061" lon="-118.34862"><ele>1212.0</ele></trkpt>
      <trkpt lat="34.55075" lon="-118.34858"><ele>1212.0</ele></trkpt>
      <trkpt lat="34.55085" lon="-118.34852"><ele>1212.0</ele></trkpt>
      <trkpt lat="34.55099" lon="-118.34843"><ele>1212.0</ele></trkpt>
      <trkpt lat="34.55110" lon="-118.34830"><ele>1219.0</ele></trkpt>
      <trkpt lat="34.55122" lon="-118.34818"><ele>1219.0</ele></trkpt>
      <trkpt lat="34.55139" lon="-118.34805"><ele>1219.0</ele></trkpt>
      <trkpt lat="34.55152" lon="-118.34797"><ele>1219.0</ele></trkpt>
      <trkpt lat="34.55167" lon="-118.34788"><ele>1219.0</ele></trkpt>
      <trkpt lat="34.55189" lon="-118.34780"><ele>1219.0</ele></trkpt>
      <trkpt lat="34.55215" lon="-118.34770"><ele>1248.0</ele></trkpt>
      <trkpt lat="34.55238" lon="-118.34760"><ele>1248.0</ele></trkpt>
      <trkpt lat="34.55253" lon="-118.34750"><ele>1248.0</ele></trkpt>
      <trkpt lat="34.55272" lon="-118.34733"><ele>1248.0</ele></trkpt>
      <trkpt lat="34.55283" lon="-118.34724"><ele>1248.0</ele></trkpt>
      <trkpt lat="34.55294" lon="-118.34714"><ele>1248.0</ele></trkpt>
      <trkpt lat="34.55301" lon="-118.34703"><ele>1260.0</ele></trkpt>
      <trkpt lat="34.55306" lon="-118.34691"><ele>1260.0</ele></trkpt>
      <trkpt lat="34.55310" lon="-118.34678"><ele>1260.0</ele></trkpt>
      <trkpt lat="34.55316" lon="-118.34664"><ele>1260.0</ele></trkpt>
      <trkpt lat="34.55325" lon="-118.34653"><ele>1260.0</ele></trkpt>
      <trkpt lat="34.55336" lon="-118.34641"><ele>1260.0</ele></trkpt>
      <trkpt lat="34.55353" lon="-118.34627"><ele>1270.0</ele></trkpt>
      <trkpt lat="34.55364" lon="-118.34622"><ele>1270.0</ele></trkpt>
      <trkpt lat="34.55372" lon="-118.34617"><ele>1270.0</ele></trkpt>
      <trkpt lat="34.55378" lon="-118.34609"><ele>1270.0</ele></trkpt>
      <trkpt lat="34.55388" lon="-118.34592"><ele>1270.0</ele></trkpt>
      <trkpt lat="34.55401" lon="-118.34576"><ele>1270.0</ele></trkpt>
      <trkpt lat="34.55415" lon="-118.34565"><ele>1291.0</ele></trkpt>
      <trkpt lat="34.55426" lon="-118.34561"><ele>1291.0</ele></trkpt>
      <trkpt lat="34.55439" lon="-118.34555"><ele>1291.0</ele></trkpt>
      <trkpt lat="34.55454" lon="-118.34553"><ele>1291.0</ele></trkpt>
      <trkpt lat="34.55469" lon="-118.34551"><ele>1291.0</ele></trkpt>
      <trkpt lat="34.55489" lon="-118.34549"><ele>1291.0</ele></trkpt>
      <trkpt lat="34.55499" lon="-118.34548"><ele>1316.0</ele></trkpt>
      <trkpt lat="34.55511" lon="-118.34544"><ele>1316.0</ele></trkpt>
      <trkpt lat="34.55524" lon="-118.34542"><ele>1316.0</ele></trkpt>
      <trkpt lat="34.55535" lon="-118.34543"><ele>1316.0</ele></trkpt>
      <trkpt lat="34.55546" lon="-118.34546"><ele>1316.0</ele></trkpt>
      <trkpt lat="34.55556" lon="-118.34546"><ele>1316.0</ele></trkpt>
      <trkpt lat="34.55568" lon="-118.34545"><ele>1332.0</ele></trkpt>
      <trkpt lat="34.55581" lon="-118.34545"><ele>1332.0</ele></trkpt>
      <trkpt lat="34.55599" lon="-118.34548"><ele>1332.0</ele></trkpt>
      <trkpt lat="34.55614" lon="-118.34548"><ele>1332.0</ele></trkpt>
      <trkpt lat="34.55628" lon="-118.34548"><ele>1332.0</ele></trkpt>
      <trkpt lat="34.55643" lon="-118.34546"><ele>1332.0</ele></trkpt>
      <trkpt lat="34.55658" lon="-118.34545"><ele>1342.0</ele></trkpt>
      <trkpt lat="34.55670" lon="-118.34546"><ele>1342.0</ele></trkpt>
      <trkpt lat="34.55682" lon="-118.34549"><ele>1342.0</ele></trkpt>
      <trkpt lat="34.55707" lon="-118.34560"><ele>1342.0</ele></trkpt>
      <trkpt lat="34.55736" lon="-118.34572"><ele>1342.0</ele></trkpt>
      <trkpt lat="34.55754" lon="-118.34579"><ele>1342.0</ele></trkpt>
      <trkpt lat="34.55761" lon="-118.34588"><ele>1368.0</ele></trkpt>
      <trkpt lat="34.55771" lon="-118.34594"><ele>1368.0</ele></trkpt>
      <trkpt lat="34.55786" lon="-118.34600"><ele>1368.0</ele></trkpt>
      <trkpt lat="34.55797" lon="-118.34603"><ele>1368.0</ele></trkpt>
      <trkpt lat="34.55808" lon="-118.34607"><ele>1368.0</ele></trkpt>
      <trkpt lat="34.55818" lon="-118.34613"><ele>1368.0</ele></trkpt>
      <trkpt lat="34.55840" lon="-118.34626"><ele>1380.0</ele></trkpt>
      <trkpt lat="34.55848" lon="-118.34632"><ele>1380.0</ele></trkpt>
      <trkpt lat="34.55854" lon="-118.34637"><ele>1380.0</ele></trkpt>
      <trkpt lat="34.55865" lon="-118.34648"><ele>1380.0</ele></trkpt>
      <trkpt lat="34.55880" lon="-118.34663"><ele>1380.0</ele></trkpt>
      <trkpt lat="34.55901" lon="-118.34676"><ele>1380.0</ele></trkpt>
      <trkpt lat="34.55911" lon="-118.34684"><ele>1403.0</ele></trkpt>
      <trkpt lat="34.55916" lon="-118.34693"><ele>1403.0</ele></trkpt>
      <trkpt lat="34.55928" lon="-118.34705"><ele>1403.0</ele></trkpt>
      <trkpt lat="34.55947" lon="-118.34723"><ele>1403.0</ele></trkpt>
      <trkpt lat="34.55968" lon="-118.34741"><ele>1403.0</ele></trkpt>
      <trkpt lat="34.55980" lon="-118.34746"><ele>1403.0</ele></trkpt>
      <trkpt lat="34.55992" lon="-118.34747"><ele>1434.0</ele></trkpt>
      <trkpt lat="34.56011" lon="-118.34744"><ele>1434.0</ele></trkpt>
      <trkpt lat="34.56039" lon="-118.34739"><ele>1434.0</ele></trkpt>
      <trkpt lat="34.56062" lon="-118.34738"><ele>1434.0</ele></trkpt>
      <trkpt lat="34.56075" lon="-118.34737"><ele>1434.0</ele></trkpt>
      <trkpt lat="34.56081" lon="-118.34736"><ele>1434.0</ele></trkpt>
      <trkpt lat="34.56090" lon="-118.34736"><ele>1452.0</ele></trkpt>
      <trkpt lat="34.56102" lon="-118.34738"><ele>1452.0</ele></trkpt>
      <trkpt lat="34.56118" lon="-118.34744"><ele>1452.0</ele></trkpt>
      <trkpt lat="34.56133" lon="-118.34748"><ele>1452.0</ele></trkpt>
      <trkpt lat="34.56144" lon="-118.34753"><ele>1452.0</ele></trkpt>
      <trkpt lat="34.56149" lon="-118.34761"><ele>1452.0</ele></trkpt>
      <trkpt lat="34.56156" lon="-118.34774"><ele>1466.0</ele></trkpt>
      <trkpt lat="34.56171" lon="-118.34802"><ele>1466.0</ele></trkpt>
      <trkpt lat="34.56176" lon="-118.34814"><ele>1466.0</ele></trkpt>
      <trkpt lat="34.56178" lon="-118.34826"><ele>1466.0</ele></trkpt>
      <trkpt lat="34.56177" lon="-118.34835"><ele>1466.0</ele></trkpt>
      <trkpt lat="34.56175" lon="-118.34849"><ele>1466.0</ele></trkpt>
      <trkpt lat="34.56171" lon="-118.34865"><ele>1468.0</ele></trkpt>
      <trkpt lat="34.56170" lon="-118.34869"><ele>1468.0</ele></trkpt>
      <trkpt lat="34.56172" lon="-118.34882"><ele>1468.0</ele></trkpt>
      <trkpt lat="34.56170" lon="-118.34890"><ele>1468.0</ele></trkpt>
      <trkpt lat="34.56166" lon="-118.34911"><ele>1468.0</ele></trkpt>
      <trkpt lat="34.56165" lon="-118.34917"><ele>1468.0</ele></trkpt>
      <trkpt lat="34.56162" lon="-118.34927"><ele>1469.0</ele></trkpt>
      <trkpt lat="34.56161" lon="-118.34933"><ele>1469.0</ele></trkpt>
      <trkpt lat="34.56157" lon="-118.34943"><ele>1469.0</ele></trkpt>
      <trkpt lat="34.56153" lon="-118.34952"><ele>1469.0</ele></trkpt>
      <trkpt lat="34.56145" lon="-118.34964"><ele>1469.0</ele></trkpt>
      <trkpt lat="34.56140" lon="-118.34976"><ele>1469.0</ele></trkpt>
      <trkpt lat="34.56135" lon="-118.34989"><ele>1470.0</ele></trkpt>
      <trkpt lat="34.56131" lon="-118.34997"><ele>1470.0</ele></trkpt>
      <trkpt lat="34.56124" lon="-118.35010"><ele>1470.0</ele></trkpt>
      <trkpt lat="34.56115" lon="-118.35027"><ele>1470.0</ele></trkpt>
      <trkpt lat="34.56101" lon="-118.35047"><ele>1470.0</ele></trkpt>
      <trkpt lat="34.56097" lon="-118.35060"><ele>1474.0</ele></trkpt>
      <trkpt lat="34.56092" lon="-118.35073"><ele>1474.0</ele></trkpt>
      <trkpt lat="34.56087" lon="-118.35092"><ele>1474.0</ele></trkpt>
      <trkpt lat="34.56085" lon="-118.35105"><ele>1474.0</ele></trkpt>
      <trkpt lat="34.56083" lon="-118.35122"><ele>1474.0</ele></trkpt>
      <trkpt lat="34.56079" lon="-118.35143"><ele>1474.0</ele></trkpt>
      <trkpt lat="34.56077" lon="-118.35156"><ele>1468.0</ele></trkpt>
      <trkpt lat="34.56070" lon="-118.35164"><ele>1468.0</ele></trkpt>
      <trkpt lat="34.56065" lon="-118.35168"><ele>1468.0</ele></trkpt>
      <trkpt lat="34.56063" lon="-118.35177"><ele>1468.0</ele></trkpt>
      <trkpt lat="34.56064" lon="-118.35188"><ele>1468.0</ele></trkpt>
      <trkpt lat="34.56067" lon="-118.35198"><ele>1468.0</ele></trkpt>
      <trkpt lat="34.56070" lon="-118.35208"><ele>1461.0</ele></trkpt>
      <trkpt lat="34.56072" lon="-118.35221"><ele>1461.0</ele></trkpt>
      <trkpt lat="34.56072" lon="-118.35251"><ele>1461.0</ele></trkpt>
      <trkpt lat="34.56075" lon="-118.35276"><ele>1461.0</ele></trkpt>
      <trkpt lat="34.56077" lon="-118.35295"><ele>1461.0</ele></trkpt>
      <trkpt lat="34.56079" lon="-118.35312"><ele>1461.0</ele></trkpt>
      <trkpt lat="34.56080" lon="-118.35340"><ele>1463.0</ele></trkpt>
      <trkpt lat="34.56080" lon="-118.35354"><ele>1463.0</ele></trkpt>
      <trkpt lat="34.56083" lon="-118.35367"><ele>1463.0</ele></trkpt>
      <trkpt lat="34.56088" lon="-118.35388"><ele>1463.0</ele></trkpt>
      <trkpt lat="34.56090" lon="-118.35408"><ele>1463.0</ele></trkpt>
      <trkpt lat="34.56090" lon="-118.35426"><ele>1463.0</ele></trkpt>
      <trkpt lat="34.56088" lon="-118.35451"><ele>1469.0</ele></trkpt>
      <trkpt lat="34.56084" lon="-118.35475"><ele>1469.0</ele></trkpt>
      <trkpt lat="34.56079" lon="-118.35502"><ele>1469.0</ele></trkpt>
      <trkpt lat="34.56073" lon="-118.35521"><ele>1469.0</ele></trkpt>
      <trkpt lat="34.56068" lon="-118.35533"><ele>1469.0</ele></trkpt>
      <trkpt lat="34.56064" lon="-118.35551"><ele>1469.0</ele></trkpt>
      <trkpt lat="34.56065" lon="-118.35566"><ele>1471.0</ele></trkpt>
      <trkpt lat="34.56068" lon="-118.35576"><ele>1471.0</ele></trkpt>
      <trkpt lat="34.56072" lon="-118.35591"><ele>1471.0</ele></trkpt>
      <trkpt lat="34.56077" lon="-118.35615"><ele>1471.0</ele></trkpt>
      <trkpt lat="34.56081" lon="-118.35629"><ele>1471.0</ele></trkpt>
      <trkpt lat="34.56083" lon="-118.35641"><ele>1471.0</ele></trkpt>
      <trkpt lat="34.56087" lon="-118.35654"><ele>1467.0</ele></trkpt>
      <trkpt lat="34.56089" lon="-118.35664"><ele>1467.0</ele></trkpt>
      <trkpt lat="34.56093" lon="-118.35680"><ele>1467.0</ele></trkpt>
      <trkpt lat="34.56092" lon="-118.35691"><ele>1467.0</ele></trkpt>
      <trkpt lat="34.56094" lon="-118.35701"><ele>1467.0</ele></trkpt>
      <trkpt lat="34.56097" lon="-118.35718"><ele>1467.0</ele></trkpt>
      <trkpt lat="34.56100" lon="-118.35734"><ele>1458.0</ele></trkpt>
      <trkpt lat="34.56103" lon="-118.35748"><ele>1458.0</ele></trkpt>
      <trkpt lat="34.56103" lon="-118.35753"><ele>1458.0</ele></trkpt>
      <trkpt lat="34.56103" lon="-118.35761"><ele>1458.0</ele></trkpt>
      <trkpt lat="34.56107" lon="-118.35769"><ele>1458.0</ele></trkpt>
      <trkpt lat="34.56111" lon="-118.35777"><ele>1458.0</ele></trkpt>
      <trkpt lat="34.56115" lon="-118.35791"><ele>1441.0</ele></trkpt>
      <trkpt lat="34.56120" lon="-118.35810"><ele>1441.0</ele></trkpt>
      <trkpt lat="34.56128" lon="-118.35836"><ele>1441.0</ele></trkpt>
      <trkpt lat="34.56133" lon="-118.35855"><ele>1441.0</ele></trkpt>
      <trkpt lat="34.56136" lon="-118.35869"><ele>1441.0</ele></trkpt>
      <trkpt lat="34.56141" lon="-118.35886"><ele>1441.0</ele></trkpt>
      <trkpt lat="34.56146" lon="-118.35892"><ele>1440.0</ele></trkpt>
      <trkpt lat="34.56159" lon="-118.35899"><ele>1440.0</ele></trkpt>
      <trkpt lat="34.56178" lon="-118.35907"><ele>1440.0</ele></trkpt>
      <trkpt lat="34.56190" lon="-118.35912"><ele>1440.0</ele></trkpt>
      <trkpt lat="34.56197" lon="-118.35912"><ele>1440.0</ele></trkpt>
      <trkpt lat="34.56212" lon="-118.35912"><ele>1440.0</ele></trkpt>
      <trkpt lat="34.56222" lon="-118.35914"><ele>1429.0</ele></trkpt>
      <trkpt lat="34.56226" lon="-118.35918"><ele>1429.0</ele></trkpt>
      <trkpt lat="34.56244" lon="-118.35928"><ele>1429.0</ele></trkpt>
      <trkpt lat="34.56261" lon="-118.35938"><ele>1429.0</ele></trkpt>
      <trkpt lat="34.56270" lon="-118.35942"><ele>1429.0</ele></trkpt>
      <trkpt lat="34.56278" lon="-118.35946"><ele>1429.0</ele></trkpt>
      <trkpt lat="34.56291" lon="-118.35947"><ele>1416.0</ele></trkpt>
      <trkpt lat="34.56303" lon="-118.35945"><ele>1416.0</ele></trkpt>
      <trkpt lat="34.56312" lon="-118.35944"><ele>1416.0</ele></trkpt>
      <trkpt lat="34.56319" lon="-118.35940"><ele>1416.0</ele></trkpt>
      <trkpt lat="34.56326" lon="-118.35938"><ele>1416.0</ele></trkpt>
      <trkpt lat="34.56335" lon="-118.35938"><ele>1416.0</ele></trkpt>
      <trkpt lat="34.56341" lon="-118.35939"><ele>1410.0</ele></trkpt>
      <trkpt lat="34.56346" lon="-118.35944"><ele>1410.0</ele></trkpt>
      <trkpt lat="34.56352" lon="-118.35948"><ele>1410.0</ele></trkpt>
      <trkpt lat="34.56360" lon="-118.35950"><ele>1410.0</ele></trkpt>
      <trkpt lat="34.56372" lon="-118.35955"><ele>1410.0</ele></trkpt>
      <trkpt lat="34.56378" lon="-118.35958"><ele>1410.0</ele></trkpt>
      <trkpt lat="34.56383" lon="-118.35960"><ele>1403.0</ele></trkpt>
      <trkpt lat="34.56387" lon="-118.35961"><ele>1403.0</ele></trkpt>
      <trkpt lat="34.56398" lon="-118.35964"><ele>1403.0</ele></trkpt>
      <trkpt lat="34.56413" lon="-118.35968"><ele>1403.0</ele></trkpt>
      <trkpt lat="34.56425" lon="-118.35973"><ele>1403.0</ele></trkpt>
      <trkpt lat="34.56440" lon="-118.35983"><ele>1403.0</ele></trkpt>
      <trkpt lat="34.56452" lon="-118.35992"><ele>1388.0</ele></trkpt>
      <trkpt lat="34.56457" lon="-118.35999"><ele>1388.0</ele></trkpt>
      <trkpt lat="34.56460" lon="-118.36009"><ele>1388.0</ele></trkpt>
      <trkpt lat="34.56465" lon="-118.36016"><ele>1388.0</ele></trkpt>
      <trkpt lat="34.56472" lon="-118.36019"><ele>1388.0</ele></trkpt>
      <trkpt lat="34.56481" lon="-118.36019"><ele>1388.0</ele></trkpt>
      <trkpt lat="34.56491" lon="-118.36020"><ele>1369.0</ele></trkpt>
      <trkpt lat="34.56506" lon="-118.36027"><ele>1369.0</ele></trkpt>
      <trkpt lat="34.56522" lon="-118.36035"><ele>1369.0</ele></trkpt>
      <trkpt lat="34.56534" lon="-118.36043"><ele>1369.0</ele></trkpt>
      <trkpt lat="34.56541" lon="-118.36051"><ele>1369.0</ele></trkpt>
      <trkpt lat="34.56548" lon="-118.36064"><ele>1369.0</ele></trkpt>
      <trkpt lat="34.56554" lon="-118.36071"><ele>1352.0</ele></trkpt>
      <trkpt lat="34.56559" lon="-118.36076"><ele>1352.0</ele></trkpt>
      <trkpt lat="34.56565" lon="-118.36077"><ele>1352.0</ele></trkpt>
      <trkpt lat="34.56571" lon="-118.36077"><ele>1352.0</ele></trkpt>
      <trkpt lat="34.56575" lon="-118.36073"><ele>1352.0</ele></trkpt>
      <trkpt lat="34.56583" lon="-118.36070"><ele>1352.0</ele></trkpt>
      <trkpt lat="34.56586" lon="-118.36067"><ele>1346.0</ele></trkpt>
      <trkpt lat="34.56589" lon="-118.36066"><ele>1346.0</ele></trkpt>
      <trkpt lat="34.56593" lon="-118.36066"><ele>1346.0</ele></trkpt>
      <trkpt lat="34.56596" lon="-118.36069"><ele>1346.0</ele></trkpt>
      <trkpt lat="34.56598" lon="-118.36074"><ele>1346.0</ele></trkpt>
      <trkpt lat="34.56599" lon="-118.36082"><ele>1346.0</ele></trkpt>
      <trkpt lat="34.56597" lon="-118.36088"><ele>1338.0</ele></trkpt>
      <trkpt lat="34.56595" lon="-118.36097"><ele>1338.0</ele></trkpt>
      <trkpt lat="34.56596" lon="-118.36106"><ele>1338.0</ele></trkpt>
      <trkpt lat="34.56596" lon="-118.36115"><ele>1338.0</ele></trkpt>
      <trkpt lat="34.56598" lon="-118.36126"><ele>1338.0</ele></trkpt>
      <trkpt lat="34.56600" lon="-118.36137"><ele>1338.0</ele></trkpt>
      <trkpt lat="34.56605" lon="-118.36144"><ele>1314.0</ele></trkpt>
      <trkpt lat="34.56616" lon="-118.36159"><ele>1314.0</ele></trkpt>
      <trkpt lat="34.56626" lon="-118.36170"><ele>1314.0</ele></trkpt>
      <trkpt lat="34.56639" lon="-118.36183"><ele>1314.0</ele></trkpt>
      <trkpt lat="34.56650" lon="-118.36192"><ele>1314.0</ele></trkpt>
      <trkpt lat="34.56660" lon="-118.36196"><ele>1314.0</ele></trkpt>
      <trkpt lat="34.56667" lon="-118.36197"><ele>1292.0</ele></trkpt>
      <trkpt lat="34.56678" lon="-118.36199"><ele>1292.0</ele></trkpt>
      <trkpt lat="34.56686" lon="-118.36205"><ele>1292.0</ele></trkpt>
      <trkpt lat="34.56697" lon="-118.36212"><ele>1292.0</ele></trkpt>
      <trkpt lat="34.56705" lon="-118.36215"><ele>1292.0</ele></trkpt>
      <trkpt lat="34.56714" lon="-118.36217"><ele>1292.0</ele></trkpt>
      <trkpt lat="34.56723" lon="-118.36218"><ele>1283.0</ele></trkpt>
      <trkpt lat="34.56727" lon="-118.36218"><ele>1283.0</ele></trkpt>
      <trkpt lat="34.56736" lon="-118.36216"><ele>1283.0</ele></trkpt>
      <trkpt lat="34.56750" lon="-118.36212"><ele>1283.0</ele></trkpt>
      <trkpt lat="34.56761" lon="-118.36212"><ele>1283.0</ele></trkpt>
      <trkpt lat="34.56769" lon="-118.36215"><ele>1283.0</ele></trkpt>
      <trkpt lat="34.56780" lon="-118.36222"><ele>1273.0</ele></trkpt>
      <trkpt lat="34.56789" lon="-118.36231"><ele>1273.0</ele></trkpt>
      <trkpt lat="34.56796" lon="-118.36239"><ele>1273.0</ele></trkpt>
      <trkpt lat="34.56801" lon="-118.36246"><ele>1273.0</ele></trkpt>
      <trkpt lat="34.56809" lon="-118.36250"><ele>1273.0</ele></trkpt>
      <trkpt lat="34.56819" lon="-118.36252"><ele>1273.0</ele></trkpt>
      <trkpt lat="34.56836" lon="-118.36263"><ele>1259.0</ele></trkpt>
      <trkpt lat="34.56850" lon="-118.36273"><ele>1259.0</ele></trkpt>
      <trkpt lat="34.56866" lon="-118.36285"><ele>1259.0</ele></trkpt>
      <trkpt lat="34.56878" lon="-118.36293"><ele>1259.0</ele></trkpt>
      <trkpt lat="34.56895" lon="-118.36303"><ele>1259.0</ele></trkpt>
      <trkpt lat="34.56910" lon="-118.36311"><ele>1259.0</ele></trkpt>
      <trkpt lat="34.56919" lon="-118.36314"><ele>1244.0</ele></trkpt>
      <trkpt lat="34.56925" lon="-118.36314"><ele>1244.0</ele></trkpt>
      <trkpt lat="34.56932" lon="-118.36313"><ele>1244.0</ele></trkpt>
      <trkpt lat="34.56940" lon="-118.36311"><ele>1244.0</ele></trkpt>
      <trkpt lat="34.56949" lon="-118.36311"><ele>1244.0</ele></trkpt>
      <trkpt lat="34.56958" lon="-118.36314"><ele>1244.0</ele></trkpt>
      <trkpt lat="34.56967" lon="-118.36319"><ele>1237.0</ele></trkpt>
      <trkpt lat="34.56974" lon="-118.36324"><ele>1237.0</ele></trkpt>
      <trkpt lat="34.56980" lon="-118.36328"><ele>1237.0</ele></trkpt>
      <trkpt lat="34.56987" lon="-118.36328"><ele>1237.0</ele></trkpt>
      <trkpt lat="34.56995" lon="-118.36328"><ele>1237.0</ele></trkpt>
      <trkpt lat="34.57001" lon="-118.36329"><ele>1237.0</ele></trkpt>
      <trkpt lat="34.57007" lon="-118.36335"><ele>1228.0</ele></trkpt>
      <trkpt lat="34.57016" lon="-118.36341"><ele>1228.0</ele></trkpt>
      <trkpt lat="34.57027" lon="-118.36347"><ele>1228.0</ele></trkpt>
      <trkpt lat="34.57035" lon="-118.36351"><ele>1228.0</ele></trkpt>
      <trkpt lat="34.57045" lon="-118.36352"><ele>1228.0</ele></trkpt>
      <trkpt lat="34.57054" lon="-118.36353"><ele>1228.0</ele></trkpt>
      <trkpt lat="34.57060" lon="-118.36352"><ele>1220.0</ele></trkpt>
      <trkpt lat="34.57067" lon="-118.36354"><ele>1220.0</ele></trkpt>
      <trkpt lat="34.57073" lon="-118.36358"><ele>1220.0</ele></trkpt>
      <trkpt lat="34.57080" lon="-118.36369"><ele>1220.0</ele></trkpt>
      <trkpt lat="34.57084" lon="-118.36378"><ele>1220.0</ele></trkpt>
      <trkpt lat="34.57087" lon="-118.36391"><ele>1220.0</ele></trkpt>
      <trkpt lat="34.57093" lon="-118.36405"><ele>1206.0</ele></trkpt>
      <trkpt lat="34.57099" lon="-118.36421"><ele>1206.0</ele></trkpt>
      <trkpt lat="34.57104" lon="-118.36430"><ele>1206.0</ele></trkpt>
      <trkpt lat="34.57112" lon="-118.36442"><ele>1206.0</ele></trkpt>
      <trkpt lat="34.57126" lon="-118.36450"><ele>1206.0</ele></trkpt>
      <trkpt lat="34.57141" lon="-118.36459"><ele>1206.0</ele></trkpt>
      <trkpt lat="34.57155" lon="-118.36465"><ele>1187.0</ele></trkpt>
      <trkpt lat="34.57164" lon="-118.36468"><ele>1187.0</ele></trkpt>
      <trkpt lat="34.57177" lon="-118.36475"><ele>1187.0</ele></trkpt>
      <trkpt lat="34.57193" lon="-118.36484"><ele>1187.0</ele></trkpt>
      <trkpt lat="34.57205" lon="-118.36494"><ele>1187.0</ele></trkpt>
      <trkpt lat="34.57213" lon="-118.36502"><ele>1187.0</ele></trkpt>
      <trkpt lat="34.57217" lon="-118.36509"><ele>1167.0</ele></trkpt>
      <trkpt lat="34.57223" lon="-118.36527"><ele>1167.0</ele></trkpt>
      <trkpt lat="34.57228" lon="-118.36549"><ele>1167.0</ele></trkpt>
      <trkpt lat="34.57232" lon="-118.36566"><ele>1167.0</ele></trkpt>
      <trkpt lat="34.57238" lon="-118.36579"><ele>1167.0</ele></trkpt>
      <trkpt lat="34.57244" lon="-118.36587"><ele>1167.0</ele></trkpt>
      <trkpt lat="34.57255" lon="-118.36597"><ele>1150.0</ele></trkpt>
      <trkpt lat="34.57265" lon="-118.36602"><ele>1150.0</ele></trkpt>
      <trkpt lat="34.57275" lon="-118.36602"><ele>1150.0</ele></trkpt>
      <trkpt lat="34.57284" lon="-118.36601"><ele>1150.0</ele></trkpt>
      <trkpt lat="34.57292" lon="-118.36601"><ele>1150.0</ele></trkpt>
      <trkpt lat="34.57303" lon="-118.36604"><ele>1150.0</ele></trkpt>
      <trkpt lat="34.57313" lon="-118.36605"><ele>1137.0</ele></trkpt>
      <trkpt lat="34.57324" lon="-118.36608"><ele>1137.0</ele></trkpt>
      <trkpt lat="34.57333" lon="-118.36613"><ele>1137.0</ele></trkpt>
      <trkpt lat="34.57340" lon="-118.36616"><ele>1137.0</ele></trkpt>
      <trkpt lat="34.57349" lon="-118.36622"><ele>1137.0</ele></trkpt>
      <trkpt lat="34.57358" lon="-118.36624"><ele>1137.0</ele></trkpt>
      <trkpt lat="34.57365" lon="-118.36625"><ele>1120.0</ele></trkpt>
      <trkpt lat="34.57376" lon="-118.36628"><ele>1120.0</ele></trkpt>
      <trkpt lat="34.57383" lon="-118.36631"><ele>1120.0</ele></trkpt>
      <trkpt lat="34.57393" lon="-118.36640"><ele>1120.0</ele></trkpt>
      <trkpt lat="34.57404" lon="-118.36650"><ele>1120.0</ele></trkpt>
      <trkpt lat="34.57408" lon="-118.36659"><ele>1120.0</ele></trkpt>
      <trkpt lat="34.57412" lon="-118.36664"><ele>1104.0</ele></trkpt>
      <trkpt lat="34.57421" lon="-118.36675"><ele>1104.0</ele></trkpt>
      <trkpt lat="34.57432" lon="-118.36688"><ele>1104.0</ele></trkpt>
      <trkpt lat="34.57444" lon="-118.36701"><ele>1104.0</ele></trkpt>
      <trkpt lat="34.57460" lon="-118.36713"><ele>1104.0</ele></trkpt>
      <trkpt lat="34.57477" lon="-118.36720"><ele>1104.0</ele></trkpt>
      <trkpt lat="34.57489" lon="-118.36727"><ele>1097.0</ele></trkpt>
      <trkpt lat="34.57495" lon="-118.36731"><ele>1097.0</ele></trkpt>
      <trkpt lat="34.57498" lon="-118.36740"><ele>1097.0</ele></trkpt>
      <trkpt lat="34.57499" lon="-118.36755"><ele>1097.0</ele></trkpt>
      <trkpt lat="34.57499" lon="-118.36785"><ele>1097.0</ele></trkpt>
      <trkpt lat="34.57501" lon="-118.36826"><ele>1097.0</ele></trkpt>
      <trkpt lat="34.57503" lon="-118.36854"><ele>1063.0</ele></trkpt>
      <trkpt lat="34.57505" lon="-118.36884"><ele>1063.0</ele></trkpt>
      <trkpt lat="34.57508" lon="-118.36897"><ele>1063.0</ele></trkpt>
      <trkpt lat="34.57516" lon="-118.36915"><ele>1063.0</ele></trkpt>
      <trkpt lat="34.57521" lon="-118.36927"><ele>1063.0</ele></trkpt>
      <trkpt lat="34.57530" lon="-118.36946"><ele>1063.0</ele></trkpt>
      <trkpt lat="34.57538" lon="-118.36959"><ele>1039.0</ele></trkpt>
      <trkpt lat="34.57545" lon="-118.36973"><ele>1039.0</ele></trkpt>
      <trkpt lat="34.57550" lon="-118.36988"><ele>1039.0</ele></trkpt>
      <trkpt lat="34.57553" lon="-118.37002"><ele>1039.0</ele></trkpt>
      <trkpt lat="34.57557" lon="-118.37017"><ele>1039.0</ele></trkpt>
      <trkpt lat="34.57562" lon="-118.37033"><ele>1039.0</ele></trkpt>
      <trkpt lat="34.57570" lon="-118.37049"><ele>1010.0</ele></trkpt>
      <trkpt lat="34.57576" lon="-118.37064"><ele>1010.0</ele></trkpt>
      <trkpt lat="34.57580" lon="-118.37078"><ele>1010.0</ele></trkpt>
      <trkpt lat="34.57586" lon="-118.37095"><ele>1010.0</ele></trkpt>
      <trkpt lat="34.57594" lon="-118.37112"><ele>1010.0</ele></trkpt>
      <trkpt lat="34.57600" lon="-118.37125"><ele>1010.0</ele></trkpt>
      <trkpt lat="34.57604" lon="-118.37138"><ele>980.0</ele></trkpt>
      <trkpt lat="34.57609" lon="-118.37148"><ele>980.0</ele></trkpt>
      <trkpt lat="34.57613" lon="-118.37155"><ele>980.0</ele></trkpt>
      <trkpt lat="34.57617" lon="-118.37162"><ele>980.0</ele></trkpt>
      <trkpt lat="34.57621" lon="-118.37173"><ele>980.0</ele></trkpt>
      <trkpt lat="34.57625" lon="-118.37185"><ele>980.0</ele></trkpt>
      <trkpt lat="34.57633" lon="-118.37208"><ele>952.0</ele></trkpt>
      <trkpt lat="34.57639" lon="-118.37225"><ele>952.0</ele></trkpt>
      <trkpt lat="34.57645" lon="-118.37237"><ele>952.0</ele></trkpt>
      <trkpt lat="34.57648" lon="-118.37246"><ele>952.0</ele></trkpt>
      <trkpt lat="34.57648" lon="-118.37251"><ele>952.0</ele></trkpt>
      <trkpt lat="34.57642" lon="-118.37258"><ele>952.0</ele></trkpt>
      <trkpt lat="34.57628" lon="-118.37270"><ele>941.0</ele></trkpt>
      <trkpt lat="34.57621" lon="-118.37282"><ele>941.0</ele></trkpt>
      <trkpt lat="34.57613" lon="-118.37297"><ele>941.0</ele></trkpt>
      <trkpt lat="34.57604" lon="-118.37311"><ele>941.0</ele></trkpt>
      <trkpt lat="34.57596" lon="-118.37315"><ele>941.0</ele></trkpt>
      <trkpt lat="34.57591" lon="-118.37320"><ele>941.0</ele></trkpt>
      <trkpt lat="34.57586" lon="-118.37326"><ele>935.0</ele></trkpt>
      <trkpt lat="34.57585" lon="-118.37334"><ele>935.0</ele></trkpt>
      <trkpt lat="34.57587" lon="-118.37343"><ele>935.0</ele></trkpt>
      <trkpt lat="34.57591" lon="-118.37352"><ele>935.0</ele></trkpt>
      <trkpt lat="34.57595" lon="-118.37358"><ele>935.0</ele></trkpt>
      <trkpt lat="34.57597" lon="-118.37367"><ele>935.0</ele></trkpt>
      <trkpt lat="34.57596" lon="-118.37375"><ele>937.0</ele></trkpt>
      <trkpt lat="34.57593" lon="-118.37380"><ele>937.0</ele></trkpt>
      <trkpt lat="34.57586" lon="-118.37384"><ele>937.0</ele></trkpt>
      <trkpt lat="34.57581" lon="-118.37390"><ele>937.0</ele></trkpt>
      <trkpt lat="34.57582" lon="-118.37396"><ele>937.0</ele></trkpt>
      <trkpt lat="34.57584" lon="-118.37405"><ele>937.0</ele></trkpt>
      <trkpt lat="34.57589" lon="-118.37415"><ele>935.0</ele></trkpt>
      <trkpt lat="34.57597" lon="-118.37424"><ele>935.0</ele></trkpt>
      <trkpt lat="34.57625" lon="-118.37439"><ele>935.0</ele></trkpt>
    </trkseg>
  </trk>
</gpx>
