<?xml version="1.0" encoding="UTF-8"?>
<gpx version="1.1" creator="dirt-bikes build-angeles-routes (TrailNFS/RoadBasic geometry + SRTM elevation)" xmlns="http://www.topografix.com/GPX/1/1">
  <trk><name>Broken Spoke, Sidewinder &amp; Sierra</name>
    <trkseg>
      <trkpt lat="34.52154" lon="-118.39400"><ele>731.0</ele></trkpt>
      <trkpt lat="34.52163" lon="-118.39397"><ele>731.0</ele></trkpt>
      <trkpt lat="34.52173" lon="-118.39393"><ele>731.0</ele></trkpt>
      <trkpt lat="34.52182" lon="-118.39388"><ele>731.0</ele></trkpt>
      <trkpt lat="34.52187" lon="-118.39386"><ele>731.0</ele></trkpt>
      <trkpt lat="34.52192" lon="-118.39386"><ele>731.0</ele></trkpt>
      <trkpt lat="34.52199" lon="-118.39387"><ele>731.0</ele></trkpt>
      <trkpt lat="34.52208" lon="-118.39388"><ele>731.0</ele></trkpt>
      <trkpt lat="34.52214" lon="-118.39388"><ele>731.0</ele></trkpt>
      <trkpt lat="34.52218" lon="-118.39387"><ele>731.0</ele></trkpt>
      <trkpt lat="34.52221" lon="-118.39383"><ele>731.0</ele></trkpt>
      <trkpt lat="34.52225" lon="-118.39378"><ele>731.0</ele></trkpt>
      <trkpt lat="34.52229" lon="-118.39375"><ele>731.0</ele></trkpt>
      <trkpt lat="34.52230" lon="-118.39372"><ele>731.0</ele></trkpt>
      <trkpt lat="34.52236" lon="-118.39369"><ele>731.0</ele></trkpt>
      <trkpt lat="34.52242" lon="-118.39367"><ele>731.0</ele></trkpt>
      <trkpt lat="34.52248" lon="-118.39363"><ele>731.0</ele></trkpt>
      <trkpt lat="34.52254" lon="-118.39358"><ele>731.0</ele></trkpt>
      <trkpt lat="34.52263" lon="-118.39350"><ele>731.0</ele></trkpt>
      <trkpt lat="34.52270" lon="-118.39345"><ele>731.0</ele></trkpt>
      <trkpt lat="34.52276" lon="-118.39341"><ele>731.0</ele></trkpt>
      <trkpt lat="34.52282" lon="-118.39336"><ele>740.0</ele></trkpt>
      <trkpt lat="34.52285" lon="-118.39331"><ele>740.0</ele></trkpt>
      <trkpt lat="34.52288" lon="-118.39330"><ele>740.0</ele></trkpt>
      <trkpt lat="34.52291" lon="-118.39330"><ele>740.0</ele></trkpt>
      <trkpt lat="34.52293" lon="-118.39332"><ele>740.0</ele></trkpt>
      <trkpt lat="34.52294" lon="-118.39336"><ele>740.0</ele></trkpt>
      <trkpt lat="34.52294" lon="-118.39340"><ele>740.0</ele></trkpt>
      <trkpt lat="34.52293" lon="-118.39348"><ele>740.0</ele></trkpt>
      <trkpt lat="34.52291" lon="-118.39354"><ele>740.0</ele></trkpt>
      <trkpt lat="34.52289" lon="-118.39364"><ele>740.0</ele></trkpt>
      <trkpt lat="34.52289" lon="-118.39372"><ele>740.0</ele></trkpt>
      <trkpt lat="34.52289" lon="-118.39382"><ele>740.0</ele></trkpt>
      <trkpt lat="34.52290" lon="-118.39390"><ele>740.0</ele></trkpt>
      <trkpt lat="34.52291" lon="-118.39397"><ele>723.0</ele></trkpt>
      <trkpt lat="34.52293" lon="-118.39401"><ele>723.0</ele></trkpt>
      <trkpt lat="34.52296" lon="-118.39406"><ele>723.0</ele></trkpt>
      <trkpt lat="34.52300" lon="-118.39409"><ele>723.0</ele></trkpt>
      <trkpt lat="34.52306" lon="-118.39413"><ele>723.0</ele></trkpt>
      <trkpt lat="34.52309" lon="-118.39416"><ele>723.0</ele></trkpt>
      <trkpt lat="34.52314" lon="-118.39418"><ele>723.0</ele></trkpt>
      <trkpt lat="34.52317" lon="-118.39420"><ele>723.0</ele></trkpt>
      <trkpt lat="34.52320" lon="-118.39419"><ele>723.0</ele></trkpt>
      <trkpt lat="34.52324" lon="-118.39416"><ele>723.0</ele></trkpt>
      <trkpt lat="34.52326" lon="-118.39414"><ele>723.0</ele></trkpt>
      <trkpt lat="34.52328" lon="-118.39413"><ele>723.0</ele></trkpt>
      <trkpt lat="34.52330" lon="-118.39413"><ele>723.0</ele></trkpt>
      <trkpt lat="34.52333" lon="-118.39415"><ele>723.0</ele></trkpt>
      <trkpt lat="34.52335" lon="-118.39419"><ele>724.0</ele></trkpt>
      <trkpt lat="34.52338" lon="-118.39423"><ele>724.0</ele></trkpt>
      <trkpt lat="34.52342" lon="-118.39426"><ele>724.0</ele></trkpt>
      <trkpt lat="34.52347" lon="-118.39428"><ele>724.0</ele></trkpt>
      <trkpt lat="34.52351" lon="-118.39429"><ele>724.0</ele></trkpt>
      <trkpt lat="34.52354" lon="-118.39430"><ele>724.0</ele></trkpt>
      <trkpt lat="34.52357" lon="-118.39432"><ele>724.0</ele></trkpt>
      <trkpt lat="34.52357" lon="-118.39434"><ele>724.0</ele></trkpt>
      <trkpt lat="34.52356" lon="-118.39438"><ele>724.0</ele></trkpt>
      <trkpt lat="34.52353" lon="-118.39440"><ele>724.0</ele></trkpt>
      <trkpt lat="34.52349" lon="-118.39440"><ele>724.0</ele></trkpt>
      <trkpt lat="34.52343" lon="-118.39441"><ele>724.0</ele></trkpt>
      <trkpt lat="34.52339" lon="-118.39441"><ele>724.0</ele></trkpt>
      <trkpt lat="34.52332" lon="-118.39443"><ele>723.0</ele></trkpt>
      <trkpt lat="34.52326" lon="-118.39446"><ele>723.0</ele></trkpt>
      <trkpt lat="34.52320" lon="-118.39448"><ele>723.0</ele></trkpt>
      <trkpt lat="34.52314" lon="-118.39452"><ele>723.0</ele></trkpt>
      <trkpt lat="34.52310" lon="-118.39454"><ele>723.0</ele></trkpt>
      <trkpt lat="34.52308" lon="-118.39457"><ele>723.0</ele></trkpt>
      <trkpt lat="34.52307" lon="-118.39459"><ele>723.0</ele></trkpt>
      <trkpt lat="34.52308" lon="-118.39461"><ele>723.0</ele></trkpt>
      <trkpt lat="34.52311" lon="-118.39462"><ele>723.0</ele></trkpt>
      <trkpt lat="34.52315" lon="-118.39462"><ele>723.0</ele></trkpt>
      <trkpt lat="34.52320" lon="-118.39461"><ele>723.0</ele></trkpt>
      <trkpt lat="34.52328" lon="-118.39460"><ele>723.0</ele></trkpt>
      <trkpt lat="34.52334" lon="-118.39461"><ele>723.0</ele></trkpt>
      <trkpt lat="34.52344" lon="-118.39462"><ele>726.0</ele></trkpt>
      <trkpt lat="34.52354" lon="-118.39464"><ele>726.0</ele></trkpt>
      <trkpt lat="34.52365" lon="-118.39465"><ele>726.0</ele></trkpt>
      <trkpt lat="34.52376" lon="-118.39465"><ele>726.0</ele></trkpt>
      <trkpt lat="34.52386" lon="-118.39464"><ele>726.0</ele></trkpt>
      <trkpt lat="34.52395" lon="-118.39462"><ele>726.0</ele></trkpt>
      <trkpt lat="34.52405" lon="-118.39458"><ele>726.0</ele></trkpt>
      <trkpt lat="34.52412" lon="-118.39455"><ele>726.0</ele></trkpt>
      <trkpt lat="34.52419" lon="-118.39453"><ele>726.0</ele></trkpt>
      <trkpt lat="34.52433" lon="-118.39451"><ele>726.0</ele></trkpt>
      <trkpt lat="34.52444" lon="-118.39448"><ele>726.0</ele></trkpt>
      <trkpt lat="34.52457" lon="-118.39444"><ele>726.0</ele></trkpt>
      <trkpt lat="34.52466" lon="-118.39440"><ele>726.0</ele></trkpt>
      <trkpt lat="34.52476" lon="-118.39436"><ele>726.0</ele></trkpt>
      <trkpt lat="34.52484" lon="-118.39433"><ele>739.0</ele></trkpt>
      <trkpt lat="34.52497" lon="-118.39429"><ele>739.0</ele></trkpt>
      <trkpt lat="34.52505" lon="-118.39425"><ele>739.0</ele></trkpt>
      <trkpt lat="34.52516" lon="-118.39418"><ele>739.0</ele></trkpt>
      <trkpt lat="34.52527" lon="-118.39411"><ele>739.0</ele></trkpt>
      <trkpt lat="34.52534" lon="-118.39408"><ele>739.0</ele></trkpt>
      <trkpt lat="34.52543" lon="-118.39406"><ele>739.0</ele></trkpt>
      <trkpt lat="34.52549" lon="-118.39407"><ele>739.0</ele></trkpt>
      <trkpt lat="34.52556" lon="-118.39409"><ele>739.0</ele></trkpt>
      <trkpt lat="34.52563" lon="-118.39411"><ele>739.0</ele></trkpt>
      <trkpt lat="34.52571" lon="-118.39412"><ele>739.0</ele></trkpt>
      <trkpt lat="34.52577" lon="-118.39412"><ele>739.0</ele></trkpt>
      <trkpt lat="34.52583" lon="-118.39411"><ele>739.0</ele></trkpt>
      <trkpt lat="34.52588" lon="-118.39408"><ele>751.0</ele></trkpt>
      <trkpt lat="34.52595" lon="-118.39406"><ele>751.0</ele></trkpt>
      <trkpt lat="34.52603" lon="-118.39405"><ele>751.0</ele></trkpt>
      <trkpt lat="34.52612" lon="-118.39404"><ele>751.0</ele></trkpt>
      <trkpt lat="34.52646" lon="-118.39402"><ele>751.0</ele></trkpt>
      <trkpt lat="34.52659" lon="-118.39401"><ele>751.0</ele></trkpt>
      <trkpt lat="34.52671" lon="-118.39401"><ele>751.0</ele></trkpt>
      <trkpt lat="34.52680" lon="-118.39402"><ele>751.0</ele></trkpt>
      <trkpt lat="34.52687" lon="-118.39401"><ele>751.0</ele></trkpt>
      <trkpt lat="34.52691" lon="-118.39398"><ele>751.0</ele></trkpt>
      <trkpt lat="34.52695" lon="-118.39394"><ele>751.0</ele></trkpt>
      <trkpt lat="34.52696" lon="-118.39390"><ele>751.0</ele></trkpt>
      <trkpt lat="34.52699" lon="-118.39387"><ele>751.0</ele></trkpt>
      <trkpt lat="34.52702" lon="-118.39386"><ele>751.0</ele></trkpt>
      <trkpt lat="34.52705" lon="-118.39386"><ele>757.0</ele></trkpt>
      <trkpt lat="34.52705" lon="-118.39389"><ele>757.0</ele></trkpt>
      <trkpt lat="34.52706" lon="-118.39396"><ele>757.0</ele></trkpt>
      <trkpt lat="34.52707" lon="-118.39403"><ele>757.0</ele></trkpt>
      <trkpt lat="34.52708" lon="-118.39407"><ele>757.0</ele></trkpt>
      <trkpt lat="34.52708" lon="-118.39414"><ele>757.0</ele></trkpt>
      <trkpt lat="34.52707" lon="-118.39420"><ele>757.0</ele></trkpt>
      <trkpt lat="34.52708" lon="-118.39425"><ele>757.0</ele></trkpt>
      <trkpt lat="34.52710" lon="-118.39430"><ele>757.0</ele></trkpt>
      <trkpt lat="34.52712" lon="-118.39435"><ele>757.0</ele></trkpt>
      <trkpt lat="34.52713" lon="-118.39439"><ele>757.0</ele></trkpt>
      <trkpt lat="34.52713" lon="-118.39445"><ele>757.0</ele></trkpt>
      <trkpt lat="34.52712" lon="-118.39452"><ele>757.0</ele></trkpt>
      <trkpt lat="34.52708" lon="-118.39460"><ele>760.0</ele></trkpt>
      <trkpt lat="34.52703" lon="-118.39465"><ele>760.0</ele></trkpt>
      <trkpt lat="34.52701" lon="-118.39477"><ele>760.0</ele></trkpt>
      <trkpt lat="34.52701" lon="-118.39484"><ele>760.0</ele></trkpt>
      <trkpt lat="34.52705" lon="-118.39489"><ele>760.0</ele></trkpt>
      <trkpt lat="34.52708" lon="-118.39492"><ele>760.0</ele></trkpt>
      <trkpt lat="34.52713" lon="-118.39493"><ele>760.0</ele></trkpt>
      <trkpt lat="34.52719" lon="-118.39494"><ele>760.0</ele></trkpt>
      <trkpt lat="34.52723" lon="-118.39498"><ele>760.0</ele></trkpt>
      <trkpt lat="34.52729" lon="-118.39505"><ele>760.0</ele></trkpt>
      <trkpt lat="34.52735" lon="-118.39513"><ele>760.0</ele></trkpt>
      <trkpt lat="34.52743" lon="-118.39524"><ele>760.0</ele></trkpt>
      <trkpt lat="34.52745" lon="-118.39530"><ele>760.0</ele></trkpt>
      <trkpt lat="34.52748" lon="-118.39536"><ele>772.0</ele></trkpt>
      <trkpt lat="34.52752" lon="-118.39545"><ele>772.0</ele></trkpt>
      <trkpt lat="34.52759" lon="-118.39554"><ele>772.0</ele></trkpt>
      <trkpt lat="34.52767" lon="-118.39562"><ele>772.0</ele></trkpt>
      <trkpt lat="34.52772" lon="-118.39564"><ele>772.0</ele></trkpt>
      <trkpt lat="34.52777" lon="-118.39564"><ele>772.0</ele></trkpt>
      <trkpt lat="34.52782" lon="-118.39561"><ele>772.0</ele></trkpt>
      <trkpt lat="34.52786" lon="-118.39562"><ele>772.0</ele></trkpt>
      <trkpt lat="34.52787" lon="-118.39564"><ele>772.0</ele></trkpt>
      <trkpt lat="34.52787" lon="-118.39571"><ele>772.0</ele></trkpt>
      <trkpt lat="34.52788" lon="-118.39579"><ele>772.0</ele></trkpt>
      <trkpt lat="34.52791" lon="-118.39583"><ele>772.0</ele></trkpt>
      <trkpt lat="34.52798" lon="-118.39592"><ele>772.0</ele></trkpt>
      <trkpt lat="34.52802" lon="-118.39596"><ele>772.0</ele></trkpt>
      <trkpt lat="34.52810" lon="-118.39598"><ele>776.0</ele></trkpt>
      <trkpt lat="34.52818" lon="-118.39603"><ele>776.0</ele></trkpt>
      <trkpt lat="34.52822" lon="-118.39608"><ele>776.0</ele></trkpt>
      <trkpt lat="34.52827" lon="-118.39614"><ele>776.0</ele></trkpt>
      <trkpt lat="34.52831" lon="-118.39617"><ele>776.0</ele></trkpt>
      <trkpt lat="34.52834" lon="-118.39619"><ele>776.0</ele></trkpt>
      <trkpt lat="34.52840" lon="-118.39621"><ele>776.0</ele></trkpt>
      <trkpt lat="34.52845" lon="-118.39622"><ele>776.0</ele></trkpt>
      <trkpt lat="34.52851" lon="-118.39624"><ele>776.0</ele></trkpt>
      <trkpt lat="34.52856" lon="-118.39623"><ele>776.0</ele></trkpt>
      <trkpt lat="34.52861" lon="-118.39622"><ele>776.0</ele></trkpt>
      <trkpt lat="34.52863" lon="-118.39622"><ele>776.0</ele></trkpt>
      <trkpt lat="34.52864" lon="-118.39625"><ele>776.0</ele></trkpt>
      <trkpt lat="34.52864" lon="-118.39628"><ele>774.0</ele></trkpt>
      <trkpt lat="34.52860" lon="-118.39631"><ele>774.0</ele></trkpt>
      <trkpt lat="34.52856" lon="-118.39636"><ele>774.0</ele></trkpt>
      <trkpt lat="34.52852" lon="-118.39641"><ele>774.0</ele></trkpt>
      <trkpt lat="34.52845" lon="-118.39644"><ele>774.0</ele></trkpt>
      <trkpt lat="34.52836" lon="-118.39648"><ele>774.0</ele></trkpt>
      <trkpt lat="34.52830" lon="-118.39653"><ele>774.0</ele></trkpt>
      <trkpt lat="34.52826" lon="-118.39657"><ele>774.0</ele></trkpt>
      <trkpt lat="34.52822" lon="-118.39665"><ele>774.0</ele></trkpt>
      <trkpt lat="34.52819" lon="-118.39674"><ele>774.0</ele></trkpt>
      <trkpt lat="34.52817" lon="-118.39682"><ele>774.0</ele></trkpt>
      <trkpt lat="34.52816" lon="-118.39688"><ele>774.0</ele></trkpt>
      <trkpt lat="34.52813" lon="-118.39693"><ele>774.0</ele></trkpt>
      <trkpt lat="34.52808" lon="-118.39698"><ele>774.0</ele></trkpt>
      <trkpt lat="34.52805" lon="-118.39704"><ele>771.0</ele></trkpt>
      <trkpt lat="34.52800" lon="-118.39714"><ele>771.0</ele></trkpt>
      <trkpt lat="34.52796" lon="-118.39720"><ele>771.0</ele></trkpt>
      <trkpt lat="34.52793" lon="-118.39726"><ele>771.0</ele></trkpt>
      <trkpt lat="34.52792" lon="-118.39732"><ele>771.0</ele></trkpt>
      <trkpt lat="34.52789" lon="-118.39735"><ele>771.0</ele></trkpt>
      <trkpt lat="34.52785" lon="-118.39738"><ele>771.0</ele></trkpt>
      <trkpt lat="34.52780" lon="-118.39742"><ele>771.0</ele></trkpt>
      <trkpt lat="34.52775" lon="-118.39742"><ele>771.0</ele></trkpt>
      <trkpt lat="34.52772" lon="-118.39741"><ele>771.0</ele></trkpt>
      <trkpt lat="34.52767" lon="-118.39739"><ele>771.0</ele></trkpt>
      <trkpt lat="34.52763" lon="-118.39738"><ele>771.0</ele></trkpt>
      <trkpt lat="34.52757" lon="-118.39737"><ele>771.0</ele></trkpt>
      <trkpt lat="34.52753" lon="-118.39737"><ele>769.0</ele></trkpt>
      <trkpt lat="34.52748" lon="-118.39735"><ele>769.0</ele></trkpt>
      <trkpt lat="34.52745" lon="-118.39731"><ele>769.0</ele></trkpt>
      <trkpt lat="34.52744" lon="-118.39726"><ele>769.0</ele></trkpt>
      <trkpt lat="34.52743" lon="-118.39721"><ele>769.0</ele></trkpt>
      <trkpt lat="34.52741" lon="-118.39717"><ele>769.0</ele></trkpt>
      <trkpt lat="34.52737" lon="-118.39714"><ele>769.0</ele></trkpt>
      <trkpt lat="34.52733" lon="-118.39716"><ele>769.0</ele></trkpt>
      <trkpt lat="34.52730" lon="-118.39720"><ele>769.0</ele></trkpt>
      <trkpt lat="34.52727" lon="-118.39725"><ele>769.0</ele></trkpt>
      <trkpt lat="34.52724" lon="-118.39733"><ele>769.0</ele></trkpt>
      <trkpt lat="34.52722" lon="-118.39740"><ele>769.0</ele></trkpt>
      <trkpt lat="34.52723" lon="-118.39745"><ele>769.0</ele></trkpt>
      <trkpt lat="34.52725" lon="-118.39751"><ele>768.0</ele></trkpt>
      <trkpt lat="34.52728" lon="-118.39756"><ele>768.0</ele></trkpt>
      <trkpt lat="34.52733" lon="-118.39760"><ele>768.0</ele></trkpt>
      <trkpt lat="34.52742" lon="-118.39765"><ele>768.0</ele></trkpt>
      <trkpt lat="34.52753" lon="-118.39770"><ele>768.0</ele></trkpt>
      <trkpt lat="34.52762" lon="-118.39777"><ele>768.0</ele></trkpt>
      <trkpt lat="34.52764" lon="-118.39779"><ele>768.0</ele></trkpt>
      <trkpt lat="34.52767" lon="-118.39780"><ele>768.0</ele></trkpt>
      <trkpt lat="34.52773" lon="-118.39780"><ele>768.0</ele></trkpt>
      <trkpt lat="34.52776" lon="-118.39777"><ele>768.0</ele></trkpt>
      <trkpt lat="34.52780" lon="-118.39778"><ele>768.0</ele></trkpt>
      <trkpt lat="34.52782" lon="-118.39779"><ele>768.0</ele></trkpt>
      <trkpt lat="34.52785" lon="-118.39782"><ele>768.0</ele></trkpt>
      <trkpt lat="34.52789" lon="-118.39786"><ele>768.0</ele></trkpt>
      <trkpt lat="34.52796" lon="-118.39795"><ele>767.0</ele></trkpt>
      <trkpt lat="34.52806" lon="-118.39801"><ele>767.0</ele></trkpt>
      <trkpt lat="34.52815" lon="-118.39805"><ele>767.0</ele></trkpt>
      <trkpt lat="34.52820" lon="-118.39808"><ele>767.0</ele></trkpt>
      <trkpt lat="34.52826" lon="-118.39812"><ele>767.0</ele></trkpt>
      <trkpt lat="34.52832" lon="-118.39816"><ele>767.0</ele></trkpt>
      <trkpt lat="34.52838" lon="-118.39819"><ele>767.0</ele></trkpt>
      <trkpt lat="34.52843" lon="-118.39821"><ele>767.0</ele></trkpt>
      <trkpt lat="34.52848" lon="-118.39822"><ele>767.0</ele></trkpt>
      <trkpt lat="34.52851" lon="-118.39823"><ele>767.0</ele></trkpt>
      <trkpt lat="34.52854" lon="-118.39822"><ele>767.0</ele></trkpt>
      <trkpt lat="34.52856" lon="-118.39819"><ele>767.0</ele></trkpt>
      <trkpt lat="34.52861" lon="-118.39812"><ele>767.0</ele></trkpt>
      <trkpt lat="34.52870" lon="-118.39804"><ele>773.0</ele></trkpt>
      <trkpt lat="34.52875" lon="-118.39798"><ele>773.0</ele></trkpt>
      <trkpt lat="34.52880" lon="-118.39794"><ele>773.0</ele></trkpt>
      <trkpt lat="34.52890" lon="-118.39789"><ele>773.0</ele></trkpt>
      <trkpt lat="34.52900" lon="-118.39784"><ele>773.0</ele></trkpt>
      <trkpt lat="34.52909" lon="-118.39775"><ele>773.0</ele></trkpt>
      <trkpt lat="34.52915" lon="-118.39762"><ele>773.0</ele></trkpt>
      <trkpt lat="34.52921" lon="-118.39752"><ele>773.0</ele></trkpt>
      <trkpt lat="34.52923" lon="-118.39745"><ele>773.0</ele></trkpt>
      <trkpt lat="34.52925" lon="-118.39739"><ele>773.0</ele></trkpt>
      <trkpt lat="34.52929" lon="-118.39736"><ele>773.0</ele></trkpt>
      <trkpt lat="34.52935" lon="-118.39733"><ele>773.0</ele></trkpt>
      <trkpt lat="34.52939" lon="-118.39731"><ele>773.0</ele></trkpt>
      <trkpt lat="34.52941" lon="-118.39731"><ele>773.0</ele></trkpt>
      <trkpt lat="34.52944" lon="-118.39733"><ele>773.0</ele></trkpt>
      <trkpt lat="34.52945" lon="-118.39735"><ele>773.0</ele></trkpt>
      <trkpt lat="34.52946" lon="-118.39741"><ele>773.0</ele></trkpt>
      <trkpt lat="34.52947" lon="-118.39748"><ele>773.0</ele></trkpt>
      <trkpt lat="34.52949" lon="-118.39753"><ele>773.0</ele></trkpt>
      <trkpt lat="34.52952" lon="-118.39758"><ele>773.0</ele></trkpt>
      <trkpt lat="34.52957" lon="-118.39763"><ele>773.0</ele></trkpt>
      <trkpt lat="34.52961" lon="-118.39768"><ele>773.0</ele></trkpt>
      <trkpt lat="34.52965" lon="-118.39770"><ele>773.0</ele></trkpt>
      <trkpt lat="34.52968" lon="-118.39771"><ele>773.0</ele></trkpt>
      <trkpt lat="34.52971" lon="-118.39769"><ele>773.0</ele></trkpt>
      <trkpt lat="34.52974" lon="-118.39761"><ele>773.0</ele></trkpt>
      <trkpt lat="34.52978" lon="-118.39755"><ele>773.0</ele></trkpt>
      <trkpt lat="34.52983" lon="-118.39747"><ele>779.0</ele></trkpt>
      <trkpt lat="34.52988" lon="-118.39740"><ele>779.0</ele></trkpt>
      <trkpt lat="34.52989" lon="-118.39732"><ele>779.0</ele></trkpt>
      <trkpt lat="34.52996" lon="-118.39721"><ele>779.0</ele></trkpt>
      <trkpt lat="34.53004" lon="-118.39709"><ele>779.0</ele></trkpt>
      <trkpt lat="34.53010" lon="-118.39700"><ele>779.0</ele></trkpt>
      <trkpt lat="34.53015" lon="-118.39695"><ele>779.0</ele></trkpt>
      <trkpt lat="34.53019" lon="-118.39690"><ele>779.0</ele></trkpt>
      <trkpt lat="34.53020" lon="-118.39684"><ele>779.0</ele></trkpt>
      <trkpt lat="34.53022" lon="-118.39676"><ele>779.0</ele></trkpt>
      <trkpt lat="34.53024" lon="-118.39671"><ele>779.0</ele></trkpt>
      <trkpt lat="34.53031" lon="-118.39665"><ele>779.0</ele></trkpt>
      <trkpt lat="34.53035" lon="-118.39660"><ele>779.0</ele></trkpt>
      <trkpt lat="34.53039" lon="-118.39659"><ele>781.0</ele></trkpt>
      <trkpt lat="34.53044" lon="-118.39659"><ele>781.0</ele></trkpt>
      <trkpt lat="34.53047" lon="-118.39662"><ele>781.0</ele></trkpt>
      <trkpt lat="34.53047" lon="-118.39665"><ele>781.0</ele></trkpt>
      <trkpt lat="34.53046" lon="-118.39669"><ele>781.0</ele></trkpt>
      <trkpt lat="34.53041" lon="-118.39677"><ele>781.0</ele></trkpt>
      <trkpt lat="34.53037" lon="-118.39685"><ele>781.0</ele></trkpt>
      <trkpt lat="34.53036" lon="-118.39692"><ele>781.0</ele></trkpt>
      <trkpt lat="34.53034" lon="-118.39703"><ele>781.0</ele></trkpt>
      <trkpt lat="34.53034" lon="-118.39710"><ele>781.0</ele></trkpt>
      <trkpt lat="34.53033" lon="-118.39715"><ele>781.0</ele></trkpt>
      <trkpt lat="34.53031" lon="-118.39723"><ele>781.0</ele></trkpt>
      <trkpt lat="34.53027" lon="-118.39728"><ele>781.0</ele></trkpt>
      <trkpt lat="34.53022" lon="-118.39734"><ele>781.0</ele></trkpt>
      <trkpt lat="34.53016" lon="-118.39744"><ele>769.0</ele></trkpt>
      <trkpt lat="34.53012" lon="-118.39754"><ele>769.0</ele></trkpt>
      <trkpt lat="34.53008" lon="-118.39768"><ele>769.0</ele></trkpt>
      <trkpt lat="34.53005" lon="-118.39781"><ele>769.0</ele></trkpt>
      <trkpt lat="34.53000" lon="-118.39796"><ele>769.0</ele></trkpt>
      <trkpt lat="34.52998" lon="-118.39805"><ele>769.0</ele></trkpt>
      <trkpt lat="34.52998" lon="-118.39810"><ele>769.0</ele></trkpt>
      <trkpt lat="34.53000" lon="-118.39812"><ele>769.0</ele></trkpt>
      <trkpt lat="34.53008" lon="-118.39813"><ele>769.0</ele></trkpt>
      <trkpt lat="34.53015" lon="-118.39812"><ele>769.0</ele></trkpt>
      <trkpt lat="34.53020" lon="-118.39808"><ele>769.0</ele></trkpt>
      <trkpt lat="34.53027" lon="-118.39799"><ele>769.0</ele></trkpt>
      <trkpt lat="34.53036" lon="-118.39787"><ele>769.0</ele></trkpt>
      <trkpt lat="34.53048" lon="-118.39775"><ele>777.0</ele></trkpt>
      <trkpt lat="34.53055" lon="-118.39769"><ele>777.0</ele></trkpt>
      <trkpt lat="34.53060" lon="-118.39767"><ele>777.0</ele></trkpt>
      <trkpt lat="34.53065" lon="-118.39765"><ele>777.0</ele></trkpt>
      <trkpt lat="34.53071" lon="-118.39765"><ele>777.0</ele></trkpt>
      <trkpt lat="34.53080" lon="-118.39765"><ele>777.0</ele></trkpt>
      <trkpt lat="34.53087" lon="-118.39764"><ele>777.0</ele></trkpt>
      <trkpt lat="34.53092" lon="-118.39761"><ele>777.0</ele></trkpt>
      <trkpt lat="34.53095" lon="-118.39759"><ele>777.0</ele></trkpt>
      <trkpt lat="34.53098" lon="-118.39759"><ele>777.0</ele></trkpt>
      <trkpt lat="34.53100" lon="-118.39762"><ele>777.0</ele></trkpt>
      <trkpt lat="34.53101" lon="-118.39765"><ele>777.0</ele></trkpt>
      <trkpt lat="34.53101" lon="-118.39769"><ele>777.0</ele></trkpt>
      <trkpt lat="34.53100" lon="-118.39773"><ele>777.0</ele></trkpt>
      <trkpt lat="34.53098" lon="-118.39777"><ele>776.0</ele></trkpt>
      <trkpt lat="34.53095" lon="-118.39780"><ele>776.0</ele></trkpt>
      <trkpt lat="34.53094" lon="-118.39785"><ele>776.0</ele></trkpt>
      <trkpt lat="34.53094" lon="-118.39788"><ele>776.0</ele></trkpt>
      <trkpt lat="34.53096" lon="-118.39790"><ele>776.0</ele></trkpt>
      <trkpt lat="34.53102" lon="-118.39792"><ele>776.0</ele></trkpt>
      <trkpt lat="34.53108" lon="-118.39791"><ele>776.0</ele></trkpt>
      <trkpt lat="34.53117" lon="-118.39789"><ele>776.0</ele></trkpt>
      <trkpt lat="34.53124" lon="-118.39788"><ele>776.0</ele></trkpt>
      <trkpt lat="34.53130" lon="-118.39785"><ele>776.0</ele></trkpt>
      <trkpt lat="34.53133" lon="-118.39781"><ele>776.0</ele></trkpt>
      <trkpt lat="34.53137" lon="-118.39776"><ele>776.0</ele></trkpt>
      <trkpt lat="34.53144" lon="-118.39772"><ele>776.0</ele></trkpt>
      <trkpt lat="34.53155" lon="-118.39770"><ele>787.0</ele></trkpt>
      <trkpt lat="34.53164" lon="-118.39767"><ele>787.0</ele></trkpt>
      <trkpt lat="34.53176" lon="-118.39764"><ele>787.0</ele></trkpt>
      <trkpt lat="34.53183" lon="-118.39761"><ele>787.0</ele></trkpt>
      <trkpt lat="34.53188" lon="-118.39758"><ele>787.0</ele></trkpt>
      <trkpt lat="34.53191" lon="-118.39755"><ele>787.0</ele></trkpt>
      <trkpt lat="34.53196" lon="-118.39752"><ele>787.0</ele></trkpt>
      <trkpt lat="34.53200" lon="-118.39752"><ele>787.0</ele></trkpt>
      <trkpt lat="34.53201" lon="-118.39755"><ele>787.0</ele></trkpt>
      <trkpt lat="34.53200" lon="-118.39759"><ele>787.0</ele></trkpt>
      <trkpt lat="34.53197" lon="-118.39763"><ele>787.0</ele></trkpt>
      <trkpt lat="34.53194" lon="-118.39770"><ele>787.0</ele></trkpt>
      <trkpt lat="34.53189" lon="-118.39776"><ele>787.0</ele></trkpt>
      <trkpt lat="34.53184" lon="-118.39781"><ele>787.0</ele></trkpt>
      <trkpt lat="34.53177" lon="-118.39787"><ele>777.0</ele></trkpt>
      <trkpt lat="34.53169" lon="-118.39793"><ele>777.0</ele></trkpt>
      <trkpt lat="34.53165" lon="-118.39796"><ele>777.0</ele></trkpt>
      <trkpt lat="34.53160" lon="-118.39800"><ele>777.0</ele></trkpt>
      <trkpt lat="34.53155" lon="-118.39807"><ele>777.0</ele></trkpt>
      <trkpt lat="34.53152" lon="-118.39814"><ele>777.0</ele></trkpt>
      <trkpt lat="34.53146" lon="-118.39820"><ele>777.0</ele></trkpt>
      <trkpt lat="34.53140" lon="-118.39823"><ele>777.0</ele></trkpt>
      <trkpt lat="34.53136" lon="-118.39827"><ele>777.0</ele></trkpt>
      <trkpt lat="34.53134" lon="-118.39834"><ele>777.0</ele></trkpt>
      <trkpt lat="34.53134" lon="-118.39839"><ele>777.0</ele></trkpt>
      <trkpt lat="34.53134" lon="-118.39844"><ele>777.0</ele></trkpt>
      <trkpt lat="34.53137" lon="-118.39846"><ele>777.0</ele></trkpt>
      <trkpt lat="34.53143" lon="-118.39846"><ele>784.0</ele></trkpt>
      <trkpt lat="34.53158" lon="-118.39838"><ele>784.0</ele></trkpt>
      <trkpt lat="34.53179" lon="-118.39827"><ele>784.0</ele></trkpt>
      <trkpt lat="34.53193" lon="-118.39818"><ele>784.0</ele></trkpt>
      <trkpt lat="34.53200" lon="-118.39816"><ele>784.0</ele></trkpt>
      <trkpt lat="34.53206" lon="-118.39814"><ele>784.0</ele></trkpt>
      <trkpt lat="34.53212" lon="-118.39812"><ele>784.0</ele></trkpt>
      <trkpt lat="34.53218" lon="-118.39812"><ele>784.0</ele></trkpt>
      <trkpt lat="34.53226" lon="-118.39810"><ele>784.0</ele></trkpt>
      <trkpt lat="34.53232" lon="-118.39810"><ele>784.0</ele></trkpt>
      <trkpt lat="34.53240" lon="-118.39809"><ele>784.0</ele></trkpt>
      <trkpt lat="34.53248" lon="-118.39808"><ele>784.0</ele></trkpt>
      <trkpt lat="34.53252" lon="-118.39805"><ele>784.0</ele></trkpt>
      <trkpt lat="34.53257" lon="-118.39799"><ele>802.0</ele></trkpt>
      <trkpt lat="34.53263" lon="-118.39787"><ele>802.0</ele></trkpt>
      <trkpt lat="34.53272" lon="-118.39771"><ele>802.0</ele></trkpt>
      <trkpt lat="34.53279" lon="-118.39757"><ele>802.0</ele></trkpt>
      <trkpt lat="34.53286" lon="-118.39745"><ele>802.0</ele></trkpt>
      <trkpt lat="34.53292" lon="-118.39735"><ele>802.0</ele></trkpt>
      <trkpt lat="34.53298" lon="-118.39729"><ele>802.0</ele></trkpt>
      <trkpt lat="34.53302" lon="-118.39727"><ele>802.0</ele></trkpt>
      <trkpt lat="34.53304" lon="-118.39729"><ele>802.0</ele></trkpt>
      <trkpt lat="34.53307" lon="-118.39733"><ele>802.0</ele></trkpt>
      <trkpt lat="34.53308" lon="-118.39739"><ele>802.0</ele></trkpt>
      <trkpt lat="34.53308" lon="-118.39745"><ele>802.0</ele></trkpt>
      <trkpt lat="34.53309" lon="-118.39749"><ele>802.0</ele></trkpt>
      <trkpt lat="34.53311" lon="-118.39754"><ele>802.0</ele></trkpt>
      <trkpt lat="34.53314" lon="-118.39756"><ele>804.0</ele></trkpt>
      <trkpt lat="34.53317" lon="-118.39756"><ele>804.0</ele></trkpt>
      <trkpt lat="34.53326" lon="-118.39754"><ele>804.0</ele></trkpt>
      <trkpt lat="34.53331" lon="-118.39753"><ele>804.0</ele></trkpt>
      <trkpt lat="34.53336" lon="-118.39752"><ele>804.0</ele></trkpt>
      <trkpt lat="34.53339" lon="-118.39753"><ele>804.0</ele></trkpt>
      <trkpt lat="34.53340" lon="-118.39755"><ele>804.0</ele></trkpt>
      <trkpt lat="34.53340" lon="-118.39758"><ele>804.0</ele></trkpt>
      <trkpt lat="34.53339" lon="-118.39763"><ele>804.0</ele></trkpt>
      <trkpt lat="34.53339" lon="-118.39768"><ele>804.0</ele></trkpt>
      <trkpt lat="34.53341" lon="-118.39777"><ele>804.0</ele></trkpt>
      <trkpt lat="34.53347" lon="-118.39791"><ele>804.0</ele></trkpt>
      <trkpt lat="34.53353" lon="-118.39800"><ele>804.0</ele></trkpt>
      <trkpt lat="34.53360" lon="-118.39809"><ele>800.0</ele></trkpt>
      <trkpt lat="34.53366" lon="-118.39815"><ele>800.0</ele></trkpt>
      <trkpt lat="34.53372" lon="-118.39819"><ele>800.0</ele></trkpt>
      <trkpt lat="34.53378" lon="-118.39821"><ele>800.0</ele></trkpt>
      <trkpt lat="34.53385" lon="-118.39823"><ele>800.0</ele></trkpt>
      <trkpt lat="34.53392" lon="-118.39823"><ele>800.0</ele></trkpt>
      <trkpt lat="34.53397" lon="-118.39823"><ele>800.0</ele></trkpt>
      <trkpt lat="34.53404" lon="-118.39822"><ele>800.0</ele></trkpt>
      <trkpt lat="34.53408" lon="-118.39819"><ele>800.0</ele></trkpt>
      <trkpt lat="34.53414" lon="-118.39812"><ele>800.0</ele></trkpt>
      <trkpt lat="34.53421" lon="-118.39805"><ele>800.0</ele></trkpt>
      <trkpt lat="34.53428" lon="-118.39800"><ele>800.0</ele></trkpt>
      <trkpt lat="34.53436" lon="-118.39793"><ele>800.0</ele></trkpt>
      <trkpt lat="34.53447" lon="-118.39778"><ele>800.0</ele></trkpt>
      <trkpt lat="34.53454" lon="-118.39759"><ele>825.0</ele></trkpt>
      <trkpt lat="34.53458" lon="-118.39746"><ele>825.0</ele></trkpt>
      <trkpt lat="34.53460" lon="-118.39735"><ele>825.0</ele></trkpt>
      <trkpt lat="34.53459" lon="-118.39719"><ele>825.0</ele></trkpt>
      <trkpt lat="34.53458" lon="-118.39705"><ele>825.0</ele></trkpt>
      <trkpt lat="34.53457" lon="-118.39689"><ele>825.0</ele></trkpt>
      <trkpt lat="34.53457" lon="-118.39689"><ele>825.0</ele></trkpt>
      <trkpt lat="34.53456" lon="-118.39686"><ele>825.0</ele></trkpt>
      <trkpt lat="34.53455" lon="-118.39681"><ele>825.0</ele></trkpt>
      <trkpt lat="34.53453" lon="-118.39674"><ele>825.0</ele></trkpt>
      <trkpt lat="34.53451" lon="-118.39664"><ele>825.0</ele></trkpt>
      <trkpt lat="34.53449" lon="-118.39658"><ele>825.0</ele></trkpt>
      <trkpt lat="34.53448" lon="-118.39654"><ele>825.0</ele></trkpt>
      <trkpt lat="34.53448" lon="-118.39650"><ele>832.0</ele></trkpt>
      <trkpt lat="34.53451" lon="-118.39647"><ele>832.0</ele></trkpt>
      <trkpt lat="34.53457" lon="-118.39645"><ele>832.0</ele></trkpt>
      <trkpt lat="34.53462" lon="-118.39641"><ele>832.0</ele></trkpt>
      <trkpt lat="34.53466" lon="-118.39636"><ele>832.0</ele></trkpt>
      <trkpt lat="34.53469" lon="-118.39626"><ele>832.0</ele></trkpt>
      <trkpt lat="34.53472" lon="-118.39612"><ele>832.0</ele></trkpt>
      <trkpt lat="34.53473" lon="-118.39598"><ele>832.0</ele></trkpt>
      <trkpt lat="34.53477" lon="-118.39570"><ele>832.0</ele></trkpt>
      <trkpt lat="34.53478" lon="-118.39558"><ele>832.0</ele></trkpt>
      <trkpt lat="34.53478" lon="-118.39549"><ele>832.0</ele></trkpt>
      <trkpt lat="34.53478" lon="-118.39542"><ele>832.0</ele></trkpt>
      <trkpt lat="34.53476" lon="-118.39538"><ele>832.0</ele></trkpt>
      <trkpt lat="34.53472" lon="-118.39530"><ele>839.0</ele></trkpt>
      <trkpt lat="34.53471" lon="-118.39526"><ele>839.0</ele></trkpt>
      <trkpt lat="34.53471" lon="-118.39522"><ele>839.0</ele></trkpt>
      <trkpt lat="34.53473" lon="-118.39521"><ele>839.0</ele></trkpt>
      <trkpt lat="34.53476" lon="-118.39522"><ele>839.0</ele></trkpt>
      <trkpt lat="34.53478" lon="-118.39524"><ele>839.0</ele></trkpt>
      <trkpt lat="34.53482" lon="-118.39530"><ele>839.0</ele></trkpt>
      <trkpt lat="34.53487" lon="-118.39535"><ele>839.0</ele></trkpt>
      <trkpt lat="34.53494" lon="-118.39541"><ele>839.0</ele></trkpt>
      <trkpt lat="34.53501" lon="-118.39544"><ele>839.0</ele></trkpt>
      <trkpt lat="34.53504" lon="-118.39545"><ele>839.0</ele></trkpt>
      <trkpt lat="34.53508" lon="-118.39544"><ele>839.0</ele></trkpt>
      <trkpt lat="34.53512" lon="-118.39542"><ele>839.0</ele></trkpt>
      <trkpt lat="34.53515" lon="-118.39535"><ele>839.0</ele></trkpt>
      <trkpt lat="34.53518" lon="-118.39526"><ele>840.0</ele></trkpt>
      <trkpt lat="34.53519" lon="-118.39518"><ele>840.0</ele></trkpt>
      <trkpt lat="34.53518" lon="-118.39510"><ele>840.0</ele></trkpt>
      <trkpt lat="34.53515" lon="-118.39503"><ele>840.0</ele></trkpt>
      <trkpt lat="34.53514" lon="-118.39498"><ele>840.0</ele></trkpt>
      <trkpt lat="34.53515" lon="-118.39490"><ele>840.0</ele></trkpt>
      <trkpt lat="34.53518" lon="-118.39481"><ele>840.0</ele></trkpt>
      <trkpt lat="34.53526" lon="-118.39468"><ele>840.0</ele></trkpt>
      <trkpt lat="34.53533" lon="-118.39456"><ele>840.0</ele></trkpt>
      <trkpt lat="34.53538" lon="-118.39449"><ele>840.0</ele></trkpt>
      <trkpt lat="34.53541" lon="-118.39442"><ele>840.0</ele></trkpt>
      <trkpt lat="34.53541" lon="-118.39435"><ele>840.0</ele></trkpt>
      <trkpt lat="34.53541" lon="-118.39427"><ele>840.0</ele></trkpt>
      <trkpt lat="34.53543" lon="-118.39416"><ele>849.0</ele></trkpt>
      <trkpt lat="34.53545" lon="-118.39409"><ele>849.0</ele></trkpt>
      <trkpt lat="34.53551" lon="-118.39397"><ele>849.0</ele></trkpt>
      <trkpt lat="34.53557" lon="-118.39391"><ele>849.0</ele></trkpt>
      <trkpt lat="34.53560" lon="-118.39385"><ele>849.0</ele></trkpt>
      <trkpt lat="34.53562" lon="-118.39383"><ele>849.0</ele></trkpt>
      <trkpt lat="34.53563" lon="-118.39381"><ele>849.0</ele></trkpt>
      <trkpt lat="34.53561" lon="-118.39379"><ele>849.0</ele></trkpt>
      <trkpt lat="34.53558" lon="-118.39379"><ele>849.0</ele></trkpt>
      <trkpt lat="34.53553" lon="-118.39380"><ele>849.0</ele></trkpt>
      <trkpt lat="34.53546" lon="-118.39383"><ele>849.0</ele></trkpt>
      <trkpt lat="34.53542" lon="-118.39385"><ele>849.0</ele></trkpt>
      <trkpt lat="34.53538" lon="-118.39385"><ele>849.0</ele></trkpt>
      <trkpt lat="34.53534" lon="-118.39383"><ele>849.0</ele></trkpt>
      <trkpt lat="34.53529" lon="-118.39380"><ele>852.0</ele></trkpt>
      <trkpt lat="34.53526" lon="-118.39378"><ele>852.0</ele></trkpt>
      <trkpt lat="34.53522" lon="-118.39379"><ele>852.0</ele></trkpt>
      <trkpt lat="34.53520" lon="-118.39383"><ele>852.0</ele></trkpt>
      <trkpt lat="34.53517" lon="-118.39390"><ele>852.0</ele></trkpt>
      <trkpt lat="34.53514" lon="-118.39395"><ele>852.0</ele></trkpt>
      <trkpt lat="34.53513" lon="-118.39397"><ele>852.0</ele></trkpt>
      <trkpt lat="34.53510" lon="-118.39401"><ele>852.0</ele></trkpt>
      <trkpt lat="34.53506" lon="-118.39402"><ele>852.0</ele></trkpt>
      <trkpt lat="34.53501" lon="-118.39402"><ele>852.0</ele></trkpt>
      <trkpt lat="34.53495" lon="-118.39402"><ele>852.0</ele></trkpt>
      <trkpt lat="34.53493" lon="-118.39403"><ele>852.0</ele></trkpt>
      <trkpt lat="34.53490" lon="-118.39404"><ele>852.0</ele></trkpt>
      <trkpt lat="34.53486" lon="-118.39404"><ele>860.0</ele></trkpt>
      <trkpt lat="34.53483" lon="-118.39404"><ele>860.0</ele></trkpt>
      <trkpt lat="34.53477" lon="-118.39401"><ele>860.0</ele></trkpt>
      <trkpt lat="34.53472" lon="-118.39398"><ele>860.0</ele></trkpt>
      <trkpt lat="34.53467" lon="-118.39395"><ele>860.0</ele></trkpt>
      <trkpt lat="34.53462" lon="-118.39389"><ele>860.0</ele></trkpt>
      <trkpt lat="34.53456" lon="-118.39383"><ele>860.0</ele></trkpt>
      <trkpt lat="34.53452" lon="-118.39379"><ele>860.0</ele></trkpt>
      <trkpt lat="34.53446" lon="-118.39377"><ele>860.0</ele></trkpt>
      <trkpt lat="34.53441" lon="-118.39375"><ele>860.0</ele></trkpt>
      <trkpt lat="34.53432" lon="-118.39371"><ele>860.0</ele></trkpt>
      <trkpt lat="34.53425" lon="-118.39367"><ele>860.0</ele></trkpt>
      <trkpt lat="34.53417" lon="-118.39361"><ele>860.0</ele></trkpt>
      <trkpt lat="34.53414" lon="-118.39357"><ele>861.0</ele></trkpt>
      <trkpt lat="34.53412" lon="-118.39355"><ele>861.0</ele></trkpt>
      <trkpt lat="34.53409" lon="-118.39355"><ele>861.0</ele></trkpt>
      <trkpt lat="34.53404" lon="-118.39359"><ele>861.0</ele></trkpt>
      <trkpt lat="34.53399" lon="-118.39362"><ele>861.0</ele></trkpt>
      <trkpt lat="34.53394" lon="-118.39368"><ele>861.0</ele></trkpt>
      <trkpt lat="34.53389" lon="-118.39375"><ele>861.0</ele></trkpt>
      <trkpt lat="34.53385" lon="-118.39379"><ele>861.0</ele></trkpt>
      <trkpt lat="34.53380" lon="-118.39383"><ele>861.0</ele></trkpt>
      <trkpt lat="34.53373" lon="-118.39385"><ele>861.0</ele></trkpt>
      <trkpt lat="34.53364" lon="-118.39385"><ele>861.0</ele></trkpt>
      <trkpt lat="34.53358" lon="-118.39386"><ele>861.0</ele></trkpt>
      <trkpt lat="34.53354" lon="-118.39384"><ele>861.0</ele></trkpt>
      <trkpt lat="34.53351" lon="-118.39382"><ele>861.0</ele></trkpt>
      <trkpt lat="34.53346" lon="-118.39380"><ele>847.0</ele></trkpt>
      <trkpt lat="34.53341" lon="-118.39378"><ele>847.0</ele></trkpt>
      <trkpt lat="34.53337" lon="-118.39378"><ele>847.0</ele></trkpt>
      <trkpt lat="34.53333" lon="-118.39379"><ele>847.0</ele></trkpt>
      <trkpt lat="34.53329" lon="-118.39380"><ele>847.0</ele></trkpt>
      <trkpt lat="34.53326" lon="-118.39380"><ele>847.0</ele></trkpt>
      <trkpt lat="34.53322" lon="-118.39379"><ele>847.0</ele></trkpt>
      <trkpt lat="34.53317" lon="-118.39376"><ele>847.0</ele></trkpt>
      <trkpt lat="34.53312" lon="-118.39373"><ele>847.0</ele></trkpt>
      <trkpt lat="34.53309" lon="-118.39370"><ele>847.0</ele></trkpt>
      <trkpt lat="34.53305" lon="-118.39370"><ele>847.0</ele></trkpt>
      <trkpt lat="34.53300" lon="-118.39370"><ele>847.0</ele></trkpt>
      <trkpt lat="34.53293" lon="-118.39369"><ele>847.0</ele></trkpt>
      <trkpt lat="34.53287" lon="-118.39368"><ele>831.0</ele></trkpt>
      <trkpt lat="34.53285" lon="-118.39365"><ele>831.0</ele></trkpt>
      <trkpt lat="34.53280" lon="-118.39359"><ele>831.0</ele></trkpt>
      <trkpt lat="34.53275" lon="-118.39354"><ele>831.0</ele></trkpt>
      <trkpt lat="34.53269" lon="-118.39348"><ele>831.0</ele></trkpt>
      <trkpt lat="34.53262" lon="-118.39343"><ele>831.0</ele></trkpt>
      <trkpt lat="34.53257" lon="-118.39340"><ele>831.0</ele></trkpt>
      <trkpt lat="34.53252" lon="-118.39340"><ele>831.0</ele></trkpt>
      <trkpt lat="34.53246" lon="-118.39338"><ele>831.0</ele></trkpt>
      <trkpt lat="34.53239" lon="-118.39336"><ele>831.0</ele></trkpt>
      <trkpt lat="34.53232" lon="-118.39335"><ele>831.0</ele></trkpt>
      <trkpt lat="34.53225" lon="-118.39332"><ele>831.0</ele></trkpt>
      <trkpt lat="34.53218" lon="-118.39330"><ele>831.0</ele></trkpt>
      <trkpt lat="34.53213" lon="-118.39330"><ele>831.0</ele></trkpt>
      <trkpt lat="34.53207" lon="-118.39330"><ele>820.0</ele></trkpt>
      <trkpt lat="34.53203" lon="-118.39330"><ele>820.0</ele></trkpt>
      <trkpt lat="34.53196" lon="-118.39331"><ele>820.0</ele></trkpt>
      <trkpt lat="34.53190" lon="-118.39334"><ele>820.0</ele></trkpt>
      <trkpt lat="34.53183" lon="-118.39337"><ele>820.0</ele></trkpt>
      <trkpt lat="34.53175" lon="-118.39340"><ele>820.0</ele></trkpt>
      <trkpt lat="34.53168" lon="-118.39343"><ele>820.0</ele></trkpt>
      <trkpt lat="34.53163" lon="-118.39345"><ele>820.0</ele></trkpt>
      <trkpt lat="34.53157" lon="-118.39348"><ele>820.0</ele></trkpt>
      <trkpt lat="34.53153" lon="-118.39349"><ele>820.0</ele></trkpt>
      <trkpt lat="34.53147" lon="-118.39349"><ele>820.0</ele></trkpt>
      <trkpt lat="34.53142" lon="-118.39348"><ele>820.0</ele></trkpt>
      <trkpt lat="34.53137" lon="-118.39346"><ele>820.0</ele></trkpt>
      <trkpt lat="34.53130" lon="-118.39341"><ele>817.0</ele></trkpt>
      <trkpt lat="34.53110" lon="-118.39329"><ele>817.0</ele></trkpt>
      <trkpt lat="34.53096" lon="-118.39322"><ele>817.0</ele></trkpt>
      <trkpt lat="34.53085" lon="-118.39315"><ele>817.0</ele></trkpt>
      <trkpt lat="34.53068" lon="-118.39302"><ele>817.0</ele></trkpt>
      <trkpt lat="34.53060" lon="-118.39297"><ele>817.0</ele></trkpt>
      <trkpt lat="34.53054" lon="-118.39295"><ele>817.0</ele></trkpt>
      <trkpt lat="34.53043" lon="-118.39293"><ele>817.0</ele></trkpt>
      <trkpt lat="34.53036" lon="-118.39290"><ele>817.0</ele></trkpt>
      <trkpt lat="34.53029" lon="-118.39286"><ele>817.0</ele></trkpt>
      <trkpt lat="34.53024" lon="-118.39285"><ele>817.0</ele></trkpt>
      <trkpt lat="34.53019" lon="-118.39285"><ele>817.0</ele></trkpt>
      <trkpt lat="34.53013" lon="-118.39285"><ele>817.0</ele></trkpt>
      <trkpt lat="34.53005" lon="-118.39288"><ele>815.0</ele></trkpt>
      <trkpt lat="34.52999" lon="-118.39291"><ele>815.0</ele></trkpt>
      <trkpt lat="34.52993" lon="-118.39292"><ele>815.0</ele></trkpt>
      <trkpt lat="34.52985" lon="-118.39293"><ele>815.0</ele></trkpt>
      <trkpt lat="34.52980" lon="-118.39295"><ele>815.0</ele></trkpt>
      <trkpt lat="34.52976" lon="-118.39296"><ele>815.0</ele></trkpt>
      <trkpt lat="34.52974" lon="-118.39301"><ele>815.0</ele></trkpt>
      <trkpt lat="34.52975" lon="-118.39311"><ele>815.0</ele></trkpt>
      <trkpt lat="34.52978" lon="-118.39319"><ele>815.0</ele></trkpt>
      <trkpt lat="34.52982" lon="-118.39329"><ele>815.0</ele></trkpt>
      <trkpt lat="34.52983" lon="-118.39339"><ele>815.0</ele></trkpt>
      <trkpt lat="34.52982" lon="-118.39345"><ele>815.0</ele></trkpt>
      <trkpt lat="34.52977" lon="-118.39352"><ele>815.0</ele></trkpt>
      <trkpt lat="34.52969" lon="-118.39360"><ele>815.0</ele></trkpt>
      <trkpt lat="34.52953" lon="-118.39372"><ele>795.0</ele></trkpt>
      <trkpt lat="34.52942" lon="-118.39381"><ele>795.0</ele></trkpt>
      <trkpt lat="34.52925" lon="-118.39397"><ele>795.0</ele></trkpt>
      <trkpt lat="34.52904" lon="-118.39419"><ele>795.0</ele></trkpt>
      <trkpt lat="34.52887" lon="-118.39437"><ele>795.0</ele></trkpt>
      <trkpt lat="34.52880" lon="-118.39448"><ele>795.0</ele></trkpt>
      <trkpt lat="34.52877" lon="-118.39459"><ele>795.0</ele></trkpt>
      <trkpt lat="34.52875" lon="-118.39469"><ele>795.0</ele></trkpt>
      <trkpt lat="34.52870" lon="-118.39480"><ele>795.0</ele></trkpt>
      <trkpt lat="34.52867" lon="-118.39493"><ele>795.0</ele></trkpt>
      <trkpt lat="34.52864" lon="-118.39505"><ele>795.0</ele></trkpt>
      <trkpt lat="34.52858" lon="-118.39511"><ele>795.0</ele></trkpt>
      <trkpt lat="34.52844" lon="-118.39514"><ele>795.0</ele></trkpt>
      <trkpt lat="34.52823" lon="-118.39513"><ele>775.0</ele></trkpt>
      <trkpt lat="34.52814" lon="-118.39512"><ele>775.0</ele></trkpt>
      <trkpt lat="34.52805" lon="-118.39512"><ele>775.0</ele></trkpt>
      <trkpt lat="34.52798" lon="-118.39514"><ele>775.0</ele></trkpt>
      <trkpt lat="34.52792" lon="-118.39516"><ele>775.0</ele></trkpt>
      <trkpt lat="34.52786" lon="-118.39513"><ele>775.0</ele></trkpt>
      <trkpt lat="34.52782" lon="-118.39508"><ele>775.0</ele></trkpt>
      <trkpt lat="34.52779" lon="-118.39500"><ele>775.0</ele></trkpt>
      <trkpt lat="34.52777" lon="-118.39493"><ele>775.0</ele></trkpt>
      <trkpt lat="34.52774" lon="-118.39481"><ele>775.0</ele></trkpt>
      <trkpt lat="34.52772" lon="-118.39473"><ele>775.0</ele></trkpt>
      <trkpt lat="34.52769" lon="-118.39467"><ele>775.0</ele></trkpt>
      <trkpt lat="34.52767" lon="-118.39459"><ele>775.0</ele></trkpt>
      <trkpt lat="34.52766" lon="-118.39454"><ele>775.0</ele></trkpt>
      <trkpt lat="34.52764" lon="-118.39447"><ele>762.0</ele></trkpt>
      <trkpt lat="34.52764" lon="-118.39441"><ele>762.0</ele></trkpt>
      <trkpt lat="34.52760" lon="-118.39436"><ele>762.0</ele></trkpt>
      <trkpt lat="34.52756" lon="-118.39434"><ele>762.0</ele></trkpt>
      <trkpt lat="34.52752" lon="-118.39433"><ele>762.0</ele></trkpt>
      <trkpt lat="34.52745" lon="-118.39432"><ele>762.0</ele></trkpt>
      <trkpt lat="34.52730" lon="-118.39431"><ele>762.0</ele></trkpt>
      <trkpt lat="34.52715" lon="-118.39431"><ele>762.0</ele></trkpt>
      <trkpt lat="34.52711" lon="-118.39430"><ele>762.0</ele></trkpt>
    </trkseg>
    <trkseg>
      <trkpt lat="34.55957" lon="-118.37691"><ele>762.0</ele></trkpt>
      <trkpt lat="34.55959" lon="-118.37671"><ele>762.0</ele></trkpt>
      <trkpt lat="34.55960" lon="-118.37664"><ele>762.0</ele></trkpt>
      <trkpt lat="34.55960" lon="-118.37659"><ele>762.0</ele></trkpt>
      <trkpt lat="34.55959" lon="-118.37653"><ele>1294.0</ele></trkpt>
      <trkpt lat="34.55958" lon="-118.37642"><ele>1294.0</ele></trkpt>
      <trkpt lat="34.55955" lon="-118.37625"><ele>1294.0</ele></trkpt>
      <trkpt lat="34.55951" lon="-118.37612"><ele>1294.0</ele></trkpt>
      <trkpt lat="34.55947" lon="-118.37606"><ele>1294.0</ele></trkpt>
      <trkpt lat="34.55940" lon="-118.37597"><ele>1294.0</ele></trkpt>
      <trkpt lat="34.55936" lon="-118.37587"><ele>1294.0</ele></trkpt>
      <trkpt lat="34.55935" lon="-118.37573"><ele>1294.0</ele></trkpt>
      <trkpt lat="34.55937" lon="-118.37556"><ele>1294.0</ele></trkpt>
      <trkpt lat="34.55939" lon="-118.37544"><ele>1294.0</ele></trkpt>
      <trkpt lat="34.55941" lon="-118.37527"><ele>1294.0</ele></trkpt>
      <trkpt lat="34.55945" lon="-118.37512"><ele>1294.0</ele></trkpt>
      <trkpt lat="34.55950" lon="-118.37492"><ele>1294.0</ele></trkpt>
      <trkpt lat="34.55954" lon="-118.37480"><ele>1294.0</ele></trkpt>
      <trkpt lat="34.55956" lon="-118.37466"><ele>1294.0</ele></trkpt>
      <trkpt lat="34.55959" lon="-118.37455"><ele>1294.0</ele></trkpt>
      <trkpt lat="34.55966" lon="-118.37444"><ele>1294.0</ele></trkpt>
      <trkpt lat="34.55970" lon="-118.37436"><ele>1294.0</ele></trkpt>
      <trkpt lat="34.55973" lon="-118.37421"><ele>1294.0</ele></trkpt>
      <trkpt lat="34.55977" lon="-118.37411"><ele>1294.0</ele></trkpt>
      <trkpt lat="34.55983" lon="-118.37403"><ele>1294.0</ele></trkpt>
      <trkpt lat="34.55989" lon="-118.37395"><ele>1294.0</ele></trkpt>
      <trkpt lat="34.56002" lon="-118.37388"><ele>1294.0</ele></trkpt>
      <trkpt lat="34.56012" lon="-118.37383"><ele>1294.0</ele></trkpt>
      <trkpt lat="34.56024" lon="-118.37374"><ele>1294.0</ele></trkpt>
      <trkpt lat="34.56036" lon="-118.37365"><ele>1294.0</ele></trkpt>
      <trkpt lat="34.56045" lon="-118.37361"><ele>1294.0</ele></trkpt>
      <trkpt lat="34.56055" lon="-118.37358"><ele>1302.0</ele></trkpt>
      <trkpt lat="34.56061" lon="-118.37352"><ele>1302.0</ele></trkpt>
      <trkpt lat="34.56068" lon="-118.37343"><ele>1302.0</ele></trkpt>
      <trkpt lat="34.56071" lon="-118.37336"><ele>1302.0</ele></trkpt>
      <trkpt lat="34.56071" lon="-118.37331"><ele>1302.0</ele></trkpt>
      <trkpt lat="34.56068" lon="-118.37327"><ele>1302.0</ele></trkpt>
      <trkpt lat="34.56062" lon="-118.37324"><ele>1302.0</ele></trkpt>
      <trkpt lat="34.56054" lon="-118.37315"><ele>1302.0</ele></trkpt>
      <trkpt lat="34.56049" lon="-118.37306"><ele>1302.0</ele></trkpt>
      <trkpt lat="34.56045" lon="-118.37296"><ele>1302.0</ele></trkpt>
      <trkpt lat="34.56047" lon="-118.37285"><ele>1302.0</ele></trkpt>
      <trkpt lat="34.56051" lon="-118.37276"><ele>1302.0</ele></trkpt>
      <trkpt lat="34.56058" lon="-118.37268"><ele>1302.0</ele></trkpt>
      <trkpt lat="34.56065" lon="-118.37261"><ele>1292.0</ele></trkpt>
      <trkpt lat="34.56068" lon="-118.37257"><ele>1292.0</ele></trkpt>
      <trkpt lat="34.56068" lon="-118.37253"><ele>1292.0</ele></trkpt>
      <trkpt lat="34.56062" lon="-118.37249"><ele>1292.0</ele></trkpt>
      <trkpt lat="34.56050" lon="-118.37242"><ele>1292.0</ele></trkpt>
      <trkpt lat="34.56039" lon="-118.37232"><ele>1292.0</ele></trkpt>
      <trkpt lat="34.56028" lon="-118.37220"><ele>1292.0</ele></trkpt>
      <trkpt lat="34.56015" lon="-118.37209"><ele>1292.0</ele></trkpt>
      <trkpt lat="34.56010" lon="-118.37199"><ele>1292.0</ele></trkpt>
      <trkpt lat="34.56007" lon="-118.37186"><ele>1292.0</ele></trkpt>
      <trkpt lat="34.56007" lon="-118.37168"><ele>1292.0</ele></trkpt>
      <trkpt lat="34.56010" lon="-118.37129"><ele>1292.0</ele></trkpt>
      <trkpt lat="34.56014" lon="-118.37088"><ele>1292.0</ele></trkpt>
      <trkpt lat="34.56011" lon="-118.37073"><ele>1292.0</ele></trkpt>
      <trkpt lat="34.56009" lon="-118.37058"><ele>1294.0</ele></trkpt>
      <trkpt lat="34.56008" lon="-118.37044"><ele>1294.0</ele></trkpt>
      <trkpt lat="34.56010" lon="-118.37038"><ele>1294.0</ele></trkpt>
      <trkpt lat="34.56015" lon="-118.37030"><ele>1294.0</ele></trkpt>
      <trkpt lat="34.56018" lon="-118.37024"><ele>1294.0</ele></trkpt>
      <trkpt lat="34.56022" lon="-118.37015"><ele>1294.0</ele></trkpt>
      <trkpt lat="34.56026" lon="-118.36998"><ele>1294.0</ele></trkpt>
      <trkpt lat="34.56033" lon="-118.36984"><ele>1294.0</ele></trkpt>
      <trkpt lat="34.56038" lon="-118.36972"><ele>1294.0</ele></trkpt>
      <trkpt lat="34.56040" lon="-118.36964"><ele>1294.0</ele></trkpt>
      <trkpt lat="34.56042" lon="-118.36955"><ele>1294.0</ele></trkpt>
      <trkpt lat="34.56042" lon="-118.36950"><ele>1294.0</ele></trkpt>
      <trkpt lat="34.56040" lon="-118.36944"><ele>1294.0</ele></trkpt>
      <trkpt lat="34.56032" lon="-118.36936"><ele>1290.0</ele></trkpt>
      <trkpt lat="34.56016" lon="-118.36919"><ele>1290.0</ele></trkpt>
      <trkpt lat="34.56006" lon="-118.36904"><ele>1290.0</ele></trkpt>
      <trkpt lat="34.56003" lon="-118.36895"><ele>1290.0</ele></trkpt>
      <trkpt lat="34.56005" lon="-118.36886"><ele>1290.0</ele></trkpt>
      <trkpt lat="34.56009" lon="-118.36867"><ele>1290.0</ele></trkpt>
      <trkpt lat="34.56012" lon="-118.36853"><ele>1290.0</ele></trkpt>
      <trkpt lat="34.56013" lon="-118.36844"><ele>1290.0</ele></trkpt>
      <trkpt lat="34.56011" lon="-118.36838"><ele>1290.0</ele></trkpt>
      <trkpt lat="34.56008" lon="-118.36834"><ele>1290.0</ele></trkpt>
      <trkpt lat="34.56007" lon="-118.36827"><ele>1290.0</ele></trkpt>
      <trkpt lat="34.56005" lon="-118.36819"><ele>1290.0</ele></trkpt>
      <trkpt lat="34.56003" lon="-118.36806"><ele>1290.0</ele></trkpt>
      <trkpt lat="34.56000" lon="-118.36793"><ele>1276.0</ele></trkpt>
      <trkpt lat="34.55998" lon="-118.36776"><ele>1276.0</ele></trkpt>
      <trkpt lat="34.55995" lon="-118.36751"><ele>1276.0</ele></trkpt>
      <trkpt lat="34.55991" lon="-118.36741"><ele>1276.0</ele></trkpt>
      <trkpt lat="34.55985" lon="-118.36736"><ele>1276.0</ele></trkpt>
      <trkpt lat="34.55975" lon="-118.36732"><ele>1276.0</ele></trkpt>
      <trkpt lat="34.55968" lon="-118.36729"><ele>1276.0</ele></trkpt>
      <trkpt lat="34.55965" lon="-118.36729"><ele>1276.0</ele></trkpt>
      <trkpt lat="34.55961" lon="-118.36733"><ele>1276.0</ele></trkpt>
      <trkpt lat="34.55959" lon="-118.36739"><ele>1276.0</ele></trkpt>
      <trkpt lat="34.55955" lon="-118.36742"><ele>1276.0</ele></trkpt>
      <trkpt lat="34.55947" lon="-118.36741"><ele>1276.0</ele></trkpt>
      <trkpt lat="34.55940" lon="-118.36740"><ele>1276.0</ele></trkpt>
      <trkpt lat="34.55935" lon="-118.36737"><ele>1276.0</ele></trkpt>
      <trkpt lat="34.55930" lon="-118.36738"><ele>1252.0</ele></trkpt>
      <trkpt lat="34.55926" lon="-118.36741"><ele>1252.0</ele></trkpt>
      <trkpt lat="34.55921" lon="-118.36741"><ele>1252.0</ele></trkpt>
      <trkpt lat="34.55915" lon="-118.36741"><ele>1252.0</ele></trkpt>
      <trkpt lat="34.55910" lon="-118.36738"><ele>1252.0</ele></trkpt>
      <trkpt lat="34.55906" lon="-118.36737"><ele>1252.0</ele></trkpt>
      <trkpt lat="34.55901" lon="-118.36737"><ele>1252.0</ele></trkpt>
      <trkpt lat="34.55896" lon="-118.36741"><ele>1252.0</ele></trkpt>
      <trkpt lat="34.55892" lon="-118.36744"><ele>1252.0</ele></trkpt>
      <trkpt lat="34.55887" lon="-118.36742"><ele>1252.0</ele></trkpt>
      <trkpt lat="34.55884" lon="-118.36739"><ele>1252.0</ele></trkpt>
      <trkpt lat="34.55882" lon="-118.36736"><ele>1252.0</ele></trkpt>
      <trkpt lat="34.55874" lon="-118.36733"><ele>1252.0</ele></trkpt>
      <trkpt lat="34.55867" lon="-118.36730"><ele>1243.0</ele></trkpt>
      <trkpt lat="34.55865" lon="-118.36725"><ele>1243.0</ele></trkpt>
      <trkpt lat="34.55866" lon="-118.36717"><ele>1243.0</ele></trkpt>
      <trkpt lat="34.55870" lon="-118.36709"><ele>1243.0</ele></trkpt>
      <trkpt lat="34.55871" lon="-118.36700"><ele>1243.0</ele></trkpt>
      <trkpt lat="34.55871" lon="-118.36691"><ele>1243.0</ele></trkpt>
      <trkpt lat="34.55871" lon="-118.36682"><ele>1243.0</ele></trkpt>
      <trkpt lat="34.55873" lon="-118.36675"><ele>1243.0</ele></trkpt>
      <trkpt lat="34.55878" lon="-118.36667"><ele>1243.0</ele></trkpt>
      <trkpt lat="34.55879" lon="-118.36658"><ele>1243.0</ele></trkpt>
      <trkpt lat="34.55880" lon="-118.36647"><ele>1243.0</ele></trkpt>
      <trkpt lat="34.55880" lon="-118.36640"><ele>1243.0</ele></trkpt>
      <trkpt lat="34.55880" lon="-118.36632"><ele>1243.0</ele></trkpt>
      <trkpt lat="34.55877" lon="-118.36625"><ele>1243.0</ele></trkpt>
      <trkpt lat="34.55872" lon="-118.36620"><ele>1240.0</ele></trkpt>
      <trkpt lat="34.55869" lon="-118.36616"><ele>1240.0</ele></trkpt>
      <trkpt lat="34.55866" lon="-118.36609"><ele>1240.0</ele></trkpt>
      <trkpt lat="34.55863" lon="-118.36602"><ele>1240.0</ele></trkpt>
      <trkpt lat="34.55861" lon="-118.36585"><ele>1240.0</ele></trkpt>
      <trkpt lat="34.55858" lon="-118.36573"><ele>1240.0</ele></trkpt>
      <trkpt lat="34.55855" lon="-118.36567"><ele>1240.0</ele></trkpt>
      <trkpt lat="34.55849" lon="-118.36562"><ele>1240.0</ele></trkpt>
      <trkpt lat="34.55844" lon="-118.36557"><ele>1240.0</ele></trkpt>
      <trkpt lat="34.55841" lon="-118.36553"><ele>1240.0</ele></trkpt>
      <trkpt lat="34.55839" lon="-118.36549"><ele>1240.0</ele></trkpt>
      <trkpt lat="34.55839" lon="-118.36546"><ele>1240.0</ele></trkpt>
      <trkpt lat="34.55842" lon="-118.36543"><ele>1240.0</ele></trkpt>
      <trkpt lat="34.55849" lon="-118.36534"><ele>1246.0</ele></trkpt>
      <trkpt lat="34.55851" lon="-118.36529"><ele>1246.0</ele></trkpt>
      <trkpt lat="34.55852" lon="-118.36518"><ele>1246.0</ele></trkpt>
      <trkpt lat="34.55850" lon="-118.36507"><ele>1246.0</ele></trkpt>
      <trkpt lat="34.55846" lon="-118.36487"><ele>1246.0</ele></trkpt>
      <trkpt lat="34.55843" lon="-118.36476"><ele>1246.0</ele></trkpt>
      <trkpt lat="34.55844" lon="-118.36469"><ele>1246.0</ele></trkpt>
      <trkpt lat="34.55845" lon="-118.36459"><ele>1246.0</ele></trkpt>
      <trkpt lat="34.55848" lon="-118.36451"><ele>1246.0</ele></trkpt>
      <trkpt lat="34.55852" lon="-118.36443"><ele>1246.0</ele></trkpt>
      <trkpt lat="34.55858" lon="-118.36435"><ele>1246.0</ele></trkpt>
      <trkpt lat="34.55865" lon="-118.36428"><ele>1246.0</ele></trkpt>
      <trkpt lat="34.55869" lon="-118.36422"><ele>1246.0</ele></trkpt>
      <trkpt lat="34.55874" lon="-118.36418"><ele>1286.0</ele></trkpt>
      <trkpt lat="34.55881" lon="-118.36411"><ele>1286.0</ele></trkpt>
      <trkpt lat="34.55886" lon="-118.36406"><ele>1286.0</ele></trkpt>
      <trkpt lat="34.55893" lon="-118.36399"><ele>1286.0</ele></trkpt>
      <trkpt lat="34.55901" lon="-118.36394"><ele>1286.0</ele></trkpt>
      <trkpt lat="34.55919" lon="-118.36385"><ele>1286.0</ele></trkpt>
      <trkpt lat="34.55930" lon="-118.36377"><ele>1286.0</ele></trkpt>
      <trkpt lat="34.55934" lon="-118.36373"><ele>1286.0</ele></trkpt>
      <trkpt lat="34.55935" lon="-118.36369"><ele>1286.0</ele></trkpt>
      <trkpt lat="34.55937" lon="-118.36362"><ele>1286.0</ele></trkpt>
      <trkpt lat="34.55941" lon="-118.36344"><ele>1286.0</ele></trkpt>
      <trkpt lat="34.55944" lon="-118.36333"><ele>1286.0</ele></trkpt>
      <trkpt lat="34.55946" lon="-118.36319"><ele>1286.0</ele></trkpt>
      <trkpt lat="34.55946" lon="-118.36313"><ele>1286.0</ele></trkpt>
      <trkpt lat="34.55942" lon="-118.36308"><ele>1309.0</ele></trkpt>
      <trkpt lat="34.55935" lon="-118.36299"><ele>1309.0</ele></trkpt>
      <trkpt lat="34.55929" lon="-118.36292"><ele>1309.0</ele></trkpt>
      <trkpt lat="34.55926" lon="-118.36287"><ele>1309.0</ele></trkpt>
      <trkpt lat="34.55928" lon="-118.36283"><ele>1309.0</ele></trkpt>
      <trkpt lat="34.55935" lon="-118.36279"><ele>1309.0</ele></trkpt>
      <trkpt lat="34.55946" lon="-118.36275"><ele>1309.0</ele></trkpt>
      <trkpt lat="34.55953" lon="-118.36274"><ele>1309.0</ele></trkpt>
      <trkpt lat="34.55960" lon="-118.36274"><ele>1309.0</ele></trkpt>
      <trkpt lat="34.55965" lon="-118.36271"><ele>1309.0</ele></trkpt>
      <trkpt lat="34.55968" lon="-118.36268"><ele>1309.0</ele></trkpt>
      <trkpt lat="34.55969" lon="-118.36264"><ele>1309.0</ele></trkpt>
      <trkpt lat="34.55967" lon="-118.36258"><ele>1309.0</ele></trkpt>
      <trkpt lat="34.55964" lon="-118.36247"><ele>1340.0</ele></trkpt>
      <trkpt lat="34.55962" lon="-118.36234"><ele>1340.0</ele></trkpt>
      <trkpt lat="34.55963" lon="-118.36225"><ele>1340.0</ele></trkpt>
      <trkpt lat="34.55968" lon="-118.36215"><ele>1340.0</ele></trkpt>
      <trkpt lat="34.55976" lon="-118.36206"><ele>1340.0</ele></trkpt>
      <trkpt lat="34.55982" lon="-118.36199"><ele>1340.0</ele></trkpt>
      <trkpt lat="34.55985" lon="-118.36194"><ele>1340.0</ele></trkpt>
      <trkpt lat="34.55985" lon="-118.36190"><ele>1340.0</ele></trkpt>
      <trkpt lat="34.55982" lon="-118.36185"><ele>1340.0</ele></trkpt>
      <trkpt lat="34.55975" lon="-118.36176"><ele>1340.0</ele></trkpt>
      <trkpt lat="34.55964" lon="-118.36162"><ele>1340.0</ele></trkpt>
      <trkpt lat="34.55960" lon="-118.36156"><ele>1340.0</ele></trkpt>
      <trkpt lat="34.55956" lon="-118.36148"><ele>1340.0</ele></trkpt>
      <trkpt lat="34.55954" lon="-118.36139"><ele>1340.0</ele></trkpt>
      <trkpt lat="34.55954" lon="-118.36132"><ele>1361.0</ele></trkpt>
      <trkpt lat="34.55957" lon="-118.36128"><ele>1361.0</ele></trkpt>
      <trkpt lat="34.55965" lon="-118.36120"><ele>1361.0</ele></trkpt>
      <trkpt lat="34.55972" lon="-118.36115"><ele>1361.0</ele></trkpt>
      <trkpt lat="34.55976" lon="-118.36112"><ele>1361.0</ele></trkpt>
      <trkpt lat="34.55976" lon="-118.36105"><ele>1361.0</ele></trkpt>
      <trkpt lat="34.55977" lon="-118.36086"><ele>1361.0</ele></trkpt>
      <trkpt lat="34.55975" lon="-118.36066"><ele>1361.0</ele></trkpt>
      <trkpt lat="34.55973" lon="-118.36051"><ele>1361.0</ele></trkpt>
      <trkpt lat="34.55974" lon="-118.36042"><ele>1361.0</ele></trkpt>
      <trkpt lat="34.55974" lon="-118.36023"><ele>1361.0</ele></trkpt>
      <trkpt lat="34.55974" lon="-118.36006"><ele>1361.0</ele></trkpt>
      <trkpt lat="34.55976" lon="-118.35984"><ele>1361.0</ele></trkpt>
      <trkpt lat="34.55981" lon="-118.35971"><ele>1394.0</ele></trkpt>
      <trkpt lat="34.55988" lon="-118.35960"><ele>1394.0</ele></trkpt>
      <trkpt lat="34.55994" lon="-118.35951"><ele>1394.0</ele></trkpt>
      <trkpt lat="34.55998" lon="-118.35946"><ele>1394.0</ele></trkpt>
      <trkpt lat="34.55998" lon="-118.35941"><ele>1394.0</ele></trkpt>
      <trkpt lat="34.55994" lon="-118.35935"><ele>1394.0</ele></trkpt>
      <trkpt lat="34.55990" lon="-118.35925"><ele>1394.0</ele></trkpt>
      <trkpt lat="34.55983" lon="-118.35909"><ele>1394.0</ele></trkpt>
      <trkpt lat="34.55976" lon="-118.35891"><ele>1394.0</ele></trkpt>
      <trkpt lat="34.55974" lon="-118.35879"><ele>1394.0</ele></trkpt>
      <trkpt lat="34.55975" lon="-118.35870"><ele>1394.0</ele></trkpt>
      <trkpt lat="34.55978" lon="-118.35860"><ele>1394.0</ele></trkpt>
      <trkpt lat="34.55977" lon="-118.35851"><ele>1394.0</ele></trkpt>
      <trkpt lat="34.55976" lon="-118.35846"><ele>1411.0</ele></trkpt>
      <trkpt lat="34.55971" lon="-118.35841"><ele>1411.0</ele></trkpt>
      <trkpt lat="34.55960" lon="-118.35838"><ele>1411.0</ele></trkpt>
      <trkpt lat="34.55944" lon="-118.35833"><ele>1411.0</ele></trkpt>
      <trkpt lat="34.55937" lon="-118.35827"><ele>1411.0</ele></trkpt>
      <trkpt lat="34.55929" lon="-118.35819"><ele>1411.0</ele></trkpt>
      <trkpt lat="34.55915" lon="-118.35799"><ele>1411.0</ele></trkpt>
      <trkpt lat="34.55908" lon="-118.35790"><ele>1411.0</ele></trkpt>
      <trkpt lat="34.55902" lon="-118.35785"><ele>1411.0</ele></trkpt>
      <trkpt lat="34.55890" lon="-118.35777"><ele>1411.0</ele></trkpt>
      <trkpt lat="34.55882" lon="-118.35773"><ele>1411.0</ele></trkpt>
      <trkpt lat="34.55878" lon="-118.35767"><ele>1411.0</ele></trkpt>
      <trkpt lat="34.55873" lon="-118.35754"><ele>1411.0</ele></trkpt>
      <trkpt lat="34.55871" lon="-118.35734"><ele>1411.0</ele></trkpt>
      <trkpt lat="34.55869" lon="-118.35713"><ele>1413.0</ele></trkpt>
      <trkpt lat="34.55864" lon="-118.35686"><ele>1413.0</ele></trkpt>
      <trkpt lat="34.55861" lon="-118.35678"><ele>1413.0</ele></trkpt>
      <trkpt lat="34.55858" lon="-118.35670"><ele>1413.0</ele></trkpt>
      <trkpt lat="34.55858" lon="-118.35666"><ele>1413.0</ele></trkpt>
      <trkpt lat="34.55858" lon="-118.35662"><ele>1413.0</ele></trkpt>
      <trkpt lat="34.55860" lon="-118.35652"><ele>1413.0</ele></trkpt>
      <trkpt lat="34.55866" lon="-118.35646"><ele>1413.0</ele></trkpt>
      <trkpt lat="34.55871" lon="-118.35636"><ele>1413.0</ele></trkpt>
      <trkpt lat="34.55876" lon="-118.35618"><ele>1413.0</ele></trkpt>
      <trkpt lat="34.55887" lon="-118.35588"><ele>1413.0</ele></trkpt>
      <trkpt lat="34.55894" lon="-118.35569"><ele>1413.0</ele></trkpt>
      <trkpt lat="34.55900" lon="-118.35558"><ele>1413.0</ele></trkpt>
      <trkpt lat="34.55909" lon="-118.35542"><ele>1431.0</ele></trkpt>
      <trkpt lat="34.55917" lon="-118.35529"><ele>1431.0</ele></trkpt>
      <trkpt lat="34.55926" lon="-118.35524"><ele>1431.0</ele></trkpt>
      <trkpt lat="34.55932" lon="-118.35520"><ele>1431.0</ele></trkpt>
      <trkpt lat="34.55939" lon="-118.35517"><ele>1431.0</ele></trkpt>
      <trkpt lat="34.55940" lon="-118.35513"><ele>1431.0</ele></trkpt>
      <trkpt lat="34.55938" lon="-118.35502"><ele>1431.0</ele></trkpt>
      <trkpt lat="34.55936" lon="-118.35497"><ele>1431.0</ele></trkpt>
      <trkpt lat="34.55935" lon="-118.35492"><ele>1431.0</ele></trkpt>
      <trkpt lat="34.55937" lon="-118.35486"><ele>1431.0</ele></trkpt>
      <trkpt lat="34.55943" lon="-118.35478"><ele>1431.0</ele></trkpt>
      <trkpt lat="34.55948" lon="-118.35461"><ele>1431.0</ele></trkpt>
      <trkpt lat="34.55949" lon="-118.35449"><ele>1431.0</ele></trkpt>
      <trkpt lat="34.55946" lon="-118.35437"><ele>1431.0</ele></trkpt>
      <trkpt lat="34.55940" lon="-118.35431"><ele>1421.0</ele></trkpt>
      <trkpt lat="34.55935" lon="-118.35425"><ele>1421.0</ele></trkpt>
      <trkpt lat="34.55929" lon="-118.35417"><ele>1421.0</ele></trkpt>
      <trkpt lat="34.55926" lon="-118.35407"><ele>1421.0</ele></trkpt>
      <trkpt lat="34.55927" lon="-118.35395"><ele>1421.0</ele></trkpt>
      <trkpt lat="34.55931" lon="-118.35385"><ele>1421.0</ele></trkpt>
      <trkpt lat="34.55938" lon="-118.35373"><ele>1421.0</ele></trkpt>
      <trkpt lat="34.55946" lon="-118.35360"><ele>1421.0</ele></trkpt>
      <trkpt lat="34.55954" lon="-118.35350"><ele>1421.0</ele></trkpt>
      <trkpt lat="34.55965" lon="-118.35342"><ele>1421.0</ele></trkpt>
      <trkpt lat="34.55974" lon="-118.35336"><ele>1421.0</ele></trkpt>
      <trkpt lat="34.55976" lon="-118.35332"><ele>1421.0</ele></trkpt>
      <trkpt lat="34.55977" lon="-118.35323"><ele>1421.0</ele></trkpt>
      <trkpt lat="34.55976" lon="-118.35314"><ele>1430.0</ele></trkpt>
      <trkpt lat="34.55972" lon="-118.35304"><ele>1430.0</ele></trkpt>
      <trkpt lat="34.55968" lon="-118.35300"><ele>1430.0</ele></trkpt>
      <trkpt lat="34.55964" lon="-118.35296"><ele>1430.0</ele></trkpt>
      <trkpt lat="34.55961" lon="-118.35288"><ele>1430.0</ele></trkpt>
      <trkpt lat="34.55955" lon="-118.35275"><ele>1430.0</ele></trkpt>
      <trkpt lat="34.55951" lon="-118.35267"><ele>1430.0</ele></trkpt>
      <trkpt lat="34.55947" lon="-118.35258"><ele>1430.0</ele></trkpt>
      <trkpt lat="34.55943" lon="-118.35252"><ele>1430.0</ele></trkpt>
      <trkpt lat="34.55938" lon="-118.35251"><ele>1430.0</ele></trkpt>
      <trkpt lat="34.55931" lon="-118.35253"><ele>1430.0</ele></trkpt>
      <trkpt lat="34.55925" lon="-118.35253"><ele>1430.0</ele></trkpt>
      <trkpt lat="34.55918" lon="-118.35249"><ele>1430.0</ele></trkpt>
      <trkpt lat="34.55910" lon="-118.35242"><ele>1430.0</ele></trkpt>
      <trkpt lat="34.55906" lon="-118.35238"><ele>1414.0</ele></trkpt>
      <trkpt lat="34.55900" lon="-118.35237"><ele>1414.0</ele></trkpt>
      <trkpt lat="34.55888" lon="-118.35239"><ele>1414.0</ele></trkpt>
      <trkpt lat="34.55879" lon="-118.35239"><ele>1414.0</ele></trkpt>
      <trkpt lat="34.55873" lon="-118.35240"><ele>1414.0</ele></trkpt>
      <trkpt lat="34.55866" lon="-118.35241"><ele>1414.0</ele></trkpt>
      <trkpt lat="34.55860" lon="-118.35240"><ele>1414.0</ele></trkpt>
      <trkpt lat="34.55851" lon="-118.35234"><ele>1414.0</ele></trkpt>
      <trkpt lat="34.55844" lon="-118.35230"><ele>1414.0</ele></trkpt>
      <trkpt lat="34.55832" lon="-118.35224"><ele>1414.0</ele></trkpt>
      <trkpt lat="34.55823" lon="-118.35220"><ele>1414.0</ele></trkpt>
      <trkpt lat="34.55821" lon="-118.35216"><ele>1414.0</ele></trkpt>
      <trkpt lat="34.55814" lon="-118.35204"><ele>1414.0</ele></trkpt>
      <trkpt lat="34.55808" lon="-118.35190"><ele>1399.0</ele></trkpt>
      <trkpt lat="34.55792" lon="-118.35165"><ele>1399.0</ele></trkpt>
      <trkpt lat="34.55784" lon="-118.35156"><ele>1399.0</ele></trkpt>
      <trkpt lat="34.55782" lon="-118.35147"><ele>1399.0</ele></trkpt>
      <trkpt lat="34.55780" lon="-118.35135"><ele>1399.0</ele></trkpt>
      <trkpt lat="34.55777" lon="-118.35125"><ele>1399.0</ele></trkpt>
      <trkpt lat="34.55776" lon="-118.35106"><ele>1399.0</ele></trkpt>
      <trkpt lat="34.55778" lon="-118.35085"><ele>1399.0</ele></trkpt>
      <trkpt lat="34.55782" lon="-118.35078"><ele>1399.0</ele></trkpt>
      <trkpt lat="34.55783" lon="-118.35067"><ele>1399.0</ele></trkpt>
      <trkpt lat="34.55788" lon="-118.35051"><ele>1399.0</ele></trkpt>
      <trkpt lat="34.55793" lon="-118.35039"><ele>1399.0</ele></trkpt>
      <trkpt lat="34.55796" lon="-118.35020"><ele>1399.0</ele></trkpt>
      <trkpt lat="34.55795" lon="-118.35010"><ele>1383.0</ele></trkpt>
      <trkpt lat="34.55789" lon="-118.35000"><ele>1383.0</ele></trkpt>
      <trkpt lat="34.55783" lon="-118.34994"><ele>1383.0</ele></trkpt>
      <trkpt lat="34.55778" lon="-118.34988"><ele>1383.0</ele></trkpt>
      <trkpt lat="34.55778" lon="-118.34980"><ele>1383.0</ele></trkpt>
      <trkpt lat="34.55782" lon="-118.34968"><ele>1383.0</ele></trkpt>
      <trkpt lat="34.55797" lon="-118.34947"><ele>1383.0</ele></trkpt>
      <trkpt lat="34.55820" lon="-118.34922"><ele>1383.0</ele></trkpt>
      <trkpt lat="34.55825" lon="-118.34910"><ele>1383.0</ele></trkpt>
      <trkpt lat="34.55827" lon="-118.34898"><ele>1383.0</ele></trkpt>
      <trkpt lat="34.55828" lon="-118.34884"><ele>1383.0</ele></trkpt>
      <trkpt lat="34.55833" lon="-118.34870"><ele>1383.0</ele></trkpt>
      <trkpt lat="34.55838" lon="-118.34860"><ele>1383.0</ele></trkpt>
      <trkpt lat="34.55844" lon="-118.34853"><ele>1383.0</ele></trkpt>
      <trkpt lat="34.55851" lon="-118.34850"><ele>1387.0</ele></trkpt>
      <trkpt lat="34.55856" lon="-118.34850"><ele>1387.0</ele></trkpt>
      <trkpt lat="34.55860" lon="-118.34847"><ele>1387.0</ele></trkpt>
      <trkpt lat="34.55861" lon="-118.34841"><ele>1387.0</ele></trkpt>
      <trkpt lat="34.55860" lon="-118.34837"><ele>1387.0</ele></trkpt>
      <trkpt lat="34.55858" lon="-118.34829"><ele>1387.0</ele></trkpt>
      <trkpt lat="34.55858" lon="-118.34822"><ele>1387.0</ele></trkpt>
      <trkpt lat="34.55861" lon="-118.34816"><ele>1387.0</ele></trkpt>
      <trkpt lat="34.55869" lon="-118.34809"><ele>1387.0</ele></trkpt>
      <trkpt lat="34.55874" lon="-118.34806"><ele>1387.0</ele></trkpt>
      <trkpt lat="34.55879" lon="-118.34807"><ele>1387.0</ele></trkpt>
      <trkpt lat="34.55883" lon="-118.34809"><ele>1387.0</ele></trkpt>
      <trkpt lat="34.55889" lon="-118.34810"><ele>1387.0</ele></trkpt>
      <trkpt lat="34.55895" lon="-118.34808"><ele>1399.0</ele></trkpt>
      <trkpt lat="34.55899" lon="-118.34803"><ele>1399.0</ele></trkpt>
      <trkpt lat="34.55901" lon="-118.34798"><ele>1399.0</ele></trkpt>
      <trkpt lat="34.55900" lon="-118.34791"><ele>1399.0</ele></trkpt>
      <trkpt lat="34.55902" lon="-118.34785"><ele>1399.0</ele></trkpt>
      <trkpt lat="34.55904" lon="-118.34778"><ele>1399.0</ele></trkpt>
      <trkpt lat="34.55905" lon="-118.34770"><ele>1399.0</ele></trkpt>
      <trkpt lat="34.55904" lon="-118.34758"><ele>1399.0</ele></trkpt>
      <trkpt lat="34.55905" lon="-118.34750"><ele>1399.0</ele></trkpt>
      <trkpt lat="34.55907" lon="-118.34741"><ele>1399.0</ele></trkpt>
      <trkpt lat="34.55911" lon="-118.34728"><ele>1399.0</ele></trkpt>
      <trkpt lat="34.55913" lon="-118.34715"><ele>1399.0</ele></trkpt>
      <trkpt lat="34.55914" lon="-118.34702"><ele>1399.0</ele></trkpt>
      <trkpt lat="34.55916" lon="-118.34693"><ele>1399.0</ele></trkpt>
    </trkseg>
    <trkseg>
      <trkpt lat="34.54300" lon="-118.36476"><ele>1009.0</ele></trkpt>
      <trkpt lat="34.54302" lon="-118.36468"><ele>1009.0</ele></trkpt>
      <trkpt lat="34.54303" lon="-118.36459"><ele>1009.0</ele></trkpt>
      <trkpt lat="34.54302" lon="-118.36448"><ele>1009.0</ele></trkpt>
      <trkpt lat="34.54302" lon="-118.36439"><ele>1009.0</ele></trkpt>
      <trkpt lat="34.54304" lon="-118.36433"><ele>1009.0</ele></trkpt>
      <trkpt lat="34.54308" lon="-118.36422"><ele>1009.0</ele></trkpt>
      <trkpt lat="34.54310" lon="-118.36409"><ele>1009.0</ele></trkpt>
      <trkpt lat="34.54312" lon="-118.36393"><ele>1009.0</ele></trkpt>
      <trkpt lat="34.54312" lon="-118.36382"><ele>1009.0</ele></trkpt>
      <trkpt lat="34.54311" lon="-118.36377"><ele>1009.0</ele></trkpt>
      <trkpt lat="34.54306" lon="-118.36368"><ele>1009.0</ele></trkpt>
      <trkpt lat="34.54302" lon="-118.36360"><ele>1009.0</ele></trkpt>
      <trkpt lat="34.54302" lon="-118.36349"><ele>994.0</ele></trkpt>
      <trkpt lat="34.54301" lon="-118.36336"><ele>994.0</ele></trkpt>
      <trkpt lat="34.54299" lon="-118.36323"><ele>994.0</ele></trkpt>
      <trkpt lat="34.54295" lon="-118.36315"><ele>994.0</ele></trkpt>
      <trkpt lat="34.54292" lon="-118.36304"><ele>994.0</ele></trkpt>
      <trkpt lat="34.54291" lon="-118.36299"><ele>994.0</ele></trkpt>
      <trkpt lat="34.54292" lon="-118.36293"><ele>994.0</ele></trkpt>
      <trkpt lat="34.54298" lon="-118.36287"><ele>994.0</ele></trkpt>
      <trkpt lat="34.54312" lon="-118.36280"><ele>994.0</ele></trkpt>
      <trkpt lat="34.54323" lon="-118.36275"><ele>994.0</ele></trkpt>
      <trkpt lat="34.54330" lon="-118.36269"><ele>994.0</ele></trkpt>
      <trkpt lat="34.54339" lon="-118.36261"><ele>994.0</ele></trkpt>
      <trkpt lat="34.54346" lon="-118.36253"><ele>994.0</ele></trkpt>
      <trkpt lat="34.54353" lon="-118.36246"><ele>1014.0</ele></trkpt>
      <trkpt lat="34.54359" lon="-118.36235"><ele>1014.0</ele></trkpt>
      <trkpt lat="34.54364" lon="-118.36227"><ele>1014.0</ele></trkpt>
      <trkpt lat="34.54369" lon="-118.36221"><ele>1014.0</ele></trkpt>
      <trkpt lat="34.54370" lon="-118.36217"><ele>1014.0</ele></trkpt>
      <trkpt lat="34.54368" lon="-118.36209"><ele>1014.0</ele></trkpt>
      <trkpt lat="34.54363" lon="-118.36198"><ele>1014.0</ele></trkpt>
      <trkpt lat="34.54358" lon="-118.36188"><ele>1014.0</ele></trkpt>
      <trkpt lat="34.54353" lon="-118.36181"><ele>1014.0</ele></trkpt>
      <trkpt lat="34.54348" lon="-118.36174"><ele>1014.0</ele></trkpt>
      <trkpt lat="34.54344" lon="-118.36171"><ele>1014.0</ele></trkpt>
      <trkpt lat="34.54339" lon="-118.36168"><ele>1014.0</ele></trkpt>
      <trkpt lat="34.54331" lon="-118.36164"><ele>1014.0</ele></trkpt>
      <trkpt lat="34.54321" lon="-118.36159"><ele>1014.0</ele></trkpt>
      <trkpt lat="34.54308" lon="-118.36149"><ele>979.0</ele></trkpt>
      <trkpt lat="34.54289" lon="-118.36136"><ele>979.0</ele></trkpt>
      <trkpt lat="34.54278" lon="-118.36130"><ele>979.0</ele></trkpt>
      <trkpt lat="34.54276" lon="-118.36126"><ele>979.0</ele></trkpt>
      <trkpt lat="34.54273" lon="-118.36121"><ele>979.0</ele></trkpt>
      <trkpt lat="34.54271" lon="-118.36119"><ele>979.0</ele></trkpt>
      <trkpt lat="34.54262" lon="-118.36121"><ele>979.0</ele></trkpt>
      <trkpt lat="34.54247" lon="-118.36122"><ele>979.0</ele></trkpt>
      <trkpt lat="34.54232" lon="-118.36122"><ele>979.0</ele></trkpt>
      <trkpt lat="34.54220" lon="-118.36122"><ele>979.0</ele></trkpt>
      <trkpt lat="34.54210" lon="-118.36121"><ele>979.0</ele></trkpt>
      <trkpt lat="34.54199" lon="-118.36119"><ele>979.0</ele></trkpt>
      <trkpt lat="34.54188" lon="-118.36115"><ele>979.0</ele></trkpt>
      <trkpt lat="34.54179" lon="-118.36111"><ele>940.0</ele></trkpt>
      <trkpt lat="34.54175" lon="-118.36105"><ele>940.0</ele></trkpt>
      <trkpt lat="34.54171" lon="-118.36100"><ele>940.0</ele></trkpt>
      <trkpt lat="34.54164" lon="-118.36096"><ele>940.0</ele></trkpt>
      <trkpt lat="34.54152" lon="-118.36087"><ele>940.0</ele></trkpt>
      <trkpt lat="34.54138" lon="-118.36079"><ele>940.0</ele></trkpt>
      <trkpt lat="34.54123" lon="-118.36071"><ele>940.0</ele></trkpt>
      <trkpt lat="34.54111" lon="-118.36059"><ele>940.0</ele></trkpt>
      <trkpt lat="34.54100" lon="-118.36050"><ele>940.0</ele></trkpt>
      <trkpt lat="34.54094" lon="-118.36041"><ele>940.0</ele></trkpt>
      <trkpt lat="34.54084" lon="-118.36025"><ele>940.0</ele></trkpt>
      <trkpt lat="34.54080" lon="-118.36018"><ele>940.0</ele></trkpt>
      <trkpt lat="34.54079" lon="-118.36011"><ele>940.0</ele></trkpt>
      <trkpt lat="34.54074" lon="-118.36005"><ele>940.0</ele></trkpt>
      <trkpt lat="34.54069" lon="-118.36000"><ele>918.0</ele></trkpt>
      <trkpt lat="34.54064" lon="-118.35996"><ele>918.0</ele></trkpt>
      <trkpt lat="34.54062" lon="-118.35990"><ele>918.0</ele></trkpt>
      <trkpt lat="34.54062" lon="-118.35980"><ele>918.0</ele></trkpt>
      <trkpt lat="34.54062" lon="-118.35968"><ele>918.0</ele></trkpt>
      <trkpt lat="34.54060" lon="-118.35953"><ele>918.0</ele></trkpt>
      <trkpt lat="34.54059" lon="-118.35937"><ele>918.0</ele></trkpt>
      <trkpt lat="34.54059" lon="-118.35926"><ele>918.0</ele></trkpt>
      <trkpt lat="34.54062" lon="-118.35921"><ele>918.0</ele></trkpt>
      <trkpt lat="34.54069" lon="-118.35918"><ele>918.0</ele></trkpt>
      <trkpt lat="34.54075" lon="-118.35916"><ele>918.0</ele></trkpt>
      <trkpt lat="34.54078" lon="-118.35913"><ele>918.0</ele></trkpt>
      <trkpt lat="34.54079" lon="-118.35898"><ele>918.0</ele></trkpt>
      <trkpt lat="34.54077" lon="-118.35891"><ele>913.0</ele></trkpt>
      <trkpt lat="34.54071" lon="-118.35882"><ele>913.0</ele></trkpt>
      <trkpt lat="34.54065" lon="-118.35877"><ele>913.0</ele></trkpt>
      <trkpt lat="34.54064" lon="-118.35870"><ele>913.0</ele></trkpt>
      <trkpt lat="34.54066" lon="-118.35862"><ele>913.0</ele></trkpt>
      <trkpt lat="34.54074" lon="-118.35843"><ele>913.0</ele></trkpt>
      <trkpt lat="34.54084" lon="-118.35826"><ele>913.0</ele></trkpt>
      <trkpt lat="34.54091" lon="-118.35811"><ele>913.0</ele></trkpt>
      <trkpt lat="34.54100" lon="-118.35802"><ele>913.0</ele></trkpt>
      <trkpt lat="34.54110" lon="-118.35796"><ele>913.0</ele></trkpt>
      <trkpt lat="34.54118" lon="-118.35788"><ele>913.0</ele></trkpt>
      <trkpt lat="34.54124" lon="-118.35782"><ele>913.0</ele></trkpt>
      <trkpt lat="34.54127" lon="-118.35774"><ele>913.0</ele></trkpt>
      <trkpt lat="34.54130" lon="-118.35759"><ele>916.0</ele></trkpt>
      <trkpt lat="34.54137" lon="-118.35744"><ele>916.0</ele></trkpt>
      <trkpt lat="34.54143" lon="-118.35734"><ele>916.0</ele></trkpt>
      <trkpt lat="34.54147" lon="-118.35726"><ele>916.0</ele></trkpt>
      <trkpt lat="34.54148" lon="-118.35720"><ele>916.0</ele></trkpt>
      <trkpt lat="34.54147" lon="-118.35713"><ele>916.0</ele></trkpt>
      <trkpt lat="34.54141" lon="-118.35710"><ele>916.0</ele></trkpt>
      <trkpt lat="34.54135" lon="-118.35708"><ele>916.0</ele></trkpt>
      <trkpt lat="34.54124" lon="-118.35709"><ele>916.0</ele></trkpt>
      <trkpt lat="34.54111" lon="-118.35715"><ele>916.0</ele></trkpt>
      <trkpt lat="34.54104" lon="-118.35716"><ele>916.0</ele></trkpt>
      <trkpt lat="34.54098" lon="-118.35715"><ele>916.0</ele></trkpt>
      <trkpt lat="34.54096" lon="-118.35712"><ele>916.0</ele></trkpt>
      <trkpt lat="34.54091" lon="-118.35711"><ele>916.0</ele></trkpt>
      <trkpt lat="34.54086" lon="-118.35718"><ele>912.0</ele></trkpt>
      <trkpt lat="34.54079" lon="-118.35731"><ele>912.0</ele></trkpt>
      <trkpt lat="34.54071" lon="-118.35741"><ele>912.0</ele></trkpt>
      <trkpt lat="34.54064" lon="-118.35745"><ele>912.0</ele></trkpt>
      <trkpt lat="34.54056" lon="-118.35749"><ele>912.0</ele></trkpt>
      <trkpt lat="34.54051" lon="-118.35751"><ele>912.0</ele></trkpt>
      <trkpt lat="34.54044" lon="-118.35748"><ele>912.0</ele></trkpt>
      <trkpt lat="34.54039" lon="-118.35744"><ele>912.0</ele></trkpt>
      <trkpt lat="34.54034" lon="-118.35743"><ele>912.0</ele></trkpt>
      <trkpt lat="34.54032" lon="-118.35744"><ele>912.0</ele></trkpt>
      <trkpt lat="34.54030" lon="-118.35754"><ele>912.0</ele></trkpt>
      <trkpt lat="34.54026" lon="-118.35764"><ele>912.0</ele></trkpt>
      <trkpt lat="34.54018" lon="-118.35777"><ele>912.0</ele></trkpt>
      <trkpt lat="34.54007" lon="-118.35787"><ele>915.0</ele></trkpt>
      <trkpt lat="34.53996" lon="-118.35792"><ele>915.0</ele></trkpt>
      <trkpt lat="34.53988" lon="-118.35792"><ele>915.0</ele></trkpt>
      <trkpt lat="34.53982" lon="-118.35790"><ele>915.0</ele></trkpt>
      <trkpt lat="34.53973" lon="-118.35789"><ele>915.0</ele></trkpt>
      <trkpt lat="34.53965" lon="-118.35789"><ele>915.0</ele></trkpt>
      <trkpt lat="34.53962" lon="-118.35792"><ele>915.0</ele></trkpt>
      <trkpt lat="34.53964" lon="-118.35799"><ele>915.0</ele></trkpt>
      <trkpt lat="34.53964" lon="-118.35805"><ele>915.0</ele></trkpt>
      <trkpt lat="34.53961" lon="-118.35816"><ele>915.0</ele></trkpt>
      <trkpt lat="34.53958" lon="-118.35824"><ele>915.0</ele></trkpt>
      <trkpt lat="34.53948" lon="-118.35833"><ele>915.0</ele></trkpt>
      <trkpt lat="34.53941" lon="-118.35839"><ele>915.0</ele></trkpt>
      <trkpt lat="34.53934" lon="-118.35841"><ele>915.0</ele></trkpt>
      <trkpt lat="34.53928" lon="-118.35845"><ele>903.0</ele></trkpt>
      <trkpt lat="34.53927" lon="-118.35848"><ele>903.0</ele></trkpt>
      <trkpt lat="34.53927" lon="-118.35857"><ele>903.0</ele></trkpt>
      <trkpt lat="34.53924" lon="-118.35860"><ele>903.0</ele></trkpt>
      <trkpt lat="34.53920" lon="-118.35865"><ele>903.0</ele></trkpt>
      <trkpt lat="34.53918" lon="-118.35868"><ele>903.0</ele></trkpt>
      <trkpt lat="34.53919" lon="-118.35879"><ele>903.0</ele></trkpt>
      <trkpt lat="34.53920" lon="-118.35884"><ele>903.0</ele></trkpt>
      <trkpt lat="34.53919" lon="-118.35889"><ele>903.0</ele></trkpt>
      <trkpt lat="34.53915" lon="-118.35901"><ele>903.0</ele></trkpt>
      <trkpt lat="34.53912" lon="-118.35910"><ele>903.0</ele></trkpt>
      <trkpt lat="34.53906" lon="-118.35923"><ele>903.0</ele></trkpt>
      <trkpt lat="34.53900" lon="-118.35927"><ele>903.0</ele></trkpt>
      <trkpt lat="34.53894" lon="-118.35929"><ele>898.0</ele></trkpt>
      <trkpt lat="34.53887" lon="-118.35929"><ele>898.0</ele></trkpt>
      <trkpt lat="34.53883" lon="-118.35932"><ele>898.0</ele></trkpt>
      <trkpt lat="34.53880" lon="-118.35935"><ele>898.0</ele></trkpt>
      <trkpt lat="34.53880" lon="-118.35942"><ele>898.0</ele></trkpt>
      <trkpt lat="34.53879" lon="-118.35950"><ele>898.0</ele></trkpt>
      <trkpt lat="34.53878" lon="-118.35955"><ele>898.0</ele></trkpt>
      <trkpt lat="34.53871" lon="-118.35957"><ele>898.0</ele></trkpt>
      <trkpt lat="34.53864" lon="-118.35958"><ele>898.0</ele></trkpt>
      <trkpt lat="34.53857" lon="-118.35958"><ele>898.0</ele></trkpt>
      <trkpt lat="34.53852" lon="-118.35961"><ele>898.0</ele></trkpt>
      <trkpt lat="34.53851" lon="-118.35965"><ele>898.0</ele></trkpt>
      <trkpt lat="34.53853" lon="-118.35972"><ele>898.0</ele></trkpt>
      <trkpt lat="34.53851" lon="-118.35980"><ele>898.0</ele></trkpt>
      <trkpt lat="34.53847" lon="-118.35994"><ele>898.0</ele></trkpt>
      <trkpt lat="34.53844" lon="-118.36004"><ele>898.0</ele></trkpt>
      <trkpt lat="34.53838" lon="-118.36011"><ele>898.0</ele></trkpt>
      <trkpt lat="34.53831" lon="-118.36018"><ele>898.0</ele></trkpt>
      <trkpt lat="34.53822" lon="-118.36020"><ele>898.0</ele></trkpt>
      <trkpt lat="34.53814" lon="-118.36019"><ele>898.0</ele></trkpt>
      <trkpt lat="34.53809" lon="-118.36018"><ele>898.0</ele></trkpt>
      <trkpt lat="34.53806" lon="-118.36015"><ele>898.0</ele></trkpt>
      <trkpt lat="34.53802" lon="-118.36016"><ele>898.0</ele></trkpt>
      <trkpt lat="34.53795" lon="-118.36019"><ele>898.0</ele></trkpt>
      <trkpt lat="34.53788" lon="-118.36023"><ele>898.0</ele></trkpt>
      <trkpt lat="34.53778" lon="-118.36029"><ele>898.0</ele></trkpt>
      <trkpt lat="34.53771" lon="-118.36035"><ele>898.0</ele></trkpt>
      <trkpt lat="34.53763" lon="-118.36038"><ele>907.0</ele></trkpt>
      <trkpt lat="34.53755" lon="-118.36038"><ele>907.0</ele></trkpt>
      <trkpt lat="34.53746" lon="-118.36036"><ele>907.0</ele></trkpt>
      <trkpt lat="34.53735" lon="-118.36033"><ele>907.0</ele></trkpt>
      <trkpt lat="34.53729" lon="-118.36029"><ele>907.0</ele></trkpt>
      <trkpt lat="34.53722" lon="-118.36023"><ele>907.0</ele></trkpt>
      <trkpt lat="34.53716" lon="-118.36016"><ele>907.0</ele></trkpt>
      <trkpt lat="34.53710" lon="-118.36016"><ele>907.0</ele></trkpt>
      <trkpt lat="34.53700" lon="-118.36018"><ele>907.0</ele></trkpt>
      <trkpt lat="34.53691" lon="-118.36019"><ele>907.0</ele></trkpt>
      <trkpt lat="34.53683" lon="-118.36018"><ele>907.0</ele></trkpt>
      <trkpt lat="34.53680" lon="-118.36013"><ele>907.0</ele></trkpt>
      <trkpt lat="34.53675" lon="-118.36007"><ele>907.0</ele></trkpt>
      <trkpt lat="34.53669" lon="-118.36000"><ele>910.0</ele></trkpt>
      <trkpt lat="34.53663" lon="-118.35999"><ele>910.0</ele></trkpt>
      <trkpt lat="34.53651" lon="-118.36001"><ele>910.0</ele></trkpt>
      <trkpt lat="34.53642" lon="-118.36003"><ele>910.0</ele></trkpt>
      <trkpt lat="34.53630" lon="-118.36001"><ele>910.0</ele></trkpt>
      <trkpt lat="34.53625" lon="-118.36002"><ele>910.0</ele></trkpt>
      <trkpt lat="34.53620" lon="-118.36003"><ele>910.0</ele></trkpt>
      <trkpt lat="34.53615" lon="-118.36007"><ele>910.0</ele></trkpt>
      <trkpt lat="34.53613" lon="-118.36015"><ele>910.0</ele></trkpt>
      <trkpt lat="34.53606" lon="-118.36021"><ele>910.0</ele></trkpt>
      <trkpt lat="34.53601" lon="-118.36025"><ele>910.0</ele></trkpt>
      <trkpt lat="34.53596" lon="-118.36031"><ele>910.0</ele></trkpt>
      <trkpt lat="34.53589" lon="-118.36031"><ele>910.0</ele></trkpt>
      <trkpt lat="34.53578" lon="-118.36030"><ele>910.0</ele></trkpt>
      <trkpt lat="34.53571" lon="-118.36032"><ele>902.0</ele></trkpt>
      <trkpt lat="34.53561" lon="-118.36039"><ele>902.0</ele></trkpt>
      <trkpt lat="34.53551" lon="-118.36046"><ele>902.0</ele></trkpt>
      <trkpt lat="34.53542" lon="-118.36049"><ele>902.0</ele></trkpt>
      <trkpt lat="34.53532" lon="-118.36053"><ele>902.0</ele></trkpt>
      <trkpt lat="34.53529" lon="-118.36056"><ele>902.0</ele></trkpt>
      <trkpt lat="34.53522" lon="-118.36069"><ele>902.0</ele></trkpt>
      <trkpt lat="34.53516" lon="-118.36083"><ele>902.0</ele></trkpt>
      <trkpt lat="34.53510" lon="-118.36092"><ele>902.0</ele></trkpt>
      <trkpt lat="34.53504" lon="-118.36099"><ele>902.0</ele></trkpt>
      <trkpt lat="34.53495" lon="-118.36103"><ele>902.0</ele></trkpt>
      <trkpt lat="34.53482" lon="-118.36104"><ele>902.0</ele></trkpt>
      <trkpt lat="34.53469" lon="-118.36101"><ele>902.0</ele></trkpt>
      <trkpt lat="34.53463" lon="-118.36097"><ele>892.0</ele></trkpt>
      <trkpt lat="34.53457" lon="-118.36090"><ele>892.0</ele></trkpt>
      <trkpt lat="34.53446" lon="-118.36082"><ele>892.0</ele></trkpt>
      <trkpt lat="34.53436" lon="-118.36076"><ele>892.0</ele></trkpt>
      <trkpt lat="34.53413" lon="-118.36071"><ele>892.0</ele></trkpt>
      <trkpt lat="34.53396" lon="-118.36065"><ele>892.0</ele></trkpt>
      <trkpt lat="34.53385" lon="-118.36062"><ele>892.0</ele></trkpt>
    </trkseg>
  </trk>
</gpx>
