<?xml version="1.0" encoding="UTF-8"?>
<gpx version="1.1" creator="dirt-bikes build-area-routes (MVUM geometry + SRTM elevation)" xmlns="http://www.topografix.com/GPX/1/1">
  <trk><name>San Jacinto Ridge</name><trkseg>
    <trkpt lat="33.76276" lon="-116.74427"><ele>1837.0</ele></trkpt>
    <trkpt lat="33.76282" lon="-116.74424"><ele>1837.0</ele></trkpt>
    <trkpt lat="33.76289" lon="-116.74417"><ele>1837.0</ele></trkpt>
    <trkpt lat="33.76297" lon="-116.74404"><ele>1837.0</ele></trkpt>
    <trkpt lat="33.76303" lon="-116.74392"><ele>1837.0</ele></trkpt>
    <trkpt lat="33.76308" lon="-116.74379"><ele>1837.0</ele></trkpt>
    <trkpt lat="33.76313" lon="-116.74367"><ele>1837.0</ele></trkpt>
    <trkpt lat="33.76318" lon="-116.74363"><ele>1837.0</ele></trkpt>
    <trkpt lat="33.76324" lon="-116.74364"><ele>1826.0</ele></trkpt>
    <trkpt lat="33.76337" lon="-116.74367"><ele>1826.0</ele></trkpt>
    <trkpt lat="33.76346" lon="-116.74367"><ele>1826.0</ele></trkpt>
    <trkpt lat="33.76352" lon="-116.74362"><ele>1826.0</ele></trkpt>
    <trkpt lat="33.76359" lon="-116.74357"><ele>1826.0</ele></trkpt>
    <trkpt lat="33.76367" lon="-116.74347"><ele>1826.0</ele></trkpt>
    <trkpt lat="33.76375" lon="-116.74333"><ele>1826.0</ele></trkpt>
    <trkpt lat="33.76382" lon="-116.74316"><ele>1826.0</ele></trkpt>
    <trkpt lat="33.76390" lon="-116.74299"><ele>1826.0</ele></trkpt>
    <trkpt lat="33.76400" lon="-116.74283"><ele>1826.0</ele></trkpt>
    <trkpt lat="33.76408" lon="-116.74272"><ele>1826.0</ele></trkpt>
    <trkpt lat="33.76415" lon="-116.74259"><ele>1826.0</ele></trkpt>
    <trkpt lat="33.76419" lon="-116.74246"><ele>1826.0</ele></trkpt>
    <trkpt lat="33.76423" lon="-116.74231"><ele>1826.0</ele></trkpt>
    <trkpt lat="33.76424" lon="-116.74215"><ele>1835.0</ele></trkpt>
    <trkpt lat="33.76423" lon="-116.74202"><ele>1835.0</ele></trkpt>
    <trkpt lat="33.76417" lon="-116.74183"><ele>1835.0</ele></trkpt>
    <trkpt lat="33.76411" lon="-116.74169"><ele>1835.0</ele></trkpt>
    <trkpt lat="33.76407" lon="-116.74157"><ele>1835.0</ele></trkpt>
    <trkpt lat="33.76410" lon="-116.74149"><ele>1835.0</ele></trkpt>
    <trkpt lat="33.76419" lon="-116.74147"><ele>1835.0</ele></trkpt>
    <trkpt lat="33.76430" lon="-116.74152"><ele>1835.0</ele></trkpt>
    <trkpt lat="33.76438" lon="-116.74163"><ele>1835.0</ele></trkpt>
    <trkpt lat="33.76445" lon="-116.74172"><ele>1835.0</ele></trkpt>
    <trkpt lat="33.76456" lon="-116.74188"><ele>1835.0</ele></trkpt>
    <trkpt lat="33.76465" lon="-116.74208"><ele>1835.0</ele></trkpt>
    <trkpt lat="33.76476" lon="-116.74222"><ele>1835.0</ele></trkpt>
    <trkpt lat="33.76482" lon="-116.74234"><ele>1835.0</ele></trkpt>
    <trkpt lat="33.76492" lon="-116.74257"><ele>1810.0</ele></trkpt>
    <trkpt lat="33.76500" lon="-116.74275"><ele>1810.0</ele></trkpt>
    <trkpt lat="33.76508" lon="-116.74287"><ele>1810.0</ele></trkpt>
    <trkpt lat="33.76525" lon="-116.74306"><ele>1810.0</ele></trkpt>
    <trkpt lat="33.76545" lon="-116.74328"><ele>1810.0</ele></trkpt>
    <trkpt lat="33.76556" lon="-116.74337"><ele>1810.0</ele></trkpt>
    <trkpt lat="33.76566" lon="-116.74350"><ele>1810.0</ele></trkpt>
    <trkpt lat="33.76575" lon="-116.74360"><ele>1810.0</ele></trkpt>
    <trkpt lat="33.76585" lon="-116.74362"><ele>1810.0</ele></trkpt>
    <trkpt lat="33.76606" lon="-116.74357"><ele>1810.0</ele></trkpt>
    <trkpt lat="33.76621" lon="-116.74356"><ele>1810.0</ele></trkpt>
    <trkpt lat="33.76641" lon="-116.74357"><ele>1810.0</ele></trkpt>
    <trkpt lat="33.76662" lon="-116.74356"><ele>1810.0</ele></trkpt>
    <trkpt lat="33.76691" lon="-116.74351"><ele>1810.0</ele></trkpt>
    <trkpt lat="33.76701" lon="-116.74351"><ele>1792.0</ele></trkpt>
    <trkpt lat="33.76707" lon="-116.74357"><ele>1792.0</ele></trkpt>
    <trkpt lat="33.76708" lon="-116.74366"><ele>1792.0</ele></trkpt>
    <trkpt lat="33.76704" lon="-116.74378"><ele>1792.0</ele></trkpt>
    <trkpt lat="33.76699" lon="-116.74396"><ele>1792.0</ele></trkpt>
    <trkpt lat="33.76688" lon="-116.74425"><ele>1792.0</ele></trkpt>
    <trkpt lat="33.76675" lon="-116.74459"><ele>1792.0</ele></trkpt>
    <trkpt lat="33.76663" lon="-116.74483"><ele>1792.0</ele></trkpt>
    <trkpt lat="33.76651" lon="-116.74503"><ele>1792.0</ele></trkpt>
    <trkpt lat="33.76631" lon="-116.74530"><ele>1792.0</ele></trkpt>
    <trkpt lat="33.76612" lon="-116.74556"><ele>1792.0</ele></trkpt>
    <trkpt lat="33.76599" lon="-116.74574"><ele>1792.0</ele></trkpt>
    <trkpt lat="33.76595" lon="-116.74587"><ele>1792.0</ele></trkpt>
    <trkpt lat="33.76593" lon="-116.74601"><ele>1792.0</ele></trkpt>
    <trkpt lat="33.76596" lon="-116.74611"><ele>1765.0</ele></trkpt>
    <trkpt lat="33.76603" lon="-116.74618"><ele>1765.0</ele></trkpt>
    <trkpt lat="33.76611" lon="-116.74619"><ele>1765.0</ele></trkpt>
    <trkpt lat="33.76620" lon="-116.74620"><ele>1765.0</ele></trkpt>
    <trkpt lat="33.76630" lon="-116.74622"><ele>1765.0</ele></trkpt>
    <trkpt lat="33.76639" lon="-116.74626"><ele>1765.0</ele></trkpt>
    <trkpt lat="33.76647" lon="-116.74627"><ele>1765.0</ele></trkpt>
    <trkpt lat="33.76655" lon="-116.74627"><ele>1765.0</ele></trkpt>
    <trkpt lat="33.76665" lon="-116.74626"><ele>1765.0</ele></trkpt>
    <trkpt lat="33.76673" lon="-116.74627"><ele>1765.0</ele></trkpt>
    <trkpt lat="33.76683" lon="-116.74631"><ele>1765.0</ele></trkpt>
    <trkpt lat="33.76694" lon="-116.74638"><ele>1765.0</ele></trkpt>
    <trkpt lat="33.76706" lon="-116.74648"><ele>1765.0</ele></trkpt>
    <trkpt lat="33.76715" lon="-116.74654"><ele>1765.0</ele></trkpt>
    <trkpt lat="33.76722" lon="-116.74664"><ele>1751.0</ele></trkpt>
    <trkpt lat="33.76730" lon="-116.74672"><ele>1751.0</ele></trkpt>
    <trkpt lat="33.76738" lon="-116.74675"><ele>1751.0</ele></trkpt>
    <trkpt lat="33.76748" lon="-116.74674"><ele>1751.0</ele></trkpt>
    <trkpt lat="33.76756" lon="-116.74673"><ele>1751.0</ele></trkpt>
    <trkpt lat="33.76764" lon="-116.74671"><ele>1751.0</ele></trkpt>
    <trkpt lat="33.76774" lon="-116.74667"><ele>1751.0</ele></trkpt>
    <trkpt lat="33.76780" lon="-116.74666"><ele>1751.0</ele></trkpt>
    <trkpt lat="33.76788" lon="-116.74668"><ele>1751.0</ele></trkpt>
    <trkpt lat="33.76794" lon="-116.74672"><ele>1751.0</ele></trkpt>
    <trkpt lat="33.76803" lon="-116.74674"><ele>1751.0</ele></trkpt>
    <trkpt lat="33.76818" lon="-116.74674"><ele>1751.0</ele></trkpt>
    <trkpt lat="33.76828" lon="-116.74677"><ele>1751.0</ele></trkpt>
    <trkpt lat="33.76838" lon="-116.74687"><ele>1751.0</ele></trkpt>
    <trkpt lat="33.76847" lon="-116.74697"><ele>1728.0</ele></trkpt>
    <trkpt lat="33.76854" lon="-116.74707"><ele>1728.0</ele></trkpt>
    <trkpt lat="33.76856" lon="-116.74714"><ele>1728.0</ele></trkpt>
    <trkpt lat="33.76856" lon="-116.74723"><ele>1728.0</ele></trkpt>
    <trkpt lat="33.76851" lon="-116.74731"><ele>1728.0</ele></trkpt>
    <trkpt lat="33.76845" lon="-116.74734"><ele>1728.0</ele></trkpt>
    <trkpt lat="33.76834" lon="-116.74733"><ele>1728.0</ele></trkpt>
    <trkpt lat="33.76824" lon="-116.74733"><ele>1728.0</ele></trkpt>
    <trkpt lat="33.76811" lon="-116.74737"><ele>1728.0</ele></trkpt>
    <trkpt lat="33.76801" lon="-116.74741"><ele>1728.0</ele></trkpt>
    <trkpt lat="33.76790" lon="-116.74748"><ele>1728.0</ele></trkpt>
    <trkpt lat="33.76783" lon="-116.74755"><ele>1728.0</ele></trkpt>
    <trkpt lat="33.76776" lon="-116.74761"><ele>1728.0</ele></trkpt>
    <trkpt lat="33.76772" lon="-116.74770"><ele>1717.0</ele></trkpt>
    <trkpt lat="33.76768" lon="-116.74781"><ele>1717.0</ele></trkpt>
    <trkpt lat="33.76762" lon="-116.74789"><ele>1717.0</ele></trkpt>
    <trkpt lat="33.76754" lon="-116.74801"><ele>1717.0</ele></trkpt>
    <trkpt lat="33.76743" lon="-116.74819"><ele>1717.0</ele></trkpt>
    <trkpt lat="33.76738" lon="-116.74828"><ele>1717.0</ele></trkpt>
    <trkpt lat="33.76737" lon="-116.74843"><ele>1717.0</ele></trkpt>
    <trkpt lat="33.76737" lon="-116.74858"><ele>1717.0</ele></trkpt>
    <trkpt lat="33.76740" lon="-116.74865"><ele>1717.0</ele></trkpt>
    <trkpt lat="33.76746" lon="-116.74874"><ele>1717.0</ele></trkpt>
    <trkpt lat="33.76755" lon="-116.74884"><ele>1717.0</ele></trkpt>
    <trkpt lat="33.76763" lon="-116.74893"><ele>1717.0</ele></trkpt>
    <trkpt lat="33.76767" lon="-116.74904"><ele>1717.0</ele></trkpt>
    <trkpt lat="33.76768" lon="-116.74915"><ele>1717.0</ele></trkpt>
    <trkpt lat="33.76767" lon="-116.74927"><ele>1697.0</ele></trkpt>
    <trkpt lat="33.76764" lon="-116.74940"><ele>1697.0</ele></trkpt>
    <trkpt lat="33.76758" lon="-116.74955"><ele>1697.0</ele></trkpt>
    <trkpt lat="33.76755" lon="-116.74968"><ele>1697.0</ele></trkpt>
    <trkpt lat="33.76756" lon="-116.74980"><ele>1697.0</ele></trkpt>
    <trkpt lat="33.76759" lon="-116.74991"><ele>1697.0</ele></trkpt>
    <trkpt lat="33.76758" lon="-116.74999"><ele>1697.0</ele></trkpt>
    <trkpt lat="33.76754" lon="-116.75008"><ele>1697.0</ele></trkpt>
    <trkpt lat="33.76743" lon="-116.75027"><ele>1697.0</ele></trkpt>
    <trkpt lat="33.76732" lon="-116.75045"><ele>1697.0</ele></trkpt>
    <trkpt lat="33.76721" lon="-116.75057"><ele>1697.0</ele></trkpt>
    <trkpt lat="33.76706" lon="-116.75072"><ele>1697.0</ele></trkpt>
    <trkpt lat="33.76684" lon="-116.75085"><ele>1697.0</ele></trkpt>
    <trkpt lat="33.76664" lon="-116.75097"><ele>1697.0</ele></trkpt>
    <trkpt lat="33.76639" lon="-116.75112"><ele>1681.0</ele></trkpt>
    <trkpt lat="33.76627" lon="-116.75119"><ele>1681.0</ele></trkpt>
    <trkpt lat="33.76621" lon="-116.75126"><ele>1681.0</ele></trkpt>
    <trkpt lat="33.76610" lon="-116.75147"><ele>1681.0</ele></trkpt>
    <trkpt lat="33.76599" lon="-116.75166"><ele>1681.0</ele></trkpt>
    <trkpt lat="33.76588" lon="-116.75191"><ele>1681.0</ele></trkpt>
    <trkpt lat="33.76584" lon="-116.75203"><ele>1681.0</ele></trkpt>
    <trkpt lat="33.76583" lon="-116.75215"><ele>1681.0</ele></trkpt>
    <trkpt lat="33.76581" lon="-116.75222"><ele>1681.0</ele></trkpt>
    <trkpt lat="33.76574" lon="-116.75231"><ele>1681.0</ele></trkpt>
    <trkpt lat="33.76564" lon="-116.75241"><ele>1681.0</ele></trkpt>
    <trkpt lat="33.76555" lon="-116.75251"><ele>1681.0</ele></trkpt>
    <trkpt lat="33.76547" lon="-116.75266"><ele>1681.0</ele></trkpt>
    <trkpt lat="33.76540" lon="-116.75291"><ele>1681.0</ele></trkpt>
    <trkpt lat="33.76534" lon="-116.75316"><ele>1660.0</ele></trkpt>
    <trkpt lat="33.76528" lon="-116.75334"><ele>1660.0</ele></trkpt>
    <trkpt lat="33.76526" lon="-116.75346"><ele>1660.0</ele></trkpt>
    <trkpt lat="33.76528" lon="-116.75356"><ele>1660.0</ele></trkpt>
    <trkpt lat="33.76533" lon="-116.75374"><ele>1660.0</ele></trkpt>
    <trkpt lat="33.76539" lon="-116.75391"><ele>1660.0</ele></trkpt>
    <trkpt lat="33.76550" lon="-116.75410"><ele>1660.0</ele></trkpt>
    <trkpt lat="33.76576" lon="-116.75445"><ele>1660.0</ele></trkpt>
    <trkpt lat="33.76608" lon="-116.75489"><ele>1660.0</ele></trkpt>
    <trkpt lat="33.76626" lon="-116.75514"><ele>1660.0</ele></trkpt>
    <trkpt lat="33.76634" lon="-116.75530"><ele>1660.0</ele></trkpt>
    <trkpt lat="33.76638" lon="-116.75545"><ele>1660.0</ele></trkpt>
    <trkpt lat="33.76642" lon="-116.75561"><ele>1660.0</ele></trkpt>
    <trkpt lat="33.76643" lon="-116.75575"><ele>1660.0</ele></trkpt>
    <trkpt lat="33.76641" lon="-116.75588"><ele>1648.0</ele></trkpt>
    <trkpt lat="33.76630" lon="-116.75606"><ele>1648.0</ele></trkpt>
    <trkpt lat="33.76615" lon="-116.75626"><ele>1648.0</ele></trkpt>
    <trkpt lat="33.76602" lon="-116.75643"><ele>1648.0</ele></trkpt>
    <trkpt lat="33.76582" lon="-116.75674"><ele>1648.0</ele></trkpt>
    <trkpt lat="33.76574" lon="-116.75684"><ele>1648.0</ele></trkpt>
    <trkpt lat="33.76567" lon="-116.75688"><ele>1648.0</ele></trkpt>
    <trkpt lat="33.76554" lon="-116.75692"><ele>1648.0</ele></trkpt>
    <trkpt lat="33.76536" lon="-116.75696"><ele>1648.0</ele></trkpt>
    <trkpt lat="33.76525" lon="-116.75699"><ele>1648.0</ele></trkpt>
    <trkpt lat="33.76513" lon="-116.75710"><ele>1648.0</ele></trkpt>
    <trkpt lat="33.76497" lon="-116.75724"><ele>1648.0</ele></trkpt>
    <trkpt lat="33.76480" lon="-116.75739"><ele>1648.0</ele></trkpt>
    <trkpt lat="33.76466" lon="-116.75754"><ele>1648.0</ele></trkpt>
    <trkpt lat="33.76450" lon="-116.75765"><ele>1644.0</ele></trkpt>
    <trkpt lat="33.76441" lon="-116.75779"><ele>1644.0</ele></trkpt>
    <trkpt lat="33.76432" lon="-116.75794"><ele>1644.0</ele></trkpt>
    <trkpt lat="33.76420" lon="-116.75804"><ele>1644.0</ele></trkpt>
    <trkpt lat="33.76406" lon="-116.75812"><ele>1644.0</ele></trkpt>
    <trkpt lat="33.76380" lon="-116.75822"><ele>1644.0</ele></trkpt>
    <trkpt lat="33.76365" lon="-116.75829"><ele>1644.0</ele></trkpt>
    <trkpt lat="33.76358" lon="-116.75842"><ele>1644.0</ele></trkpt>
    <trkpt lat="33.76354" lon="-116.75859"><ele>1644.0</ele></trkpt>
    <trkpt lat="33.76344" lon="-116.75897"><ele>1644.0</ele></trkpt>
    <trkpt lat="33.76336" lon="-116.75927"><ele>1644.0</ele></trkpt>
    <trkpt lat="33.76330" lon="-116.75952"><ele>1644.0</ele></trkpt>
    <trkpt lat="33.76323" lon="-116.75978"><ele>1644.0</ele></trkpt>
    <trkpt lat="33.76316" lon="-116.76010"><ele>1644.0</ele></trkpt>
    <trkpt lat="33.76309" lon="-116.76047"><ele>1635.0</ele></trkpt>
    <trkpt lat="33.76307" lon="-116.76068"><ele>1635.0</ele></trkpt>
    <trkpt lat="33.76307" lon="-116.76087"><ele>1635.0</ele></trkpt>
    <trkpt lat="33.76307" lon="-116.76095"><ele>1635.0</ele></trkpt>
    <trkpt lat="33.76307" lon="-116.76112"><ele>1635.0</ele></trkpt>
    <trkpt lat="33.76309" lon="-116.76129"><ele>1635.0</ele></trkpt>
    <trkpt lat="33.76315" lon="-116.76147"><ele>1635.0</ele></trkpt>
    <trkpt lat="33.76320" lon="-116.76162"><ele>1635.0</ele></trkpt>
    <trkpt lat="33.76320" lon="-116.76176"><ele>1635.0</ele></trkpt>
    <trkpt lat="33.76318" lon="-116.76190"><ele>1635.0</ele></trkpt>
    <trkpt lat="33.76308" lon="-116.76206"><ele>1635.0</ele></trkpt>
    <trkpt lat="33.76294" lon="-116.76228"><ele>1635.0</ele></trkpt>
    <trkpt lat="33.76287" lon="-116.76242"><ele>1635.0</ele></trkpt>
    <trkpt lat="33.76284" lon="-116.76257"><ele>1635.0</ele></trkpt>
    <trkpt lat="33.76280" lon="-116.76278"><ele>1614.0</ele></trkpt>
    <trkpt lat="33.76269" lon="-116.76312"><ele>1614.0</ele></trkpt>
    <trkpt lat="33.76265" lon="-116.76331"><ele>1614.0</ele></trkpt>
    <trkpt lat="33.76265" lon="-116.76344"><ele>1614.0</ele></trkpt>
    <trkpt lat="33.76263" lon="-116.76360"><ele>1614.0</ele></trkpt>
    <trkpt lat="33.76259" lon="-116.76386"><ele>1614.0</ele></trkpt>
    <trkpt lat="33.76258" lon="-116.76402"><ele>1614.0</ele></trkpt>
    <trkpt lat="33.76261" lon="-116.76422"><ele>1614.0</ele></trkpt>
    <trkpt lat="33.76265" lon="-116.76443"><ele>1614.0</ele></trkpt>
    <trkpt lat="33.76271" lon="-116.76483"><ele>1614.0</ele></trkpt>
    <trkpt lat="33.76278" lon="-116.76521"><ele>1614.0</ele></trkpt>
    <trkpt lat="33.76285" lon="-116.76556"><ele>1614.0</ele></trkpt>
    <trkpt lat="33.76292" lon="-116.76574"><ele>1614.0</ele></trkpt>
    <trkpt lat="33.76315" lon="-116.76561"><ele>1614.0</ele></trkpt>
    <trkpt lat="33.76337" lon="-116.76547"><ele>1605.0</ele></trkpt>
    <trkpt lat="33.76352" lon="-116.76536"><ele>1605.0</ele></trkpt>
    <trkpt lat="33.76365" lon="-116.76525"><ele>1605.0</ele></trkpt>
    <trkpt lat="33.76374" lon="-116.76516"><ele>1605.0</ele></trkpt>
    <trkpt lat="33.76385" lon="-116.76503"><ele>1605.0</ele></trkpt>
    <trkpt lat="33.76392" lon="-116.76495"><ele>1605.0</ele></trkpt>
    <trkpt lat="33.76399" lon="-116.76490"><ele>1605.0</ele></trkpt>
    <trkpt lat="33.76408" lon="-116.76488"><ele>1605.0</ele></trkpt>
    <trkpt lat="33.76417" lon="-116.76492"><ele>1605.0</ele></trkpt>
    <trkpt lat="33.76425" lon="-116.76495"><ele>1605.0</ele></trkpt>
    <trkpt lat="33.76434" lon="-116.76496"><ele>1605.0</ele></trkpt>
    <trkpt lat="33.76441" lon="-116.76495"><ele>1605.0</ele></trkpt>
    <trkpt lat="33.76448" lon="-116.76492"><ele>1605.0</ele></trkpt>
    <trkpt lat="33.76458" lon="-116.76485"><ele>1605.0</ele></trkpt>
    <trkpt lat="33.76471" lon="-116.76476"><ele>1589.0</ele></trkpt>
    <trkpt lat="33.76477" lon="-116.76469"><ele>1589.0</ele></trkpt>
    <trkpt lat="33.76479" lon="-116.76458"><ele>1589.0</ele></trkpt>
    <trkpt lat="33.76482" lon="-116.76450"><ele>1589.0</ele></trkpt>
    <trkpt lat="33.76488" lon="-116.76444"><ele>1589.0</ele></trkpt>
    <trkpt lat="33.76493" lon="-116.76444"><ele>1589.0</ele></trkpt>
    <trkpt lat="33.76501" lon="-116.76446"><ele>1589.0</ele></trkpt>
    <trkpt lat="33.76511" lon="-116.76450"><ele>1589.0</ele></trkpt>
    <trkpt lat="33.76519" lon="-116.76450"><ele>1589.0</ele></trkpt>
    <trkpt lat="33.76528" lon="-116.76448"><ele>1589.0</ele></trkpt>
    <trkpt lat="33.76537" lon="-116.76444"><ele>1589.0</ele></trkpt>
    <trkpt lat="33.76545" lon="-116.76439"><ele>1589.0</ele></trkpt>
    <trkpt lat="33.76553" lon="-116.76431"><ele>1589.0</ele></trkpt>
    <trkpt lat="33.76557" lon="-116.76422"><ele>1589.0</ele></trkpt>
    <trkpt lat="33.76563" lon="-116.76417"><ele>1577.0</ele></trkpt>
    <trkpt lat="33.76569" lon="-116.76413"><ele>1577.0</ele></trkpt>
    <trkpt lat="33.76575" lon="-116.76408"><ele>1577.0</ele></trkpt>
    <trkpt lat="33.76577" lon="-116.76399"><ele>1577.0</ele></trkpt>
    <trkpt lat="33.76579" lon="-116.76390"><ele>1577.0</ele></trkpt>
    <trkpt lat="33.76579" lon="-116.76376"><ele>1577.0</ele></trkpt>
    <trkpt lat="33.76580" lon="-116.76367"><ele>1577.0</ele></trkpt>
    <trkpt lat="33.76583" lon="-116.76360"><ele>1577.0</ele></trkpt>
    <trkpt lat="33.76590" lon="-116.76357"><ele>1577.0</ele></trkpt>
    <trkpt lat="33.76599" lon="-116.76354"><ele>1577.0</ele></trkpt>
    <trkpt lat="33.76607" lon="-116.76352"><ele>1577.0</ele></trkpt>
    <trkpt lat="33.76614" lon="-116.76346"><ele>1577.0</ele></trkpt>
    <trkpt lat="33.76618" lon="-116.76339"><ele>1577.0</ele></trkpt>
    <trkpt lat="33.76622" lon="-116.76332"><ele>1577.0</ele></trkpt>
    <trkpt lat="33.76631" lon="-116.76332"><ele>1559.0</ele></trkpt>
    <trkpt lat="33.76642" lon="-116.76332"><ele>1559.0</ele></trkpt>
    <trkpt lat="33.76650" lon="-116.76332"><ele>1559.0</ele></trkpt>
    <trkpt lat="33.76656" lon="-116.76330"><ele>1559.0</ele></trkpt>
    <trkpt lat="33.76668" lon="-116.76327"><ele>1559.0</ele></trkpt>
    <trkpt lat="33.76677" lon="-116.76321"><ele>1559.0</ele></trkpt>
    <trkpt lat="33.76685" lon="-116.76311"><ele>1559.0</ele></trkpt>
    <trkpt lat="33.76693" lon="-116.76297"><ele>1559.0</ele></trkpt>
    <trkpt lat="33.76698" lon="-116.76285"><ele>1559.0</ele></trkpt>
    <trkpt lat="33.76702" lon="-116.76273"><ele>1559.0</ele></trkpt>
    <trkpt lat="33.76703" lon="-116.76263"><ele>1559.0</ele></trkpt>
    <trkpt lat="33.76702" lon="-116.76254"><ele>1559.0</ele></trkpt>
    <trkpt lat="33.76703" lon="-116.76243"><ele>1559.0</ele></trkpt>
    <trkpt lat="33.76706" lon="-116.76235"><ele>1559.0</ele></trkpt>
    <trkpt lat="33.76710" lon="-116.76231"><ele>1548.0</ele></trkpt>
    <trkpt lat="33.76718" lon="-116.76232"><ele>1548.0</ele></trkpt>
    <trkpt lat="33.76731" lon="-116.76234"><ele>1548.0</ele></trkpt>
    <trkpt lat="33.76743" lon="-116.76234"><ele>1548.0</ele></trkpt>
    <trkpt lat="33.76754" lon="-116.76233"><ele>1548.0</ele></trkpt>
    <trkpt lat="33.76761" lon="-116.76234"><ele>1548.0</ele></trkpt>
    <trkpt lat="33.76769" lon="-116.76241"><ele>1548.0</ele></trkpt>
    <trkpt lat="33.76778" lon="-116.76245"><ele>1548.0</ele></trkpt>
    <trkpt lat="33.76786" lon="-116.76245"><ele>1548.0</ele></trkpt>
    <trkpt lat="33.76794" lon="-116.76240"><ele>1548.0</ele></trkpt>
    <trkpt lat="33.76800" lon="-116.76233"><ele>1548.0</ele></trkpt>
    <trkpt lat="33.76806" lon="-116.76224"><ele>1548.0</ele></trkpt>
    <trkpt lat="33.76812" lon="-116.76213"><ele>1548.0</ele></trkpt>
    <trkpt lat="33.76822" lon="-116.76205"><ele>1548.0</ele></trkpt>
    <trkpt lat="33.76829" lon="-116.76200"><ele>1533.0</ele></trkpt>
    <trkpt lat="33.76840" lon="-116.76195"><ele>1533.0</ele></trkpt>
    <trkpt lat="33.76848" lon="-116.76195"><ele>1533.0</ele></trkpt>
    <trkpt lat="33.76855" lon="-116.76200"><ele>1533.0</ele></trkpt>
    <trkpt lat="33.76858" lon="-116.76207"><ele>1533.0</ele></trkpt>
    <trkpt lat="33.76858" lon="-116.76214"><ele>1533.0</ele></trkpt>
    <trkpt lat="33.76850" lon="-116.76221"><ele>1533.0</ele></trkpt>
    <trkpt lat="33.76840" lon="-116.76227"><ele>1533.0</ele></trkpt>
    <trkpt lat="33.76834" lon="-116.76233"><ele>1533.0</ele></trkpt>
    <trkpt lat="33.76832" lon="-116.76242"><ele>1533.0</ele></trkpt>
    <trkpt lat="33.76833" lon="-116.76249"><ele>1533.0</ele></trkpt>
    <trkpt lat="33.76836" lon="-116.76258"><ele>1533.0</ele></trkpt>
    <trkpt lat="33.76835" lon="-116.76268"><ele>1533.0</ele></trkpt>
    <trkpt lat="33.76828" lon="-116.76276"><ele>1533.0</ele></trkpt>
    <trkpt lat="33.76817" lon="-116.76280"><ele>1537.0</ele></trkpt>
    <trkpt lat="33.76803" lon="-116.76284"><ele>1537.0</ele></trkpt>
    <trkpt lat="33.76790" lon="-116.76287"><ele>1537.0</ele></trkpt>
    <trkpt lat="33.76773" lon="-116.76290"><ele>1537.0</ele></trkpt>
    <trkpt lat="33.76763" lon="-116.76295"><ele>1537.0</ele></trkpt>
    <trkpt lat="33.76760" lon="-116.76302"><ele>1537.0</ele></trkpt>
    <trkpt lat="33.76761" lon="-116.76316"><ele>1537.0</ele></trkpt>
    <trkpt lat="33.76763" lon="-116.76333"><ele>1537.0</ele></trkpt>
    <trkpt lat="33.76764" lon="-116.76350"><ele>1537.0</ele></trkpt>
    <trkpt lat="33.76767" lon="-116.76362"><ele>1537.0</ele></trkpt>
    <trkpt lat="33.76772" lon="-116.76366"><ele>1537.0</ele></trkpt>
    <trkpt lat="33.76777" lon="-116.76372"><ele>1537.0</ele></trkpt>
    <trkpt lat="33.76784" lon="-116.76386"><ele>1537.0</ele></trkpt>
    <trkpt lat="33.76787" lon="-116.76402"><ele>1516.0</ele></trkpt>
    <trkpt lat="33.76787" lon="-116.76413"><ele>1516.0</ele></trkpt>
    <trkpt lat="33.76782" lon="-116.76425"><ele>1516.0</ele></trkpt>
    <trkpt lat="33.76778" lon="-116.76435"><ele>1516.0</ele></trkpt>
    <trkpt lat="33.76776" lon="-116.76453"><ele>1516.0</ele></trkpt>
    <trkpt lat="33.76777" lon="-116.76478"><ele>1516.0</ele></trkpt>
    <trkpt lat="33.76776" lon="-116.76491"><ele>1516.0</ele></trkpt>
    <trkpt lat="33.76772" lon="-116.76500"><ele>1516.0</ele></trkpt>
    <trkpt lat="33.76768" lon="-116.76508"><ele>1516.0</ele></trkpt>
    <trkpt lat="33.76769" lon="-116.76519"><ele>1516.0</ele></trkpt>
    <trkpt lat="33.76774" lon="-116.76532"><ele>1516.0</ele></trkpt>
    <trkpt lat="33.76779" lon="-116.76541"><ele>1516.0</ele></trkpt>
    <trkpt lat="33.76782" lon="-116.76551"><ele>1516.0</ele></trkpt>
    <trkpt lat="33.76781" lon="-116.76561"><ele>1516.0</ele></trkpt>
    <trkpt lat="33.76777" lon="-116.76571"><ele>1495.0</ele></trkpt>
    <trkpt lat="33.76775" lon="-116.76581"><ele>1495.0</ele></trkpt>
    <trkpt lat="33.76777" lon="-116.76588"><ele>1495.0</ele></trkpt>
    <trkpt lat="33.76784" lon="-116.76593"><ele>1495.0</ele></trkpt>
    <trkpt lat="33.76790" lon="-116.76603"><ele>1495.0</ele></trkpt>
    <trkpt lat="33.76791" lon="-116.76618"><ele>1495.0</ele></trkpt>
    <trkpt lat="33.76788" lon="-116.76629"><ele>1495.0</ele></trkpt>
    <trkpt lat="33.76781" lon="-116.76636"><ele>1495.0</ele></trkpt>
    <trkpt lat="33.76771" lon="-116.76641"><ele>1495.0</ele></trkpt>
    <trkpt lat="33.76760" lon="-116.76645"><ele>1495.0</ele></trkpt>
    <trkpt lat="33.76747" lon="-116.76648"><ele>1495.0</ele></trkpt>
    <trkpt lat="33.76732" lon="-116.76660"><ele>1495.0</ele></trkpt>
    <trkpt lat="33.76720" lon="-116.76668"><ele>1495.0</ele></trkpt>
    <trkpt lat="33.76714" lon="-116.76680"><ele>1495.0</ele></trkpt>
    <trkpt lat="33.76717" lon="-116.76688"><ele>1495.0</ele></trkpt>
    <trkpt lat="33.76725" lon="-116.76692"><ele>1495.0</ele></trkpt>
    <trkpt lat="33.76734" lon="-116.76697"><ele>1495.0</ele></trkpt>
    <trkpt lat="33.76743" lon="-116.76698"><ele>1495.0</ele></trkpt>
    <trkpt lat="33.76754" lon="-116.76701"><ele>1495.0</ele></trkpt>
    <trkpt lat="33.76764" lon="-116.76706"><ele>1495.0</ele></trkpt>
    <trkpt lat="33.76774" lon="-116.76710"><ele>1495.0</ele></trkpt>
    <trkpt lat="33.76781" lon="-116.76717"><ele>1495.0</ele></trkpt>
    <trkpt lat="33.76790" lon="-116.76724"><ele>1495.0</ele></trkpt>
    <trkpt lat="33.76797" lon="-116.76729"><ele>1495.0</ele></trkpt>
    <trkpt lat="33.76807" lon="-116.76735"><ele>1495.0</ele></trkpt>
    <trkpt lat="33.76816" lon="-116.76738"><ele>1495.0</ele></trkpt>
    <trkpt lat="33.76825" lon="-116.76746"><ele>1495.0</ele></trkpt>
    <trkpt lat="33.76831" lon="-116.76755"><ele>1495.0</ele></trkpt>
    <trkpt lat="33.76834" lon="-116.76763"><ele>1476.0</ele></trkpt>
    <trkpt lat="33.76835" lon="-116.76773"><ele>1476.0</ele></trkpt>
    <trkpt lat="33.76833" lon="-116.76784"><ele>1476.0</ele></trkpt>
    <trkpt lat="33.76829" lon="-116.76795"><ele>1476.0</ele></trkpt>
    <trkpt lat="33.76828" lon="-116.76803"><ele>1476.0</ele></trkpt>
    <trkpt lat="33.76828" lon="-116.76814"><ele>1476.0</ele></trkpt>
    <trkpt lat="33.76833" lon="-116.76822"><ele>1476.0</ele></trkpt>
    <trkpt lat="33.76834" lon="-116.76833"><ele>1476.0</ele></trkpt>
    <trkpt lat="33.76832" lon="-116.76841"><ele>1476.0</ele></trkpt>
    <trkpt lat="33.76827" lon="-116.76852"><ele>1476.0</ele></trkpt>
    <trkpt lat="33.76826" lon="-116.76862"><ele>1476.0</ele></trkpt>
    <trkpt lat="33.76828" lon="-116.76872"><ele>1476.0</ele></trkpt>
    <trkpt lat="33.76834" lon="-116.76881"><ele>1476.0</ele></trkpt>
    <trkpt lat="33.76842" lon="-116.76890"><ele>1476.0</ele></trkpt>
    <trkpt lat="33.76846" lon="-116.76908"><ele>1462.0</ele></trkpt>
    <trkpt lat="33.76853" lon="-116.76925"><ele>1462.0</ele></trkpt>
    <trkpt lat="33.76856" lon="-116.76944"><ele>1462.0</ele></trkpt>
    <trkpt lat="33.76858" lon="-116.76962"><ele>1462.0</ele></trkpt>
    <trkpt lat="33.76862" lon="-116.76971"><ele>1462.0</ele></trkpt>
    <trkpt lat="33.76869" lon="-116.76975"><ele>1462.0</ele></trkpt>
    <trkpt lat="33.76876" lon="-116.76974"><ele>1462.0</ele></trkpt>
    <trkpt lat="33.76880" lon="-116.76968"><ele>1462.0</ele></trkpt>
    <trkpt lat="33.76880" lon="-116.76960"><ele>1462.0</ele></trkpt>
    <trkpt lat="33.76878" lon="-116.76951"><ele>1462.0</ele></trkpt>
    <trkpt lat="33.76873" lon="-116.76939"><ele>1462.0</ele></trkpt>
    <trkpt lat="33.76870" lon="-116.76928"><ele>1462.0</ele></trkpt>
    <trkpt lat="33.76868" lon="-116.76916"><ele>1462.0</ele></trkpt>
    <trkpt lat="33.76867" lon="-116.76901"><ele>1462.0</ele></trkpt>
    <trkpt lat="33.76867" lon="-116.76889"><ele>1464.0</ele></trkpt>
    <trkpt lat="33.76867" lon="-116.76880"><ele>1464.0</ele></trkpt>
    <trkpt lat="33.76863" lon="-116.76870"><ele>1464.0</ele></trkpt>
    <trkpt lat="33.76858" lon="-116.76857"><ele>1464.0</ele></trkpt>
    <trkpt lat="33.76856" lon="-116.76848"><ele>1464.0</ele></trkpt>
    <trkpt lat="33.76858" lon="-116.76841"><ele>1464.0</ele></trkpt>
    <trkpt lat="33.76861" lon="-116.76834"><ele>1464.0</ele></trkpt>
    <trkpt lat="33.76868" lon="-116.76824"><ele>1464.0</ele></trkpt>
    <trkpt lat="33.76873" lon="-116.76814"><ele>1464.0</ele></trkpt>
    <trkpt lat="33.76876" lon="-116.76801"><ele>1464.0</ele></trkpt>
    <trkpt lat="33.76877" lon="-116.76788"><ele>1464.0</ele></trkpt>
    <trkpt lat="33.76883" lon="-116.76765"><ele>1464.0</ele></trkpt>
    <trkpt lat="33.76886" lon="-116.76757"><ele>1464.0</ele></trkpt>
    <trkpt lat="33.76886" lon="-116.76750"><ele>1464.0</ele></trkpt>
    <trkpt lat="33.76886" lon="-116.76739"><ele>1445.0</ele></trkpt>
    <trkpt lat="33.76888" lon="-116.76727"><ele>1445.0</ele></trkpt>
    <trkpt lat="33.76893" lon="-116.76719"><ele>1445.0</ele></trkpt>
    <trkpt lat="33.76900" lon="-116.76711"><ele>1445.0</ele></trkpt>
    <trkpt lat="33.76908" lon="-116.76702"><ele>1445.0</ele></trkpt>
    <trkpt lat="33.76913" lon="-116.76694"><ele>1445.0</ele></trkpt>
    <trkpt lat="33.76918" lon="-116.76684"><ele>1445.0</ele></trkpt>
    <trkpt lat="33.76922" lon="-116.76672"><ele>1445.0</ele></trkpt>
    <trkpt lat="33.76923" lon="-116.76660"><ele>1445.0</ele></trkpt>
    <trkpt lat="33.76925" lon="-116.76646"><ele>1445.0</ele></trkpt>
    <trkpt lat="33.76924" lon="-116.76633"><ele>1445.0</ele></trkpt>
    <trkpt lat="33.76922" lon="-116.76623"><ele>1445.0</ele></trkpt>
    <trkpt lat="33.76925" lon="-116.76613"><ele>1445.0</ele></trkpt>
    <trkpt lat="33.76931" lon="-116.76605"><ele>1445.0</ele></trkpt>
    <trkpt lat="33.76938" lon="-116.76602"><ele>1435.0</ele></trkpt>
    <trkpt lat="33.76946" lon="-116.76601"><ele>1435.0</ele></trkpt>
    <trkpt lat="33.76959" lon="-116.76604"><ele>1435.0</ele></trkpt>
    <trkpt lat="33.76972" lon="-116.76604"><ele>1435.0</ele></trkpt>
    <trkpt lat="33.76983" lon="-116.76601"><ele>1435.0</ele></trkpt>
    <trkpt lat="33.76994" lon="-116.76595"><ele>1435.0</ele></trkpt>
    <trkpt lat="33.77003" lon="-116.76591"><ele>1435.0</ele></trkpt>
    <trkpt lat="33.77011" lon="-116.76585"><ele>1435.0</ele></trkpt>
    <trkpt lat="33.77023" lon="-116.76580"><ele>1435.0</ele></trkpt>
    <trkpt lat="33.77032" lon="-116.76575"><ele>1435.0</ele></trkpt>
    <trkpt lat="33.77039" lon="-116.76570"><ele>1435.0</ele></trkpt>
    <trkpt lat="33.77046" lon="-116.76559"><ele>1435.0</ele></trkpt>
    <trkpt lat="33.77051" lon="-116.76548"><ele>1435.0</ele></trkpt>
    <trkpt lat="33.77058" lon="-116.76538"><ele>1435.0</ele></trkpt>
    <trkpt lat="33.77065" lon="-116.76529"><ele>1426.0</ele></trkpt>
    <trkpt lat="33.77072" lon="-116.76520"><ele>1426.0</ele></trkpt>
    <trkpt lat="33.77078" lon="-116.76509"><ele>1426.0</ele></trkpt>
    <trkpt lat="33.77080" lon="-116.76500"><ele>1426.0</ele></trkpt>
    <trkpt lat="33.77080" lon="-116.76491"><ele>1426.0</ele></trkpt>
    <trkpt lat="33.77079" lon="-116.76481"><ele>1426.0</ele></trkpt>
    <trkpt lat="33.77077" lon="-116.76468"><ele>1426.0</ele></trkpt>
    <trkpt lat="33.77076" lon="-116.76455"><ele>1426.0</ele></trkpt>
    <trkpt lat="33.77080" lon="-116.76446"><ele>1426.0</ele></trkpt>
    <trkpt lat="33.77084" lon="-116.76438"><ele>1426.0</ele></trkpt>
    <trkpt lat="33.77089" lon="-116.76432"><ele>1426.0</ele></trkpt>
    <trkpt lat="33.77098" lon="-116.76429"><ele>1426.0</ele></trkpt>
    <trkpt lat="33.77105" lon="-116.76431"><ele>1426.0</ele></trkpt>
    <trkpt lat="33.77109" lon="-116.76437"><ele>1426.0</ele></trkpt>
    <trkpt lat="33.77108" lon="-116.76445"><ele>1413.0</ele></trkpt>
    <trkpt lat="33.77104" lon="-116.76452"><ele>1413.0</ele></trkpt>
    <trkpt lat="33.77099" lon="-116.76460"><ele>1413.0</ele></trkpt>
    <trkpt lat="33.77101" lon="-116.76469"><ele>1413.0</ele></trkpt>
    <trkpt lat="33.77106" lon="-116.76476"><ele>1413.0</ele></trkpt>
    <trkpt lat="33.77113" lon="-116.76488"><ele>1413.0</ele></trkpt>
    <trkpt lat="33.77121" lon="-116.76500"><ele>1413.0</ele></trkpt>
    <trkpt lat="33.77126" lon="-116.76513"><ele>1413.0</ele></trkpt>
    <trkpt lat="33.77132" lon="-116.76533"><ele>1413.0</ele></trkpt>
    <trkpt lat="33.77137" lon="-116.76550"><ele>1413.0</ele></trkpt>
    <trkpt lat="33.77140" lon="-116.76567"><ele>1413.0</ele></trkpt>
    <trkpt lat="33.77139" lon="-116.76574"><ele>1413.0</ele></trkpt>
    <trkpt lat="33.77133" lon="-116.76582"><ele>1413.0</ele></trkpt>
    <trkpt lat="33.77127" lon="-116.76591"><ele>1413.0</ele></trkpt>
    <trkpt lat="33.77126" lon="-116.76601"><ele>1400.0</ele></trkpt>
    <trkpt lat="33.77126" lon="-116.76609"><ele>1400.0</ele></trkpt>
    <trkpt lat="33.77127" lon="-116.76619"><ele>1400.0</ele></trkpt>
    <trkpt lat="33.77124" lon="-116.76631"><ele>1400.0</ele></trkpt>
    <trkpt lat="33.77118" lon="-116.76643"><ele>1400.0</ele></trkpt>
    <trkpt lat="33.77111" lon="-116.76653"><ele>1400.0</ele></trkpt>
    <trkpt lat="33.77100" lon="-116.76661"><ele>1400.0</ele></trkpt>
    <trkpt lat="33.77087" lon="-116.76668"><ele>1400.0</ele></trkpt>
    <trkpt lat="33.77074" lon="-116.76670"><ele>1400.0</ele></trkpt>
    <trkpt lat="33.77059" lon="-116.76673"><ele>1400.0</ele></trkpt>
    <trkpt lat="33.77053" lon="-116.76676"><ele>1400.0</ele></trkpt>
    <trkpt lat="33.77052" lon="-116.76687"><ele>1400.0</ele></trkpt>
    <trkpt lat="33.77055" lon="-116.76694"><ele>1400.0</ele></trkpt>
    <trkpt lat="33.77060" lon="-116.76698"><ele>1400.0</ele></trkpt>
    <trkpt lat="33.77065" lon="-116.76702"><ele>1394.0</ele></trkpt>
    <trkpt lat="33.77074" lon="-116.76705"><ele>1394.0</ele></trkpt>
    <trkpt lat="33.77081" lon="-116.76712"><ele>1394.0</ele></trkpt>
    <trkpt lat="33.77086" lon="-116.76720"><ele>1394.0</ele></trkpt>
    <trkpt lat="33.77091" lon="-116.76728"><ele>1394.0</ele></trkpt>
    <trkpt lat="33.77098" lon="-116.76734"><ele>1394.0</ele></trkpt>
    <trkpt lat="33.77107" lon="-116.76734"><ele>1394.0</ele></trkpt>
    <trkpt lat="33.77123" lon="-116.76735"><ele>1394.0</ele></trkpt>
    <trkpt lat="33.77133" lon="-116.76744"><ele>1394.0</ele></trkpt>
    <trkpt lat="33.77140" lon="-116.76757"><ele>1394.0</ele></trkpt>
    <trkpt lat="33.77149" lon="-116.76774"><ele>1394.0</ele></trkpt>
    <trkpt lat="33.77154" lon="-116.76792"><ele>1394.0</ele></trkpt>
    <trkpt lat="33.77158" lon="-116.76811"><ele>1394.0</ele></trkpt>
    <trkpt lat="33.77157" lon="-116.76827"><ele>1394.0</ele></trkpt>
    <trkpt lat="33.77156" lon="-116.76845"><ele>1386.0</ele></trkpt>
    <trkpt lat="33.77158" lon="-116.76859"><ele>1386.0</ele></trkpt>
    <trkpt lat="33.77163" lon="-116.76872"><ele>1386.0</ele></trkpt>
    <trkpt lat="33.77172" lon="-116.76884"><ele>1386.0</ele></trkpt>
    <trkpt lat="33.77187" lon="-116.76897"><ele>1386.0</ele></trkpt>
    <trkpt lat="33.77198" lon="-116.76907"><ele>1386.0</ele></trkpt>
    <trkpt lat="33.77206" lon="-116.76913"><ele>1386.0</ele></trkpt>
    <trkpt lat="33.77209" lon="-116.76920"><ele>1386.0</ele></trkpt>
    <trkpt lat="33.77209" lon="-116.76931"><ele>1386.0</ele></trkpt>
    <trkpt lat="33.77206" lon="-116.76944"><ele>1386.0</ele></trkpt>
    <trkpt lat="33.77207" lon="-116.76962"><ele>1386.0</ele></trkpt>
    <trkpt lat="33.77209" lon="-116.76978"><ele>1386.0</ele></trkpt>
    <trkpt lat="33.77215" lon="-116.76995"><ele>1386.0</ele></trkpt>
    <trkpt lat="33.77219" lon="-116.77009"><ele>1386.0</ele></trkpt>
    <trkpt lat="33.77223" lon="-116.77024"><ele>1384.0</ele></trkpt>
    <trkpt lat="33.77225" lon="-116.77037"><ele>1384.0</ele></trkpt>
    <trkpt lat="33.77226" lon="-116.77052"><ele>1384.0</ele></trkpt>
    <trkpt lat="33.77228" lon="-116.77063"><ele>1384.0</ele></trkpt>
    <trkpt lat="33.77234" lon="-116.77079"><ele>1384.0</ele></trkpt>
    <trkpt lat="33.77237" lon="-116.77090"><ele>1384.0</ele></trkpt>
    <trkpt lat="33.77238" lon="-116.77100"><ele>1384.0</ele></trkpt>
    <trkpt lat="33.77233" lon="-116.77109"><ele>1384.0</ele></trkpt>
    <trkpt lat="33.77225" lon="-116.77120"><ele>1384.0</ele></trkpt>
    <trkpt lat="33.77216" lon="-116.77135"><ele>1384.0</ele></trkpt>
    <trkpt lat="33.77209" lon="-116.77148"><ele>1384.0</ele></trkpt>
    <trkpt lat="33.77207" lon="-116.77161"><ele>1384.0</ele></trkpt>
    <trkpt lat="33.77208" lon="-116.77175"><ele>1384.0</ele></trkpt>
    <trkpt lat="33.77214" lon="-116.77187"><ele>1384.0</ele></trkpt>
    <trkpt lat="33.77223" lon="-116.77203"><ele>1362.0</ele></trkpt>
    <trkpt lat="33.77229" lon="-116.77210"><ele>1362.0</ele></trkpt>
    <trkpt lat="33.77229" lon="-116.77219"><ele>1362.0</ele></trkpt>
    <trkpt lat="33.77226" lon="-116.77228"><ele>1362.0</ele></trkpt>
    <trkpt lat="33.77221" lon="-116.77240"><ele>1362.0</ele></trkpt>
    <trkpt lat="33.77219" lon="-116.77249"><ele>1362.0</ele></trkpt>
    <trkpt lat="33.77221" lon="-116.77260"><ele>1362.0</ele></trkpt>
    <trkpt lat="33.77226" lon="-116.77268"><ele>1362.0</ele></trkpt>
    <trkpt lat="33.77238" lon="-116.77277"><ele>1362.0</ele></trkpt>
    <trkpt lat="33.77251" lon="-116.77286"><ele>1362.0</ele></trkpt>
    <trkpt lat="33.77257" lon="-116.77292"><ele>1362.0</ele></trkpt>
    <trkpt lat="33.77259" lon="-116.77300"><ele>1362.0</ele></trkpt>
    <trkpt lat="33.77257" lon="-116.77312"><ele>1362.0</ele></trkpt>
    <trkpt lat="33.77256" lon="-116.77328"><ele>1348.0</ele></trkpt>
    <trkpt lat="33.77258" lon="-116.77344"><ele>1348.0</ele></trkpt>
    <trkpt lat="33.77261" lon="-116.77357"><ele>1348.0</ele></trkpt>
    <trkpt lat="33.77271" lon="-116.77385"><ele>1348.0</ele></trkpt>
    <trkpt lat="33.77272" lon="-116.77397"><ele>1348.0</ele></trkpt>
    <trkpt lat="33.77272" lon="-116.77410"><ele>1348.0</ele></trkpt>
    <trkpt lat="33.77270" lon="-116.77424"><ele>1348.0</ele></trkpt>
    <trkpt lat="33.77274" lon="-116.77432"><ele>1348.0</ele></trkpt>
    <trkpt lat="33.77285" lon="-116.77442"><ele>1348.0</ele></trkpt>
    <trkpt lat="33.77294" lon="-116.77451"><ele>1348.0</ele></trkpt>
    <trkpt lat="33.77298" lon="-116.77459"><ele>1348.0</ele></trkpt>
    <trkpt lat="33.77298" lon="-116.77468"><ele>1348.0</ele></trkpt>
    <trkpt lat="33.77293" lon="-116.77474"><ele>1348.0</ele></trkpt>
    <trkpt lat="33.77286" lon="-116.77477"><ele>1348.0</ele></trkpt>
    <trkpt lat="33.77278" lon="-116.77481"><ele>1333.0</ele></trkpt>
    <trkpt lat="33.77273" lon="-116.77488"><ele>1333.0</ele></trkpt>
    <trkpt lat="33.77269" lon="-116.77499"><ele>1333.0</ele></trkpt>
    <trkpt lat="33.77267" lon="-116.77515"><ele>1333.0</ele></trkpt>
    <trkpt lat="33.77266" lon="-116.77526"><ele>1333.0</ele></trkpt>
    <trkpt lat="33.77271" lon="-116.77541"><ele>1333.0</ele></trkpt>
    <trkpt lat="33.77276" lon="-116.77555"><ele>1333.0</ele></trkpt>
    <trkpt lat="33.77279" lon="-116.77568"><ele>1333.0</ele></trkpt>
    <trkpt lat="33.77281" lon="-116.77584"><ele>1333.0</ele></trkpt>
    <trkpt lat="33.77279" lon="-116.77602"><ele>1333.0</ele></trkpt>
    <trkpt lat="33.77276" lon="-116.77615"><ele>1333.0</ele></trkpt>
    <trkpt lat="33.77279" lon="-116.77628"><ele>1333.0</ele></trkpt>
    <trkpt lat="33.77283" lon="-116.77635"><ele>1333.0</ele></trkpt>
    <trkpt lat="33.77293" lon="-116.77646"><ele>1333.0</ele></trkpt>
    <trkpt lat="33.77302" lon="-116.77653"><ele>1329.0</ele></trkpt>
    <trkpt lat="33.77314" lon="-116.77656"><ele>1329.0</ele></trkpt>
    <trkpt lat="33.77334" lon="-116.77655"><ele>1329.0</ele></trkpt>
    <trkpt lat="33.77351" lon="-116.77653"><ele>1329.0</ele></trkpt>
    <trkpt lat="33.77359" lon="-116.77649"><ele>1329.0</ele></trkpt>
    <trkpt lat="33.77364" lon="-116.77641"><ele>1329.0</ele></trkpt>
    <trkpt lat="33.77367" lon="-116.77631"><ele>1329.0</ele></trkpt>
    <trkpt lat="33.77373" lon="-116.77623"><ele>1329.0</ele></trkpt>
    <trkpt lat="33.77382" lon="-116.77622"><ele>1329.0</ele></trkpt>
    <trkpt lat="33.77397" lon="-116.77622"><ele>1329.0</ele></trkpt>
    <trkpt lat="33.77407" lon="-116.77624"><ele>1329.0</ele></trkpt>
    <trkpt lat="33.77425" lon="-116.77634"><ele>1329.0</ele></trkpt>
    <trkpt lat="33.77448" lon="-116.77643"><ele>1329.0</ele></trkpt>
    <trkpt lat="33.77459" lon="-116.77647"><ele>1329.0</ele></trkpt>
    <trkpt lat="33.77473" lon="-116.77648"><ele>1331.0</ele></trkpt>
    <trkpt lat="33.77492" lon="-116.77646"><ele>1331.0</ele></trkpt>
    <trkpt lat="33.77517" lon="-116.77646"><ele>1331.0</ele></trkpt>
    <trkpt lat="33.77538" lon="-116.77645"><ele>1331.0</ele></trkpt>
    <trkpt lat="33.77551" lon="-116.77649"><ele>1331.0</ele></trkpt>
    <trkpt lat="33.77557" lon="-116.77656"><ele>1331.0</ele></trkpt>
    <trkpt lat="33.77558" lon="-116.77665"><ele>1331.0</ele></trkpt>
    <trkpt lat="33.77556" lon="-116.77672"><ele>1331.0</ele></trkpt>
    <trkpt lat="33.77546" lon="-116.77678"><ele>1331.0</ele></trkpt>
    <trkpt lat="33.77530" lon="-116.77690"><ele>1331.0</ele></trkpt>
    <trkpt lat="33.77521" lon="-116.77696"><ele>1331.0</ele></trkpt>
    <trkpt lat="33.77509" lon="-116.77702"><ele>1331.0</ele></trkpt>
    <trkpt lat="33.77496" lon="-116.77713"><ele>1331.0</ele></trkpt>
    <trkpt lat="33.77486" lon="-116.77720"><ele>1331.0</ele></trkpt>
    <trkpt lat="33.77477" lon="-116.77723"><ele>1324.0</ele></trkpt>
    <trkpt lat="33.77464" lon="-116.77726"><ele>1324.0</ele></trkpt>
    <trkpt lat="33.77455" lon="-116.77736"><ele>1324.0</ele></trkpt>
    <trkpt lat="33.77443" lon="-116.77749"><ele>1324.0</ele></trkpt>
    <trkpt lat="33.77438" lon="-116.77755"><ele>1324.0</ele></trkpt>
    <trkpt lat="33.77429" lon="-116.77756"><ele>1324.0</ele></trkpt>
    <trkpt lat="33.77416" lon="-116.77760"><ele>1324.0</ele></trkpt>
    <trkpt lat="33.77407" lon="-116.77765"><ele>1324.0</ele></trkpt>
    <trkpt lat="33.77398" lon="-116.77772"><ele>1324.0</ele></trkpt>
    <trkpt lat="33.77387" lon="-116.77785"><ele>1324.0</ele></trkpt>
    <trkpt lat="33.77380" lon="-116.77795"><ele>1324.0</ele></trkpt>
    <trkpt lat="33.77371" lon="-116.77807"><ele>1324.0</ele></trkpt>
    <trkpt lat="33.77358" lon="-116.77816"><ele>1324.0</ele></trkpt>
    <trkpt lat="33.77349" lon="-116.77822"><ele>1324.0</ele></trkpt>
    <trkpt lat="33.77343" lon="-116.77831"><ele>1328.0</ele></trkpt>
    <trkpt lat="33.77339" lon="-116.77842"><ele>1328.0</ele></trkpt>
    <trkpt lat="33.77332" lon="-116.77850"><ele>1328.0</ele></trkpt>
    <trkpt lat="33.77322" lon="-116.77856"><ele>1328.0</ele></trkpt>
    <trkpt lat="33.77309" lon="-116.77868"><ele>1328.0</ele></trkpt>
    <trkpt lat="33.77298" lon="-116.77877"><ele>1328.0</ele></trkpt>
    <trkpt lat="33.77292" lon="-116.77884"><ele>1328.0</ele></trkpt>
    <trkpt lat="33.77289" lon="-116.77895"><ele>1328.0</ele></trkpt>
    <trkpt lat="33.77288" lon="-116.77919"><ele>1328.0</ele></trkpt>
    <trkpt lat="33.77287" lon="-116.77937"><ele>1328.0</ele></trkpt>
    <trkpt lat="33.77284" lon="-116.77946"><ele>1328.0</ele></trkpt>
    <trkpt lat="33.77278" lon="-116.77955"><ele>1328.0</ele></trkpt>
    <trkpt lat="33.77271" lon="-116.77960"><ele>1328.0</ele></trkpt>
    <trkpt lat="33.77264" lon="-116.77965"><ele>1328.0</ele></trkpt>
    <trkpt lat="33.77256" lon="-116.77972"><ele>1344.0</ele></trkpt>
    <trkpt lat="33.77247" lon="-116.77987"><ele>1344.0</ele></trkpt>
    <trkpt lat="33.77240" lon="-116.78001"><ele>1344.0</ele></trkpt>
    <trkpt lat="33.77233" lon="-116.78013"><ele>1344.0</ele></trkpt>
    <trkpt lat="33.77223" lon="-116.78022"><ele>1344.0</ele></trkpt>
    <trkpt lat="33.77208" lon="-116.78031"><ele>1344.0</ele></trkpt>
    <trkpt lat="33.77191" lon="-116.78039"><ele>1344.0</ele></trkpt>
    <trkpt lat="33.77175" lon="-116.78048"><ele>1344.0</ele></trkpt>
    <trkpt lat="33.77160" lon="-116.78058"><ele>1344.0</ele></trkpt>
    <trkpt lat="33.77150" lon="-116.78068"><ele>1344.0</ele></trkpt>
    <trkpt lat="33.77143" lon="-116.78080"><ele>1344.0</ele></trkpt>
    <trkpt lat="33.77139" lon="-116.78093"><ele>1344.0</ele></trkpt>
    <trkpt lat="33.77138" lon="-116.78106"><ele>1344.0</ele></trkpt>
    <trkpt lat="33.77140" lon="-116.78124"><ele>1344.0</ele></trkpt>
    <trkpt lat="33.77145" lon="-116.78153"><ele>1356.0</ele></trkpt>
    <trkpt lat="33.77147" lon="-116.78169"><ele>1356.0</ele></trkpt>
    <trkpt lat="33.77150" lon="-116.78183"><ele>1356.0</ele></trkpt>
    <trkpt lat="33.77156" lon="-116.78197"><ele>1356.0</ele></trkpt>
    <trkpt lat="33.77158" lon="-116.78213"><ele>1356.0</ele></trkpt>
    <trkpt lat="33.77161" lon="-116.78227"><ele>1356.0</ele></trkpt>
    <trkpt lat="33.77164" lon="-116.78238"><ele>1356.0</ele></trkpt>
    <trkpt lat="33.77164" lon="-116.78247"><ele>1356.0</ele></trkpt>
    <trkpt lat="33.77161" lon="-116.78257"><ele>1356.0</ele></trkpt>
    <trkpt lat="33.77160" lon="-116.78268"><ele>1356.0</ele></trkpt>
    <trkpt lat="33.77162" lon="-116.78279"><ele>1356.0</ele></trkpt>
    <trkpt lat="33.77168" lon="-116.78292"><ele>1356.0</ele></trkpt>
    <trkpt lat="33.77173" lon="-116.78304"><ele>1356.0</ele></trkpt>
    <trkpt lat="33.77174" lon="-116.78315"><ele>1356.0</ele></trkpt>
    <trkpt lat="33.77171" lon="-116.78323"><ele>1366.0</ele></trkpt>
    <trkpt lat="33.77166" lon="-116.78328"><ele>1366.0</ele></trkpt>
    <trkpt lat="33.77160" lon="-116.78337"><ele>1366.0</ele></trkpt>
    <trkpt lat="33.77156" lon="-116.78347"><ele>1366.0</ele></trkpt>
    <trkpt lat="33.77150" lon="-116.78358"><ele>1366.0</ele></trkpt>
    <trkpt lat="33.77142" lon="-116.78363"><ele>1366.0</ele></trkpt>
    <trkpt lat="33.77133" lon="-116.78363"><ele>1366.0</ele></trkpt>
    <trkpt lat="33.77122" lon="-116.78362"><ele>1366.0</ele></trkpt>
    <trkpt lat="33.77113" lon="-116.78365"><ele>1366.0</ele></trkpt>
    <trkpt lat="33.77105" lon="-116.78371"><ele>1366.0</ele></trkpt>
    <trkpt lat="33.77092" lon="-116.78387"><ele>1366.0</ele></trkpt>
    <trkpt lat="33.77087" lon="-116.78393"><ele>1366.0</ele></trkpt>
    <trkpt lat="33.77081" lon="-116.78394"><ele>1366.0</ele></trkpt>
    <trkpt lat="33.77073" lon="-116.78392"><ele>1366.0</ele></trkpt>
    <trkpt lat="33.77065" lon="-116.78392"><ele>1368.0</ele></trkpt>
    <trkpt lat="33.77056" lon="-116.78397"><ele>1368.0</ele></trkpt>
    <trkpt lat="33.77046" lon="-116.78411"><ele>1368.0</ele></trkpt>
    <trkpt lat="33.77043" lon="-116.78422"><ele>1368.0</ele></trkpt>
    <trkpt lat="33.77045" lon="-116.78431"><ele>1368.0</ele></trkpt>
    <trkpt lat="33.77048" lon="-116.78440"><ele>1368.0</ele></trkpt>
    <trkpt lat="33.77055" lon="-116.78447"><ele>1368.0</ele></trkpt>
    <trkpt lat="33.77060" lon="-116.78449"><ele>1368.0</ele></trkpt>
    <trkpt lat="33.77068" lon="-116.78449"><ele>1368.0</ele></trkpt>
    <trkpt lat="33.77075" lon="-116.78446"><ele>1368.0</ele></trkpt>
    <trkpt lat="33.77080" lon="-116.78448"><ele>1368.0</ele></trkpt>
    <trkpt lat="33.77088" lon="-116.78456"><ele>1368.0</ele></trkpt>
    <trkpt lat="33.77091" lon="-116.78465"><ele>1368.0</ele></trkpt>
    <trkpt lat="33.77092" lon="-116.78475"><ele>1368.0</ele></trkpt>
    <trkpt lat="33.77090" lon="-116.78485"><ele>1394.0</ele></trkpt>
    <trkpt lat="33.77082" lon="-116.78509"><ele>1394.0</ele></trkpt>
    <trkpt lat="33.77071" lon="-116.78546"><ele>1394.0</ele></trkpt>
    <trkpt lat="33.77067" lon="-116.78557"><ele>1394.0</ele></trkpt>
    <trkpt lat="33.77059" lon="-116.78567"><ele>1394.0</ele></trkpt>
    <trkpt lat="33.77049" lon="-116.78576"><ele>1394.0</ele></trkpt>
    <trkpt lat="33.77043" lon="-116.78585"><ele>1394.0</ele></trkpt>
    <trkpt lat="33.77038" lon="-116.78594"><ele>1394.0</ele></trkpt>
    <trkpt lat="33.77033" lon="-116.78611"><ele>1394.0</ele></trkpt>
    <trkpt lat="33.77029" lon="-116.78621"><ele>1394.0</ele></trkpt>
    <trkpt lat="33.77022" lon="-116.78628"><ele>1394.0</ele></trkpt>
    <trkpt lat="33.77014" lon="-116.78634"><ele>1394.0</ele></trkpt>
    <trkpt lat="33.77003" lon="-116.78646"><ele>1394.0</ele></trkpt>
    <trkpt lat="33.76993" lon="-116.78659"><ele>1394.0</ele></trkpt>
    <trkpt lat="33.76986" lon="-116.78666"><ele>1396.0</ele></trkpt>
    <trkpt lat="33.76978" lon="-116.78669"><ele>1396.0</ele></trkpt>
    <trkpt lat="33.76970" lon="-116.78670"><ele>1396.0</ele></trkpt>
    <trkpt lat="33.76962" lon="-116.78667"><ele>1396.0</ele></trkpt>
    <trkpt lat="33.76954" lon="-116.78664"><ele>1396.0</ele></trkpt>
    <trkpt lat="33.76946" lon="-116.78664"><ele>1396.0</ele></trkpt>
    <trkpt lat="33.76941" lon="-116.78670"><ele>1396.0</ele></trkpt>
    <trkpt lat="33.76938" lon="-116.78678"><ele>1396.0</ele></trkpt>
    <trkpt lat="33.76940" lon="-116.78686"><ele>1396.0</ele></trkpt>
    <trkpt lat="33.76946" lon="-116.78695"><ele>1396.0</ele></trkpt>
    <trkpt lat="33.76948" lon="-116.78703"><ele>1396.0</ele></trkpt>
    <trkpt lat="33.76947" lon="-116.78715"><ele>1396.0</ele></trkpt>
    <trkpt lat="33.76943" lon="-116.78725"><ele>1396.0</ele></trkpt>
    <trkpt lat="33.76937" lon="-116.78732"><ele>1396.0</ele></trkpt>
    <trkpt lat="33.76929" lon="-116.78745"><ele>1416.0</ele></trkpt>
    <trkpt lat="33.76924" lon="-116.78754"><ele>1416.0</ele></trkpt>
    <trkpt lat="33.76921" lon="-116.78767"><ele>1416.0</ele></trkpt>
    <trkpt lat="33.76920" lon="-116.78778"><ele>1416.0</ele></trkpt>
    <trkpt lat="33.76920" lon="-116.78789"><ele>1416.0</ele></trkpt>
    <trkpt lat="33.76918" lon="-116.78797"><ele>1416.0</ele></trkpt>
    <trkpt lat="33.76913" lon="-116.78805"><ele>1416.0</ele></trkpt>
    <trkpt lat="33.76903" lon="-116.78814"><ele>1416.0</ele></trkpt>
    <trkpt lat="33.76894" lon="-116.78820"><ele>1416.0</ele></trkpt>
    <trkpt lat="33.76886" lon="-116.78821"><ele>1416.0</ele></trkpt>
    <trkpt lat="33.76879" lon="-116.78818"><ele>1416.0</ele></trkpt>
    <trkpt lat="33.76870" lon="-116.78813"><ele>1416.0</ele></trkpt>
    <trkpt lat="33.76861" lon="-116.78808"><ele>1416.0</ele></trkpt>
    <trkpt lat="33.76853" lon="-116.78809"><ele>1416.0</ele></trkpt>
    <trkpt lat="33.76843" lon="-116.78814"><ele>1421.0</ele></trkpt>
    <trkpt lat="33.76837" lon="-116.78816"><ele>1421.0</ele></trkpt>
    <trkpt lat="33.76825" lon="-116.78817"><ele>1421.0</ele></trkpt>
    <trkpt lat="33.76815" lon="-116.78820"><ele>1421.0</ele></trkpt>
    <trkpt lat="33.76807" lon="-116.78827"><ele>1421.0</ele></trkpt>
    <trkpt lat="33.76797" lon="-116.78839"><ele>1421.0</ele></trkpt>
    <trkpt lat="33.76785" lon="-116.78863"><ele>1421.0</ele></trkpt>
    <trkpt lat="33.76779" lon="-116.78872"><ele>1421.0</ele></trkpt>
    <trkpt lat="33.76773" lon="-116.78877"><ele>1421.0</ele></trkpt>
    <trkpt lat="33.76767" lon="-116.78881"><ele>1421.0</ele></trkpt>
    <trkpt lat="33.76761" lon="-116.78889"><ele>1421.0</ele></trkpt>
    <trkpt lat="33.76759" lon="-116.78901"><ele>1421.0</ele></trkpt>
    <trkpt lat="33.76758" lon="-116.78917"><ele>1421.0</ele></trkpt>
    <trkpt lat="33.76759" lon="-116.78930"><ele>1429.0</ele></trkpt>
    <trkpt lat="33.76758" lon="-116.78937"><ele>1429.0</ele></trkpt>
    <trkpt lat="33.76752" lon="-116.78945"><ele>1429.0</ele></trkpt>
    <trkpt lat="33.76742" lon="-116.78950"><ele>1429.0</ele></trkpt>
    <trkpt lat="33.76714" lon="-116.78950"><ele>1429.0</ele></trkpt>
    <trkpt lat="33.76707" lon="-116.78972"><ele>1429.0</ele></trkpt>
    <trkpt lat="33.76695" lon="-116.79038"><ele>1429.0</ele></trkpt>
    <trkpt lat="33.76690" lon="-116.79061"><ele>1429.0</ele></trkpt>
    <trkpt lat="33.76692" lon="-116.79076"><ele>1429.0</ele></trkpt>
    <trkpt lat="33.76697" lon="-116.79087"><ele>1429.0</ele></trkpt>
    <trkpt lat="33.76713" lon="-116.79096"><ele>1429.0</ele></trkpt>
    <trkpt lat="33.76726" lon="-116.79102"><ele>1429.0</ele></trkpt>
    <trkpt lat="33.76732" lon="-116.79107"><ele>1429.0</ele></trkpt>
    <trkpt lat="33.76733" lon="-116.79113"><ele>1429.0</ele></trkpt>
    <trkpt lat="33.76732" lon="-116.79121"><ele>1423.0</ele></trkpt>
    <trkpt lat="33.76724" lon="-116.79129"><ele>1423.0</ele></trkpt>
    <trkpt lat="33.76712" lon="-116.79140"><ele>1423.0</ele></trkpt>
    <trkpt lat="33.76697" lon="-116.79145"><ele>1423.0</ele></trkpt>
    <trkpt lat="33.76684" lon="-116.79152"><ele>1423.0</ele></trkpt>
    <trkpt lat="33.76665" lon="-116.79162"><ele>1423.0</ele></trkpt>
    <trkpt lat="33.76652" lon="-116.79172"><ele>1423.0</ele></trkpt>
    <trkpt lat="33.76638" lon="-116.79185"><ele>1423.0</ele></trkpt>
    <trkpt lat="33.76631" lon="-116.79196"><ele>1423.0</ele></trkpt>
    <trkpt lat="33.76619" lon="-116.79217"><ele>1423.0</ele></trkpt>
    <trkpt lat="33.76615" lon="-116.79231"><ele>1423.0</ele></trkpt>
    <trkpt lat="33.76616" lon="-116.79245"><ele>1423.0</ele></trkpt>
    <trkpt lat="33.76620" lon="-116.79259"><ele>1423.0</ele></trkpt>
    <trkpt lat="33.76634" lon="-116.79278"><ele>1423.0</ele></trkpt>
    <trkpt lat="33.76639" lon="-116.79286"><ele>1422.0</ele></trkpt>
    <trkpt lat="33.76641" lon="-116.79294"><ele>1422.0</ele></trkpt>
    <trkpt lat="33.76637" lon="-116.79304"><ele>1422.0</ele></trkpt>
    <trkpt lat="33.76632" lon="-116.79309"><ele>1422.0</ele></trkpt>
    <trkpt lat="33.76624" lon="-116.79311"><ele>1422.0</ele></trkpt>
    <trkpt lat="33.76616" lon="-116.79316"><ele>1422.0</ele></trkpt>
    <trkpt lat="33.76589" lon="-116.79336"><ele>1422.0</ele></trkpt>
    <trkpt lat="33.76582" lon="-116.79344"><ele>1422.0</ele></trkpt>
    <trkpt lat="33.76579" lon="-116.79353"><ele>1422.0</ele></trkpt>
    <trkpt lat="33.76574" lon="-116.79364"><ele>1422.0</ele></trkpt>
    <trkpt lat="33.76566" lon="-116.79376"><ele>1422.0</ele></trkpt>
    <trkpt lat="33.76561" lon="-116.79388"><ele>1422.0</ele></trkpt>
    <trkpt lat="33.76559" lon="-116.79400"><ele>1422.0</ele></trkpt>
    <trkpt lat="33.76561" lon="-116.79414"><ele>1422.0</ele></trkpt>
    <trkpt lat="33.76569" lon="-116.79431"><ele>1420.0</ele></trkpt>
    <trkpt lat="33.76578" lon="-116.79447"><ele>1420.0</ele></trkpt>
    <trkpt lat="33.76582" lon="-116.79460"><ele>1420.0</ele></trkpt>
    <trkpt lat="33.76582" lon="-116.79471"><ele>1420.0</ele></trkpt>
    <trkpt lat="33.76579" lon="-116.79481"><ele>1420.0</ele></trkpt>
    <trkpt lat="33.76570" lon="-116.79488"><ele>1420.0</ele></trkpt>
    <trkpt lat="33.76560" lon="-116.79494"><ele>1420.0</ele></trkpt>
    <trkpt lat="33.76554" lon="-116.79501"><ele>1420.0</ele></trkpt>
    <trkpt lat="33.76541" lon="-116.79539"><ele>1420.0</ele></trkpt>
    <trkpt lat="33.76536" lon="-116.79553"><ele>1420.0</ele></trkpt>
    <trkpt lat="33.76524" lon="-116.79571"><ele>1420.0</ele></trkpt>
    <trkpt lat="33.76497" lon="-116.79601"><ele>1420.0</ele></trkpt>
    <trkpt lat="33.76478" lon="-116.79622"><ele>1420.0</ele></trkpt>
    <trkpt lat="33.76470" lon="-116.79637"><ele>1420.0</ele></trkpt>
    <trkpt lat="33.76468" lon="-116.79655"><ele>1398.0</ele></trkpt>
    <trkpt lat="33.76469" lon="-116.79668"><ele>1398.0</ele></trkpt>
    <trkpt lat="33.76474" lon="-116.79681"><ele>1398.0</ele></trkpt>
    <trkpt lat="33.76481" lon="-116.79701"><ele>1398.0</ele></trkpt>
    <trkpt lat="33.76489" lon="-116.79714"><ele>1398.0</ele></trkpt>
    <trkpt lat="33.76509" lon="-116.79735"><ele>1398.0</ele></trkpt>
    <trkpt lat="33.76518" lon="-116.79743"><ele>1398.0</ele></trkpt>
    <trkpt lat="33.76520" lon="-116.79753"><ele>1398.0</ele></trkpt>
    <trkpt lat="33.76519" lon="-116.79763"><ele>1398.0</ele></trkpt>
    <trkpt lat="33.76514" lon="-116.79778"><ele>1398.0</ele></trkpt>
    <trkpt lat="33.76512" lon="-116.79790"><ele>1398.0</ele></trkpt>
    <trkpt lat="33.76513" lon="-116.79807"><ele>1398.0</ele></trkpt>
    <trkpt lat="33.76518" lon="-116.79816"><ele>1398.0</ele></trkpt>
    <trkpt lat="33.76526" lon="-116.79818"><ele>1398.0</ele></trkpt>
    <trkpt lat="33.76534" lon="-116.79815"><ele>1392.0</ele></trkpt>
    <trkpt lat="33.76544" lon="-116.79813"><ele>1392.0</ele></trkpt>
    <trkpt lat="33.76562" lon="-116.79815"><ele>1392.0</ele></trkpt>
    <trkpt lat="33.76576" lon="-116.79817"><ele>1392.0</ele></trkpt>
    <trkpt lat="33.76587" lon="-116.79821"><ele>1392.0</ele></trkpt>
    <trkpt lat="33.76598" lon="-116.79828"><ele>1392.0</ele></trkpt>
    <trkpt lat="33.76603" lon="-116.79836"><ele>1392.0</ele></trkpt>
    <trkpt lat="33.76607" lon="-116.79844"><ele>1392.0</ele></trkpt>
    <trkpt lat="33.76609" lon="-116.79854"><ele>1392.0</ele></trkpt>
    <trkpt lat="33.76608" lon="-116.79863"><ele>1392.0</ele></trkpt>
    <trkpt lat="33.76593" lon="-116.79885"><ele>1392.0</ele></trkpt>
    <trkpt lat="33.76584" lon="-116.79897"><ele>1392.0</ele></trkpt>
    <trkpt lat="33.76574" lon="-116.79904"><ele>1392.0</ele></trkpt>
    <trkpt lat="33.76568" lon="-116.79908"><ele>1392.0</ele></trkpt>
    <trkpt lat="33.76553" lon="-116.79906"><ele>1376.0</ele></trkpt>
    <trkpt lat="33.76540" lon="-116.79906"><ele>1376.0</ele></trkpt>
    <trkpt lat="33.76530" lon="-116.79909"><ele>1376.0</ele></trkpt>
    <trkpt lat="33.76520" lon="-116.79913"><ele>1376.0</ele></trkpt>
    <trkpt lat="33.76505" lon="-116.79921"><ele>1376.0</ele></trkpt>
    <trkpt lat="33.76494" lon="-116.79925"><ele>1376.0</ele></trkpt>
    <trkpt lat="33.76483" lon="-116.79927"><ele>1376.0</ele></trkpt>
    <trkpt lat="33.76467" lon="-116.79938"><ele>1376.0</ele></trkpt>
    <trkpt lat="33.76431" lon="-116.79963"><ele>1376.0</ele></trkpt>
    <trkpt lat="33.76384" lon="-116.79998"><ele>1376.0</ele></trkpt>
    <trkpt lat="33.76373" lon="-116.80007"><ele>1376.0</ele></trkpt>
    <trkpt lat="33.76371" lon="-116.80022"><ele>1376.0</ele></trkpt>
    <trkpt lat="33.76371" lon="-116.80048"><ele>1376.0</ele></trkpt>
    <trkpt lat="33.76375" lon="-116.80057"><ele>1376.0</ele></trkpt>
    <trkpt lat="33.76380" lon="-116.80062"><ele>1364.0</ele></trkpt>
    <trkpt lat="33.76388" lon="-116.80062"><ele>1364.0</ele></trkpt>
    <trkpt lat="33.76397" lon="-116.80056"><ele>1364.0</ele></trkpt>
    <trkpt lat="33.76406" lon="-116.80048"><ele>1364.0</ele></trkpt>
    <trkpt lat="33.76414" lon="-116.80043"><ele>1364.0</ele></trkpt>
    <trkpt lat="33.76424" lon="-116.80041"><ele>1364.0</ele></trkpt>
    <trkpt lat="33.76433" lon="-116.80042"><ele>1364.0</ele></trkpt>
    <trkpt lat="33.76446" lon="-116.80046"><ele>1364.0</ele></trkpt>
    <trkpt lat="33.76463" lon="-116.80051"><ele>1364.0</ele></trkpt>
    <trkpt lat="33.76474" lon="-116.80055"><ele>1364.0</ele></trkpt>
    <trkpt lat="33.76479" lon="-116.80061"><ele>1364.0</ele></trkpt>
    <trkpt lat="33.76482" lon="-116.80072"><ele>1364.0</ele></trkpt>
    <trkpt lat="33.76480" lon="-116.80086"><ele>1364.0</ele></trkpt>
    <trkpt lat="33.76476" lon="-116.80104"><ele>1364.0</ele></trkpt>
    <trkpt lat="33.76469" lon="-116.80124"><ele>1344.0</ele></trkpt>
    <trkpt lat="33.76466" lon="-116.80143"><ele>1344.0</ele></trkpt>
    <trkpt lat="33.76465" lon="-116.80166"><ele>1344.0</ele></trkpt>
    <trkpt lat="33.76465" lon="-116.80184"><ele>1344.0</ele></trkpt>
    <trkpt lat="33.76463" lon="-116.80196"><ele>1344.0</ele></trkpt>
    <trkpt lat="33.76448" lon="-116.80229"><ele>1344.0</ele></trkpt>
    <trkpt lat="33.76441" lon="-116.80244"><ele>1344.0</ele></trkpt>
    <trkpt lat="33.76435" lon="-116.80262"><ele>1344.0</ele></trkpt>
    <trkpt lat="33.76433" lon="-116.80276"><ele>1344.0</ele></trkpt>
    <trkpt lat="33.76433" lon="-116.80292"><ele>1344.0</ele></trkpt>
    <trkpt lat="33.76437" lon="-116.80304"><ele>1344.0</ele></trkpt>
    <trkpt lat="33.76439" lon="-116.80319"><ele>1344.0</ele></trkpt>
    <trkpt lat="33.76438" lon="-116.80335"><ele>1344.0</ele></trkpt>
    <trkpt lat="33.76435" lon="-116.80352"><ele>1344.0</ele></trkpt>
    <trkpt lat="33.76436" lon="-116.80365"><ele>1345.0</ele></trkpt>
    <trkpt lat="33.76442" lon="-116.80375"><ele>1345.0</ele></trkpt>
    <trkpt lat="33.76450" lon="-116.80381"><ele>1345.0</ele></trkpt>
    <trkpt lat="33.76461" lon="-116.80383"><ele>1345.0</ele></trkpt>
    <trkpt lat="33.76470" lon="-116.80385"><ele>1345.0</ele></trkpt>
    <trkpt lat="33.76478" lon="-116.80388"><ele>1345.0</ele></trkpt>
    <trkpt lat="33.76482" lon="-116.80392"><ele>1345.0</ele></trkpt>
    <trkpt lat="33.76485" lon="-116.80400"><ele>1345.0</ele></trkpt>
    <trkpt lat="33.76484" lon="-116.80408"><ele>1345.0</ele></trkpt>
    <trkpt lat="33.76477" lon="-116.80417"><ele>1345.0</ele></trkpt>
    <trkpt lat="33.76464" lon="-116.80429"><ele>1345.0</ele></trkpt>
    <trkpt lat="33.76450" lon="-116.80445"><ele>1345.0</ele></trkpt>
    <trkpt lat="33.76444" lon="-116.80456"><ele>1345.0</ele></trkpt>
    <trkpt lat="33.76440" lon="-116.80468"><ele>1345.0</ele></trkpt>
    <trkpt lat="33.76438" lon="-116.80480"><ele>1314.0</ele></trkpt>
    <trkpt lat="33.76434" lon="-116.80490"><ele>1314.0</ele></trkpt>
    <trkpt lat="33.76413" lon="-116.80514"><ele>1314.0</ele></trkpt>
    <trkpt lat="33.76378" lon="-116.80550"><ele>1314.0</ele></trkpt>
    <trkpt lat="33.76363" lon="-116.80561"><ele>1314.0</ele></trkpt>
    <trkpt lat="33.76353" lon="-116.80566"><ele>1314.0</ele></trkpt>
    <trkpt lat="33.76343" lon="-116.80564"><ele>1314.0</ele></trkpt>
    <trkpt lat="33.76335" lon="-116.80560"><ele>1314.0</ele></trkpt>
    <trkpt lat="33.76321" lon="-116.80557"><ele>1314.0</ele></trkpt>
    <trkpt lat="33.76268" lon="-116.80554"><ele>1314.0</ele></trkpt>
    <trkpt lat="33.76254" lon="-116.80551"><ele>1314.0</ele></trkpt>
    <trkpt lat="33.76245" lon="-116.80547"><ele>1314.0</ele></trkpt>
    <trkpt lat="33.76237" lon="-116.80538"><ele>1314.0</ele></trkpt>
    <trkpt lat="33.76229" lon="-116.80523"><ele>1314.0</ele></trkpt>
    <trkpt lat="33.76225" lon="-116.80510"><ele>1311.0</ele></trkpt>
    <trkpt lat="33.76227" lon="-116.80499"><ele>1311.0</ele></trkpt>
    <trkpt lat="33.76233" lon="-116.80492"><ele>1311.0</ele></trkpt>
    <trkpt lat="33.76242" lon="-116.80487"><ele>1311.0</ele></trkpt>
    <trkpt lat="33.76253" lon="-116.80481"><ele>1311.0</ele></trkpt>
    <trkpt lat="33.76263" lon="-116.80478"><ele>1311.0</ele></trkpt>
    <trkpt lat="33.76267" lon="-116.80467"><ele>1311.0</ele></trkpt>
    <trkpt lat="33.76266" lon="-116.80455"><ele>1311.0</ele></trkpt>
    <trkpt lat="33.76262" lon="-116.80449"><ele>1311.0</ele></trkpt>
    <trkpt lat="33.76254" lon="-116.80445"><ele>1311.0</ele></trkpt>
    <trkpt lat="33.76243" lon="-116.80448"><ele>1311.0</ele></trkpt>
    <trkpt lat="33.76228" lon="-116.80453"><ele>1311.0</ele></trkpt>
    <trkpt lat="33.76217" lon="-116.80453"><ele>1311.0</ele></trkpt>
    <trkpt lat="33.76204" lon="-116.80447"><ele>1311.0</ele></trkpt>
    <trkpt lat="33.76192" lon="-116.80437"><ele>1294.0</ele></trkpt>
    <trkpt lat="33.76185" lon="-116.80428"><ele>1294.0</ele></trkpt>
    <trkpt lat="33.76183" lon="-116.80418"><ele>1294.0</ele></trkpt>
    <trkpt lat="33.76184" lon="-116.80404"><ele>1294.0</ele></trkpt>
    <trkpt lat="33.76188" lon="-116.80390"><ele>1294.0</ele></trkpt>
    <trkpt lat="33.76189" lon="-116.80372"><ele>1294.0</ele></trkpt>
    <trkpt lat="33.76188" lon="-116.80352"><ele>1294.0</ele></trkpt>
    <trkpt lat="33.76188" lon="-116.80338"><ele>1294.0</ele></trkpt>
    <trkpt lat="33.76190" lon="-116.80327"><ele>1294.0</ele></trkpt>
    <trkpt lat="33.76194" lon="-116.80314"><ele>1294.0</ele></trkpt>
    <trkpt lat="33.76201" lon="-116.80305"><ele>1294.0</ele></trkpt>
    <trkpt lat="33.76210" lon="-116.80299"><ele>1294.0</ele></trkpt>
    <trkpt lat="33.76219" lon="-116.80293"><ele>1294.0</ele></trkpt>
    <trkpt lat="33.76228" lon="-116.80288"><ele>1294.0</ele></trkpt>
    <trkpt lat="33.76233" lon="-116.80282"><ele>1295.0</ele></trkpt>
    <trkpt lat="33.76235" lon="-116.80272"><ele>1295.0</ele></trkpt>
    <trkpt lat="33.76232" lon="-116.80264"><ele>1295.0</ele></trkpt>
    <trkpt lat="33.76226" lon="-116.80258"><ele>1295.0</ele></trkpt>
    <trkpt lat="33.76218" lon="-116.80257"><ele>1295.0</ele></trkpt>
    <trkpt lat="33.76212" lon="-116.80260"><ele>1295.0</ele></trkpt>
    <trkpt lat="33.76203" lon="-116.80276"><ele>1295.0</ele></trkpt>
    <trkpt lat="33.76198" lon="-116.80283"><ele>1295.0</ele></trkpt>
    <trkpt lat="33.76192" lon="-116.80288"><ele>1295.0</ele></trkpt>
    <trkpt lat="33.76184" lon="-116.80292"><ele>1295.0</ele></trkpt>
    <trkpt lat="33.76180" lon="-116.80298"><ele>1295.0</ele></trkpt>
    <trkpt lat="33.76171" lon="-116.80311"><ele>1295.0</ele></trkpt>
    <trkpt lat="33.76158" lon="-116.80334"><ele>1295.0</ele></trkpt>
    <trkpt lat="33.76150" lon="-116.80352"><ele>1295.0</ele></trkpt>
    <trkpt lat="33.76144" lon="-116.80365"><ele>1283.0</ele></trkpt>
    <trkpt lat="33.76139" lon="-116.80372"><ele>1283.0</ele></trkpt>
    <trkpt lat="33.76120" lon="-116.80383"><ele>1283.0</ele></trkpt>
    <trkpt lat="33.76110" lon="-116.80388"><ele>1283.0</ele></trkpt>
    <trkpt lat="33.76105" lon="-116.80395"><ele>1283.0</ele></trkpt>
    <trkpt lat="33.76105" lon="-116.80401"><ele>1283.0</ele></trkpt>
    <trkpt lat="33.76115" lon="-116.80426"><ele>1283.0</ele></trkpt>
    <trkpt lat="33.76120" lon="-116.80447"><ele>1283.0</ele></trkpt>
    <trkpt lat="33.76124" lon="-116.80463"><ele>1283.0</ele></trkpt>
    <trkpt lat="33.76124" lon="-116.80475"><ele>1283.0</ele></trkpt>
    <trkpt lat="33.76123" lon="-116.80487"><ele>1283.0</ele></trkpt>
    <trkpt lat="33.76119" lon="-116.80497"><ele>1283.0</ele></trkpt>
    <trkpt lat="33.76102" lon="-116.80513"><ele>1283.0</ele></trkpt>
    <trkpt lat="33.76064" lon="-116.80544"><ele>1265.0</ele></trkpt>
    <trkpt lat="33.76015" lon="-116.80586"><ele>1265.0</ele></trkpt>
    <trkpt lat="33.75982" lon="-116.80613"><ele>1265.0</ele></trkpt>
    <trkpt lat="33.75969" lon="-116.80625"><ele>1265.0</ele></trkpt>
    <trkpt lat="33.75964" lon="-116.80638"><ele>1265.0</ele></trkpt>
    <trkpt lat="33.75964" lon="-116.80650"><ele>1265.0</ele></trkpt>
    <trkpt lat="33.75967" lon="-116.80662"><ele>1265.0</ele></trkpt>
    <trkpt lat="33.75974" lon="-116.80673"><ele>1265.0</ele></trkpt>
    <trkpt lat="33.75989" lon="-116.80685"><ele>1265.0</ele></trkpt>
    <trkpt lat="33.75997" lon="-116.80694"><ele>1265.0</ele></trkpt>
    <trkpt lat="33.76002" lon="-116.80706"><ele>1265.0</ele></trkpt>
    <trkpt lat="33.76003" lon="-116.80724"><ele>1265.0</ele></trkpt>
    <trkpt lat="33.76001" lon="-116.80737"><ele>1265.0</ele></trkpt>
    <trkpt lat="33.75996" lon="-116.80755"><ele>1265.0</ele></trkpt>
    <trkpt lat="33.75995" lon="-116.80771"><ele>1253.0</ele></trkpt>
    <trkpt lat="33.75995" lon="-116.80785"><ele>1253.0</ele></trkpt>
    <trkpt lat="33.76002" lon="-116.80803"><ele>1253.0</ele></trkpt>
    <trkpt lat="33.76006" lon="-116.80815"><ele>1253.0</ele></trkpt>
    <trkpt lat="33.76009" lon="-116.80829"><ele>1253.0</ele></trkpt>
    <trkpt lat="33.76012" lon="-116.80844"><ele>1253.0</ele></trkpt>
    <trkpt lat="33.76012" lon="-116.80861"><ele>1253.0</ele></trkpt>
    <trkpt lat="33.76008" lon="-116.80872"><ele>1253.0</ele></trkpt>
    <trkpt lat="33.76001" lon="-116.80882"><ele>1253.0</ele></trkpt>
    <trkpt lat="33.75997" lon="-116.80891"><ele>1253.0</ele></trkpt>
    <trkpt lat="33.75995" lon="-116.80901"><ele>1253.0</ele></trkpt>
    <trkpt lat="33.75998" lon="-116.80911"><ele>1253.0</ele></trkpt>
    <trkpt lat="33.76006" lon="-116.80915"><ele>1253.0</ele></trkpt>
    <trkpt lat="33.76016" lon="-116.80919"><ele>1253.0</ele></trkpt>
    <trkpt lat="33.76027" lon="-116.80926"><ele>1232.0</ele></trkpt>
    <trkpt lat="33.76035" lon="-116.80930"><ele>1232.0</ele></trkpt>
    <trkpt lat="33.76042" lon="-116.80937"><ele>1232.0</ele></trkpt>
    <trkpt lat="33.76046" lon="-116.80944"><ele>1232.0</ele></trkpt>
    <trkpt lat="33.76047" lon="-116.80979"><ele>1232.0</ele></trkpt>
    <trkpt lat="33.76048" lon="-116.81011"><ele>1232.0</ele></trkpt>
    <trkpt lat="33.76050" lon="-116.81035"><ele>1232.0</ele></trkpt>
    <trkpt lat="33.76050" lon="-116.81044"><ele>1232.0</ele></trkpt>
    <trkpt lat="33.76030" lon="-116.81092"><ele>1232.0</ele></trkpt>
    <trkpt lat="33.76023" lon="-116.81107"><ele>1232.0</ele></trkpt>
    <trkpt lat="33.76017" lon="-116.81113"><ele>1232.0</ele></trkpt>
    <trkpt lat="33.76007" lon="-116.81114"><ele>1232.0</ele></trkpt>
    <trkpt lat="33.75984" lon="-116.81110"><ele>1232.0</ele></trkpt>
    <trkpt lat="33.75974" lon="-116.81111"><ele>1232.0</ele></trkpt>
    <trkpt lat="33.75965" lon="-116.81118"><ele>1212.0</ele></trkpt>
    <trkpt lat="33.75958" lon="-116.81128"><ele>1212.0</ele></trkpt>
    <trkpt lat="33.75955" lon="-116.81144"><ele>1212.0</ele></trkpt>
    <trkpt lat="33.75952" lon="-116.81159"><ele>1212.0</ele></trkpt>
    <trkpt lat="33.75946" lon="-116.81172"><ele>1212.0</ele></trkpt>
    <trkpt lat="33.75898" lon="-116.81222"><ele>1212.0</ele></trkpt>
    <trkpt lat="33.75878" lon="-116.81243"><ele>1212.0</ele></trkpt>
    <trkpt lat="33.75861" lon="-116.81266"><ele>1212.0</ele></trkpt>
    <trkpt lat="33.75840" lon="-116.81296"><ele>1212.0</ele></trkpt>
    <trkpt lat="33.75832" lon="-116.81311"><ele>1212.0</ele></trkpt>
    <trkpt lat="33.75831" lon="-116.81323"><ele>1212.0</ele></trkpt>
    <trkpt lat="33.75832" lon="-116.81332"><ele>1212.0</ele></trkpt>
    <trkpt lat="33.75838" lon="-116.81340"><ele>1212.0</ele></trkpt>
    <trkpt lat="33.75866" lon="-116.81368"><ele>1212.0</ele></trkpt>
    <trkpt lat="33.75899" lon="-116.81398"><ele>1195.0</ele></trkpt>
    <trkpt lat="33.75910" lon="-116.81405"><ele>1195.0</ele></trkpt>
    <trkpt lat="33.75923" lon="-116.81409"><ele>1195.0</ele></trkpt>
    <trkpt lat="33.75939" lon="-116.81412"><ele>1195.0</ele></trkpt>
    <trkpt lat="33.75947" lon="-116.81414"><ele>1195.0</ele></trkpt>
    <trkpt lat="33.75958" lon="-116.81421"><ele>1195.0</ele></trkpt>
    <trkpt lat="33.75978" lon="-116.81436"><ele>1195.0</ele></trkpt>
    <trkpt lat="33.75999" lon="-116.81454"><ele>1195.0</ele></trkpt>
    <trkpt lat="33.76014" lon="-116.81467"><ele>1195.0</ele></trkpt>
    <trkpt lat="33.76023" lon="-116.81480"><ele>1195.0</ele></trkpt>
    <trkpt lat="33.76031" lon="-116.81495"><ele>1195.0</ele></trkpt>
    <trkpt lat="33.76036" lon="-116.81510"><ele>1195.0</ele></trkpt>
    <trkpt lat="33.76038" lon="-116.81525"><ele>1195.0</ele></trkpt>
    <trkpt lat="33.76036" lon="-116.81536"><ele>1195.0</ele></trkpt>
    <trkpt lat="33.76025" lon="-116.81566"><ele>1165.0</ele></trkpt>
    <trkpt lat="33.76017" lon="-116.81580"><ele>1165.0</ele></trkpt>
    <trkpt lat="33.76010" lon="-116.81594"><ele>1165.0</ele></trkpt>
    <trkpt lat="33.76004" lon="-116.81602"><ele>1165.0</ele></trkpt>
    <trkpt lat="33.75988" lon="-116.81614"><ele>1165.0</ele></trkpt>
    <trkpt lat="33.75969" lon="-116.81626"><ele>1165.0</ele></trkpt>
    <trkpt lat="33.75957" lon="-116.81638"><ele>1165.0</ele></trkpt>
    <trkpt lat="33.75949" lon="-116.81643"><ele>1165.0</ele></trkpt>
    <trkpt lat="33.75938" lon="-116.81643"><ele>1165.0</ele></trkpt>
    <trkpt lat="33.75918" lon="-116.81639"><ele>1165.0</ele></trkpt>
    <trkpt lat="33.75899" lon="-116.81634"><ele>1165.0</ele></trkpt>
    <trkpt lat="33.75890" lon="-116.81629"><ele>1165.0</ele></trkpt>
    <trkpt lat="33.75879" lon="-116.81619"><ele>1165.0</ele></trkpt>
    <trkpt lat="33.75869" lon="-116.81609"><ele>1165.0</ele></trkpt>
    <trkpt lat="33.75862" lon="-116.81605"><ele>1165.0</ele></trkpt>
    <trkpt lat="33.75845" lon="-116.81606"><ele>1165.0</ele></trkpt>
    <trkpt lat="33.75830" lon="-116.81609"><ele>1165.0</ele></trkpt>
    <trkpt lat="33.75815" lon="-116.81621"><ele>1165.0</ele></trkpt>
    <trkpt lat="33.75800" lon="-116.81632"><ele>1165.0</ele></trkpt>
    <trkpt lat="33.75780" lon="-116.81656"><ele>1165.0</ele></trkpt>
    <trkpt lat="33.75767" lon="-116.81667"><ele>1165.0</ele></trkpt>
    <trkpt lat="33.75759" lon="-116.81670"><ele>1165.0</ele></trkpt>
    <trkpt lat="33.75741" lon="-116.81671"><ele>1165.0</ele></trkpt>
    <trkpt lat="33.75715" lon="-116.81671"><ele>1165.0</ele></trkpt>
    <trkpt lat="33.75704" lon="-116.81674"><ele>1165.0</ele></trkpt>
    <trkpt lat="33.75693" lon="-116.81678"><ele>1165.0</ele></trkpt>
    <trkpt lat="33.75683" lon="-116.81686"><ele>1165.0</ele></trkpt>
    <trkpt lat="33.75676" lon="-116.81699"><ele>1165.0</ele></trkpt>
    <trkpt lat="33.75669" lon="-116.81720"><ele>1135.0</ele></trkpt>
    <trkpt lat="33.75659" lon="-116.81747"><ele>1135.0</ele></trkpt>
    <trkpt lat="33.75646" lon="-116.81776"><ele>1135.0</ele></trkpt>
    <trkpt lat="33.75636" lon="-116.81804"><ele>1135.0</ele></trkpt>
    <trkpt lat="33.75633" lon="-116.81817"><ele>1135.0</ele></trkpt>
    <trkpt lat="33.75630" lon="-116.81827"><ele>1135.0</ele></trkpt>
    <trkpt lat="33.75623" lon="-116.81841"><ele>1135.0</ele></trkpt>
    <trkpt lat="33.75616" lon="-116.81848"><ele>1135.0</ele></trkpt>
    <trkpt lat="33.75610" lon="-116.81852"><ele>1135.0</ele></trkpt>
    <trkpt lat="33.75584" lon="-116.81853"><ele>1135.0</ele></trkpt>
    <trkpt lat="33.75568" lon="-116.81854"><ele>1135.0</ele></trkpt>
    <trkpt lat="33.75555" lon="-116.81850"><ele>1135.0</ele></trkpt>
    <trkpt lat="33.75541" lon="-116.81846"><ele>1135.0</ele></trkpt>
    <trkpt lat="33.75523" lon="-116.81842"><ele>1135.0</ele></trkpt>
    <trkpt lat="33.75512" lon="-116.81838"><ele>1137.0</ele></trkpt>
    <trkpt lat="33.75495" lon="-116.81824"><ele>1137.0</ele></trkpt>
    <trkpt lat="33.75484" lon="-116.81816"><ele>1137.0</ele></trkpt>
    <trkpt lat="33.75479" lon="-116.81807"><ele>1137.0</ele></trkpt>
    <trkpt lat="33.75476" lon="-116.81797"><ele>1137.0</ele></trkpt>
    <trkpt lat="33.75475" lon="-116.81782"><ele>1137.0</ele></trkpt>
    <trkpt lat="33.75476" lon="-116.81771"><ele>1137.0</ele></trkpt>
    <trkpt lat="33.75473" lon="-116.81761"><ele>1137.0</ele></trkpt>
    <trkpt lat="33.75467" lon="-116.81757"><ele>1137.0</ele></trkpt>
    <trkpt lat="33.75459" lon="-116.81756"><ele>1137.0</ele></trkpt>
    <trkpt lat="33.75453" lon="-116.81762"><ele>1137.0</ele></trkpt>
    <trkpt lat="33.75452" lon="-116.81771"><ele>1137.0</ele></trkpt>
    <trkpt lat="33.75456" lon="-116.81788"><ele>1137.0</ele></trkpt>
    <trkpt lat="33.75462" lon="-116.81809"><ele>1137.0</ele></trkpt>
    <trkpt lat="33.75468" lon="-116.81822"><ele>1111.0</ele></trkpt>
    <trkpt lat="33.75474" lon="-116.81841"><ele>1111.0</ele></trkpt>
    <trkpt lat="33.75482" lon="-116.81857"><ele>1111.0</ele></trkpt>
    <trkpt lat="33.75493" lon="-116.81881"><ele>1111.0</ele></trkpt>
    <trkpt lat="33.75500" lon="-116.81890"><ele>1111.0</ele></trkpt>
    <trkpt lat="33.75509" lon="-116.81896"><ele>1111.0</ele></trkpt>
    <trkpt lat="33.75521" lon="-116.81900"><ele>1111.0</ele></trkpt>
    <trkpt lat="33.75535" lon="-116.81904"><ele>1111.0</ele></trkpt>
    <trkpt lat="33.75550" lon="-116.81909"><ele>1111.0</ele></trkpt>
    <trkpt lat="33.75560" lon="-116.81914"><ele>1111.0</ele></trkpt>
    <trkpt lat="33.75568" lon="-116.81917"><ele>1111.0</ele></trkpt>
    <trkpt lat="33.75576" lon="-116.81919"><ele>1111.0</ele></trkpt>
    <trkpt lat="33.75583" lon="-116.81924"><ele>1111.0</ele></trkpt>
    <trkpt lat="33.75590" lon="-116.81929"><ele>1111.0</ele></trkpt>
    <trkpt lat="33.75601" lon="-116.81933"><ele>1090.0</ele></trkpt>
    <trkpt lat="33.75612" lon="-116.81938"><ele>1090.0</ele></trkpt>
    <trkpt lat="33.75627" lon="-116.81946"><ele>1090.0</ele></trkpt>
    <trkpt lat="33.75642" lon="-116.81952"><ele>1090.0</ele></trkpt>
    <trkpt lat="33.75655" lon="-116.81954"><ele>1090.0</ele></trkpt>
    <trkpt lat="33.75667" lon="-116.81954"><ele>1090.0</ele></trkpt>
    <trkpt lat="33.75675" lon="-116.81951"><ele>1090.0</ele></trkpt>
    <trkpt lat="33.75685" lon="-116.81940"><ele>1090.0</ele></trkpt>
    <trkpt lat="33.75701" lon="-116.81921"><ele>1090.0</ele></trkpt>
    <trkpt lat="33.75708" lon="-116.81915"><ele>1090.0</ele></trkpt>
    <trkpt lat="33.75716" lon="-116.81915"><ele>1090.0</ele></trkpt>
    <trkpt lat="33.75723" lon="-116.81920"><ele>1090.0</ele></trkpt>
    <trkpt lat="33.75737" lon="-116.81935"><ele>1090.0</ele></trkpt>
    <trkpt lat="33.75753" lon="-116.81954"><ele>1090.0</ele></trkpt>
    <trkpt lat="33.75768" lon="-116.81970"><ele>1080.0</ele></trkpt>
    <trkpt lat="33.75776" lon="-116.81975"><ele>1080.0</ele></trkpt>
    <trkpt lat="33.75785" lon="-116.81976"><ele>1080.0</ele></trkpt>
    <trkpt lat="33.75792" lon="-116.81972"><ele>1080.0</ele></trkpt>
    <trkpt lat="33.75800" lon="-116.81962"><ele>1080.0</ele></trkpt>
    <trkpt lat="33.75806" lon="-116.81951"><ele>1080.0</ele></trkpt>
    <trkpt lat="33.75811" lon="-116.81940"><ele>1080.0</ele></trkpt>
    <trkpt lat="33.75820" lon="-116.81925"><ele>1080.0</ele></trkpt>
    <trkpt lat="33.75829" lon="-116.81916"><ele>1080.0</ele></trkpt>
    <trkpt lat="33.75832" lon="-116.81908"><ele>1080.0</ele></trkpt>
    <trkpt lat="33.75834" lon="-116.81897"><ele>1080.0</ele></trkpt>
    <trkpt lat="33.75836" lon="-116.81878"><ele>1080.0</ele></trkpt>
    <trkpt lat="33.75837" lon="-116.81861"><ele>1080.0</ele></trkpt>
    <trkpt lat="33.75838" lon="-116.81852"><ele>1080.0</ele></trkpt>
    <trkpt lat="33.75843" lon="-116.81844"><ele>1076.0</ele></trkpt>
    <trkpt lat="33.75850" lon="-116.81842"><ele>1076.0</ele></trkpt>
    <trkpt lat="33.75856" lon="-116.81845"><ele>1076.0</ele></trkpt>
    <trkpt lat="33.75860" lon="-116.81853"><ele>1076.0</ele></trkpt>
    <trkpt lat="33.75860" lon="-116.81865"><ele>1076.0</ele></trkpt>
    <trkpt lat="33.75857" lon="-116.81878"><ele>1076.0</ele></trkpt>
    <trkpt lat="33.75858" lon="-116.81888"><ele>1076.0</ele></trkpt>
    <trkpt lat="33.75863" lon="-116.81893"><ele>1076.0</ele></trkpt>
    <trkpt lat="33.75872" lon="-116.81896"><ele>1076.0</ele></trkpt>
    <trkpt lat="33.75885" lon="-116.81901"><ele>1076.0</ele></trkpt>
    <trkpt lat="33.75896" lon="-116.81907"><ele>1076.0</ele></trkpt>
    <trkpt lat="33.75902" lon="-116.81915"><ele>1076.0</ele></trkpt>
    <trkpt lat="33.75907" lon="-116.81927"><ele>1076.0</ele></trkpt>
    <trkpt lat="33.75911" lon="-116.81948"><ele>1076.0</ele></trkpt>
    <trkpt lat="33.75913" lon="-116.81966"><ele>1055.0</ele></trkpt>
    <trkpt lat="33.75913" lon="-116.81983"><ele>1055.0</ele></trkpt>
    <trkpt lat="33.75908" lon="-116.82005"><ele>1055.0</ele></trkpt>
    <trkpt lat="33.75901" lon="-116.82023"><ele>1055.0</ele></trkpt>
    <trkpt lat="33.75893" lon="-116.82030"><ele>1055.0</ele></trkpt>
    <trkpt lat="33.75883" lon="-116.82033"><ele>1055.0</ele></trkpt>
    <trkpt lat="33.75866" lon="-116.82033"><ele>1055.0</ele></trkpt>
    <trkpt lat="33.75858" lon="-116.82037"><ele>1055.0</ele></trkpt>
    <trkpt lat="33.75854" lon="-116.82043"><ele>1055.0</ele></trkpt>
    <trkpt lat="33.75850" lon="-116.82053"><ele>1055.0</ele></trkpt>
    <trkpt lat="33.75830" lon="-116.82083"><ele>1055.0</ele></trkpt>
    <trkpt lat="33.75822" lon="-116.82093"><ele>1055.0</ele></trkpt>
    <trkpt lat="33.75809" lon="-116.82101"><ele>1055.0</ele></trkpt>
    <trkpt lat="33.75798" lon="-116.82107"><ele>1055.0</ele></trkpt>
    <trkpt lat="33.75788" lon="-116.82116"><ele>1042.0</ele></trkpt>
    <trkpt lat="33.75772" lon="-116.82124"><ele>1042.0</ele></trkpt>
    <trkpt lat="33.75758" lon="-116.82130"><ele>1042.0</ele></trkpt>
    <trkpt lat="33.75745" lon="-116.82140"><ele>1042.0</ele></trkpt>
    <trkpt lat="33.75733" lon="-116.82149"><ele>1042.0</ele></trkpt>
    <trkpt lat="33.75723" lon="-116.82155"><ele>1042.0</ele></trkpt>
    <trkpt lat="33.75716" lon="-116.82159"><ele>1042.0</ele></trkpt>
    <trkpt lat="33.75699" lon="-116.82160"><ele>1042.0</ele></trkpt>
    <trkpt lat="33.75686" lon="-116.82161"><ele>1042.0</ele></trkpt>
    <trkpt lat="33.75675" lon="-116.82165"><ele>1042.0</ele></trkpt>
    <trkpt lat="33.75657" lon="-116.82178"><ele>1042.0</ele></trkpt>
    <trkpt lat="33.75649" lon="-116.82183"><ele>1042.0</ele></trkpt>
    <trkpt lat="33.75631" lon="-116.82186"><ele>1042.0</ele></trkpt>
    <trkpt lat="33.75617" lon="-116.82190"><ele>1022.0</ele></trkpt>
    <trkpt lat="33.75593" lon="-116.82191"><ele>1022.0</ele></trkpt>
    <trkpt lat="33.75583" lon="-116.82193"><ele>1022.0</ele></trkpt>
    <trkpt lat="33.75568" lon="-116.82198"><ele>1022.0</ele></trkpt>
    <trkpt lat="33.75547" lon="-116.82210"><ele>1022.0</ele></trkpt>
    <trkpt lat="33.75535" lon="-116.82215"><ele>1022.0</ele></trkpt>
    <trkpt lat="33.75528" lon="-116.82215"><ele>1022.0</ele></trkpt>
    <trkpt lat="33.75504" lon="-116.82214"><ele>1022.0</ele></trkpt>
    <trkpt lat="33.75487" lon="-116.82214"><ele>1022.0</ele></trkpt>
    <trkpt lat="33.75480" lon="-116.82219"><ele>1022.0</ele></trkpt>
    <trkpt lat="33.75476" lon="-116.82232"><ele>1022.0</ele></trkpt>
    <trkpt lat="33.75474" lon="-116.82251"><ele>1022.0</ele></trkpt>
    <trkpt lat="33.75474" lon="-116.82267"><ele>1022.0</ele></trkpt>
    <trkpt lat="33.75482" lon="-116.82286"><ele>1022.0</ele></trkpt>
    <trkpt lat="33.75494" lon="-116.82315"><ele>1003.0</ele></trkpt>
    <trkpt lat="33.75504" lon="-116.82339"><ele>1003.0</ele></trkpt>
    <trkpt lat="33.75511" lon="-116.82349"><ele>1003.0</ele></trkpt>
    <trkpt lat="33.75522" lon="-116.82360"><ele>1003.0</ele></trkpt>
    <trkpt lat="33.75540" lon="-116.82370"><ele>1003.0</ele></trkpt>
    <trkpt lat="33.75552" lon="-116.82376"><ele>1003.0</ele></trkpt>
    <trkpt lat="33.75568" lon="-116.82387"><ele>1003.0</ele></trkpt>
    <trkpt lat="33.75601" lon="-116.82407"><ele>1003.0</ele></trkpt>
    <trkpt lat="33.75628" lon="-116.82423"><ele>1003.0</ele></trkpt>
    <trkpt lat="33.75651" lon="-116.82433"><ele>1003.0</ele></trkpt>
    <trkpt lat="33.75673" lon="-116.82442"><ele>1003.0</ele></trkpt>
    <trkpt lat="33.75691" lon="-116.82448"><ele>1003.0</ele></trkpt>
    <trkpt lat="33.75702" lon="-116.82454"><ele>1003.0</ele></trkpt>
    <trkpt lat="33.75721" lon="-116.82457"><ele>1003.0</ele></trkpt>
    <trkpt lat="33.75733" lon="-116.82460"><ele>974.0</ele></trkpt>
    <trkpt lat="33.75745" lon="-116.82460"><ele>974.0</ele></trkpt>
    <trkpt lat="33.75757" lon="-116.82459"><ele>974.0</ele></trkpt>
    <trkpt lat="33.75765" lon="-116.82461"><ele>974.0</ele></trkpt>
    <trkpt lat="33.75775" lon="-116.82464"><ele>974.0</ele></trkpt>
    <trkpt lat="33.75786" lon="-116.82464"><ele>974.0</ele></trkpt>
    <trkpt lat="33.75800" lon="-116.82462"><ele>974.0</ele></trkpt>
    <trkpt lat="33.75812" lon="-116.82457"><ele>974.0</ele></trkpt>
    <trkpt lat="33.75829" lon="-116.82448"><ele>974.0</ele></trkpt>
    <trkpt lat="33.75843" lon="-116.82440"><ele>974.0</ele></trkpt>
    <trkpt lat="33.75856" lon="-116.82430"><ele>974.0</ele></trkpt>
    <trkpt lat="33.75867" lon="-116.82421"><ele>974.0</ele></trkpt>
    <trkpt lat="33.75878" lon="-116.82410"><ele>974.0</ele></trkpt>
    <trkpt lat="33.75888" lon="-116.82404"><ele>974.0</ele></trkpt>
    <trkpt lat="33.75896" lon="-116.82400"><ele>954.0</ele></trkpt>
    <trkpt lat="33.75907" lon="-116.82397"><ele>954.0</ele></trkpt>
    <trkpt lat="33.75920" lon="-116.82391"><ele>954.0</ele></trkpt>
    <trkpt lat="33.75936" lon="-116.82385"><ele>954.0</ele></trkpt>
    <trkpt lat="33.75948" lon="-116.82381"><ele>954.0</ele></trkpt>
    <trkpt lat="33.75965" lon="-116.82373"><ele>954.0</ele></trkpt>
    <trkpt lat="33.75977" lon="-116.82366"><ele>954.0</ele></trkpt>
    <trkpt lat="33.75988" lon="-116.82359"><ele>954.0</ele></trkpt>
    <trkpt lat="33.75998" lon="-116.82350"><ele>954.0</ele></trkpt>
    <trkpt lat="33.76006" lon="-116.82340"><ele>954.0</ele></trkpt>
    <trkpt lat="33.76014" lon="-116.82327"><ele>954.0</ele></trkpt>
    <trkpt lat="33.76023" lon="-116.82317"><ele>954.0</ele></trkpt>
    <trkpt lat="33.76031" lon="-116.82309"><ele>954.0</ele></trkpt>
    <trkpt lat="33.76043" lon="-116.82301"><ele>954.0</ele></trkpt>
    <trkpt lat="33.76055" lon="-116.82293"><ele>953.0</ele></trkpt>
    <trkpt lat="33.76061" lon="-116.82286"><ele>953.0</ele></trkpt>
    <trkpt lat="33.76066" lon="-116.82279"><ele>953.0</ele></trkpt>
    <trkpt lat="33.76067" lon="-116.82269"><ele>953.0</ele></trkpt>
    <trkpt lat="33.76067" lon="-116.82255"><ele>953.0</ele></trkpt>
    <trkpt lat="33.76065" lon="-116.82233"><ele>953.0</ele></trkpt>
    <trkpt lat="33.76065" lon="-116.82226"><ele>953.0</ele></trkpt>
    <trkpt lat="33.76069" lon="-116.82217"><ele>953.0</ele></trkpt>
    <trkpt lat="33.76076" lon="-116.82212"><ele>953.0</ele></trkpt>
    <trkpt lat="33.76086" lon="-116.82211"><ele>953.0</ele></trkpt>
    <trkpt lat="33.76096" lon="-116.82212"><ele>953.0</ele></trkpt>
    <trkpt lat="33.76103" lon="-116.82211"><ele>953.0</ele></trkpt>
    <trkpt lat="33.76108" lon="-116.82206"><ele>953.0</ele></trkpt>
    <trkpt lat="33.76120" lon="-116.82182"><ele>953.0</ele></trkpt>
    <trkpt lat="33.76124" lon="-116.82171"><ele>944.0</ele></trkpt>
    <trkpt lat="33.76126" lon="-116.82155"><ele>944.0</ele></trkpt>
    <trkpt lat="33.76128" lon="-116.82143"><ele>944.0</ele></trkpt>
    <trkpt lat="33.76131" lon="-116.82137"><ele>944.0</ele></trkpt>
    <trkpt lat="33.76140" lon="-116.82136"><ele>944.0</ele></trkpt>
    <trkpt lat="33.76148" lon="-116.82137"><ele>944.0</ele></trkpt>
    <trkpt lat="33.76155" lon="-116.82142"><ele>944.0</ele></trkpt>
    <trkpt lat="33.76165" lon="-116.82151"><ele>944.0</ele></trkpt>
    <trkpt lat="33.76173" lon="-116.82154"><ele>944.0</ele></trkpt>
    <trkpt lat="33.76186" lon="-116.82155"><ele>944.0</ele></trkpt>
    <trkpt lat="33.76195" lon="-116.82156"><ele>944.0</ele></trkpt>
    <trkpt lat="33.76205" lon="-116.82158"><ele>944.0</ele></trkpt>
    <trkpt lat="33.76213" lon="-116.82163"><ele>944.0</ele></trkpt>
    <trkpt lat="33.76222" lon="-116.82166"><ele>944.0</ele></trkpt>
    <trkpt lat="33.76245" lon="-116.82165"><ele>927.0</ele></trkpt>
    <trkpt lat="33.76258" lon="-116.82163"><ele>927.0</ele></trkpt>
    <trkpt lat="33.76267" lon="-116.82159"><ele>927.0</ele></trkpt>
    <trkpt lat="33.76273" lon="-116.82159"><ele>927.0</ele></trkpt>
    <trkpt lat="33.76280" lon="-116.82163"><ele>927.0</ele></trkpt>
    <trkpt lat="33.76286" lon="-116.82168"><ele>927.0</ele></trkpt>
    <trkpt lat="33.76292" lon="-116.82169"><ele>927.0</ele></trkpt>
    <trkpt lat="33.76301" lon="-116.82165"><ele>927.0</ele></trkpt>
    <trkpt lat="33.76308" lon="-116.82161"><ele>927.0</ele></trkpt>
    <trkpt lat="33.76314" lon="-116.82163"><ele>927.0</ele></trkpt>
    <trkpt lat="33.76320" lon="-116.82169"><ele>927.0</ele></trkpt>
    <trkpt lat="33.76337" lon="-116.82187"><ele>927.0</ele></trkpt>
    <trkpt lat="33.76370" lon="-116.82215"><ele>927.0</ele></trkpt>
    <trkpt lat="33.76376" lon="-116.82224"><ele>927.0</ele></trkpt>
    <trkpt lat="33.76380" lon="-116.82234"><ele>908.0</ele></trkpt>
    <trkpt lat="33.76381" lon="-116.82249"><ele>908.0</ele></trkpt>
    <trkpt lat="33.76378" lon="-116.82265"><ele>908.0</ele></trkpt>
    <trkpt lat="33.76370" lon="-116.82276"><ele>908.0</ele></trkpt>
    <trkpt lat="33.76359" lon="-116.82285"><ele>908.0</ele></trkpt>
    <trkpt lat="33.76337" lon="-116.82295"><ele>908.0</ele></trkpt>
    <trkpt lat="33.76320" lon="-116.82300"><ele>908.0</ele></trkpt>
  </trkseg></trk>
</gpx>
