<?xml version="1.0" encoding="UTF-8"?>
<gpx version="1.1" creator="dirt-bikes build-area-routes (MVUM geometry + SRTM elevation)" xmlns="http://www.topografix.com/GPX/1/1">
  <trk><name>Santa Rosa Mountain Road</name><trkseg>
    <trkpt lat="33.56788" lon="-116.51176"><ele>1400.0</ele></trkpt>
    <trkpt lat="33.56772" lon="-116.51174"><ele>1400.0</ele></trkpt>
    <trkpt lat="33.56763" lon="-116.51168"><ele>1400.0</ele></trkpt>
    <trkpt lat="33.56758" lon="-116.51159"><ele>1400.0</ele></trkpt>
    <trkpt lat="33.56757" lon="-116.51147"><ele>1400.0</ele></trkpt>
    <trkpt lat="33.56760" lon="-116.51130"><ele>1400.0</ele></trkpt>
    <trkpt lat="33.56760" lon="-116.51121"><ele>1400.0</ele></trkpt>
    <trkpt lat="33.56752" lon="-116.51098"><ele>1400.0</ele></trkpt>
    <trkpt lat="33.56747" lon="-116.51075"><ele>1415.0</ele></trkpt>
    <trkpt lat="33.56742" lon="-116.51053"><ele>1415.0</ele></trkpt>
    <trkpt lat="33.56741" lon="-116.51042"><ele>1415.0</ele></trkpt>
    <trkpt lat="33.56742" lon="-116.51023"><ele>1415.0</ele></trkpt>
    <trkpt lat="33.56741" lon="-116.51012"><ele>1415.0</ele></trkpt>
    <trkpt lat="33.56736" lon="-116.51005"><ele>1415.0</ele></trkpt>
    <trkpt lat="33.56725" lon="-116.50999"><ele>1415.0</ele></trkpt>
    <trkpt lat="33.56716" lon="-116.50997"><ele>1415.0</ele></trkpt>
    <trkpt lat="33.56705" lon="-116.50999"><ele>1415.0</ele></trkpt>
    <trkpt lat="33.56698" lon="-116.51007"><ele>1415.0</ele></trkpt>
    <trkpt lat="33.56686" lon="-116.51028"><ele>1415.0</ele></trkpt>
    <trkpt lat="33.56679" lon="-116.51040"><ele>1415.0</ele></trkpt>
    <trkpt lat="33.56676" lon="-116.51047"><ele>1415.0</ele></trkpt>
    <trkpt lat="33.56677" lon="-116.51053"><ele>1415.0</ele></trkpt>
    <trkpt lat="33.56684" lon="-116.51068"><ele>1415.0</ele></trkpt>
    <trkpt lat="33.56690" lon="-116.51086"><ele>1434.0</ele></trkpt>
    <trkpt lat="33.56694" lon="-116.51101"><ele>1434.0</ele></trkpt>
    <trkpt lat="33.56695" lon="-116.51113"><ele>1434.0</ele></trkpt>
    <trkpt lat="33.56692" lon="-116.51124"><ele>1434.0</ele></trkpt>
    <trkpt lat="33.56686" lon="-116.51133"><ele>1434.0</ele></trkpt>
    <trkpt lat="33.56678" lon="-116.51141"><ele>1434.0</ele></trkpt>
    <trkpt lat="33.56674" lon="-116.51145"><ele>1434.0</ele></trkpt>
    <trkpt lat="33.56665" lon="-116.51149"><ele>1434.0</ele></trkpt>
    <trkpt lat="33.56660" lon="-116.51153"><ele>1434.0</ele></trkpt>
    <trkpt lat="33.56657" lon="-116.51158"><ele>1434.0</ele></trkpt>
    <trkpt lat="33.56656" lon="-116.51166"><ele>1434.0</ele></trkpt>
    <trkpt lat="33.56655" lon="-116.51179"><ele>1434.0</ele></trkpt>
    <trkpt lat="33.56656" lon="-116.51195"><ele>1434.0</ele></trkpt>
    <trkpt lat="33.56654" lon="-116.51204"><ele>1434.0</ele></trkpt>
    <trkpt lat="33.56649" lon="-116.51213"><ele>1434.0</ele></trkpt>
    <trkpt lat="33.56641" lon="-116.51223"><ele>1454.0</ele></trkpt>
    <trkpt lat="33.56633" lon="-116.51233"><ele>1454.0</ele></trkpt>
    <trkpt lat="33.56628" lon="-116.51242"><ele>1454.0</ele></trkpt>
    <trkpt lat="33.56621" lon="-116.51248"><ele>1454.0</ele></trkpt>
    <trkpt lat="33.56607" lon="-116.51260"><ele>1454.0</ele></trkpt>
    <trkpt lat="33.56593" lon="-116.51267"><ele>1454.0</ele></trkpt>
    <trkpt lat="33.56575" lon="-116.51278"><ele>1454.0</ele></trkpt>
    <trkpt lat="33.56560" lon="-116.51285"><ele>1454.0</ele></trkpt>
    <trkpt lat="33.56551" lon="-116.51289"><ele>1454.0</ele></trkpt>
    <trkpt lat="33.56547" lon="-116.51293"><ele>1454.0</ele></trkpt>
    <trkpt lat="33.56534" lon="-116.51306"><ele>1454.0</ele></trkpt>
    <trkpt lat="33.56518" lon="-116.51323"><ele>1454.0</ele></trkpt>
    <trkpt lat="33.56509" lon="-116.51330"><ele>1454.0</ele></trkpt>
    <trkpt lat="33.56498" lon="-116.51337"><ele>1454.0</ele></trkpt>
    <trkpt lat="33.56487" lon="-116.51344"><ele>1454.0</ele></trkpt>
    <trkpt lat="33.56480" lon="-116.51350"><ele>1475.0</ele></trkpt>
    <trkpt lat="33.56474" lon="-116.51356"><ele>1475.0</ele></trkpt>
    <trkpt lat="33.56469" lon="-116.51359"><ele>1475.0</ele></trkpt>
    <trkpt lat="33.56462" lon="-116.51362"><ele>1475.0</ele></trkpt>
    <trkpt lat="33.56456" lon="-116.51361"><ele>1475.0</ele></trkpt>
    <trkpt lat="33.56446" lon="-116.51359"><ele>1475.0</ele></trkpt>
    <trkpt lat="33.56435" lon="-116.51356"><ele>1475.0</ele></trkpt>
    <trkpt lat="33.56425" lon="-116.51354"><ele>1475.0</ele></trkpt>
    <trkpt lat="33.56416" lon="-116.51355"><ele>1475.0</ele></trkpt>
    <trkpt lat="33.56410" lon="-116.51357"><ele>1475.0</ele></trkpt>
    <trkpt lat="33.56402" lon="-116.51363"><ele>1475.0</ele></trkpt>
    <trkpt lat="33.56391" lon="-116.51373"><ele>1475.0</ele></trkpt>
    <trkpt lat="33.56370" lon="-116.51390"><ele>1475.0</ele></trkpt>
    <trkpt lat="33.56357" lon="-116.51402"><ele>1475.0</ele></trkpt>
    <trkpt lat="33.56349" lon="-116.51407"><ele>1475.0</ele></trkpt>
    <trkpt lat="33.56338" lon="-116.51413"><ele>1498.0</ele></trkpt>
    <trkpt lat="33.56326" lon="-116.51420"><ele>1498.0</ele></trkpt>
    <trkpt lat="33.56319" lon="-116.51425"><ele>1498.0</ele></trkpt>
    <trkpt lat="33.56314" lon="-116.51431"><ele>1498.0</ele></trkpt>
    <trkpt lat="33.56310" lon="-116.51436"><ele>1498.0</ele></trkpt>
    <trkpt lat="33.56301" lon="-116.51440"><ele>1498.0</ele></trkpt>
    <trkpt lat="33.56292" lon="-116.51443"><ele>1498.0</ele></trkpt>
    <trkpt lat="33.56276" lon="-116.51445"><ele>1498.0</ele></trkpt>
    <trkpt lat="33.56269" lon="-116.51444"><ele>1498.0</ele></trkpt>
    <trkpt lat="33.56260" lon="-116.51438"><ele>1498.0</ele></trkpt>
    <trkpt lat="33.56248" lon="-116.51431"><ele>1498.0</ele></trkpt>
    <trkpt lat="33.56236" lon="-116.51426"><ele>1498.0</ele></trkpt>
    <trkpt lat="33.56227" lon="-116.51422"><ele>1498.0</ele></trkpt>
    <trkpt lat="33.56219" lon="-116.51421"><ele>1498.0</ele></trkpt>
    <trkpt lat="33.56207" lon="-116.51424"><ele>1498.0</ele></trkpt>
    <trkpt lat="33.56186" lon="-116.51430"><ele>1513.0</ele></trkpt>
    <trkpt lat="33.56171" lon="-116.51435"><ele>1513.0</ele></trkpt>
    <trkpt lat="33.56166" lon="-116.51439"><ele>1513.0</ele></trkpt>
    <trkpt lat="33.56159" lon="-116.51442"><ele>1513.0</ele></trkpt>
    <trkpt lat="33.56153" lon="-116.51442"><ele>1513.0</ele></trkpt>
    <trkpt lat="33.56144" lon="-116.51439"><ele>1513.0</ele></trkpt>
    <trkpt lat="33.56135" lon="-116.51436"><ele>1513.0</ele></trkpt>
    <trkpt lat="33.56124" lon="-116.51432"><ele>1513.0</ele></trkpt>
    <trkpt lat="33.56117" lon="-116.51431"><ele>1513.0</ele></trkpt>
    <trkpt lat="33.56111" lon="-116.51430"><ele>1513.0</ele></trkpt>
    <trkpt lat="33.56103" lon="-116.51432"><ele>1513.0</ele></trkpt>
    <trkpt lat="33.56094" lon="-116.51438"><ele>1513.0</ele></trkpt>
    <trkpt lat="33.56088" lon="-116.51444"><ele>1513.0</ele></trkpt>
    <trkpt lat="33.56086" lon="-116.51451"><ele>1513.0</ele></trkpt>
    <trkpt lat="33.56085" lon="-116.51459"><ele>1513.0</ele></trkpt>
    <trkpt lat="33.56089" lon="-116.51465"><ele>1517.0</ele></trkpt>
    <trkpt lat="33.56095" lon="-116.51469"><ele>1517.0</ele></trkpt>
    <trkpt lat="33.56103" lon="-116.51471"><ele>1517.0</ele></trkpt>
    <trkpt lat="33.56115" lon="-116.51470"><ele>1517.0</ele></trkpt>
    <trkpt lat="33.56133" lon="-116.51470"><ele>1517.0</ele></trkpt>
    <trkpt lat="33.56149" lon="-116.51474"><ele>1517.0</ele></trkpt>
    <trkpt lat="33.56164" lon="-116.51482"><ele>1517.0</ele></trkpt>
    <trkpt lat="33.56179" lon="-116.51491"><ele>1517.0</ele></trkpt>
    <trkpt lat="33.56190" lon="-116.51500"><ele>1517.0</ele></trkpt>
    <trkpt lat="33.56196" lon="-116.51508"><ele>1517.0</ele></trkpt>
    <trkpt lat="33.56199" lon="-116.51519"><ele>1517.0</ele></trkpt>
    <trkpt lat="33.56199" lon="-116.51532"><ele>1517.0</ele></trkpt>
    <trkpt lat="33.56196" lon="-116.51557"><ele>1517.0</ele></trkpt>
    <trkpt lat="33.56195" lon="-116.51579"><ele>1517.0</ele></trkpt>
    <trkpt lat="33.56195" lon="-116.51596"><ele>1517.0</ele></trkpt>
    <trkpt lat="33.56198" lon="-116.51605"><ele>1523.0</ele></trkpt>
    <trkpt lat="33.56202" lon="-116.51608"><ele>1523.0</ele></trkpt>
    <trkpt lat="33.56208" lon="-116.51611"><ele>1523.0</ele></trkpt>
    <trkpt lat="33.56213" lon="-116.51610"><ele>1523.0</ele></trkpt>
    <trkpt lat="33.56221" lon="-116.51601"><ele>1523.0</ele></trkpt>
    <trkpt lat="33.56229" lon="-116.51593"><ele>1523.0</ele></trkpt>
    <trkpt lat="33.56238" lon="-116.51592"><ele>1523.0</ele></trkpt>
    <trkpt lat="33.56245" lon="-116.51597"><ele>1523.0</ele></trkpt>
    <trkpt lat="33.56250" lon="-116.51604"><ele>1523.0</ele></trkpt>
    <trkpt lat="33.56252" lon="-116.51614"><ele>1523.0</ele></trkpt>
    <trkpt lat="33.56251" lon="-116.51627"><ele>1523.0</ele></trkpt>
    <trkpt lat="33.56247" lon="-116.51633"><ele>1523.0</ele></trkpt>
    <trkpt lat="33.56243" lon="-116.51641"><ele>1523.0</ele></trkpt>
    <trkpt lat="33.56241" lon="-116.51650"><ele>1523.0</ele></trkpt>
    <trkpt lat="33.56239" lon="-116.51661"><ele>1523.0</ele></trkpt>
    <trkpt lat="33.56234" lon="-116.51672"><ele>1547.0</ele></trkpt>
    <trkpt lat="33.56228" lon="-116.51679"><ele>1547.0</ele></trkpt>
    <trkpt lat="33.56219" lon="-116.51685"><ele>1547.0</ele></trkpt>
    <trkpt lat="33.56212" lon="-116.51688"><ele>1547.0</ele></trkpt>
    <trkpt lat="33.56204" lon="-116.51691"><ele>1547.0</ele></trkpt>
    <trkpt lat="33.56194" lon="-116.51689"><ele>1547.0</ele></trkpt>
    <trkpt lat="33.56184" lon="-116.51681"><ele>1547.0</ele></trkpt>
    <trkpt lat="33.56175" lon="-116.51670"><ele>1547.0</ele></trkpt>
    <trkpt lat="33.56158" lon="-116.51661"><ele>1547.0</ele></trkpt>
    <trkpt lat="33.56155" lon="-116.51653"><ele>1547.0</ele></trkpt>
    <trkpt lat="33.56154" lon="-116.51643"><ele>1547.0</ele></trkpt>
    <trkpt lat="33.56155" lon="-116.51629"><ele>1547.0</ele></trkpt>
    <trkpt lat="33.56153" lon="-116.51616"><ele>1547.0</ele></trkpt>
    <trkpt lat="33.56148" lon="-116.51605"><ele>1547.0</ele></trkpt>
    <trkpt lat="33.56140" lon="-116.51595"><ele>1547.0</ele></trkpt>
    <trkpt lat="33.56131" lon="-116.51589"><ele>1555.0</ele></trkpt>
    <trkpt lat="33.56119" lon="-116.51586"><ele>1555.0</ele></trkpt>
    <trkpt lat="33.56106" lon="-116.51584"><ele>1555.0</ele></trkpt>
    <trkpt lat="33.56095" lon="-116.51585"><ele>1555.0</ele></trkpt>
    <trkpt lat="33.56085" lon="-116.51588"><ele>1555.0</ele></trkpt>
    <trkpt lat="33.56075" lon="-116.51592"><ele>1555.0</ele></trkpt>
    <trkpt lat="33.56068" lon="-116.51598"><ele>1555.0</ele></trkpt>
    <trkpt lat="33.56061" lon="-116.51609"><ele>1555.0</ele></trkpt>
    <trkpt lat="33.56056" lon="-116.51624"><ele>1555.0</ele></trkpt>
    <trkpt lat="33.56051" lon="-116.51638"><ele>1555.0</ele></trkpt>
    <trkpt lat="33.56048" lon="-116.51650"><ele>1555.0</ele></trkpt>
    <trkpt lat="33.56044" lon="-116.51659"><ele>1555.0</ele></trkpt>
    <trkpt lat="33.56039" lon="-116.51665"><ele>1555.0</ele></trkpt>
    <trkpt lat="33.56032" lon="-116.51664"><ele>1555.0</ele></trkpt>
    <trkpt lat="33.56023" lon="-116.51660"><ele>1555.0</ele></trkpt>
    <trkpt lat="33.56016" lon="-116.51659"><ele>1564.0</ele></trkpt>
    <trkpt lat="33.56008" lon="-116.51658"><ele>1564.0</ele></trkpt>
    <trkpt lat="33.56000" lon="-116.51657"><ele>1564.0</ele></trkpt>
    <trkpt lat="33.55993" lon="-116.51653"><ele>1564.0</ele></trkpt>
    <trkpt lat="33.55991" lon="-116.51647"><ele>1564.0</ele></trkpt>
    <trkpt lat="33.55992" lon="-116.51637"><ele>1564.0</ele></trkpt>
    <trkpt lat="33.55992" lon="-116.51629"><ele>1564.0</ele></trkpt>
    <trkpt lat="33.55991" lon="-116.51619"><ele>1564.0</ele></trkpt>
    <trkpt lat="33.55989" lon="-116.51614"><ele>1564.0</ele></trkpt>
    <trkpt lat="33.55983" lon="-116.51609"><ele>1564.0</ele></trkpt>
    <trkpt lat="33.55976" lon="-116.51609"><ele>1564.0</ele></trkpt>
    <trkpt lat="33.55962" lon="-116.51610"><ele>1564.0</ele></trkpt>
    <trkpt lat="33.55951" lon="-116.51611"><ele>1564.0</ele></trkpt>
    <trkpt lat="33.55940" lon="-116.51610"><ele>1564.0</ele></trkpt>
    <trkpt lat="33.55928" lon="-116.51606"><ele>1564.0</ele></trkpt>
    <trkpt lat="33.55916" lon="-116.51600"><ele>1578.0</ele></trkpt>
    <trkpt lat="33.55903" lon="-116.51591"><ele>1578.0</ele></trkpt>
    <trkpt lat="33.55889" lon="-116.51578"><ele>1578.0</ele></trkpt>
    <trkpt lat="33.55880" lon="-116.51570"><ele>1578.0</ele></trkpt>
    <trkpt lat="33.55875" lon="-116.51567"><ele>1578.0</ele></trkpt>
    <trkpt lat="33.55868" lon="-116.51565"><ele>1578.0</ele></trkpt>
    <trkpt lat="33.55860" lon="-116.51564"><ele>1578.0</ele></trkpt>
    <trkpt lat="33.55851" lon="-116.51564"><ele>1578.0</ele></trkpt>
    <trkpt lat="33.55842" lon="-116.51566"><ele>1578.0</ele></trkpt>
    <trkpt lat="33.55835" lon="-116.51564"><ele>1578.0</ele></trkpt>
    <trkpt lat="33.55826" lon="-116.51561"><ele>1578.0</ele></trkpt>
    <trkpt lat="33.55815" lon="-116.51557"><ele>1578.0</ele></trkpt>
    <trkpt lat="33.55804" lon="-116.51550"><ele>1578.0</ele></trkpt>
    <trkpt lat="33.55797" lon="-116.51546"><ele>1578.0</ele></trkpt>
    <trkpt lat="33.55788" lon="-116.51545"><ele>1596.0</ele></trkpt>
    <trkpt lat="33.55779" lon="-116.51546"><ele>1596.0</ele></trkpt>
    <trkpt lat="33.55768" lon="-116.51546"><ele>1596.0</ele></trkpt>
    <trkpt lat="33.55760" lon="-116.51548"><ele>1596.0</ele></trkpt>
    <trkpt lat="33.55748" lon="-116.51548"><ele>1596.0</ele></trkpt>
    <trkpt lat="33.55736" lon="-116.51549"><ele>1596.0</ele></trkpt>
    <trkpt lat="33.55727" lon="-116.51546"><ele>1596.0</ele></trkpt>
    <trkpt lat="33.55720" lon="-116.51543"><ele>1596.0</ele></trkpt>
    <trkpt lat="33.55709" lon="-116.51540"><ele>1596.0</ele></trkpt>
    <trkpt lat="33.55696" lon="-116.51536"><ele>1596.0</ele></trkpt>
    <trkpt lat="33.55682" lon="-116.51532"><ele>1596.0</ele></trkpt>
    <trkpt lat="33.55672" lon="-116.51529"><ele>1596.0</ele></trkpt>
    <trkpt lat="33.55657" lon="-116.51528"><ele>1596.0</ele></trkpt>
    <trkpt lat="33.55641" lon="-116.51526"><ele>1596.0</ele></trkpt>
    <trkpt lat="33.55627" lon="-116.51524"><ele>1596.0</ele></trkpt>
    <trkpt lat="33.55615" lon="-116.51522"><ele>1617.0</ele></trkpt>
    <trkpt lat="33.55603" lon="-116.51520"><ele>1617.0</ele></trkpt>
    <trkpt lat="33.55593" lon="-116.51516"><ele>1617.0</ele></trkpt>
    <trkpt lat="33.55581" lon="-116.51511"><ele>1617.0</ele></trkpt>
    <trkpt lat="33.55568" lon="-116.51502"><ele>1617.0</ele></trkpt>
    <trkpt lat="33.55556" lon="-116.51491"><ele>1617.0</ele></trkpt>
    <trkpt lat="33.55542" lon="-116.51474"><ele>1617.0</ele></trkpt>
    <trkpt lat="33.55530" lon="-116.51463"><ele>1617.0</ele></trkpt>
    <trkpt lat="33.55517" lon="-116.51453"><ele>1617.0</ele></trkpt>
    <trkpt lat="33.55499" lon="-116.51441"><ele>1617.0</ele></trkpt>
    <trkpt lat="33.55492" lon="-116.51438"><ele>1617.0</ele></trkpt>
    <trkpt lat="33.55482" lon="-116.51434"><ele>1617.0</ele></trkpt>
    <trkpt lat="33.55472" lon="-116.51431"><ele>1617.0</ele></trkpt>
    <trkpt lat="33.55465" lon="-116.51432"><ele>1617.0</ele></trkpt>
    <trkpt lat="33.55456" lon="-116.51432"><ele>1617.0</ele></trkpt>
    <trkpt lat="33.55447" lon="-116.51436"><ele>1625.0</ele></trkpt>
    <trkpt lat="33.55439" lon="-116.51440"><ele>1625.0</ele></trkpt>
    <trkpt lat="33.55430" lon="-116.51441"><ele>1625.0</ele></trkpt>
    <trkpt lat="33.55415" lon="-116.51441"><ele>1625.0</ele></trkpt>
    <trkpt lat="33.55404" lon="-116.51441"><ele>1625.0</ele></trkpt>
    <trkpt lat="33.55396" lon="-116.51439"><ele>1625.0</ele></trkpt>
    <trkpt lat="33.55386" lon="-116.51435"><ele>1625.0</ele></trkpt>
    <trkpt lat="33.55377" lon="-116.51429"><ele>1625.0</ele></trkpt>
    <trkpt lat="33.55365" lon="-116.51419"><ele>1625.0</ele></trkpt>
    <trkpt lat="33.55353" lon="-116.51409"><ele>1625.0</ele></trkpt>
    <trkpt lat="33.55341" lon="-116.51398"><ele>1625.0</ele></trkpt>
    <trkpt lat="33.55330" lon="-116.51382"><ele>1625.0</ele></trkpt>
    <trkpt lat="33.55318" lon="-116.51367"><ele>1625.0</ele></trkpt>
    <trkpt lat="33.55309" lon="-116.51357"><ele>1625.0</ele></trkpt>
    <trkpt lat="33.55299" lon="-116.51347"><ele>1625.0</ele></trkpt>
    <trkpt lat="33.55285" lon="-116.51336"><ele>1612.0</ele></trkpt>
    <trkpt lat="33.55272" lon="-116.51322"><ele>1612.0</ele></trkpt>
    <trkpt lat="33.55260" lon="-116.51308"><ele>1612.0</ele></trkpt>
    <trkpt lat="33.55246" lon="-116.51288"><ele>1612.0</ele></trkpt>
    <trkpt lat="33.55237" lon="-116.51273"><ele>1612.0</ele></trkpt>
    <trkpt lat="33.55228" lon="-116.51259"><ele>1612.0</ele></trkpt>
    <trkpt lat="33.55211" lon="-116.51230"><ele>1612.0</ele></trkpt>
    <trkpt lat="33.55203" lon="-116.51216"><ele>1612.0</ele></trkpt>
    <trkpt lat="33.55197" lon="-116.51202"><ele>1612.0</ele></trkpt>
    <trkpt lat="33.55192" lon="-116.51189"><ele>1612.0</ele></trkpt>
    <trkpt lat="33.55185" lon="-116.51171"><ele>1612.0</ele></trkpt>
    <trkpt lat="33.55180" lon="-116.51158"><ele>1612.0</ele></trkpt>
    <trkpt lat="33.55169" lon="-116.51135"><ele>1612.0</ele></trkpt>
    <trkpt lat="33.55165" lon="-116.51124"><ele>1612.0</ele></trkpt>
    <trkpt lat="33.55158" lon="-116.51109"><ele>1612.0</ele></trkpt>
    <trkpt lat="33.55139" lon="-116.51073"><ele>1604.0</ele></trkpt>
    <trkpt lat="33.55120" lon="-116.51042"><ele>1604.0</ele></trkpt>
    <trkpt lat="33.55109" lon="-116.51022"><ele>1604.0</ele></trkpt>
    <trkpt lat="33.55096" lon="-116.50999"><ele>1604.0</ele></trkpt>
    <trkpt lat="33.55088" lon="-116.50986"><ele>1604.0</ele></trkpt>
    <trkpt lat="33.55081" lon="-116.50978"><ele>1604.0</ele></trkpt>
    <trkpt lat="33.55072" lon="-116.50971"><ele>1604.0</ele></trkpt>
    <trkpt lat="33.55061" lon="-116.50963"><ele>1604.0</ele></trkpt>
    <trkpt lat="33.55047" lon="-116.50956"><ele>1604.0</ele></trkpt>
    <trkpt lat="33.55027" lon="-116.50946"><ele>1604.0</ele></trkpt>
    <trkpt lat="33.55009" lon="-116.50940"><ele>1604.0</ele></trkpt>
    <trkpt lat="33.54998" lon="-116.50935"><ele>1604.0</ele></trkpt>
    <trkpt lat="33.54989" lon="-116.50932"><ele>1604.0</ele></trkpt>
    <trkpt lat="33.54981" lon="-116.50931"><ele>1604.0</ele></trkpt>
    <trkpt lat="33.54974" lon="-116.50928"><ele>1604.0</ele></trkpt>
    <trkpt lat="33.54971" lon="-116.50919"><ele>1596.0</ele></trkpt>
    <trkpt lat="33.54970" lon="-116.50911"><ele>1596.0</ele></trkpt>
    <trkpt lat="33.54974" lon="-116.50897"><ele>1596.0</ele></trkpt>
    <trkpt lat="33.54975" lon="-116.50885"><ele>1596.0</ele></trkpt>
    <trkpt lat="33.54974" lon="-116.50850"><ele>1596.0</ele></trkpt>
    <trkpt lat="33.54974" lon="-116.50834"><ele>1596.0</ele></trkpt>
    <trkpt lat="33.54971" lon="-116.50826"><ele>1596.0</ele></trkpt>
    <trkpt lat="33.54961" lon="-116.50816"><ele>1596.0</ele></trkpt>
    <trkpt lat="33.54948" lon="-116.50802"><ele>1596.0</ele></trkpt>
    <trkpt lat="33.54939" lon="-116.50791"><ele>1596.0</ele></trkpt>
    <trkpt lat="33.54925" lon="-116.50779"><ele>1596.0</ele></trkpt>
    <trkpt lat="33.54920" lon="-116.50771"><ele>1596.0</ele></trkpt>
    <trkpt lat="33.54915" lon="-116.50757"><ele>1596.0</ele></trkpt>
    <trkpt lat="33.54908" lon="-116.50741"><ele>1596.0</ele></trkpt>
    <trkpt lat="33.54899" lon="-116.50726"><ele>1596.0</ele></trkpt>
    <trkpt lat="33.54887" lon="-116.50712"><ele>1598.0</ele></trkpt>
    <trkpt lat="33.54879" lon="-116.50703"><ele>1598.0</ele></trkpt>
    <trkpt lat="33.54876" lon="-116.50695"><ele>1598.0</ele></trkpt>
    <trkpt lat="33.54874" lon="-116.50686"><ele>1598.0</ele></trkpt>
    <trkpt lat="33.54876" lon="-116.50673"><ele>1598.0</ele></trkpt>
    <trkpt lat="33.54882" lon="-116.50651"><ele>1598.0</ele></trkpt>
    <trkpt lat="33.54886" lon="-116.50632"><ele>1598.0</ele></trkpt>
    <trkpt lat="33.54887" lon="-116.50623"><ele>1598.0</ele></trkpt>
    <trkpt lat="33.54885" lon="-116.50614"><ele>1598.0</ele></trkpt>
    <trkpt lat="33.54879" lon="-116.50603"><ele>1598.0</ele></trkpt>
    <trkpt lat="33.54877" lon="-116.50594"><ele>1598.0</ele></trkpt>
    <trkpt lat="33.54875" lon="-116.50584"><ele>1598.0</ele></trkpt>
    <trkpt lat="33.54869" lon="-116.50577"><ele>1598.0</ele></trkpt>
    <trkpt lat="33.54863" lon="-116.50572"><ele>1598.0</ele></trkpt>
    <trkpt lat="33.54853" lon="-116.50567"><ele>1598.0</ele></trkpt>
    <trkpt lat="33.54846" lon="-116.50565"><ele>1604.0</ele></trkpt>
    <trkpt lat="33.54835" lon="-116.50562"><ele>1604.0</ele></trkpt>
    <trkpt lat="33.54822" lon="-116.50559"><ele>1604.0</ele></trkpt>
    <trkpt lat="33.54814" lon="-116.50554"><ele>1604.0</ele></trkpt>
    <trkpt lat="33.54804" lon="-116.50544"><ele>1604.0</ele></trkpt>
    <trkpt lat="33.54792" lon="-116.50535"><ele>1604.0</ele></trkpt>
    <trkpt lat="33.54779" lon="-116.50529"><ele>1604.0</ele></trkpt>
    <trkpt lat="33.54772" lon="-116.50526"><ele>1604.0</ele></trkpt>
    <trkpt lat="33.54764" lon="-116.50527"><ele>1604.0</ele></trkpt>
    <trkpt lat="33.54755" lon="-116.50532"><ele>1604.0</ele></trkpt>
    <trkpt lat="33.54748" lon="-116.50538"><ele>1604.0</ele></trkpt>
    <trkpt lat="33.54739" lon="-116.50547"><ele>1604.0</ele></trkpt>
    <trkpt lat="33.54733" lon="-116.50555"><ele>1604.0</ele></trkpt>
    <trkpt lat="33.54726" lon="-116.50564"><ele>1604.0</ele></trkpt>
    <trkpt lat="33.54721" lon="-116.50569"><ele>1604.0</ele></trkpt>
    <trkpt lat="33.54713" lon="-116.50575"><ele>1611.0</ele></trkpt>
    <trkpt lat="33.54704" lon="-116.50579"><ele>1611.0</ele></trkpt>
    <trkpt lat="33.54693" lon="-116.50583"><ele>1611.0</ele></trkpt>
    <trkpt lat="33.54686" lon="-116.50587"><ele>1611.0</ele></trkpt>
    <trkpt lat="33.54679" lon="-116.50590"><ele>1611.0</ele></trkpt>
    <trkpt lat="33.54675" lon="-116.50596"><ele>1611.0</ele></trkpt>
    <trkpt lat="33.54673" lon="-116.50604"><ele>1611.0</ele></trkpt>
    <trkpt lat="33.54672" lon="-116.50614"><ele>1611.0</ele></trkpt>
    <trkpt lat="33.54669" lon="-116.50621"><ele>1611.0</ele></trkpt>
    <trkpt lat="33.54664" lon="-116.50626"><ele>1611.0</ele></trkpt>
    <trkpt lat="33.54659" lon="-116.50628"><ele>1611.0</ele></trkpt>
    <trkpt lat="33.54652" lon="-116.50626"><ele>1611.0</ele></trkpt>
    <trkpt lat="33.54643" lon="-116.50624"><ele>1611.0</ele></trkpt>
    <trkpt lat="33.54635" lon="-116.50624"><ele>1611.0</ele></trkpt>
    <trkpt lat="33.54629" lon="-116.50626"><ele>1611.0</ele></trkpt>
    <trkpt lat="33.54625" lon="-116.50634"><ele>1621.0</ele></trkpt>
    <trkpt lat="33.54619" lon="-116.50648"><ele>1621.0</ele></trkpt>
    <trkpt lat="33.54613" lon="-116.50660"><ele>1621.0</ele></trkpt>
    <trkpt lat="33.54608" lon="-116.50671"><ele>1621.0</ele></trkpt>
    <trkpt lat="33.54607" lon="-116.50685"><ele>1621.0</ele></trkpt>
    <trkpt lat="33.54604" lon="-116.50694"><ele>1621.0</ele></trkpt>
    <trkpt lat="33.54600" lon="-116.50703"><ele>1621.0</ele></trkpt>
    <trkpt lat="33.54592" lon="-116.50704"><ele>1621.0</ele></trkpt>
    <trkpt lat="33.54586" lon="-116.50700"><ele>1621.0</ele></trkpt>
    <trkpt lat="33.54583" lon="-116.50691"><ele>1621.0</ele></trkpt>
    <trkpt lat="33.54585" lon="-116.50681"><ele>1621.0</ele></trkpt>
    <trkpt lat="33.54593" lon="-116.50663"><ele>1621.0</ele></trkpt>
    <trkpt lat="33.54598" lon="-116.50647"><ele>1621.0</ele></trkpt>
    <trkpt lat="33.54599" lon="-116.50628"><ele>1621.0</ele></trkpt>
    <trkpt lat="33.54599" lon="-116.50610"><ele>1621.0</ele></trkpt>
    <trkpt lat="33.54597" lon="-116.50600"><ele>1640.0</ele></trkpt>
    <trkpt lat="33.54596" lon="-116.50591"><ele>1640.0</ele></trkpt>
    <trkpt lat="33.54597" lon="-116.50581"><ele>1640.0</ele></trkpt>
    <trkpt lat="33.54602" lon="-116.50569"><ele>1640.0</ele></trkpt>
    <trkpt lat="33.54607" lon="-116.50555"><ele>1640.0</ele></trkpt>
    <trkpt lat="33.54611" lon="-116.50538"><ele>1640.0</ele></trkpt>
    <trkpt lat="33.54616" lon="-116.50521"><ele>1640.0</ele></trkpt>
    <trkpt lat="33.54623" lon="-116.50505"><ele>1640.0</ele></trkpt>
    <trkpt lat="33.54631" lon="-116.50492"><ele>1640.0</ele></trkpt>
    <trkpt lat="33.54640" lon="-116.50485"><ele>1640.0</ele></trkpt>
    <trkpt lat="33.54645" lon="-116.50478"><ele>1640.0</ele></trkpt>
    <trkpt lat="33.54645" lon="-116.50469"><ele>1640.0</ele></trkpt>
    <trkpt lat="33.54641" lon="-116.50463"><ele>1640.0</ele></trkpt>
    <trkpt lat="33.54635" lon="-116.50461"><ele>1640.0</ele></trkpt>
    <trkpt lat="33.54629" lon="-116.50462"><ele>1640.0</ele></trkpt>
    <trkpt lat="33.54625" lon="-116.50469"><ele>1648.0</ele></trkpt>
    <trkpt lat="33.54621" lon="-116.50479"><ele>1648.0</ele></trkpt>
    <trkpt lat="33.54616" lon="-116.50492"><ele>1648.0</ele></trkpt>
    <trkpt lat="33.54609" lon="-116.50504"><ele>1648.0</ele></trkpt>
    <trkpt lat="33.54602" lon="-116.50515"><ele>1648.0</ele></trkpt>
    <trkpt lat="33.54593" lon="-116.50526"><ele>1648.0</ele></trkpt>
    <trkpt lat="33.54587" lon="-116.50535"><ele>1648.0</ele></trkpt>
    <trkpt lat="33.54581" lon="-116.50540"><ele>1648.0</ele></trkpt>
    <trkpt lat="33.54574" lon="-116.50543"><ele>1648.0</ele></trkpt>
    <trkpt lat="33.54569" lon="-116.50547"><ele>1648.0</ele></trkpt>
    <trkpt lat="33.54565" lon="-116.50555"><ele>1648.0</ele></trkpt>
    <trkpt lat="33.54562" lon="-116.50564"><ele>1648.0</ele></trkpt>
    <trkpt lat="33.54560" lon="-116.50574"><ele>1648.0</ele></trkpt>
    <trkpt lat="33.54551" lon="-116.50594"><ele>1648.0</ele></trkpt>
    <trkpt lat="33.54538" lon="-116.50618"><ele>1648.0</ele></trkpt>
    <trkpt lat="33.54530" lon="-116.50631"><ele>1656.0</ele></trkpt>
    <trkpt lat="33.54522" lon="-116.50642"><ele>1656.0</ele></trkpt>
    <trkpt lat="33.54513" lon="-116.50650"><ele>1656.0</ele></trkpt>
    <trkpt lat="33.54505" lon="-116.50654"><ele>1656.0</ele></trkpt>
    <trkpt lat="33.54496" lon="-116.50657"><ele>1656.0</ele></trkpt>
    <trkpt lat="33.54487" lon="-116.50654"><ele>1656.0</ele></trkpt>
    <trkpt lat="33.54477" lon="-116.50649"><ele>1656.0</ele></trkpt>
    <trkpt lat="33.54469" lon="-116.50640"><ele>1656.0</ele></trkpt>
    <trkpt lat="33.54459" lon="-116.50624"><ele>1656.0</ele></trkpt>
    <trkpt lat="33.54444" lon="-116.50596"><ele>1656.0</ele></trkpt>
    <trkpt lat="33.54427" lon="-116.50565"><ele>1656.0</ele></trkpt>
    <trkpt lat="33.54421" lon="-116.50553"><ele>1656.0</ele></trkpt>
    <trkpt lat="33.54416" lon="-116.50546"><ele>1656.0</ele></trkpt>
    <trkpt lat="33.54410" lon="-116.50544"><ele>1656.0</ele></trkpt>
    <trkpt lat="33.54405" lon="-116.50544"><ele>1656.0</ele></trkpt>
    <trkpt lat="33.54399" lon="-116.50551"><ele>1676.0</ele></trkpt>
    <trkpt lat="33.54395" lon="-116.50564"><ele>1676.0</ele></trkpt>
    <trkpt lat="33.54390" lon="-116.50582"><ele>1676.0</ele></trkpt>
    <trkpt lat="33.54385" lon="-116.50602"><ele>1676.0</ele></trkpt>
    <trkpt lat="33.54375" lon="-116.50629"><ele>1676.0</ele></trkpt>
    <trkpt lat="33.54362" lon="-116.50650"><ele>1676.0</ele></trkpt>
    <trkpt lat="33.54349" lon="-116.50661"><ele>1676.0</ele></trkpt>
    <trkpt lat="33.54333" lon="-116.50670"><ele>1676.0</ele></trkpt>
    <trkpt lat="33.54312" lon="-116.50676"><ele>1676.0</ele></trkpt>
    <trkpt lat="33.54282" lon="-116.50685"><ele>1676.0</ele></trkpt>
    <trkpt lat="33.54268" lon="-116.50688"><ele>1676.0</ele></trkpt>
    <trkpt lat="33.54259" lon="-116.50687"><ele>1676.0</ele></trkpt>
    <trkpt lat="33.54246" lon="-116.50682"><ele>1676.0</ele></trkpt>
    <trkpt lat="33.54237" lon="-116.50672"><ele>1676.0</ele></trkpt>
    <trkpt lat="33.54231" lon="-116.50661"><ele>1676.0</ele></trkpt>
    <trkpt lat="33.54227" lon="-116.50649"><ele>1702.0</ele></trkpt>
    <trkpt lat="33.54221" lon="-116.50630"><ele>1702.0</ele></trkpt>
    <trkpt lat="33.54216" lon="-116.50617"><ele>1702.0</ele></trkpt>
    <trkpt lat="33.54209" lon="-116.50606"><ele>1702.0</ele></trkpt>
    <trkpt lat="33.54198" lon="-116.50594"><ele>1702.0</ele></trkpt>
    <trkpt lat="33.54186" lon="-116.50586"><ele>1702.0</ele></trkpt>
    <trkpt lat="33.54171" lon="-116.50580"><ele>1702.0</ele></trkpt>
    <trkpt lat="33.54148" lon="-116.50569"><ele>1702.0</ele></trkpt>
    <trkpt lat="33.54139" lon="-116.50564"><ele>1702.0</ele></trkpt>
    <trkpt lat="33.54132" lon="-116.50557"><ele>1702.0</ele></trkpt>
    <trkpt lat="33.54101" lon="-116.50510"><ele>1702.0</ele></trkpt>
    <trkpt lat="33.54061" lon="-116.50447"><ele>1702.0</ele></trkpt>
    <trkpt lat="33.54039" lon="-116.50409"><ele>1702.0</ele></trkpt>
    <trkpt lat="33.54033" lon="-116.50395"><ele>1702.0</ele></trkpt>
    <trkpt lat="33.54029" lon="-116.50377"><ele>1702.0</ele></trkpt>
    <trkpt lat="33.54029" lon="-116.50363"><ele>1729.0</ele></trkpt>
    <trkpt lat="33.54030" lon="-116.50350"><ele>1729.0</ele></trkpt>
    <trkpt lat="33.54036" lon="-116.50338"><ele>1729.0</ele></trkpt>
    <trkpt lat="33.54051" lon="-116.50313"><ele>1729.0</ele></trkpt>
    <trkpt lat="33.54057" lon="-116.50299"><ele>1729.0</ele></trkpt>
    <trkpt lat="33.54059" lon="-116.50285"><ele>1729.0</ele></trkpt>
    <trkpt lat="33.54059" lon="-116.50269"><ele>1729.0</ele></trkpt>
    <trkpt lat="33.54057" lon="-116.50227"><ele>1729.0</ele></trkpt>
    <trkpt lat="33.54058" lon="-116.50185"><ele>1729.0</ele></trkpt>
    <trkpt lat="33.54059" lon="-116.50164"><ele>1729.0</ele></trkpt>
    <trkpt lat="33.54065" lon="-116.50127"><ele>1729.0</ele></trkpt>
    <trkpt lat="33.54068" lon="-116.50104"><ele>1729.0</ele></trkpt>
    <trkpt lat="33.54071" lon="-116.50092"><ele>1729.0</ele></trkpt>
    <trkpt lat="33.54076" lon="-116.50083"><ele>1729.0</ele></trkpt>
    <trkpt lat="33.54086" lon="-116.50074"><ele>1729.0</ele></trkpt>
    <trkpt lat="33.54096" lon="-116.50067"><ele>1752.0</ele></trkpt>
    <trkpt lat="33.54114" lon="-116.50059"><ele>1752.0</ele></trkpt>
    <trkpt lat="33.54129" lon="-116.50052"><ele>1752.0</ele></trkpt>
    <trkpt lat="33.54144" lon="-116.50042"><ele>1752.0</ele></trkpt>
    <trkpt lat="33.54165" lon="-116.50027"><ele>1752.0</ele></trkpt>
    <trkpt lat="33.54183" lon="-116.50016"><ele>1752.0</ele></trkpt>
    <trkpt lat="33.54194" lon="-116.50011"><ele>1752.0</ele></trkpt>
    <trkpt lat="33.54208" lon="-116.50008"><ele>1752.0</ele></trkpt>
    <trkpt lat="33.54225" lon="-116.50008"><ele>1752.0</ele></trkpt>
    <trkpt lat="33.54246" lon="-116.50009"><ele>1752.0</ele></trkpt>
    <trkpt lat="33.54265" lon="-116.50009"><ele>1752.0</ele></trkpt>
    <trkpt lat="33.54273" lon="-116.50005"><ele>1752.0</ele></trkpt>
    <trkpt lat="33.54292" lon="-116.49986"><ele>1752.0</ele></trkpt>
    <trkpt lat="33.54315" lon="-116.49966"><ele>1752.0</ele></trkpt>
    <trkpt lat="33.54328" lon="-116.49956"><ele>1752.0</ele></trkpt>
    <trkpt lat="33.54339" lon="-116.49941"><ele>1772.0</ele></trkpt>
    <trkpt lat="33.54348" lon="-116.49921"><ele>1772.0</ele></trkpt>
    <trkpt lat="33.54354" lon="-116.49905"><ele>1772.0</ele></trkpt>
    <trkpt lat="33.54357" lon="-116.49888"><ele>1772.0</ele></trkpt>
    <trkpt lat="33.54357" lon="-116.49872"><ele>1772.0</ele></trkpt>
    <trkpt lat="33.54353" lon="-116.49852"><ele>1772.0</ele></trkpt>
    <trkpt lat="33.54348" lon="-116.49836"><ele>1772.0</ele></trkpt>
    <trkpt lat="33.54346" lon="-116.49817"><ele>1772.0</ele></trkpt>
    <trkpt lat="33.54343" lon="-116.49795"><ele>1772.0</ele></trkpt>
    <trkpt lat="33.54342" lon="-116.49772"><ele>1772.0</ele></trkpt>
    <trkpt lat="33.54343" lon="-116.49756"><ele>1772.0</ele></trkpt>
    <trkpt lat="33.54348" lon="-116.49736"><ele>1772.0</ele></trkpt>
    <trkpt lat="33.54365" lon="-116.49674"><ele>1772.0</ele></trkpt>
    <trkpt lat="33.54372" lon="-116.49649"><ele>1772.0</ele></trkpt>
    <trkpt lat="33.54373" lon="-116.49629"><ele>1772.0</ele></trkpt>
    <trkpt lat="33.54375" lon="-116.49602"><ele>1787.0</ele></trkpt>
    <trkpt lat="33.54378" lon="-116.49578"><ele>1787.0</ele></trkpt>
    <trkpt lat="33.54384" lon="-116.49549"><ele>1787.0</ele></trkpt>
    <trkpt lat="33.54395" lon="-116.49492"><ele>1787.0</ele></trkpt>
    <trkpt lat="33.54407" lon="-116.49436"><ele>1787.0</ele></trkpt>
    <trkpt lat="33.54411" lon="-116.49408"><ele>1787.0</ele></trkpt>
    <trkpt lat="33.54409" lon="-116.49389"><ele>1787.0</ele></trkpt>
    <trkpt lat="33.54405" lon="-116.49371"><ele>1787.0</ele></trkpt>
    <trkpt lat="33.54400" lon="-116.49349"><ele>1787.0</ele></trkpt>
    <trkpt lat="33.54393" lon="-116.49333"><ele>1787.0</ele></trkpt>
    <trkpt lat="33.54386" lon="-116.49325"><ele>1787.0</ele></trkpt>
    <trkpt lat="33.54375" lon="-116.49306"><ele>1787.0</ele></trkpt>
    <trkpt lat="33.54369" lon="-116.49292"><ele>1787.0</ele></trkpt>
    <trkpt lat="33.54365" lon="-116.49274"><ele>1787.0</ele></trkpt>
    <trkpt lat="33.54364" lon="-116.49258"><ele>1787.0</ele></trkpt>
    <trkpt lat="33.54366" lon="-116.49230"><ele>1815.0</ele></trkpt>
    <trkpt lat="33.54371" lon="-116.49132"><ele>1815.0</ele></trkpt>
    <trkpt lat="33.54373" lon="-116.49090"><ele>1815.0</ele></trkpt>
    <trkpt lat="33.54375" lon="-116.49074"><ele>1815.0</ele></trkpt>
    <trkpt lat="33.54380" lon="-116.49057"><ele>1815.0</ele></trkpt>
    <trkpt lat="33.54387" lon="-116.49039"><ele>1815.0</ele></trkpt>
    <trkpt lat="33.54395" lon="-116.49026"><ele>1815.0</ele></trkpt>
    <trkpt lat="33.54405" lon="-116.49010"><ele>1815.0</ele></trkpt>
    <trkpt lat="33.54416" lon="-116.48998"><ele>1815.0</ele></trkpt>
    <trkpt lat="33.54428" lon="-116.48988"><ele>1815.0</ele></trkpt>
    <trkpt lat="33.54438" lon="-116.48974"><ele>1815.0</ele></trkpt>
    <trkpt lat="33.54456" lon="-116.48948"><ele>1815.0</ele></trkpt>
    <trkpt lat="33.54474" lon="-116.48925"><ele>1815.0</ele></trkpt>
    <trkpt lat="33.54486" lon="-116.48910"><ele>1815.0</ele></trkpt>
    <trkpt lat="33.54491" lon="-116.48899"><ele>1815.0</ele></trkpt>
    <trkpt lat="33.54499" lon="-116.48878"><ele>1846.0</ele></trkpt>
    <trkpt lat="33.54508" lon="-116.48851"><ele>1846.0</ele></trkpt>
    <trkpt lat="33.54518" lon="-116.48818"><ele>1846.0</ele></trkpt>
    <trkpt lat="33.54527" lon="-116.48793"><ele>1846.0</ele></trkpt>
    <trkpt lat="33.54534" lon="-116.48776"><ele>1846.0</ele></trkpt>
    <trkpt lat="33.54536" lon="-116.48766"><ele>1846.0</ele></trkpt>
    <trkpt lat="33.54536" lon="-116.48757"><ele>1846.0</ele></trkpt>
    <trkpt lat="33.54534" lon="-116.48748"><ele>1846.0</ele></trkpt>
    <trkpt lat="33.54529" lon="-116.48740"><ele>1846.0</ele></trkpt>
    <trkpt lat="33.54518" lon="-116.48728"><ele>1846.0</ele></trkpt>
    <trkpt lat="33.54511" lon="-116.48719"><ele>1846.0</ele></trkpt>
    <trkpt lat="33.54508" lon="-116.48710"><ele>1846.0</ele></trkpt>
    <trkpt lat="33.54505" lon="-116.48694"><ele>1846.0</ele></trkpt>
    <trkpt lat="33.54502" lon="-116.48687"><ele>1846.0</ele></trkpt>
    <trkpt lat="33.54493" lon="-116.48670"><ele>1846.0</ele></trkpt>
    <trkpt lat="33.54483" lon="-116.48650"><ele>1864.0</ele></trkpt>
    <trkpt lat="33.54472" lon="-116.48627"><ele>1864.0</ele></trkpt>
    <trkpt lat="33.54466" lon="-116.48606"><ele>1864.0</ele></trkpt>
    <trkpt lat="33.54461" lon="-116.48588"><ele>1864.0</ele></trkpt>
    <trkpt lat="33.54459" lon="-116.48577"><ele>1864.0</ele></trkpt>
    <trkpt lat="33.54458" lon="-116.48558"><ele>1864.0</ele></trkpt>
    <trkpt lat="33.54460" lon="-116.48541"><ele>1864.0</ele></trkpt>
    <trkpt lat="33.54462" lon="-116.48521"><ele>1864.0</ele></trkpt>
    <trkpt lat="33.54466" lon="-116.48502"><ele>1864.0</ele></trkpt>
    <trkpt lat="33.54466" lon="-116.48484"><ele>1864.0</ele></trkpt>
    <trkpt lat="33.54465" lon="-116.48459"><ele>1864.0</ele></trkpt>
    <trkpt lat="33.54464" lon="-116.48438"><ele>1864.0</ele></trkpt>
    <trkpt lat="33.54466" lon="-116.48427"><ele>1864.0</ele></trkpt>
    <trkpt lat="33.54469" lon="-116.48417"><ele>1864.0</ele></trkpt>
    <trkpt lat="33.54467" lon="-116.48407"><ele>1884.0</ele></trkpt>
    <trkpt lat="33.54463" lon="-116.48402"><ele>1884.0</ele></trkpt>
    <trkpt lat="33.54454" lon="-116.48401"><ele>1884.0</ele></trkpt>
    <trkpt lat="33.54444" lon="-116.48399"><ele>1884.0</ele></trkpt>
    <trkpt lat="33.54430" lon="-116.48388"><ele>1884.0</ele></trkpt>
    <trkpt lat="33.54418" lon="-116.48377"><ele>1884.0</ele></trkpt>
    <trkpt lat="33.54407" lon="-116.48361"><ele>1884.0</ele></trkpt>
    <trkpt lat="33.54398" lon="-116.48345"><ele>1884.0</ele></trkpt>
    <trkpt lat="33.54385" lon="-116.48316"><ele>1884.0</ele></trkpt>
    <trkpt lat="33.54371" lon="-116.48293"><ele>1884.0</ele></trkpt>
    <trkpt lat="33.54348" lon="-116.48255"><ele>1884.0</ele></trkpt>
    <trkpt lat="33.54341" lon="-116.48243"><ele>1884.0</ele></trkpt>
    <trkpt lat="33.54334" lon="-116.48238"><ele>1884.0</ele></trkpt>
    <trkpt lat="33.54326" lon="-116.48243"><ele>1884.0</ele></trkpt>
    <trkpt lat="33.54320" lon="-116.48250"><ele>1884.0</ele></trkpt>
    <trkpt lat="33.54319" lon="-116.48265"><ele>1893.0</ele></trkpt>
    <trkpt lat="33.54320" lon="-116.48285"><ele>1893.0</ele></trkpt>
    <trkpt lat="33.54323" lon="-116.48304"><ele>1893.0</ele></trkpt>
    <trkpt lat="33.54327" lon="-116.48321"><ele>1893.0</ele></trkpt>
    <trkpt lat="33.54327" lon="-116.48333"><ele>1893.0</ele></trkpt>
    <trkpt lat="33.54324" lon="-116.48342"><ele>1893.0</ele></trkpt>
    <trkpt lat="33.54320" lon="-116.48358"><ele>1893.0</ele></trkpt>
    <trkpt lat="33.54319" lon="-116.48371"><ele>1893.0</ele></trkpt>
    <trkpt lat="33.54322" lon="-116.48386"><ele>1893.0</ele></trkpt>
    <trkpt lat="33.54323" lon="-116.48402"><ele>1893.0</ele></trkpt>
    <trkpt lat="33.54323" lon="-116.48428"><ele>1893.0</ele></trkpt>
    <trkpt lat="33.54323" lon="-116.48450"><ele>1893.0</ele></trkpt>
    <trkpt lat="33.54322" lon="-116.48470"><ele>1893.0</ele></trkpt>
    <trkpt lat="33.54317" lon="-116.48494"><ele>1893.0</ele></trkpt>
    <trkpt lat="33.54309" lon="-116.48516"><ele>1893.0</ele></trkpt>
    <trkpt lat="33.54300" lon="-116.48536"><ele>1898.0</ele></trkpt>
    <trkpt lat="33.54290" lon="-116.48550"><ele>1898.0</ele></trkpt>
    <trkpt lat="33.54277" lon="-116.48564"><ele>1898.0</ele></trkpt>
    <trkpt lat="33.54266" lon="-116.48579"><ele>1898.0</ele></trkpt>
    <trkpt lat="33.54260" lon="-116.48595"><ele>1898.0</ele></trkpt>
    <trkpt lat="33.54251" lon="-116.48615"><ele>1898.0</ele></trkpt>
    <trkpt lat="33.54240" lon="-116.48630"><ele>1898.0</ele></trkpt>
    <trkpt lat="33.54223" lon="-116.48653"><ele>1898.0</ele></trkpt>
    <trkpt lat="33.54214" lon="-116.48661"><ele>1898.0</ele></trkpt>
    <trkpt lat="33.54202" lon="-116.48669"><ele>1898.0</ele></trkpt>
    <trkpt lat="33.54191" lon="-116.48677"><ele>1898.0</ele></trkpt>
    <trkpt lat="33.54180" lon="-116.48691"><ele>1898.0</ele></trkpt>
    <trkpt lat="33.54173" lon="-116.48698"><ele>1898.0</ele></trkpt>
    <trkpt lat="33.54166" lon="-116.48699"><ele>1898.0</ele></trkpt>
    <trkpt lat="33.54160" lon="-116.48696"><ele>1898.0</ele></trkpt>
    <trkpt lat="33.54158" lon="-116.48688"><ele>1914.0</ele></trkpt>
    <trkpt lat="33.54161" lon="-116.48682"><ele>1914.0</ele></trkpt>
    <trkpt lat="33.54173" lon="-116.48672"><ele>1914.0</ele></trkpt>
    <trkpt lat="33.54184" lon="-116.48664"><ele>1914.0</ele></trkpt>
    <trkpt lat="33.54196" lon="-116.48652"><ele>1914.0</ele></trkpt>
    <trkpt lat="33.54203" lon="-116.48639"><ele>1914.0</ele></trkpt>
    <trkpt lat="33.54213" lon="-116.48618"><ele>1914.0</ele></trkpt>
    <trkpt lat="33.54220" lon="-116.48599"><ele>1914.0</ele></trkpt>
    <trkpt lat="33.54221" lon="-116.48588"><ele>1914.0</ele></trkpt>
    <trkpt lat="33.54223" lon="-116.48572"><ele>1914.0</ele></trkpt>
    <trkpt lat="33.54225" lon="-116.48558"><ele>1914.0</ele></trkpt>
    <trkpt lat="33.54229" lon="-116.48546"><ele>1914.0</ele></trkpt>
    <trkpt lat="33.54237" lon="-116.48530"><ele>1914.0</ele></trkpt>
    <trkpt lat="33.54246" lon="-116.48511"><ele>1914.0</ele></trkpt>
    <trkpt lat="33.54252" lon="-116.48498"><ele>1914.0</ele></trkpt>
    <trkpt lat="33.54255" lon="-116.48486"><ele>1940.0</ele></trkpt>
    <trkpt lat="33.54256" lon="-116.48469"><ele>1940.0</ele></trkpt>
    <trkpt lat="33.54254" lon="-116.48453"><ele>1940.0</ele></trkpt>
    <trkpt lat="33.54246" lon="-116.48427"><ele>1940.0</ele></trkpt>
    <trkpt lat="33.54238" lon="-116.48393"><ele>1940.0</ele></trkpt>
    <trkpt lat="33.54230" lon="-116.48362"><ele>1940.0</ele></trkpt>
    <trkpt lat="33.54226" lon="-116.48347"><ele>1940.0</ele></trkpt>
    <trkpt lat="33.54219" lon="-116.48330"><ele>1940.0</ele></trkpt>
    <trkpt lat="33.54210" lon="-116.48316"><ele>1940.0</ele></trkpt>
    <trkpt lat="33.54201" lon="-116.48308"><ele>1940.0</ele></trkpt>
    <trkpt lat="33.54194" lon="-116.48297"><ele>1940.0</ele></trkpt>
    <trkpt lat="33.54191" lon="-116.48287"><ele>1940.0</ele></trkpt>
    <trkpt lat="33.54190" lon="-116.48275"><ele>1940.0</ele></trkpt>
    <trkpt lat="33.54187" lon="-116.48265"><ele>1940.0</ele></trkpt>
    <trkpt lat="33.54181" lon="-116.48263"><ele>1940.0</ele></trkpt>
    <trkpt lat="33.54176" lon="-116.48265"><ele>1947.0</ele></trkpt>
    <trkpt lat="33.54173" lon="-116.48269"><ele>1947.0</ele></trkpt>
    <trkpt lat="33.54173" lon="-116.48277"><ele>1947.0</ele></trkpt>
    <trkpt lat="33.54178" lon="-116.48290"><ele>1947.0</ele></trkpt>
    <trkpt lat="33.54186" lon="-116.48308"><ele>1947.0</ele></trkpt>
    <trkpt lat="33.54194" lon="-116.48321"><ele>1947.0</ele></trkpt>
    <trkpt lat="33.54201" lon="-116.48333"><ele>1947.0</ele></trkpt>
    <trkpt lat="33.54204" lon="-116.48343"><ele>1947.0</ele></trkpt>
    <trkpt lat="33.54205" lon="-116.48357"><ele>1947.0</ele></trkpt>
    <trkpt lat="33.54205" lon="-116.48374"><ele>1947.0</ele></trkpt>
    <trkpt lat="33.54205" lon="-116.48394"><ele>1947.0</ele></trkpt>
    <trkpt lat="33.54204" lon="-116.48407"><ele>1947.0</ele></trkpt>
    <trkpt lat="33.54199" lon="-116.48424"><ele>1947.0</ele></trkpt>
    <trkpt lat="33.54194" lon="-116.48437"><ele>1947.0</ele></trkpt>
    <trkpt lat="33.54182" lon="-116.48449"><ele>1947.0</ele></trkpt>
    <trkpt lat="33.54172" lon="-116.48459"><ele>1965.0</ele></trkpt>
    <trkpt lat="33.54163" lon="-116.48466"><ele>1965.0</ele></trkpt>
    <trkpt lat="33.54155" lon="-116.48467"><ele>1965.0</ele></trkpt>
    <trkpt lat="33.54150" lon="-116.48465"><ele>1965.0</ele></trkpt>
    <trkpt lat="33.54146" lon="-116.48460"><ele>1965.0</ele></trkpt>
    <trkpt lat="33.54145" lon="-116.48453"><ele>1965.0</ele></trkpt>
    <trkpt lat="33.54144" lon="-116.48444"><ele>1965.0</ele></trkpt>
    <trkpt lat="33.54148" lon="-116.48432"><ele>1965.0</ele></trkpt>
    <trkpt lat="33.54151" lon="-116.48417"><ele>1965.0</ele></trkpt>
    <trkpt lat="33.54151" lon="-116.48404"><ele>1965.0</ele></trkpt>
    <trkpt lat="33.54147" lon="-116.48387"><ele>1965.0</ele></trkpt>
    <trkpt lat="33.54138" lon="-116.48366"><ele>1965.0</ele></trkpt>
    <trkpt lat="33.54122" lon="-116.48340"><ele>1965.0</ele></trkpt>
    <trkpt lat="33.54110" lon="-116.48322"><ele>1965.0</ele></trkpt>
    <trkpt lat="33.54104" lon="-116.48315"><ele>1965.0</ele></trkpt>
    <trkpt lat="33.54098" lon="-116.48313"><ele>1984.0</ele></trkpt>
    <trkpt lat="33.54089" lon="-116.48316"><ele>1984.0</ele></trkpt>
    <trkpt lat="33.54080" lon="-116.48321"><ele>1984.0</ele></trkpt>
    <trkpt lat="33.54073" lon="-116.48321"><ele>1984.0</ele></trkpt>
    <trkpt lat="33.54066" lon="-116.48316"><ele>1984.0</ele></trkpt>
    <trkpt lat="33.54061" lon="-116.48307"><ele>1984.0</ele></trkpt>
    <trkpt lat="33.54058" lon="-116.48296"><ele>1984.0</ele></trkpt>
    <trkpt lat="33.54058" lon="-116.48276"><ele>1984.0</ele></trkpt>
    <trkpt lat="33.54058" lon="-116.48253"><ele>1984.0</ele></trkpt>
    <trkpt lat="33.54055" lon="-116.48235"><ele>1984.0</ele></trkpt>
    <trkpt lat="33.54054" lon="-116.48217"><ele>1984.0</ele></trkpt>
    <trkpt lat="33.54055" lon="-116.48203"><ele>1984.0</ele></trkpt>
    <trkpt lat="33.54060" lon="-116.48194"><ele>1984.0</ele></trkpt>
    <trkpt lat="33.54067" lon="-116.48180"><ele>1984.0</ele></trkpt>
    <trkpt lat="33.54070" lon="-116.48164"><ele>1984.0</ele></trkpt>
    <trkpt lat="33.54074" lon="-116.48134"><ele>2005.0</ele></trkpt>
    <trkpt lat="33.54076" lon="-116.48117"><ele>2005.0</ele></trkpt>
    <trkpt lat="33.54076" lon="-116.48099"><ele>2005.0</ele></trkpt>
    <trkpt lat="33.54073" lon="-116.48082"><ele>2005.0</ele></trkpt>
    <trkpt lat="33.54068" lon="-116.48070"><ele>2005.0</ele></trkpt>
    <trkpt lat="33.54060" lon="-116.48064"><ele>2005.0</ele></trkpt>
    <trkpt lat="33.54050" lon="-116.48053"><ele>2005.0</ele></trkpt>
    <trkpt lat="33.54045" lon="-116.48046"><ele>2005.0</ele></trkpt>
    <trkpt lat="33.54042" lon="-116.48034"><ele>2005.0</ele></trkpt>
    <trkpt lat="33.54043" lon="-116.48020"><ele>2005.0</ele></trkpt>
    <trkpt lat="33.54042" lon="-116.47999"><ele>2005.0</ele></trkpt>
    <trkpt lat="33.54040" lon="-116.47984"><ele>2005.0</ele></trkpt>
    <trkpt lat="33.54036" lon="-116.47965"><ele>2005.0</ele></trkpt>
    <trkpt lat="33.54036" lon="-116.47945"><ele>2005.0</ele></trkpt>
    <trkpt lat="33.54037" lon="-116.47925"><ele>2005.0</ele></trkpt>
    <trkpt lat="33.54039" lon="-116.47901"><ele>2019.0</ele></trkpt>
    <trkpt lat="33.54039" lon="-116.47882"><ele>2019.0</ele></trkpt>
    <trkpt lat="33.54033" lon="-116.47876"><ele>2019.0</ele></trkpt>
    <trkpt lat="33.54027" lon="-116.47873"><ele>2019.0</ele></trkpt>
    <trkpt lat="33.54021" lon="-116.47877"><ele>2019.0</ele></trkpt>
    <trkpt lat="33.54018" lon="-116.47883"><ele>2019.0</ele></trkpt>
    <trkpt lat="33.54018" lon="-116.47897"><ele>2019.0</ele></trkpt>
    <trkpt lat="33.54021" lon="-116.47931"><ele>2019.0</ele></trkpt>
    <trkpt lat="33.54022" lon="-116.47961"><ele>2019.0</ele></trkpt>
    <trkpt lat="33.54021" lon="-116.47985"><ele>2019.0</ele></trkpt>
    <trkpt lat="33.54018" lon="-116.47997"><ele>2019.0</ele></trkpt>
    <trkpt lat="33.54009" lon="-116.48006"><ele>2019.0</ele></trkpt>
    <trkpt lat="33.53990" lon="-116.48018"><ele>2019.0</ele></trkpt>
    <trkpt lat="33.53976" lon="-116.48031"><ele>2019.0</ele></trkpt>
    <trkpt lat="33.53969" lon="-116.48039"><ele>2019.0</ele></trkpt>
    <trkpt lat="33.53962" lon="-116.48044"><ele>2024.0</ele></trkpt>
    <trkpt lat="33.53954" lon="-116.48042"><ele>2024.0</ele></trkpt>
    <trkpt lat="33.53949" lon="-116.48033"><ele>2024.0</ele></trkpt>
    <trkpt lat="33.53950" lon="-116.48021"><ele>2024.0</ele></trkpt>
    <trkpt lat="33.53958" lon="-116.48009"><ele>2024.0</ele></trkpt>
    <trkpt lat="33.53969" lon="-116.48004"><ele>2024.0</ele></trkpt>
    <trkpt lat="33.53981" lon="-116.48000"><ele>2024.0</ele></trkpt>
    <trkpt lat="33.53988" lon="-116.47991"><ele>2024.0</ele></trkpt>
    <trkpt lat="33.53993" lon="-116.47980"><ele>2024.0</ele></trkpt>
    <trkpt lat="33.53994" lon="-116.47966"><ele>2024.0</ele></trkpt>
    <trkpt lat="33.53990" lon="-116.47953"><ele>2024.0</ele></trkpt>
    <trkpt lat="33.53985" lon="-116.47939"><ele>2024.0</ele></trkpt>
    <trkpt lat="33.53975" lon="-116.47920"><ele>2024.0</ele></trkpt>
    <trkpt lat="33.53964" lon="-116.47898"><ele>2024.0</ele></trkpt>
    <trkpt lat="33.53964" lon="-116.47887"><ele>2024.0</ele></trkpt>
    <trkpt lat="33.53965" lon="-116.47872"><ele>2057.0</ele></trkpt>
    <trkpt lat="33.53966" lon="-116.47847"><ele>2057.0</ele></trkpt>
    <trkpt lat="33.53965" lon="-116.47829"><ele>2057.0</ele></trkpt>
    <trkpt lat="33.53963" lon="-116.47806"><ele>2057.0</ele></trkpt>
    <trkpt lat="33.53964" lon="-116.47792"><ele>2057.0</ele></trkpt>
    <trkpt lat="33.53967" lon="-116.47778"><ele>2057.0</ele></trkpt>
    <trkpt lat="33.53974" lon="-116.47766"><ele>2057.0</ele></trkpt>
    <trkpt lat="33.53986" lon="-116.47756"><ele>2057.0</ele></trkpt>
    <trkpt lat="33.54002" lon="-116.47744"><ele>2057.0</ele></trkpt>
    <trkpt lat="33.54013" lon="-116.47731"><ele>2057.0</ele></trkpt>
    <trkpt lat="33.54022" lon="-116.47716"><ele>2057.0</ele></trkpt>
    <trkpt lat="33.54027" lon="-116.47704"><ele>2057.0</ele></trkpt>
    <trkpt lat="33.54030" lon="-116.47692"><ele>2057.0</ele></trkpt>
    <trkpt lat="33.54029" lon="-116.47681"><ele>2057.0</ele></trkpt>
    <trkpt lat="33.54029" lon="-116.47669"><ele>2057.0</ele></trkpt>
    <trkpt lat="33.54035" lon="-116.47658"><ele>2068.0</ele></trkpt>
    <trkpt lat="33.54044" lon="-116.47653"><ele>2068.0</ele></trkpt>
    <trkpt lat="33.54052" lon="-116.47644"><ele>2068.0</ele></trkpt>
    <trkpt lat="33.54062" lon="-116.47633"><ele>2068.0</ele></trkpt>
    <trkpt lat="33.54069" lon="-116.47620"><ele>2068.0</ele></trkpt>
    <trkpt lat="33.54077" lon="-116.47604"><ele>2068.0</ele></trkpt>
    <trkpt lat="33.54081" lon="-116.47587"><ele>2068.0</ele></trkpt>
    <trkpt lat="33.54084" lon="-116.47577"><ele>2068.0</ele></trkpt>
    <trkpt lat="33.54091" lon="-116.47564"><ele>2068.0</ele></trkpt>
    <trkpt lat="33.54100" lon="-116.47551"><ele>2068.0</ele></trkpt>
    <trkpt lat="33.54111" lon="-116.47540"><ele>2068.0</ele></trkpt>
    <trkpt lat="33.54121" lon="-116.47527"><ele>2068.0</ele></trkpt>
    <trkpt lat="33.54129" lon="-116.47515"><ele>2068.0</ele></trkpt>
    <trkpt lat="33.54137" lon="-116.47497"><ele>2068.0</ele></trkpt>
    <trkpt lat="33.54140" lon="-116.47485"><ele>2068.0</ele></trkpt>
    <trkpt lat="33.54138" lon="-116.47475"><ele>2079.0</ele></trkpt>
    <trkpt lat="33.54132" lon="-116.47470"><ele>2079.0</ele></trkpt>
    <trkpt lat="33.54125" lon="-116.47471"><ele>2079.0</ele></trkpt>
    <trkpt lat="33.54120" lon="-116.47478"><ele>2079.0</ele></trkpt>
    <trkpt lat="33.54119" lon="-116.47490"><ele>2079.0</ele></trkpt>
    <trkpt lat="33.54120" lon="-116.47503"><ele>2079.0</ele></trkpt>
    <trkpt lat="33.54117" lon="-116.47510"><ele>2079.0</ele></trkpt>
    <trkpt lat="33.54109" lon="-116.47516"><ele>2079.0</ele></trkpt>
    <trkpt lat="33.54090" lon="-116.47528"><ele>2079.0</ele></trkpt>
    <trkpt lat="33.54054" lon="-116.47544"><ele>2079.0</ele></trkpt>
    <trkpt lat="33.54050" lon="-116.47549"><ele>2079.0</ele></trkpt>
    <trkpt lat="33.54047" lon="-116.47558"><ele>2079.0</ele></trkpt>
    <trkpt lat="33.54044" lon="-116.47568"><ele>2079.0</ele></trkpt>
    <trkpt lat="33.54038" lon="-116.47573"><ele>2079.0</ele></trkpt>
    <trkpt lat="33.54031" lon="-116.47577"><ele>2079.0</ele></trkpt>
    <trkpt lat="33.54022" lon="-116.47577"><ele>2097.0</ele></trkpt>
    <trkpt lat="33.54013" lon="-116.47577"><ele>2097.0</ele></trkpt>
    <trkpt lat="33.54005" lon="-116.47578"><ele>2097.0</ele></trkpt>
    <trkpt lat="33.53998" lon="-116.47586"><ele>2097.0</ele></trkpt>
    <trkpt lat="33.53986" lon="-116.47603"><ele>2097.0</ele></trkpt>
    <trkpt lat="33.53974" lon="-116.47624"><ele>2097.0</ele></trkpt>
    <trkpt lat="33.53960" lon="-116.47650"><ele>2097.0</ele></trkpt>
    <trkpt lat="33.53952" lon="-116.47662"><ele>2097.0</ele></trkpt>
    <trkpt lat="33.53943" lon="-116.47667"><ele>2097.0</ele></trkpt>
    <trkpt lat="33.53929" lon="-116.47671"><ele>2097.0</ele></trkpt>
    <trkpt lat="33.53917" lon="-116.47677"><ele>2097.0</ele></trkpt>
    <trkpt lat="33.53907" lon="-116.47682"><ele>2097.0</ele></trkpt>
    <trkpt lat="33.53895" lon="-116.47693"><ele>2097.0</ele></trkpt>
    <trkpt lat="33.53888" lon="-116.47699"><ele>2097.0</ele></trkpt>
    <trkpt lat="33.53878" lon="-116.47703"><ele>2097.0</ele></trkpt>
    <trkpt lat="33.53870" lon="-116.47706"><ele>2100.0</ele></trkpt>
    <trkpt lat="33.53863" lon="-116.47710"><ele>2100.0</ele></trkpt>
    <trkpt lat="33.53856" lon="-116.47717"><ele>2100.0</ele></trkpt>
    <trkpt lat="33.53849" lon="-116.47731"><ele>2100.0</ele></trkpt>
    <trkpt lat="33.53845" lon="-116.47745"><ele>2100.0</ele></trkpt>
    <trkpt lat="33.53839" lon="-116.47763"><ele>2100.0</ele></trkpt>
    <trkpt lat="33.53831" lon="-116.47779"><ele>2100.0</ele></trkpt>
    <trkpt lat="33.53824" lon="-116.47791"><ele>2100.0</ele></trkpt>
    <trkpt lat="33.53813" lon="-116.47801"><ele>2100.0</ele></trkpt>
    <trkpt lat="33.53805" lon="-116.47807"><ele>2100.0</ele></trkpt>
    <trkpt lat="33.53797" lon="-116.47811"><ele>2100.0</ele></trkpt>
    <trkpt lat="33.53787" lon="-116.47814"><ele>2100.0</ele></trkpt>
    <trkpt lat="33.53774" lon="-116.47813"><ele>2100.0</ele></trkpt>
    <trkpt lat="33.53763" lon="-116.47813"><ele>2100.0</ele></trkpt>
    <trkpt lat="33.53756" lon="-116.47819"><ele>2100.0</ele></trkpt>
    <trkpt lat="33.53749" lon="-116.47836"><ele>2107.0</ele></trkpt>
    <trkpt lat="33.53725" lon="-116.47896"><ele>2107.0</ele></trkpt>
    <trkpt lat="33.53711" lon="-116.47930"><ele>2107.0</ele></trkpt>
    <trkpt lat="33.53705" lon="-116.47949"><ele>2107.0</ele></trkpt>
    <trkpt lat="33.53700" lon="-116.47970"><ele>2107.0</ele></trkpt>
    <trkpt lat="33.53696" lon="-116.47990"><ele>2107.0</ele></trkpt>
    <trkpt lat="33.53692" lon="-116.48007"><ele>2107.0</ele></trkpt>
    <trkpt lat="33.53688" lon="-116.48017"><ele>2107.0</ele></trkpt>
    <trkpt lat="33.53682" lon="-116.48022"><ele>2107.0</ele></trkpt>
    <trkpt lat="33.53674" lon="-116.48017"><ele>2107.0</ele></trkpt>
    <trkpt lat="33.53661" lon="-116.48006"><ele>2107.0</ele></trkpt>
    <trkpt lat="33.53650" lon="-116.47993"><ele>2107.0</ele></trkpt>
    <trkpt lat="33.53642" lon="-116.47979"><ele>2107.0</ele></trkpt>
    <trkpt lat="33.53636" lon="-116.47968"><ele>2107.0</ele></trkpt>
    <trkpt lat="33.53631" lon="-116.47956"><ele>2107.0</ele></trkpt>
    <trkpt lat="33.53628" lon="-116.47943"><ele>2146.0</ele></trkpt>
    <trkpt lat="33.53630" lon="-116.47928"><ele>2146.0</ele></trkpt>
    <trkpt lat="33.53637" lon="-116.47902"><ele>2146.0</ele></trkpt>
    <trkpt lat="33.53645" lon="-116.47883"><ele>2146.0</ele></trkpt>
    <trkpt lat="33.53648" lon="-116.47868"><ele>2146.0</ele></trkpt>
    <trkpt lat="33.53648" lon="-116.47858"><ele>2146.0</ele></trkpt>
    <trkpt lat="33.53643" lon="-116.47845"><ele>2146.0</ele></trkpt>
    <trkpt lat="33.53637" lon="-116.47840"><ele>2146.0</ele></trkpt>
    <trkpt lat="33.53627" lon="-116.47838"><ele>2146.0</ele></trkpt>
    <trkpt lat="33.53617" lon="-116.47846"><ele>2146.0</ele></trkpt>
    <trkpt lat="33.53603" lon="-116.47869"><ele>2146.0</ele></trkpt>
    <trkpt lat="33.53579" lon="-116.47903"><ele>2146.0</ele></trkpt>
    <trkpt lat="33.53570" lon="-116.47910"><ele>2146.0</ele></trkpt>
    <trkpt lat="33.53558" lon="-116.47919"><ele>2146.0</ele></trkpt>
    <trkpt lat="33.53549" lon="-116.47931"><ele>2146.0</ele></trkpt>
    <trkpt lat="33.53539" lon="-116.47948"><ele>2158.0</ele></trkpt>
    <trkpt lat="33.53527" lon="-116.47971"><ele>2158.0</ele></trkpt>
    <trkpt lat="33.53521" lon="-116.47982"><ele>2158.0</ele></trkpt>
    <trkpt lat="33.53516" lon="-116.47987"><ele>2158.0</ele></trkpt>
    <trkpt lat="33.53508" lon="-116.47988"><ele>2158.0</ele></trkpt>
    <trkpt lat="33.53503" lon="-116.47980"><ele>2158.0</ele></trkpt>
    <trkpt lat="33.53494" lon="-116.47965"><ele>2158.0</ele></trkpt>
    <trkpt lat="33.53476" lon="-116.47937"><ele>2158.0</ele></trkpt>
    <trkpt lat="33.53454" lon="-116.47910"><ele>2158.0</ele></trkpt>
    <trkpt lat="33.53446" lon="-116.47894"><ele>2158.0</ele></trkpt>
    <trkpt lat="33.53434" lon="-116.47875"><ele>2158.0</ele></trkpt>
    <trkpt lat="33.53423" lon="-116.47864"><ele>2158.0</ele></trkpt>
    <trkpt lat="33.53400" lon="-116.47851"><ele>2158.0</ele></trkpt>
    <trkpt lat="33.53382" lon="-116.47833"><ele>2158.0</ele></trkpt>
    <trkpt lat="33.53373" lon="-116.47822"><ele>2158.0</ele></trkpt>
    <trkpt lat="33.53371" lon="-116.47814"><ele>2174.0</ele></trkpt>
    <trkpt lat="33.53373" lon="-116.47803"><ele>2174.0</ele></trkpt>
    <trkpt lat="33.53380" lon="-116.47793"><ele>2174.0</ele></trkpt>
    <trkpt lat="33.53388" lon="-116.47783"><ele>2174.0</ele></trkpt>
    <trkpt lat="33.53397" lon="-116.47780"><ele>2174.0</ele></trkpt>
    <trkpt lat="33.53406" lon="-116.47780"><ele>2174.0</ele></trkpt>
    <trkpt lat="33.53416" lon="-116.47785"><ele>2174.0</ele></trkpt>
    <trkpt lat="33.53431" lon="-116.47799"><ele>2174.0</ele></trkpt>
    <trkpt lat="33.53449" lon="-116.47822"><ele>2174.0</ele></trkpt>
    <trkpt lat="33.53466" lon="-116.47842"><ele>2174.0</ele></trkpt>
    <trkpt lat="33.53476" lon="-116.47857"><ele>2174.0</ele></trkpt>
    <trkpt lat="33.53484" lon="-116.47872"><ele>2174.0</ele></trkpt>
    <trkpt lat="33.53492" lon="-116.47880"><ele>2174.0</ele></trkpt>
    <trkpt lat="33.53500" lon="-116.47882"><ele>2174.0</ele></trkpt>
    <trkpt lat="33.53506" lon="-116.47878"><ele>2174.0</ele></trkpt>
    <trkpt lat="33.53508" lon="-116.47864"><ele>2190.0</ele></trkpt>
    <trkpt lat="33.53510" lon="-116.47834"><ele>2190.0</ele></trkpt>
    <trkpt lat="33.53514" lon="-116.47802"><ele>2190.0</ele></trkpt>
    <trkpt lat="33.53515" lon="-116.47780"><ele>2190.0</ele></trkpt>
    <trkpt lat="33.53514" lon="-116.47763"><ele>2190.0</ele></trkpt>
    <trkpt lat="33.53513" lon="-116.47745"><ele>2190.0</ele></trkpt>
    <trkpt lat="33.53513" lon="-116.47733"><ele>2190.0</ele></trkpt>
    <trkpt lat="33.53518" lon="-116.47726"><ele>2190.0</ele></trkpt>
    <trkpt lat="33.53527" lon="-116.47724"><ele>2190.0</ele></trkpt>
    <trkpt lat="33.53537" lon="-116.47720"><ele>2190.0</ele></trkpt>
    <trkpt lat="33.53548" lon="-116.47712"><ele>2190.0</ele></trkpt>
    <trkpt lat="33.53560" lon="-116.47702"><ele>2190.0</ele></trkpt>
    <trkpt lat="33.53570" lon="-116.47694"><ele>2190.0</ele></trkpt>
    <trkpt lat="33.53578" lon="-116.47683"><ele>2190.0</ele></trkpt>
    <trkpt lat="33.53586" lon="-116.47661"><ele>2190.0</ele></trkpt>
    <trkpt lat="33.53591" lon="-116.47641"><ele>2208.0</ele></trkpt>
    <trkpt lat="33.53597" lon="-116.47603"><ele>2208.0</ele></trkpt>
    <trkpt lat="33.53604" lon="-116.47556"><ele>2208.0</ele></trkpt>
    <trkpt lat="33.53611" lon="-116.47511"><ele>2208.0</ele></trkpt>
    <trkpt lat="33.53615" lon="-116.47463"><ele>2208.0</ele></trkpt>
    <trkpt lat="33.53617" lon="-116.47410"><ele>2208.0</ele></trkpt>
    <trkpt lat="33.53622" lon="-116.47372"><ele>2208.0</ele></trkpt>
    <trkpt lat="33.53625" lon="-116.47349"><ele>2208.0</ele></trkpt>
    <trkpt lat="33.53630" lon="-116.47335"><ele>2208.0</ele></trkpt>
    <trkpt lat="33.53638" lon="-116.47330"><ele>2208.0</ele></trkpt>
    <trkpt lat="33.53648" lon="-116.47329"><ele>2208.0</ele></trkpt>
    <trkpt lat="33.53661" lon="-116.47331"><ele>2208.0</ele></trkpt>
    <trkpt lat="33.53680" lon="-116.47331"><ele>2208.0</ele></trkpt>
    <trkpt lat="33.53699" lon="-116.47326"><ele>2208.0</ele></trkpt>
    <trkpt lat="33.53711" lon="-116.47325"><ele>2205.0</ele></trkpt>
    <trkpt lat="33.53722" lon="-116.47329"><ele>2205.0</ele></trkpt>
    <trkpt lat="33.53738" lon="-116.47335"><ele>2205.0</ele></trkpt>
    <trkpt lat="33.53747" lon="-116.47341"><ele>2205.0</ele></trkpt>
    <trkpt lat="33.53756" lon="-116.47346"><ele>2205.0</ele></trkpt>
    <trkpt lat="33.53764" lon="-116.47349"><ele>2205.0</ele></trkpt>
    <trkpt lat="33.53781" lon="-116.47347"><ele>2205.0</ele></trkpt>
    <trkpt lat="33.53800" lon="-116.47340"><ele>2205.0</ele></trkpt>
    <trkpt lat="33.53811" lon="-116.47330"><ele>2205.0</ele></trkpt>
    <trkpt lat="33.53813" lon="-116.47320"><ele>2205.0</ele></trkpt>
    <trkpt lat="33.53806" lon="-116.47287"><ele>2205.0</ele></trkpt>
    <trkpt lat="33.53801" lon="-116.47257"><ele>2205.0</ele></trkpt>
    <trkpt lat="33.53798" lon="-116.47224"><ele>2205.0</ele></trkpt>
    <trkpt lat="33.53800" lon="-116.47191"><ele>2205.0</ele></trkpt>
    <trkpt lat="33.53799" lon="-116.47156"><ele>2205.0</ele></trkpt>
    <trkpt lat="33.53796" lon="-116.47136"><ele>2247.0</ele></trkpt>
    <trkpt lat="33.53793" lon="-116.47119"><ele>2247.0</ele></trkpt>
    <trkpt lat="33.53787" lon="-116.47103"><ele>2247.0</ele></trkpt>
    <trkpt lat="33.53781" lon="-116.47082"><ele>2247.0</ele></trkpt>
    <trkpt lat="33.53779" lon="-116.47065"><ele>2247.0</ele></trkpt>
    <trkpt lat="33.53781" lon="-116.47043"><ele>2247.0</ele></trkpt>
    <trkpt lat="33.53786" lon="-116.47020"><ele>2247.0</ele></trkpt>
    <trkpt lat="33.53789" lon="-116.46999"><ele>2247.0</ele></trkpt>
    <trkpt lat="33.53789" lon="-116.46981"><ele>2247.0</ele></trkpt>
    <trkpt lat="33.53785" lon="-116.46963"><ele>2247.0</ele></trkpt>
    <trkpt lat="33.53785" lon="-116.46941"><ele>2247.0</ele></trkpt>
    <trkpt lat="33.53784" lon="-116.46920"><ele>2247.0</ele></trkpt>
    <trkpt lat="33.53780" lon="-116.46904"><ele>2247.0</ele></trkpt>
    <trkpt lat="33.53778" lon="-116.46893"><ele>2247.0</ele></trkpt>
    <trkpt lat="33.53781" lon="-116.46885"><ele>2247.0</ele></trkpt>
    <trkpt lat="33.53788" lon="-116.46883"><ele>2250.0</ele></trkpt>
    <trkpt lat="33.53797" lon="-116.46885"><ele>2250.0</ele></trkpt>
    <trkpt lat="33.53811" lon="-116.46892"><ele>2250.0</ele></trkpt>
    <trkpt lat="33.53829" lon="-116.46903"><ele>2250.0</ele></trkpt>
    <trkpt lat="33.53844" lon="-116.46909"><ele>2250.0</ele></trkpt>
    <trkpt lat="33.53861" lon="-116.46912"><ele>2250.0</ele></trkpt>
    <trkpt lat="33.53878" lon="-116.46915"><ele>2250.0</ele></trkpt>
    <trkpt lat="33.53898" lon="-116.46898"><ele>2250.0</ele></trkpt>
    <trkpt lat="33.53915" lon="-116.46881"><ele>2250.0</ele></trkpt>
    <trkpt lat="33.53930" lon="-116.46860"><ele>2250.0</ele></trkpt>
    <trkpt lat="33.53940" lon="-116.46838"><ele>2250.0</ele></trkpt>
    <trkpt lat="33.53941" lon="-116.46824"><ele>2250.0</ele></trkpt>
    <trkpt lat="33.53938" lon="-116.46791"><ele>2250.0</ele></trkpt>
    <trkpt lat="33.53937" lon="-116.46772"><ele>2250.0</ele></trkpt>
    <trkpt lat="33.53943" lon="-116.46755"><ele>2250.0</ele></trkpt>
    <trkpt lat="33.53956" lon="-116.46732"><ele>2291.0</ele></trkpt>
    <trkpt lat="33.53962" lon="-116.46716"><ele>2291.0</ele></trkpt>
    <trkpt lat="33.53963" lon="-116.46701"><ele>2291.0</ele></trkpt>
    <trkpt lat="33.53967" lon="-116.46680"><ele>2291.0</ele></trkpt>
    <trkpt lat="33.53974" lon="-116.46661"><ele>2291.0</ele></trkpt>
    <trkpt lat="33.53979" lon="-116.46645"><ele>2291.0</ele></trkpt>
    <trkpt lat="33.53990" lon="-116.46620"><ele>2291.0</ele></trkpt>
    <trkpt lat="33.53997" lon="-116.46602"><ele>2291.0</ele></trkpt>
    <trkpt lat="33.54004" lon="-116.46585"><ele>2291.0</ele></trkpt>
    <trkpt lat="33.54013" lon="-116.46575"><ele>2291.0</ele></trkpt>
    <trkpt lat="33.54024" lon="-116.46574"><ele>2291.0</ele></trkpt>
    <trkpt lat="33.54041" lon="-116.46577"><ele>2291.0</ele></trkpt>
    <trkpt lat="33.54052" lon="-116.46586"><ele>2291.0</ele></trkpt>
    <trkpt lat="33.54064" lon="-116.46592"><ele>2291.0</ele></trkpt>
    <trkpt lat="33.54074" lon="-116.46590"><ele>2291.0</ele></trkpt>
    <trkpt lat="33.54080" lon="-116.46583"><ele>2300.0</ele></trkpt>
    <trkpt lat="33.54084" lon="-116.46571"><ele>2300.0</ele></trkpt>
    <trkpt lat="33.54091" lon="-116.46558"><ele>2300.0</ele></trkpt>
    <trkpt lat="33.54103" lon="-116.46549"><ele>2300.0</ele></trkpt>
    <trkpt lat="33.54118" lon="-116.46544"><ele>2300.0</ele></trkpt>
    <trkpt lat="33.54133" lon="-116.46539"><ele>2300.0</ele></trkpt>
    <trkpt lat="33.54146" lon="-116.46530"><ele>2300.0</ele></trkpt>
    <trkpt lat="33.54157" lon="-116.46522"><ele>2300.0</ele></trkpt>
    <trkpt lat="33.54167" lon="-116.46521"><ele>2300.0</ele></trkpt>
    <trkpt lat="33.54185" lon="-116.46528"><ele>2300.0</ele></trkpt>
    <trkpt lat="33.54206" lon="-116.46537"><ele>2300.0</ele></trkpt>
    <trkpt lat="33.54220" lon="-116.46547"><ele>2300.0</ele></trkpt>
    <trkpt lat="33.54227" lon="-116.46556"><ele>2300.0</ele></trkpt>
    <trkpt lat="33.54237" lon="-116.46565"><ele>2300.0</ele></trkpt>
    <trkpt lat="33.54252" lon="-116.46573"><ele>2300.0</ele></trkpt>
    <trkpt lat="33.54262" lon="-116.46577"><ele>2298.0</ele></trkpt>
    <trkpt lat="33.54269" lon="-116.46581"><ele>2298.0</ele></trkpt>
    <trkpt lat="33.54278" lon="-116.46572"><ele>2298.0</ele></trkpt>
    <trkpt lat="33.54286" lon="-116.46553"><ele>2298.0</ele></trkpt>
    <trkpt lat="33.54294" lon="-116.46543"><ele>2298.0</ele></trkpt>
    <trkpt lat="33.54297" lon="-116.46534"><ele>2298.0</ele></trkpt>
    <trkpt lat="33.54297" lon="-116.46520"><ele>2298.0</ele></trkpt>
    <trkpt lat="33.54292" lon="-116.46504"><ele>2298.0</ele></trkpt>
    <trkpt lat="33.54292" lon="-116.46490"><ele>2298.0</ele></trkpt>
    <trkpt lat="33.54296" lon="-116.46472"><ele>2298.0</ele></trkpt>
    <trkpt lat="33.54297" lon="-116.46457"><ele>2298.0</ele></trkpt>
    <trkpt lat="33.54294" lon="-116.46445"><ele>2298.0</ele></trkpt>
    <trkpt lat="33.54287" lon="-116.46431"><ele>2298.0</ele></trkpt>
    <trkpt lat="33.54278" lon="-116.46411"><ele>2298.0</ele></trkpt>
    <trkpt lat="33.54272" lon="-116.46387"><ele>2298.0</ele></trkpt>
    <trkpt lat="33.54272" lon="-116.46365"><ele>2326.0</ele></trkpt>
    <trkpt lat="33.54273" lon="-116.46347"><ele>2326.0</ele></trkpt>
    <trkpt lat="33.54270" lon="-116.46328"><ele>2326.0</ele></trkpt>
    <trkpt lat="33.54268" lon="-116.46310"><ele>2326.0</ele></trkpt>
    <trkpt lat="33.54267" lon="-116.46292"><ele>2326.0</ele></trkpt>
    <trkpt lat="33.54270" lon="-116.46277"><ele>2326.0</ele></trkpt>
    <trkpt lat="33.54278" lon="-116.46261"><ele>2326.0</ele></trkpt>
    <trkpt lat="33.54288" lon="-116.46235"><ele>2326.0</ele></trkpt>
    <trkpt lat="33.54293" lon="-116.46215"><ele>2326.0</ele></trkpt>
    <trkpt lat="33.54297" lon="-116.46195"><ele>2326.0</ele></trkpt>
    <trkpt lat="33.54298" lon="-116.46179"><ele>2326.0</ele></trkpt>
    <trkpt lat="33.54295" lon="-116.46157"><ele>2326.0</ele></trkpt>
    <trkpt lat="33.54291" lon="-116.46136"><ele>2326.0</ele></trkpt>
    <trkpt lat="33.54290" lon="-116.46112"><ele>2326.0</ele></trkpt>
    <trkpt lat="33.54293" lon="-116.46085"><ele>2326.0</ele></trkpt>
    <trkpt lat="33.54296" lon="-116.46068"><ele>2328.0</ele></trkpt>
    <trkpt lat="33.54304" lon="-116.46054"><ele>2328.0</ele></trkpt>
    <trkpt lat="33.54309" lon="-116.46042"><ele>2328.0</ele></trkpt>
    <trkpt lat="33.54310" lon="-116.46026"><ele>2328.0</ele></trkpt>
    <trkpt lat="33.54305" lon="-116.46013"><ele>2328.0</ele></trkpt>
    <trkpt lat="33.54295" lon="-116.45996"><ele>2328.0</ele></trkpt>
    <trkpt lat="33.54282" lon="-116.45986"><ele>2328.0</ele></trkpt>
    <trkpt lat="33.54267" lon="-116.45976"><ele>2328.0</ele></trkpt>
    <trkpt lat="33.54253" lon="-116.45969"><ele>2328.0</ele></trkpt>
    <trkpt lat="33.54239" lon="-116.45964"><ele>2328.0</ele></trkpt>
    <trkpt lat="33.54226" lon="-116.45957"><ele>2328.0</ele></trkpt>
    <trkpt lat="33.54214" lon="-116.45953"><ele>2328.0</ele></trkpt>
    <trkpt lat="33.54200" lon="-116.45950"><ele>2328.0</ele></trkpt>
    <trkpt lat="33.54185" lon="-116.45950"><ele>2328.0</ele></trkpt>
    <trkpt lat="33.54170" lon="-116.45950"><ele>2328.0</ele></trkpt>
    <trkpt lat="33.54159" lon="-116.45952"><ele>2370.0</ele></trkpt>
    <trkpt lat="33.54136" lon="-116.45959"><ele>2370.0</ele></trkpt>
    <trkpt lat="33.54118" lon="-116.45966"><ele>2370.0</ele></trkpt>
    <trkpt lat="33.54102" lon="-116.45976"><ele>2370.0</ele></trkpt>
    <trkpt lat="33.54080" lon="-116.45990"><ele>2370.0</ele></trkpt>
    <trkpt lat="33.54064" lon="-116.46005"><ele>2370.0</ele></trkpt>
    <trkpt lat="33.54052" lon="-116.46017"><ele>2370.0</ele></trkpt>
    <trkpt lat="33.54041" lon="-116.46022"><ele>2370.0</ele></trkpt>
    <trkpt lat="33.54033" lon="-116.46029"><ele>2370.0</ele></trkpt>
    <trkpt lat="33.54026" lon="-116.46032"><ele>2370.0</ele></trkpt>
    <trkpt lat="33.54019" lon="-116.46028"><ele>2370.0</ele></trkpt>
    <trkpt lat="33.54009" lon="-116.46018"><ele>2370.0</ele></trkpt>
    <trkpt lat="33.54000" lon="-116.46002"><ele>2370.0</ele></trkpt>
    <trkpt lat="33.53991" lon="-116.45993"><ele>2370.0</ele></trkpt>
    <trkpt lat="33.53980" lon="-116.45991"><ele>2370.0</ele></trkpt>
    <trkpt lat="33.53968" lon="-116.45990"><ele>2375.0</ele></trkpt>
    <trkpt lat="33.53958" lon="-116.45984"><ele>2375.0</ele></trkpt>
    <trkpt lat="33.53945" lon="-116.45971"><ele>2375.0</ele></trkpt>
    <trkpt lat="33.53936" lon="-116.45959"><ele>2375.0</ele></trkpt>
    <trkpt lat="33.53924" lon="-116.45935"><ele>2375.0</ele></trkpt>
    <trkpt lat="33.53911" lon="-116.45912"><ele>2375.0</ele></trkpt>
    <trkpt lat="33.53896" lon="-116.45885"><ele>2375.0</ele></trkpt>
    <trkpt lat="33.53882" lon="-116.45859"><ele>2375.0</ele></trkpt>
    <trkpt lat="33.53873" lon="-116.45841"><ele>2375.0</ele></trkpt>
    <trkpt lat="33.53859" lon="-116.45825"><ele>2375.0</ele></trkpt>
    <trkpt lat="33.53847" lon="-116.45810"><ele>2375.0</ele></trkpt>
    <trkpt lat="33.53834" lon="-116.45800"><ele>2375.0</ele></trkpt>
    <trkpt lat="33.53818" lon="-116.45794"><ele>2375.0</ele></trkpt>
    <trkpt lat="33.53802" lon="-116.45793"><ele>2375.0</ele></trkpt>
    <trkpt lat="33.53789" lon="-116.45796"><ele>2375.0</ele></trkpt>
    <trkpt lat="33.53768" lon="-116.45797"><ele>2389.0</ele></trkpt>
    <trkpt lat="33.53754" lon="-116.45789"><ele>2389.0</ele></trkpt>
    <trkpt lat="33.53741" lon="-116.45775"><ele>2389.0</ele></trkpt>
    <trkpt lat="33.53727" lon="-116.45760"><ele>2389.0</ele></trkpt>
    <trkpt lat="33.53711" lon="-116.45734"><ele>2389.0</ele></trkpt>
    <trkpt lat="33.53699" lon="-116.45712"><ele>2389.0</ele></trkpt>
    <trkpt lat="33.53694" lon="-116.45694"><ele>2389.0</ele></trkpt>
    <trkpt lat="33.53694" lon="-116.45685"><ele>2389.0</ele></trkpt>
    <trkpt lat="33.53698" lon="-116.45670"><ele>2389.0</ele></trkpt>
    <trkpt lat="33.53708" lon="-116.45651"><ele>2389.0</ele></trkpt>
    <trkpt lat="33.53721" lon="-116.45632"><ele>2389.0</ele></trkpt>
    <trkpt lat="33.53733" lon="-116.45615"><ele>2389.0</ele></trkpt>
    <trkpt lat="33.53742" lon="-116.45593"><ele>2389.0</ele></trkpt>
    <trkpt lat="33.53756" lon="-116.45555"><ele>2389.0</ele></trkpt>
    <trkpt lat="33.53763" lon="-116.45532"><ele>2389.0</ele></trkpt>
    <trkpt lat="33.53762" lon="-116.45517"><ele>2370.0</ele></trkpt>
    <trkpt lat="33.53765" lon="-116.45503"><ele>2370.0</ele></trkpt>
    <trkpt lat="33.53774" lon="-116.45485"><ele>2370.0</ele></trkpt>
    <trkpt lat="33.53782" lon="-116.45464"><ele>2370.0</ele></trkpt>
    <trkpt lat="33.53785" lon="-116.45445"><ele>2370.0</ele></trkpt>
    <trkpt lat="33.53791" lon="-116.45421"><ele>2370.0</ele></trkpt>
    <trkpt lat="33.53797" lon="-116.45407"><ele>2370.0</ele></trkpt>
    <trkpt lat="33.53808" lon="-116.45396"><ele>2370.0</ele></trkpt>
    <trkpt lat="33.53813" lon="-116.45378"><ele>2370.0</ele></trkpt>
    <trkpt lat="33.53814" lon="-116.45360"><ele>2370.0</ele></trkpt>
    <trkpt lat="33.53812" lon="-116.45345"><ele>2370.0</ele></trkpt>
    <trkpt lat="33.53808" lon="-116.45323"><ele>2370.0</ele></trkpt>
    <trkpt lat="33.53806" lon="-116.45294"><ele>2370.0</ele></trkpt>
    <trkpt lat="33.53807" lon="-116.45266"><ele>2370.0</ele></trkpt>
    <trkpt lat="33.53811" lon="-116.45246"><ele>2370.0</ele></trkpt>
    <trkpt lat="33.53818" lon="-116.45229"><ele>2357.0</ele></trkpt>
    <trkpt lat="33.53830" lon="-116.45218"><ele>2357.0</ele></trkpt>
    <trkpt lat="33.53842" lon="-116.45207"><ele>2357.0</ele></trkpt>
    <trkpt lat="33.53848" lon="-116.45195"><ele>2357.0</ele></trkpt>
    <trkpt lat="33.53851" lon="-116.45179"><ele>2357.0</ele></trkpt>
    <trkpt lat="33.53846" lon="-116.45165"><ele>2357.0</ele></trkpt>
    <trkpt lat="33.53832" lon="-116.45147"><ele>2357.0</ele></trkpt>
    <trkpt lat="33.53815" lon="-116.45121"><ele>2357.0</ele></trkpt>
    <trkpt lat="33.53804" lon="-116.45099"><ele>2357.0</ele></trkpt>
    <trkpt lat="33.53797" lon="-116.45075"><ele>2357.0</ele></trkpt>
    <trkpt lat="33.53796" lon="-116.45051"><ele>2357.0</ele></trkpt>
    <trkpt lat="33.53800" lon="-116.45029"><ele>2357.0</ele></trkpt>
    <trkpt lat="33.53798" lon="-116.45004"><ele>2357.0</ele></trkpt>
    <trkpt lat="33.53795" lon="-116.44963"><ele>2357.0</ele></trkpt>
    <trkpt lat="33.53798" lon="-116.44923"><ele>2357.0</ele></trkpt>
    <trkpt lat="33.53797" lon="-116.44887"><ele>2361.0</ele></trkpt>
    <trkpt lat="33.53796" lon="-116.44845"><ele>2361.0</ele></trkpt>
    <trkpt lat="33.53797" lon="-116.44809"><ele>2361.0</ele></trkpt>
    <trkpt lat="33.53798" lon="-116.44783"><ele>2361.0</ele></trkpt>
    <trkpt lat="33.53795" lon="-116.44763"><ele>2361.0</ele></trkpt>
    <trkpt lat="33.53786" lon="-116.44741"><ele>2361.0</ele></trkpt>
    <trkpt lat="33.53774" lon="-116.44716"><ele>2361.0</ele></trkpt>
    <trkpt lat="33.53767" lon="-116.44705"><ele>2361.0</ele></trkpt>
    <trkpt lat="33.53763" lon="-116.44692"><ele>2361.0</ele></trkpt>
    <trkpt lat="33.53757" lon="-116.44683"><ele>2361.0</ele></trkpt>
    <trkpt lat="33.53753" lon="-116.44675"><ele>2361.0</ele></trkpt>
    <trkpt lat="33.53749" lon="-116.44666"><ele>2361.0</ele></trkpt>
    <trkpt lat="33.53746" lon="-116.44658"><ele>2361.0</ele></trkpt>
    <trkpt lat="33.53743" lon="-116.44648"><ele>2361.0</ele></trkpt>
    <trkpt lat="33.53735" lon="-116.44607"><ele>2361.0</ele></trkpt>
    <trkpt lat="33.53733" lon="-116.44590"><ele>2369.0</ele></trkpt>
    <trkpt lat="33.53730" lon="-116.44572"><ele>2369.0</ele></trkpt>
    <trkpt lat="33.53726" lon="-116.44553"><ele>2369.0</ele></trkpt>
    <trkpt lat="33.53724" lon="-116.44537"><ele>2369.0</ele></trkpt>
    <trkpt lat="33.53721" lon="-116.44524"><ele>2369.0</ele></trkpt>
    <trkpt lat="33.53718" lon="-116.44510"><ele>2369.0</ele></trkpt>
    <trkpt lat="33.53716" lon="-116.44500"><ele>2369.0</ele></trkpt>
    <trkpt lat="33.53713" lon="-116.44492"><ele>2369.0</ele></trkpt>
    <trkpt lat="33.53711" lon="-116.44487"><ele>2369.0</ele></trkpt>
    <trkpt lat="33.53710" lon="-116.44483"><ele>2369.0</ele></trkpt>
    <trkpt lat="33.53705" lon="-116.44473"><ele>2369.0</ele></trkpt>
    <trkpt lat="33.53704" lon="-116.44471"><ele>2369.0</ele></trkpt>
    <trkpt lat="33.53701" lon="-116.44464"><ele>2369.0</ele></trkpt>
    <trkpt lat="33.53697" lon="-116.44457"><ele>2369.0</ele></trkpt>
    <trkpt lat="33.53692" lon="-116.44451"><ele>2369.0</ele></trkpt>
    <trkpt lat="33.53688" lon="-116.44448"><ele>2373.0</ele></trkpt>
    <trkpt lat="33.53688" lon="-116.44448"><ele>2373.0</ele></trkpt>
    <trkpt lat="33.53687" lon="-116.44448"><ele>2373.0</ele></trkpt>
    <trkpt lat="33.53680" lon="-116.44441"><ele>2373.0</ele></trkpt>
    <trkpt lat="33.53665" lon="-116.44431"><ele>2373.0</ele></trkpt>
    <trkpt lat="33.53653" lon="-116.44422"><ele>2373.0</ele></trkpt>
    <trkpt lat="33.53634" lon="-116.44406"><ele>2373.0</ele></trkpt>
    <trkpt lat="33.53618" lon="-116.44395"><ele>2373.0</ele></trkpt>
    <trkpt lat="33.53607" lon="-116.44387"><ele>2373.0</ele></trkpt>
    <trkpt lat="33.53592" lon="-116.44375"><ele>2373.0</ele></trkpt>
    <trkpt lat="33.53570" lon="-116.44358"><ele>2373.0</ele></trkpt>
    <trkpt lat="33.53556" lon="-116.44348"><ele>2373.0</ele></trkpt>
    <trkpt lat="33.53549" lon="-116.44342"><ele>2373.0</ele></trkpt>
    <trkpt lat="33.53546" lon="-116.44338"><ele>2373.0</ele></trkpt>
    <trkpt lat="33.53542" lon="-116.44333"><ele>2373.0</ele></trkpt>
    <trkpt lat="33.53539" lon="-116.44328"><ele>2370.0</ele></trkpt>
    <trkpt lat="33.53536" lon="-116.44322"><ele>2370.0</ele></trkpt>
    <trkpt lat="33.53532" lon="-116.44314"><ele>2370.0</ele></trkpt>
    <trkpt lat="33.53529" lon="-116.44307"><ele>2370.0</ele></trkpt>
    <trkpt lat="33.53525" lon="-116.44298"><ele>2370.0</ele></trkpt>
    <trkpt lat="33.53521" lon="-116.44289"><ele>2370.0</ele></trkpt>
    <trkpt lat="33.53516" lon="-116.44282"><ele>2370.0</ele></trkpt>
    <trkpt lat="33.53510" lon="-116.44277"><ele>2370.0</ele></trkpt>
    <trkpt lat="33.53507" lon="-116.44273"><ele>2370.0</ele></trkpt>
    <trkpt lat="33.53506" lon="-116.44272"><ele>2370.0</ele></trkpt>
    <trkpt lat="33.53505" lon="-116.44272"><ele>2370.0</ele></trkpt>
    <trkpt lat="33.53500" lon="-116.44269"><ele>2370.0</ele></trkpt>
    <trkpt lat="33.53494" lon="-116.44266"><ele>2370.0</ele></trkpt>
    <trkpt lat="33.53487" lon="-116.44264"><ele>2370.0</ele></trkpt>
    <trkpt lat="33.53478" lon="-116.44261"><ele>2370.0</ele></trkpt>
    <trkpt lat="33.53473" lon="-116.44259"><ele>2372.0</ele></trkpt>
    <trkpt lat="33.53469" lon="-116.44257"><ele>2372.0</ele></trkpt>
    <trkpt lat="33.53464" lon="-116.44253"><ele>2372.0</ele></trkpt>
    <trkpt lat="33.53458" lon="-116.44247"><ele>2372.0</ele></trkpt>
    <trkpt lat="33.53454" lon="-116.44241"><ele>2372.0</ele></trkpt>
    <trkpt lat="33.53452" lon="-116.44236"><ele>2372.0</ele></trkpt>
    <trkpt lat="33.53447" lon="-116.44230"><ele>2372.0</ele></trkpt>
    <trkpt lat="33.53441" lon="-116.44225"><ele>2372.0</ele></trkpt>
    <trkpt lat="33.53433" lon="-116.44214"><ele>2372.0</ele></trkpt>
    <trkpt lat="33.53426" lon="-116.44205"><ele>2372.0</ele></trkpt>
    <trkpt lat="33.53421" lon="-116.44199"><ele>2372.0</ele></trkpt>
    <trkpt lat="33.53415" lon="-116.44190"><ele>2372.0</ele></trkpt>
    <trkpt lat="33.53410" lon="-116.44183"><ele>2372.0</ele></trkpt>
    <trkpt lat="33.53406" lon="-116.44177"><ele>2372.0</ele></trkpt>
    <trkpt lat="33.53401" lon="-116.44172"><ele>2372.0</ele></trkpt>
    <trkpt lat="33.53397" lon="-116.44167"><ele>2368.0</ele></trkpt>
    <trkpt lat="33.53397" lon="-116.44166"><ele>2368.0</ele></trkpt>
    <trkpt lat="33.53392" lon="-116.44162"><ele>2368.0</ele></trkpt>
    <trkpt lat="33.53388" lon="-116.44161"><ele>2368.0</ele></trkpt>
    <trkpt lat="33.53381" lon="-116.44161"><ele>2368.0</ele></trkpt>
    <trkpt lat="33.53375" lon="-116.44160"><ele>2368.0</ele></trkpt>
    <trkpt lat="33.53368" lon="-116.44161"><ele>2368.0</ele></trkpt>
    <trkpt lat="33.53358" lon="-116.44164"><ele>2368.0</ele></trkpt>
    <trkpt lat="33.53347" lon="-116.44169"><ele>2368.0</ele></trkpt>
    <trkpt lat="33.53342" lon="-116.44171"><ele>2368.0</ele></trkpt>
    <trkpt lat="33.53337" lon="-116.44171"><ele>2368.0</ele></trkpt>
    <trkpt lat="33.53334" lon="-116.44170"><ele>2368.0</ele></trkpt>
    <trkpt lat="33.53332" lon="-116.44170"><ele>2368.0</ele></trkpt>
    <trkpt lat="33.53327" lon="-116.44168"><ele>2368.0</ele></trkpt>
    <trkpt lat="33.53323" lon="-116.44166"><ele>2368.0</ele></trkpt>
    <trkpt lat="33.53320" lon="-116.44162"><ele>2371.0</ele></trkpt>
    <trkpt lat="33.53318" lon="-116.44155"><ele>2371.0</ele></trkpt>
    <trkpt lat="33.53316" lon="-116.44149"><ele>2371.0</ele></trkpt>
    <trkpt lat="33.53314" lon="-116.44144"><ele>2371.0</ele></trkpt>
    <trkpt lat="33.53311" lon="-116.44137"><ele>2371.0</ele></trkpt>
    <trkpt lat="33.53309" lon="-116.44129"><ele>2371.0</ele></trkpt>
    <trkpt lat="33.53306" lon="-116.44123"><ele>2371.0</ele></trkpt>
    <trkpt lat="33.53303" lon="-116.44117"><ele>2371.0</ele></trkpt>
    <trkpt lat="33.53299" lon="-116.44106"><ele>2371.0</ele></trkpt>
    <trkpt lat="33.53296" lon="-116.44097"><ele>2371.0</ele></trkpt>
    <trkpt lat="33.53295" lon="-116.44087"><ele>2371.0</ele></trkpt>
    <trkpt lat="33.53292" lon="-116.44071"><ele>2371.0</ele></trkpt>
    <trkpt lat="33.53289" lon="-116.44059"><ele>2371.0</ele></trkpt>
    <trkpt lat="33.53286" lon="-116.44047"><ele>2371.0</ele></trkpt>
    <trkpt lat="33.53284" lon="-116.44035"><ele>2371.0</ele></trkpt>
    <trkpt lat="33.53280" lon="-116.44023"><ele>2368.0</ele></trkpt>
    <trkpt lat="33.53277" lon="-116.44010"><ele>2368.0</ele></trkpt>
    <trkpt lat="33.53273" lon="-116.44001"><ele>2368.0</ele></trkpt>
    <trkpt lat="33.53268" lon="-116.43992"><ele>2368.0</ele></trkpt>
    <trkpt lat="33.53265" lon="-116.43984"><ele>2368.0</ele></trkpt>
    <trkpt lat="33.53261" lon="-116.43979"><ele>2368.0</ele></trkpt>
    <trkpt lat="33.53253" lon="-116.43973"><ele>2368.0</ele></trkpt>
    <trkpt lat="33.53247" lon="-116.43969"><ele>2368.0</ele></trkpt>
    <trkpt lat="33.53242" lon="-116.43967"><ele>2368.0</ele></trkpt>
    <trkpt lat="33.53238" lon="-116.43964"><ele>2368.0</ele></trkpt>
    <trkpt lat="33.53232" lon="-116.43962"><ele>2368.0</ele></trkpt>
    <trkpt lat="33.53227" lon="-116.43960"><ele>2368.0</ele></trkpt>
    <trkpt lat="33.53219" lon="-116.43956"><ele>2368.0</ele></trkpt>
    <trkpt lat="33.53211" lon="-116.43954"><ele>2368.0</ele></trkpt>
    <trkpt lat="33.53210" lon="-116.43954"><ele>2368.0</ele></trkpt>
    <trkpt lat="33.53207" lon="-116.43951"><ele>2374.0</ele></trkpt>
    <trkpt lat="33.53201" lon="-116.43949"><ele>2374.0</ele></trkpt>
    <trkpt lat="33.53200" lon="-116.43948"><ele>2374.0</ele></trkpt>
    <trkpt lat="33.53197" lon="-116.43946"><ele>2374.0</ele></trkpt>
    <trkpt lat="33.53191" lon="-116.43942"><ele>2374.0</ele></trkpt>
    <trkpt lat="33.53189" lon="-116.43938"><ele>2374.0</ele></trkpt>
    <trkpt lat="33.53187" lon="-116.43933"><ele>2374.0</ele></trkpt>
    <trkpt lat="33.53185" lon="-116.43927"><ele>2374.0</ele></trkpt>
    <trkpt lat="33.53184" lon="-116.43919"><ele>2374.0</ele></trkpt>
    <trkpt lat="33.53184" lon="-116.43913"><ele>2374.0</ele></trkpt>
    <trkpt lat="33.53183" lon="-116.43905"><ele>2374.0</ele></trkpt>
    <trkpt lat="33.53182" lon="-116.43899"><ele>2374.0</ele></trkpt>
    <trkpt lat="33.53178" lon="-116.43891"><ele>2374.0</ele></trkpt>
    <trkpt lat="33.53175" lon="-116.43884"><ele>2374.0</ele></trkpt>
    <trkpt lat="33.53172" lon="-116.43876"><ele>2359.0</ele></trkpt>
    <trkpt lat="33.53169" lon="-116.43870"><ele>2359.0</ele></trkpt>
    <trkpt lat="33.53167" lon="-116.43865"><ele>2359.0</ele></trkpt>
    <trkpt lat="33.53166" lon="-116.43859"><ele>2359.0</ele></trkpt>
    <trkpt lat="33.53165" lon="-116.43847"><ele>2359.0</ele></trkpt>
    <trkpt lat="33.53164" lon="-116.43828"><ele>2359.0</ele></trkpt>
    <trkpt lat="33.53163" lon="-116.43813"><ele>2359.0</ele></trkpt>
    <trkpt lat="33.53163" lon="-116.43802"><ele>2359.0</ele></trkpt>
    <trkpt lat="33.53164" lon="-116.43789"><ele>2359.0</ele></trkpt>
    <trkpt lat="33.53165" lon="-116.43782"><ele>2359.0</ele></trkpt>
    <trkpt lat="33.53167" lon="-116.43772"><ele>2359.0</ele></trkpt>
    <trkpt lat="33.53168" lon="-116.43762"><ele>2359.0</ele></trkpt>
    <trkpt lat="33.53168" lon="-116.43755"><ele>2359.0</ele></trkpt>
    <trkpt lat="33.53167" lon="-116.43745"><ele>2359.0</ele></trkpt>
    <trkpt lat="33.53167" lon="-116.43734"><ele>2359.0</ele></trkpt>
    <trkpt lat="33.53165" lon="-116.43727"><ele>2356.0</ele></trkpt>
    <trkpt lat="33.53163" lon="-116.43722"><ele>2356.0</ele></trkpt>
    <trkpt lat="33.53160" lon="-116.43719"><ele>2356.0</ele></trkpt>
    <trkpt lat="33.53159" lon="-116.43718"><ele>2356.0</ele></trkpt>
    <trkpt lat="33.53157" lon="-116.43715"><ele>2356.0</ele></trkpt>
    <trkpt lat="33.53153" lon="-116.43712"><ele>2356.0</ele></trkpt>
    <trkpt lat="33.53149" lon="-116.43708"><ele>2356.0</ele></trkpt>
    <trkpt lat="33.53146" lon="-116.43703"><ele>2356.0</ele></trkpt>
    <trkpt lat="33.53142" lon="-116.43697"><ele>2356.0</ele></trkpt>
    <trkpt lat="33.53140" lon="-116.43691"><ele>2356.0</ele></trkpt>
    <trkpt lat="33.53140" lon="-116.43686"><ele>2356.0</ele></trkpt>
    <trkpt lat="33.53140" lon="-116.43678"><ele>2356.0</ele></trkpt>
    <trkpt lat="33.53141" lon="-116.43670"><ele>2356.0</ele></trkpt>
    <trkpt lat="33.53143" lon="-116.43661"><ele>2356.0</ele></trkpt>
    <trkpt lat="33.53143" lon="-116.43653"><ele>2356.0</ele></trkpt>
    <trkpt lat="33.53140" lon="-116.43644"><ele>2348.0</ele></trkpt>
    <trkpt lat="33.53137" lon="-116.43633"><ele>2348.0</ele></trkpt>
    <trkpt lat="33.53133" lon="-116.43623"><ele>2348.0</ele></trkpt>
    <trkpt lat="33.53129" lon="-116.43613"><ele>2348.0</ele></trkpt>
    <trkpt lat="33.53125" lon="-116.43604"><ele>2348.0</ele></trkpt>
    <trkpt lat="33.53120" lon="-116.43592"><ele>2348.0</ele></trkpt>
    <trkpt lat="33.53112" lon="-116.43579"><ele>2348.0</ele></trkpt>
    <trkpt lat="33.53107" lon="-116.43572"><ele>2348.0</ele></trkpt>
    <trkpt lat="33.53098" lon="-116.43561"><ele>2348.0</ele></trkpt>
    <trkpt lat="33.53090" lon="-116.43552"><ele>2348.0</ele></trkpt>
    <trkpt lat="33.53081" lon="-116.43543"><ele>2348.0</ele></trkpt>
    <trkpt lat="33.53074" lon="-116.43537"><ele>2348.0</ele></trkpt>
    <trkpt lat="33.53071" lon="-116.43536"><ele>2348.0</ele></trkpt>
    <trkpt lat="33.53065" lon="-116.43534"><ele>2348.0</ele></trkpt>
    <trkpt lat="33.53060" lon="-116.43532"><ele>2348.0</ele></trkpt>
    <trkpt lat="33.53056" lon="-116.43530"><ele>2361.0</ele></trkpt>
    <trkpt lat="33.53051" lon="-116.43527"><ele>2361.0</ele></trkpt>
    <trkpt lat="33.53047" lon="-116.43523"><ele>2361.0</ele></trkpt>
    <trkpt lat="33.53041" lon="-116.43518"><ele>2361.0</ele></trkpt>
    <trkpt lat="33.53036" lon="-116.43512"><ele>2361.0</ele></trkpt>
    <trkpt lat="33.53031" lon="-116.43508"><ele>2361.0</ele></trkpt>
    <trkpt lat="33.53026" lon="-116.43503"><ele>2361.0</ele></trkpt>
    <trkpt lat="33.53023" lon="-116.43500"><ele>2361.0</ele></trkpt>
    <trkpt lat="33.53014" lon="-116.43491"><ele>2361.0</ele></trkpt>
    <trkpt lat="33.53011" lon="-116.43487"><ele>2361.0</ele></trkpt>
    <trkpt lat="33.53008" lon="-116.43484"><ele>2361.0</ele></trkpt>
    <trkpt lat="33.53004" lon="-116.43479"><ele>2361.0</ele></trkpt>
    <trkpt lat="33.53002" lon="-116.43475"><ele>2361.0</ele></trkpt>
    <trkpt lat="33.52999" lon="-116.43471"><ele>2361.0</ele></trkpt>
    <trkpt lat="33.52996" lon="-116.43465"><ele>2361.0</ele></trkpt>
    <trkpt lat="33.52993" lon="-116.43461"><ele>2369.0</ele></trkpt>
    <trkpt lat="33.52989" lon="-116.43456"><ele>2369.0</ele></trkpt>
    <trkpt lat="33.52987" lon="-116.43453"><ele>2369.0</ele></trkpt>
    <trkpt lat="33.52985" lon="-116.43451"><ele>2369.0</ele></trkpt>
    <trkpt lat="33.52984" lon="-116.43450"><ele>2369.0</ele></trkpt>
    <trkpt lat="33.52981" lon="-116.43446"><ele>2369.0</ele></trkpt>
    <trkpt lat="33.52979" lon="-116.43443"><ele>2369.0</ele></trkpt>
    <trkpt lat="33.52978" lon="-116.43440"><ele>2369.0</ele></trkpt>
    <trkpt lat="33.52976" lon="-116.43437"><ele>2369.0</ele></trkpt>
    <trkpt lat="33.52975" lon="-116.43434"><ele>2369.0</ele></trkpt>
    <trkpt lat="33.52975" lon="-116.43431"><ele>2369.0</ele></trkpt>
    <trkpt lat="33.52975" lon="-116.43429"><ele>2369.0</ele></trkpt>
    <trkpt lat="33.52975" lon="-116.43428"><ele>2369.0</ele></trkpt>
    <trkpt lat="33.52975" lon="-116.43423"><ele>2369.0</ele></trkpt>
    <trkpt lat="33.52974" lon="-116.43419"><ele>2369.0</ele></trkpt>
    <trkpt lat="33.52971" lon="-116.43402"><ele>2371.0</ele></trkpt>
    <trkpt lat="33.52966" lon="-116.43387"><ele>2371.0</ele></trkpt>
    <trkpt lat="33.52959" lon="-116.43374"><ele>2371.0</ele></trkpt>
    <trkpt lat="33.52954" lon="-116.43363"><ele>2371.0</ele></trkpt>
    <trkpt lat="33.52949" lon="-116.43348"><ele>2371.0</ele></trkpt>
    <trkpt lat="33.52944" lon="-116.43339"><ele>2371.0</ele></trkpt>
    <trkpt lat="33.52939" lon="-116.43334"><ele>2371.0</ele></trkpt>
    <trkpt lat="33.52924" lon="-116.43327"><ele>2371.0</ele></trkpt>
    <trkpt lat="33.52910" lon="-116.43321"><ele>2371.0</ele></trkpt>
    <trkpt lat="33.52896" lon="-116.43318"><ele>2371.0</ele></trkpt>
    <trkpt lat="33.52885" lon="-116.43313"><ele>2371.0</ele></trkpt>
    <trkpt lat="33.52879" lon="-116.43305"><ele>2371.0</ele></trkpt>
    <trkpt lat="33.52877" lon="-116.43296"><ele>2371.0</ele></trkpt>
    <trkpt lat="33.52875" lon="-116.43286"><ele>2371.0</ele></trkpt>
    <trkpt lat="33.52875" lon="-116.43282"><ele>2371.0</ele></trkpt>
    <trkpt lat="33.52875" lon="-116.43270"><ele>2393.0</ele></trkpt>
    <trkpt lat="33.52876" lon="-116.43267"><ele>2393.0</ele></trkpt>
    <trkpt lat="33.52876" lon="-116.43262"><ele>2393.0</ele></trkpt>
    <trkpt lat="33.52875" lon="-116.43252"><ele>2393.0</ele></trkpt>
    <trkpt lat="33.52874" lon="-116.43237"><ele>2393.0</ele></trkpt>
    <trkpt lat="33.52874" lon="-116.43234"><ele>2393.0</ele></trkpt>
    <trkpt lat="33.52874" lon="-116.43229"><ele>2393.0</ele></trkpt>
    <trkpt lat="33.52874" lon="-116.43225"><ele>2393.0</ele></trkpt>
    <trkpt lat="33.52875" lon="-116.43223"><ele>2393.0</ele></trkpt>
    <trkpt lat="33.52876" lon="-116.43220"><ele>2393.0</ele></trkpt>
    <trkpt lat="33.52876" lon="-116.43218"><ele>2393.0</ele></trkpt>
    <trkpt lat="33.52877" lon="-116.43216"><ele>2393.0</ele></trkpt>
    <trkpt lat="33.52879" lon="-116.43213"><ele>2393.0</ele></trkpt>
    <trkpt lat="33.52882" lon="-116.43210"><ele>2393.0</ele></trkpt>
    <trkpt lat="33.52886" lon="-116.43207"><ele>2393.0</ele></trkpt>
    <trkpt lat="33.52890" lon="-116.43205"><ele>2384.0</ele></trkpt>
    <trkpt lat="33.52892" lon="-116.43203"><ele>2384.0</ele></trkpt>
    <trkpt lat="33.52896" lon="-116.43202"><ele>2384.0</ele></trkpt>
    <trkpt lat="33.52897" lon="-116.43201"><ele>2384.0</ele></trkpt>
    <trkpt lat="33.52902" lon="-116.43199"><ele>2384.0</ele></trkpt>
    <trkpt lat="33.52906" lon="-116.43198"><ele>2384.0</ele></trkpt>
    <trkpt lat="33.52914" lon="-116.43196"><ele>2384.0</ele></trkpt>
    <trkpt lat="33.52920" lon="-116.43193"><ele>2384.0</ele></trkpt>
    <trkpt lat="33.52922" lon="-116.43192"><ele>2384.0</ele></trkpt>
    <trkpt lat="33.52924" lon="-116.43190"><ele>2384.0</ele></trkpt>
    <trkpt lat="33.52926" lon="-116.43188"><ele>2384.0</ele></trkpt>
    <trkpt lat="33.52927" lon="-116.43187"><ele>2384.0</ele></trkpt>
    <trkpt lat="33.52929" lon="-116.43183"><ele>2384.0</ele></trkpt>
    <trkpt lat="33.52930" lon="-116.43180"><ele>2384.0</ele></trkpt>
    <trkpt lat="33.52931" lon="-116.43178"><ele>2384.0</ele></trkpt>
    <trkpt lat="33.52932" lon="-116.43175"><ele>2387.0</ele></trkpt>
    <trkpt lat="33.52933" lon="-116.43168"><ele>2387.0</ele></trkpt>
    <trkpt lat="33.52933" lon="-116.43165"><ele>2387.0</ele></trkpt>
    <trkpt lat="33.52934" lon="-116.43162"><ele>2387.0</ele></trkpt>
    <trkpt lat="33.52934" lon="-116.43159"><ele>2387.0</ele></trkpt>
    <trkpt lat="33.52935" lon="-116.43158"><ele>2387.0</ele></trkpt>
    <trkpt lat="33.52937" lon="-116.43155"><ele>2387.0</ele></trkpt>
    <trkpt lat="33.52939" lon="-116.43152"><ele>2387.0</ele></trkpt>
    <trkpt lat="33.52942" lon="-116.43147"><ele>2387.0</ele></trkpt>
    <trkpt lat="33.52943" lon="-116.43146"><ele>2387.0</ele></trkpt>
    <trkpt lat="33.52956" lon="-116.43138"><ele>2387.0</ele></trkpt>
    <trkpt lat="33.52962" lon="-116.43129"><ele>2387.0</ele></trkpt>
    <trkpt lat="33.52972" lon="-116.43105"><ele>2387.0</ele></trkpt>
    <trkpt lat="33.52978" lon="-116.43083"><ele>2387.0</ele></trkpt>
    <trkpt lat="33.52975" lon="-116.43070"><ele>2387.0</ele></trkpt>
    <trkpt lat="33.52967" lon="-116.43059"><ele>2405.0</ele></trkpt>
    <trkpt lat="33.52959" lon="-116.43052"><ele>2405.0</ele></trkpt>
    <trkpt lat="33.52948" lon="-116.43045"><ele>2405.0</ele></trkpt>
    <trkpt lat="33.52939" lon="-116.43042"><ele>2405.0</ele></trkpt>
    <trkpt lat="33.52929" lon="-116.43039"><ele>2405.0</ele></trkpt>
    <trkpt lat="33.52914" lon="-116.43033"><ele>2405.0</ele></trkpt>
    <trkpt lat="33.52903" lon="-116.43028"><ele>2405.0</ele></trkpt>
    <trkpt lat="33.52892" lon="-116.43022"><ele>2405.0</ele></trkpt>
    <trkpt lat="33.52884" lon="-116.43015"><ele>2405.0</ele></trkpt>
    <trkpt lat="33.52879" lon="-116.43012"><ele>2405.0</ele></trkpt>
    <trkpt lat="33.52871" lon="-116.43010"><ele>2405.0</ele></trkpt>
    <trkpt lat="33.52862" lon="-116.43011"><ele>2405.0</ele></trkpt>
    <trkpt lat="33.52854" lon="-116.43013"><ele>2405.0</ele></trkpt>
    <trkpt lat="33.52851" lon="-116.43012"><ele>2405.0</ele></trkpt>
    <trkpt lat="33.52847" lon="-116.43010"><ele>2405.0</ele></trkpt>
    <trkpt lat="33.52844" lon="-116.43005"><ele>2418.0</ele></trkpt>
    <trkpt lat="33.52840" lon="-116.42999"><ele>2418.0</ele></trkpt>
    <trkpt lat="33.52837" lon="-116.42992"><ele>2418.0</ele></trkpt>
    <trkpt lat="33.52834" lon="-116.42982"><ele>2418.0</ele></trkpt>
    <trkpt lat="33.52834" lon="-116.42972"><ele>2418.0</ele></trkpt>
    <trkpt lat="33.52834" lon="-116.42959"><ele>2418.0</ele></trkpt>
    <trkpt lat="33.52833" lon="-116.42945"><ele>2418.0</ele></trkpt>
    <trkpt lat="33.52833" lon="-116.42937"><ele>2418.0</ele></trkpt>
  </trkseg></trk>
</gpx>
