<?xml version="1.0" encoding="UTF-8"?>
<gpx version="1.1" creator="dirt-bikes build-blm-routes (BLM GTLF geometry + SRTM elevation)" xmlns="http://www.topografix.com/GPX/1/1">
  <trk><name>SC-103 East</name>
    <trkseg>
      <trkpt lat="35.45256" lon="-118.10033"><ele>1297.0</ele></trkpt>
      <trkpt lat="35.45269" lon="-118.10028"><ele>1297.0</ele></trkpt>
      <trkpt lat="35.45280" lon="-118.10031"><ele>1297.0</ele></trkpt>
      <trkpt lat="35.45290" lon="-118.10041"><ele>1297.0</ele></trkpt>
      <trkpt lat="35.45292" lon="-118.10061"><ele>1297.0</ele></trkpt>
      <trkpt lat="35.45291" lon="-118.10083"><ele>1297.0</ele></trkpt>
      <trkpt lat="35.45292" lon="-118.10105"><ele>1297.0</ele></trkpt>
      <trkpt lat="35.45290" lon="-118.10124"><ele>1305.0</ele></trkpt>
      <trkpt lat="35.45286" lon="-118.10144"><ele>1305.0</ele></trkpt>
      <trkpt lat="35.45281" lon="-118.10166"><ele>1305.0</ele></trkpt>
      <trkpt lat="35.45275" lon="-118.10186"><ele>1305.0</ele></trkpt>
      <trkpt lat="35.45271" lon="-118.10206"><ele>1305.0</ele></trkpt>
      <trkpt lat="35.45269" lon="-118.10228"><ele>1305.0</ele></trkpt>
      <trkpt lat="35.45268" lon="-118.10253"><ele>1305.0</ele></trkpt>
      <trkpt lat="35.45270" lon="-118.10278"><ele>1305.0</ele></trkpt>
      <trkpt lat="35.45272" lon="-118.10304"><ele>1305.0</ele></trkpt>
      <trkpt lat="35.45275" lon="-118.10328"><ele>1305.0</ele></trkpt>
      <trkpt lat="35.45278" lon="-118.10350"><ele>1305.0</ele></trkpt>
      <trkpt lat="35.45280" lon="-118.10372"><ele>1305.0</ele></trkpt>
      <trkpt lat="35.45281" lon="-118.10393"><ele>1305.0</ele></trkpt>
      <trkpt lat="35.45281" lon="-118.10421"><ele>1322.0</ele></trkpt>
      <trkpt lat="35.45281" lon="-118.10450"><ele>1322.0</ele></trkpt>
      <trkpt lat="35.45281" lon="-118.10479"><ele>1322.0</ele></trkpt>
      <trkpt lat="35.45282" lon="-118.10510"><ele>1322.0</ele></trkpt>
      <trkpt lat="35.45284" lon="-118.10541"><ele>1322.0</ele></trkpt>
      <trkpt lat="35.45285" lon="-118.10573"><ele>1322.0</ele></trkpt>
      <trkpt lat="35.45286" lon="-118.10606"><ele>1322.0</ele></trkpt>
      <trkpt lat="35.45287" lon="-118.10637"><ele>1322.0</ele></trkpt>
      <trkpt lat="35.45288" lon="-118.10666"><ele>1322.0</ele></trkpt>
      <trkpt lat="35.45289" lon="-118.10693"><ele>1322.0</ele></trkpt>
      <trkpt lat="35.45290" lon="-118.10718"><ele>1322.0</ele></trkpt>
      <trkpt lat="35.45290" lon="-118.10741"><ele>1322.0</ele></trkpt>
      <trkpt lat="35.45290" lon="-118.10762"><ele>1335.0</ele></trkpt>
      <trkpt lat="35.45289" lon="-118.10780"><ele>1335.0</ele></trkpt>
      <trkpt lat="35.45291" lon="-118.10796"><ele>1335.0</ele></trkpt>
      <trkpt lat="35.45292" lon="-118.10810"><ele>1335.0</ele></trkpt>
      <trkpt lat="35.45294" lon="-118.10827"><ele>1335.0</ele></trkpt>
      <trkpt lat="35.45297" lon="-118.10852"><ele>1335.0</ele></trkpt>
      <trkpt lat="35.45300" lon="-118.10876"><ele>1335.0</ele></trkpt>
      <trkpt lat="35.45301" lon="-118.10898"><ele>1335.0</ele></trkpt>
      <trkpt lat="35.45300" lon="-118.10918"><ele>1335.0</ele></trkpt>
      <trkpt lat="35.45298" lon="-118.10937"><ele>1335.0</ele></trkpt>
      <trkpt lat="35.45294" lon="-118.10957"><ele>1335.0</ele></trkpt>
      <trkpt lat="35.45290" lon="-118.10975"><ele>1335.0</ele></trkpt>
      <trkpt lat="35.45287" lon="-118.10992"><ele>1335.0</ele></trkpt>
      <trkpt lat="35.45288" lon="-118.11007"><ele>1346.0</ele></trkpt>
      <trkpt lat="35.45290" lon="-118.11020"><ele>1346.0</ele></trkpt>
      <trkpt lat="35.45294" lon="-118.11032"><ele>1346.0</ele></trkpt>
      <trkpt lat="35.45300" lon="-118.11044"><ele>1346.0</ele></trkpt>
      <trkpt lat="35.45306" lon="-118.11056"><ele>1346.0</ele></trkpt>
      <trkpt lat="35.45314" lon="-118.11073"><ele>1346.0</ele></trkpt>
      <trkpt lat="35.45323" lon="-118.11088"><ele>1346.0</ele></trkpt>
      <trkpt lat="35.45332" lon="-118.11101"><ele>1346.0</ele></trkpt>
      <trkpt lat="35.45343" lon="-118.11114"><ele>1346.0</ele></trkpt>
      <trkpt lat="35.45356" lon="-118.11128"><ele>1346.0</ele></trkpt>
      <trkpt lat="35.45369" lon="-118.11144"><ele>1346.0</ele></trkpt>
      <trkpt lat="35.45384" lon="-118.11160"><ele>1346.0</ele></trkpt>
      <trkpt lat="35.45398" lon="-118.11175"><ele>1354.0</ele></trkpt>
      <trkpt lat="35.45410" lon="-118.11187"><ele>1354.0</ele></trkpt>
      <trkpt lat="35.45419" lon="-118.11198"><ele>1354.0</ele></trkpt>
      <trkpt lat="35.45426" lon="-118.11208"><ele>1354.0</ele></trkpt>
      <trkpt lat="35.45432" lon="-118.11222"><ele>1354.0</ele></trkpt>
      <trkpt lat="35.45434" lon="-118.11236"><ele>1354.0</ele></trkpt>
      <trkpt lat="35.45434" lon="-118.11249"><ele>1354.0</ele></trkpt>
      <trkpt lat="35.45434" lon="-118.11265"><ele>1354.0</ele></trkpt>
      <trkpt lat="35.45434" lon="-118.11286"><ele>1354.0</ele></trkpt>
      <trkpt lat="35.45434" lon="-118.11307"><ele>1354.0</ele></trkpt>
      <trkpt lat="35.45434" lon="-118.11322"><ele>1354.0</ele></trkpt>
      <trkpt lat="35.45436" lon="-118.11337"><ele>1354.0</ele></trkpt>
      <trkpt lat="35.45439" lon="-118.11343"><ele>1354.0</ele></trkpt>
      <trkpt lat="35.45445" lon="-118.11370"><ele>1371.0</ele></trkpt>
      <trkpt lat="35.45457" lon="-118.11393"><ele>1371.0</ele></trkpt>
      <trkpt lat="35.45476" lon="-118.11406"><ele>1371.0</ele></trkpt>
      <trkpt lat="35.45490" lon="-118.11426"><ele>1371.0</ele></trkpt>
      <trkpt lat="35.45501" lon="-118.11447"><ele>1371.0</ele></trkpt>
      <trkpt lat="35.45523" lon="-118.11476"><ele>1371.0</ele></trkpt>
      <trkpt lat="35.45617" lon="-118.11557"><ele>1371.0</ele></trkpt>
      <trkpt lat="35.45638" lon="-118.11592"><ele>1371.0</ele></trkpt>
      <trkpt lat="35.45647" lon="-118.11614"><ele>1371.0</ele></trkpt>
      <trkpt lat="35.45650" lon="-118.11644"><ele>1371.0</ele></trkpt>
      <trkpt lat="35.45656" lon="-118.11663"><ele>1371.0</ele></trkpt>
      <trkpt lat="35.45684" lon="-118.11723"><ele>1371.0</ele></trkpt>
      <trkpt lat="35.45697" lon="-118.11744"><ele>1389.0</ele></trkpt>
      <trkpt lat="35.45704" lon="-118.11762"><ele>1389.0</ele></trkpt>
      <trkpt lat="35.45705" lon="-118.11774"><ele>1389.0</ele></trkpt>
      <trkpt lat="35.45701" lon="-118.11788"><ele>1389.0</ele></trkpt>
      <trkpt lat="35.45682" lon="-118.11811"><ele>1389.0</ele></trkpt>
      <trkpt lat="35.45670" lon="-118.11832"><ele>1389.0</ele></trkpt>
      <trkpt lat="35.45666" lon="-118.11848"><ele>1389.0</ele></trkpt>
      <trkpt lat="35.45670" lon="-118.11868"><ele>1389.0</ele></trkpt>
      <trkpt lat="35.45696" lon="-118.11899"><ele>1389.0</ele></trkpt>
      <trkpt lat="35.45720" lon="-118.11918"><ele>1389.0</ele></trkpt>
      <trkpt lat="35.45735" lon="-118.11932"><ele>1389.0</ele></trkpt>
      <trkpt lat="35.45748" lon="-118.11962"><ele>1389.0</ele></trkpt>
      <trkpt lat="35.45755" lon="-118.11980"><ele>1389.0</ele></trkpt>
      <trkpt lat="35.45760" lon="-118.11992"><ele>1401.0</ele></trkpt>
      <trkpt lat="35.45765" lon="-118.12003"><ele>1401.0</ele></trkpt>
      <trkpt lat="35.45773" lon="-118.12014"><ele>1401.0</ele></trkpt>
      <trkpt lat="35.45784" lon="-118.12025"><ele>1401.0</ele></trkpt>
      <trkpt lat="35.45797" lon="-118.12035"><ele>1401.0</ele></trkpt>
      <trkpt lat="35.45810" lon="-118.12043"><ele>1401.0</ele></trkpt>
      <trkpt lat="35.45821" lon="-118.12052"><ele>1401.0</ele></trkpt>
      <trkpt lat="35.45830" lon="-118.12063"><ele>1401.0</ele></trkpt>
      <trkpt lat="35.45838" lon="-118.12076"><ele>1401.0</ele></trkpt>
      <trkpt lat="35.45846" lon="-118.12092"><ele>1401.0</ele></trkpt>
      <trkpt lat="35.45851" lon="-118.12102"><ele>1401.0</ele></trkpt>
      <trkpt lat="35.45854" lon="-118.12109"><ele>1401.0</ele></trkpt>
      <trkpt lat="35.45859" lon="-118.12119"><ele>1413.0</ele></trkpt>
      <trkpt lat="35.45864" lon="-118.12134"><ele>1413.0</ele></trkpt>
      <trkpt lat="35.45866" lon="-118.12146"><ele>1413.0</ele></trkpt>
      <trkpt lat="35.45866" lon="-118.12163"><ele>1413.0</ele></trkpt>
      <trkpt lat="35.45861" lon="-118.12189"><ele>1413.0</ele></trkpt>
      <trkpt lat="35.45853" lon="-118.12215"><ele>1413.0</ele></trkpt>
      <trkpt lat="35.45845" lon="-118.12240"><ele>1413.0</ele></trkpt>
      <trkpt lat="35.45839" lon="-118.12265"><ele>1413.0</ele></trkpt>
      <trkpt lat="35.45830" lon="-118.12288"><ele>1413.0</ele></trkpt>
      <trkpt lat="35.45823" lon="-118.12309"><ele>1413.0</ele></trkpt>
      <trkpt lat="35.45823" lon="-118.12331"><ele>1413.0</ele></trkpt>
      <trkpt lat="35.45828" lon="-118.12353"><ele>1413.0</ele></trkpt>
      <trkpt lat="35.45833" lon="-118.12376"><ele>1413.0</ele></trkpt>
      <trkpt lat="35.45835" lon="-118.12401"><ele>1427.0</ele></trkpt>
      <trkpt lat="35.45838" lon="-118.12427"><ele>1427.0</ele></trkpt>
      <trkpt lat="35.45841" lon="-118.12454"><ele>1427.0</ele></trkpt>
      <trkpt lat="35.45842" lon="-118.12480"><ele>1427.0</ele></trkpt>
      <trkpt lat="35.45848" lon="-118.12501"><ele>1427.0</ele></trkpt>
      <trkpt lat="35.45860" lon="-118.12522"><ele>1427.0</ele></trkpt>
      <trkpt lat="35.45871" lon="-118.12545"><ele>1427.0</ele></trkpt>
      <trkpt lat="35.45878" lon="-118.12567"><ele>1427.0</ele></trkpt>
      <trkpt lat="35.45885" lon="-118.12587"><ele>1427.0</ele></trkpt>
      <trkpt lat="35.45891" lon="-118.12605"><ele>1427.0</ele></trkpt>
      <trkpt lat="35.45902" lon="-118.12625"><ele>1427.0</ele></trkpt>
      <trkpt lat="35.45909" lon="-118.12650"><ele>1427.0</ele></trkpt>
      <trkpt lat="35.45911" lon="-118.12678"><ele>1440.0</ele></trkpt>
      <trkpt lat="35.45914" lon="-118.12704"><ele>1440.0</ele></trkpt>
      <trkpt lat="35.45917" lon="-118.12728"><ele>1440.0</ele></trkpt>
      <trkpt lat="35.45918" lon="-118.12752"><ele>1440.0</ele></trkpt>
      <trkpt lat="35.45917" lon="-118.12777"><ele>1440.0</ele></trkpt>
      <trkpt lat="35.45920" lon="-118.12801"><ele>1440.0</ele></trkpt>
      <trkpt lat="35.45923" lon="-118.12824"><ele>1440.0</ele></trkpt>
      <trkpt lat="35.45923" lon="-118.12850"><ele>1440.0</ele></trkpt>
      <trkpt lat="35.45924" lon="-118.12875"><ele>1440.0</ele></trkpt>
      <trkpt lat="35.45922" lon="-118.12899"><ele>1440.0</ele></trkpt>
      <trkpt lat="35.45914" lon="-118.12923"><ele>1440.0</ele></trkpt>
      <trkpt lat="35.45904" lon="-118.12950"><ele>1440.0</ele></trkpt>
      <trkpt lat="35.45896" lon="-118.12976"><ele>1440.0</ele></trkpt>
      <trkpt lat="35.45889" lon="-118.13001"><ele>1458.0</ele></trkpt>
      <trkpt lat="35.45884" lon="-118.13021"><ele>1458.0</ele></trkpt>
      <trkpt lat="35.45881" lon="-118.13042"><ele>1458.0</ele></trkpt>
      <trkpt lat="35.45879" lon="-118.13070"><ele>1458.0</ele></trkpt>
      <trkpt lat="35.45880" lon="-118.13098"><ele>1458.0</ele></trkpt>
      <trkpt lat="35.45881" lon="-118.13126"><ele>1458.0</ele></trkpt>
      <trkpt lat="35.45882" lon="-118.13152"><ele>1458.0</ele></trkpt>
      <trkpt lat="35.45881" lon="-118.13178"><ele>1458.0</ele></trkpt>
      <trkpt lat="35.45880" lon="-118.13202"><ele>1458.0</ele></trkpt>
      <trkpt lat="35.45877" lon="-118.13225"><ele>1458.0</ele></trkpt>
      <trkpt lat="35.45873" lon="-118.13247"><ele>1458.0</ele></trkpt>
      <trkpt lat="35.45867" lon="-118.13268"><ele>1458.0</ele></trkpt>
      <trkpt lat="35.45862" lon="-118.13287"><ele>1479.0</ele></trkpt>
      <trkpt lat="35.45860" lon="-118.13306"><ele>1479.0</ele></trkpt>
      <trkpt lat="35.45860" lon="-118.13331"><ele>1479.0</ele></trkpt>
      <trkpt lat="35.45862" lon="-118.13357"><ele>1479.0</ele></trkpt>
      <trkpt lat="35.45868" lon="-118.13381"><ele>1479.0</ele></trkpt>
      <trkpt lat="35.45877" lon="-118.13405"><ele>1479.0</ele></trkpt>
      <trkpt lat="35.45887" lon="-118.13430"><ele>1479.0</ele></trkpt>
      <trkpt lat="35.45894" lon="-118.13455"><ele>1479.0</ele></trkpt>
      <trkpt lat="35.45902" lon="-118.13479"><ele>1479.0</ele></trkpt>
      <trkpt lat="35.45913" lon="-118.13502"><ele>1479.0</ele></trkpt>
      <trkpt lat="35.45926" lon="-118.13521"><ele>1479.0</ele></trkpt>
      <trkpt lat="35.45943" lon="-118.13537"><ele>1479.0</ele></trkpt>
      <trkpt lat="35.45959" lon="-118.13557"><ele>1479.0</ele></trkpt>
      <trkpt lat="35.45971" lon="-118.13578"><ele>1497.0</ele></trkpt>
      <trkpt lat="35.45981" lon="-118.13601"><ele>1497.0</ele></trkpt>
      <trkpt lat="35.45991" lon="-118.13629"><ele>1497.0</ele></trkpt>
      <trkpt lat="35.46001" lon="-118.13656"><ele>1497.0</ele></trkpt>
      <trkpt lat="35.46011" lon="-118.13681"><ele>1497.0</ele></trkpt>
      <trkpt lat="35.46021" lon="-118.13702"><ele>1497.0</ele></trkpt>
      <trkpt lat="35.46029" lon="-118.13721"><ele>1497.0</ele></trkpt>
      <trkpt lat="35.46040" lon="-118.13737"><ele>1497.0</ele></trkpt>
      <trkpt lat="35.46055" lon="-118.13757"><ele>1497.0</ele></trkpt>
      <trkpt lat="35.46067" lon="-118.13779"><ele>1497.0</ele></trkpt>
      <trkpt lat="35.46078" lon="-118.13799"><ele>1497.0</ele></trkpt>
      <trkpt lat="35.46085" lon="-118.13819"><ele>1497.0</ele></trkpt>
      <trkpt lat="35.46088" lon="-118.13845"><ele>1514.0</ele></trkpt>
      <trkpt lat="35.46091" lon="-118.13876"><ele>1514.0</ele></trkpt>
      <trkpt lat="35.46097" lon="-118.13907"><ele>1514.0</ele></trkpt>
      <trkpt lat="35.46100" lon="-118.13937"><ele>1514.0</ele></trkpt>
      <trkpt lat="35.46102" lon="-118.13963"><ele>1514.0</ele></trkpt>
      <trkpt lat="35.46107" lon="-118.13987"><ele>1514.0</ele></trkpt>
      <trkpt lat="35.46112" lon="-118.14005"><ele>1514.0</ele></trkpt>
      <trkpt lat="35.46118" lon="-118.14025"><ele>1514.0</ele></trkpt>
      <trkpt lat="35.46128" lon="-118.14047"><ele>1514.0</ele></trkpt>
      <trkpt lat="35.46139" lon="-118.14071"><ele>1514.0</ele></trkpt>
      <trkpt lat="35.46148" lon="-118.14092"><ele>1514.0</ele></trkpt>
      <trkpt lat="35.46153" lon="-118.14118"><ele>1514.0</ele></trkpt>
      <trkpt lat="35.46152" lon="-118.14149"><ele>1514.0</ele></trkpt>
      <trkpt lat="35.46147" lon="-118.14179"><ele>1546.0</ele></trkpt>
      <trkpt lat="35.46143" lon="-118.14207"><ele>1546.0</ele></trkpt>
      <trkpt lat="35.46140" lon="-118.14227"><ele>1546.0</ele></trkpt>
      <trkpt lat="35.46138" lon="-118.14246"><ele>1546.0</ele></trkpt>
      <trkpt lat="35.46136" lon="-118.14265"><ele>1546.0</ele></trkpt>
      <trkpt lat="35.46136" lon="-118.14281"><ele>1546.0</ele></trkpt>
      <trkpt lat="35.46136" lon="-118.14301"><ele>1546.0</ele></trkpt>
      <trkpt lat="35.46134" lon="-118.14320"><ele>1546.0</ele></trkpt>
      <trkpt lat="35.46130" lon="-118.14346"><ele>1546.0</ele></trkpt>
      <trkpt lat="35.46128" lon="-118.14372"><ele>1546.0</ele></trkpt>
      <trkpt lat="35.46128" lon="-118.14400"><ele>1546.0</ele></trkpt>
      <trkpt lat="35.46129" lon="-118.14429"><ele>1546.0</ele></trkpt>
      <trkpt lat="35.46133" lon="-118.14456"><ele>1578.0</ele></trkpt>
      <trkpt lat="35.46141" lon="-118.14481"><ele>1578.0</ele></trkpt>
      <trkpt lat="35.46154" lon="-118.14506"><ele>1578.0</ele></trkpt>
      <trkpt lat="35.46164" lon="-118.14533"><ele>1578.0</ele></trkpt>
      <trkpt lat="35.46174" lon="-118.14558"><ele>1578.0</ele></trkpt>
      <trkpt lat="35.46186" lon="-118.14577"><ele>1578.0</ele></trkpt>
      <trkpt lat="35.46201" lon="-118.14597"><ele>1578.0</ele></trkpt>
      <trkpt lat="35.46220" lon="-118.14616"><ele>1578.0</ele></trkpt>
      <trkpt lat="35.46239" lon="-118.14634"><ele>1578.0</ele></trkpt>
      <trkpt lat="35.46254" lon="-118.14657"><ele>1578.0</ele></trkpt>
      <trkpt lat="35.46262" lon="-118.14683"><ele>1578.0</ele></trkpt>
      <trkpt lat="35.46271" lon="-118.14707"><ele>1578.0</ele></trkpt>
      <trkpt lat="35.46284" lon="-118.14731"><ele>1578.0</ele></trkpt>
      <trkpt lat="35.46298" lon="-118.14754"><ele>1608.0</ele></trkpt>
      <trkpt lat="35.46310" lon="-118.14773"><ele>1608.0</ele></trkpt>
      <trkpt lat="35.46319" lon="-118.14794"><ele>1608.0</ele></trkpt>
      <trkpt lat="35.46330" lon="-118.14826"><ele>1608.0</ele></trkpt>
      <trkpt lat="35.46337" lon="-118.14843"><ele>1608.0</ele></trkpt>
      <trkpt lat="35.46346" lon="-118.14866"><ele>1608.0</ele></trkpt>
      <trkpt lat="35.46356" lon="-118.14890"><ele>1608.0</ele></trkpt>
      <trkpt lat="35.46365" lon="-118.14913"><ele>1608.0</ele></trkpt>
      <trkpt lat="35.46372" lon="-118.14933"><ele>1608.0</ele></trkpt>
      <trkpt lat="35.46376" lon="-118.14956"><ele>1608.0</ele></trkpt>
      <trkpt lat="35.46377" lon="-118.14974"><ele>1608.0</ele></trkpt>
      <trkpt lat="35.46379" lon="-118.14983"><ele>1608.0</ele></trkpt>
      <trkpt lat="35.46379" lon="-118.14983"><ele>1617.0</ele></trkpt>
      <trkpt lat="35.46381" lon="-118.14987"><ele>1617.0</ele></trkpt>
      <trkpt lat="35.46389" lon="-118.14996"><ele>1617.0</ele></trkpt>
      <trkpt lat="35.46397" lon="-118.15001"><ele>1617.0</ele></trkpt>
      <trkpt lat="35.46403" lon="-118.15005"><ele>1617.0</ele></trkpt>
      <trkpt lat="35.46411" lon="-118.15010"><ele>1617.0</ele></trkpt>
      <trkpt lat="35.46421" lon="-118.15019"><ele>1617.0</ele></trkpt>
      <trkpt lat="35.46434" lon="-118.15031"><ele>1617.0</ele></trkpt>
      <trkpt lat="35.46451" lon="-118.15047"><ele>1617.0</ele></trkpt>
      <trkpt lat="35.46469" lon="-118.15061"><ele>1617.0</ele></trkpt>
      <trkpt lat="35.46488" lon="-118.15072"><ele>1617.0</ele></trkpt>
      <trkpt lat="35.46504" lon="-118.15080"><ele>1617.0</ele></trkpt>
      <trkpt lat="35.46518" lon="-118.15085"><ele>1617.0</ele></trkpt>
      <trkpt lat="35.46533" lon="-118.15091"><ele>1606.0</ele></trkpt>
      <trkpt lat="35.46545" lon="-118.15099"><ele>1606.0</ele></trkpt>
      <trkpt lat="35.46556" lon="-118.15112"><ele>1606.0</ele></trkpt>
      <trkpt lat="35.46572" lon="-118.15121"><ele>1606.0</ele></trkpt>
      <trkpt lat="35.46586" lon="-118.15122"><ele>1606.0</ele></trkpt>
      <trkpt lat="35.46595" lon="-118.15125"><ele>1606.0</ele></trkpt>
      <trkpt lat="35.46605" lon="-118.15133"><ele>1606.0</ele></trkpt>
      <trkpt lat="35.46613" lon="-118.15148"><ele>1606.0</ele></trkpt>
      <trkpt lat="35.46622" lon="-118.15169"><ele>1606.0</ele></trkpt>
      <trkpt lat="35.46630" lon="-118.15190"><ele>1606.0</ele></trkpt>
      <trkpt lat="35.46637" lon="-118.15208"><ele>1606.0</ele></trkpt>
      <trkpt lat="35.46643" lon="-118.15224"><ele>1606.0</ele></trkpt>
      <trkpt lat="35.46648" lon="-118.15240"><ele>1582.0</ele></trkpt>
      <trkpt lat="35.46654" lon="-118.15258"><ele>1582.0</ele></trkpt>
      <trkpt lat="35.46663" lon="-118.15276"><ele>1582.0</ele></trkpt>
      <trkpt lat="35.46675" lon="-118.15294"><ele>1582.0</ele></trkpt>
      <trkpt lat="35.46687" lon="-118.15309"><ele>1582.0</ele></trkpt>
      <trkpt lat="35.46699" lon="-118.15322"><ele>1582.0</ele></trkpt>
      <trkpt lat="35.46708" lon="-118.15333"><ele>1582.0</ele></trkpt>
      <trkpt lat="35.46717" lon="-118.15348"><ele>1582.0</ele></trkpt>
      <trkpt lat="35.46727" lon="-118.15372"><ele>1582.0</ele></trkpt>
      <trkpt lat="35.46734" lon="-118.15398"><ele>1582.0</ele></trkpt>
      <trkpt lat="35.46739" lon="-118.15423"><ele>1582.0</ele></trkpt>
      <trkpt lat="35.46744" lon="-118.15447"><ele>1582.0</ele></trkpt>
      <trkpt lat="35.46749" lon="-118.15470"><ele>1582.0</ele></trkpt>
      <trkpt lat="35.46752" lon="-118.15491"><ele>1562.0</ele></trkpt>
      <trkpt lat="35.46754" lon="-118.15511"><ele>1562.0</ele></trkpt>
      <trkpt lat="35.46758" lon="-118.15526"><ele>1562.0</ele></trkpt>
      <trkpt lat="35.46765" lon="-118.15540"><ele>1562.0</ele></trkpt>
      <trkpt lat="35.46772" lon="-118.15557"><ele>1562.0</ele></trkpt>
      <trkpt lat="35.46778" lon="-118.15579"><ele>1562.0</ele></trkpt>
      <trkpt lat="35.46785" lon="-118.15605"><ele>1562.0</ele></trkpt>
      <trkpt lat="35.46792" lon="-118.15629"><ele>1562.0</ele></trkpt>
      <trkpt lat="35.46799" lon="-118.15649"><ele>1562.0</ele></trkpt>
      <trkpt lat="35.46802" lon="-118.15668"><ele>1562.0</ele></trkpt>
      <trkpt lat="35.46805" lon="-118.15691"><ele>1562.0</ele></trkpt>
      <trkpt lat="35.46808" lon="-118.15713"><ele>1562.0</ele></trkpt>
      <trkpt lat="35.46813" lon="-118.15731"><ele>1533.0</ele></trkpt>
      <trkpt lat="35.46820" lon="-118.15750"><ele>1533.0</ele></trkpt>
      <trkpt lat="35.46828" lon="-118.15770"><ele>1533.0</ele></trkpt>
      <trkpt lat="35.46834" lon="-118.15788"><ele>1533.0</ele></trkpt>
      <trkpt lat="35.46838" lon="-118.15806"><ele>1533.0</ele></trkpt>
      <trkpt lat="35.46840" lon="-118.15825"><ele>1533.0</ele></trkpt>
      <trkpt lat="35.46839" lon="-118.15843"><ele>1533.0</ele></trkpt>
      <trkpt lat="35.46836" lon="-118.15861"><ele>1533.0</ele></trkpt>
      <trkpt lat="35.46830" lon="-118.15882"><ele>1533.0</ele></trkpt>
      <trkpt lat="35.46826" lon="-118.15901"><ele>1533.0</ele></trkpt>
      <trkpt lat="35.46820" lon="-118.15915"><ele>1533.0</ele></trkpt>
      <trkpt lat="35.46818" lon="-118.15930"><ele>1533.0</ele></trkpt>
      <trkpt lat="35.46820" lon="-118.15950"><ele>1533.0</ele></trkpt>
      <trkpt lat="35.46824" lon="-118.15974"><ele>1514.0</ele></trkpt>
      <trkpt lat="35.46825" lon="-118.15994"><ele>1514.0</ele></trkpt>
      <trkpt lat="35.46827" lon="-118.16013"><ele>1514.0</ele></trkpt>
      <trkpt lat="35.46830" lon="-118.16035"><ele>1514.0</ele></trkpt>
      <trkpt lat="35.46831" lon="-118.16057"><ele>1514.0</ele></trkpt>
      <trkpt lat="35.46830" lon="-118.16078"><ele>1514.0</ele></trkpt>
      <trkpt lat="35.46831" lon="-118.16096"><ele>1514.0</ele></trkpt>
      <trkpt lat="35.46833" lon="-118.16116"><ele>1514.0</ele></trkpt>
      <trkpt lat="35.46837" lon="-118.16138"><ele>1514.0</ele></trkpt>
      <trkpt lat="35.46840" lon="-118.16157"><ele>1514.0</ele></trkpt>
      <trkpt lat="35.46844" lon="-118.16177"><ele>1514.0</ele></trkpt>
      <trkpt lat="35.46850" lon="-118.16199"><ele>1514.0</ele></trkpt>
      <trkpt lat="35.46857" lon="-118.16221"><ele>1488.0</ele></trkpt>
      <trkpt lat="35.46864" lon="-118.16238"><ele>1488.0</ele></trkpt>
      <trkpt lat="35.46869" lon="-118.16253"><ele>1488.0</ele></trkpt>
      <trkpt lat="35.46874" lon="-118.16266"><ele>1488.0</ele></trkpt>
      <trkpt lat="35.46878" lon="-118.16284"><ele>1488.0</ele></trkpt>
      <trkpt lat="35.46883" lon="-118.16301"><ele>1488.0</ele></trkpt>
      <trkpt lat="35.46888" lon="-118.16320"><ele>1488.0</ele></trkpt>
      <trkpt lat="35.46895" lon="-118.16341"><ele>1488.0</ele></trkpt>
      <trkpt lat="35.46902" lon="-118.16364"><ele>1488.0</ele></trkpt>
      <trkpt lat="35.46909" lon="-118.16387"><ele>1488.0</ele></trkpt>
      <trkpt lat="35.46915" lon="-118.16406"><ele>1488.0</ele></trkpt>
      <trkpt lat="35.46919" lon="-118.16421"><ele>1488.0</ele></trkpt>
      <trkpt lat="35.46926" lon="-118.16436"><ele>1488.0</ele></trkpt>
      <trkpt lat="35.46937" lon="-118.16451"><ele>1464.0</ele></trkpt>
      <trkpt lat="35.46950" lon="-118.16463"><ele>1464.0</ele></trkpt>
      <trkpt lat="35.46962" lon="-118.16473"><ele>1464.0</ele></trkpt>
      <trkpt lat="35.46975" lon="-118.16489"><ele>1464.0</ele></trkpt>
      <trkpt lat="35.46986" lon="-118.16508"><ele>1464.0</ele></trkpt>
      <trkpt lat="35.46996" lon="-118.16525"><ele>1464.0</ele></trkpt>
      <trkpt lat="35.47006" lon="-118.16539"><ele>1464.0</ele></trkpt>
      <trkpt lat="35.47017" lon="-118.16557"><ele>1464.0</ele></trkpt>
      <trkpt lat="35.47028" lon="-118.16578"><ele>1464.0</ele></trkpt>
      <trkpt lat="35.47037" lon="-118.16599"><ele>1464.0</ele></trkpt>
      <trkpt lat="35.47046" lon="-118.16620"><ele>1464.0</ele></trkpt>
      <trkpt lat="35.47053" lon="-118.16637"><ele>1464.0</ele></trkpt>
      <trkpt lat="35.47055" lon="-118.16656"><ele>1441.0</ele></trkpt>
      <trkpt lat="35.47056" lon="-118.16673"><ele>1441.0</ele></trkpt>
      <trkpt lat="35.47061" lon="-118.16689"><ele>1441.0</ele></trkpt>
      <trkpt lat="35.47072" lon="-118.16708"><ele>1441.0</ele></trkpt>
      <trkpt lat="35.47079" lon="-118.16724"><ele>1441.0</ele></trkpt>
      <trkpt lat="35.47082" lon="-118.16741"><ele>1441.0</ele></trkpt>
      <trkpt lat="35.47081" lon="-118.16762"><ele>1441.0</ele></trkpt>
      <trkpt lat="35.47082" lon="-118.16779"><ele>1441.0</ele></trkpt>
      <trkpt lat="35.47087" lon="-118.16797"><ele>1441.0</ele></trkpt>
      <trkpt lat="35.47100" lon="-118.16816"><ele>1441.0</ele></trkpt>
      <trkpt lat="35.47114" lon="-118.16832"><ele>1441.0</ele></trkpt>
      <trkpt lat="35.47124" lon="-118.16849"><ele>1441.0</ele></trkpt>
      <trkpt lat="35.47133" lon="-118.16869"><ele>1441.0</ele></trkpt>
      <trkpt lat="35.47145" lon="-118.16892"><ele>1421.0</ele></trkpt>
      <trkpt lat="35.47158" lon="-118.16914"><ele>1421.0</ele></trkpt>
      <trkpt lat="35.47168" lon="-118.16938"><ele>1421.0</ele></trkpt>
      <trkpt lat="35.47173" lon="-118.16962"><ele>1421.0</ele></trkpt>
      <trkpt lat="35.47176" lon="-118.16986"><ele>1421.0</ele></trkpt>
      <trkpt lat="35.47180" lon="-118.17009"><ele>1421.0</ele></trkpt>
      <trkpt lat="35.47185" lon="-118.17028"><ele>1421.0</ele></trkpt>
      <trkpt lat="35.47193" lon="-118.17045"><ele>1421.0</ele></trkpt>
      <trkpt lat="35.47203" lon="-118.17065"><ele>1421.0</ele></trkpt>
      <trkpt lat="35.47211" lon="-118.17087"><ele>1421.0</ele></trkpt>
      <trkpt lat="35.47214" lon="-118.17109"><ele>1421.0</ele></trkpt>
      <trkpt lat="35.47214" lon="-118.17131"><ele>1421.0</ele></trkpt>
      <trkpt lat="35.47211" lon="-118.17153"><ele>1400.0</ele></trkpt>
      <trkpt lat="35.47211" lon="-118.17173"><ele>1400.0</ele></trkpt>
      <trkpt lat="35.47210" lon="-118.17190"><ele>1400.0</ele></trkpt>
      <trkpt lat="35.47210" lon="-118.17206"><ele>1400.0</ele></trkpt>
      <trkpt lat="35.47215" lon="-118.17223"><ele>1400.0</ele></trkpt>
      <trkpt lat="35.47225" lon="-118.17240"><ele>1400.0</ele></trkpt>
      <trkpt lat="35.47234" lon="-118.17255"><ele>1400.0</ele></trkpt>
      <trkpt lat="35.47239" lon="-118.17268"><ele>1400.0</ele></trkpt>
      <trkpt lat="35.47244" lon="-118.17285"><ele>1400.0</ele></trkpt>
      <trkpt lat="35.47251" lon="-118.17304"><ele>1400.0</ele></trkpt>
      <trkpt lat="35.47261" lon="-118.17326"><ele>1400.0</ele></trkpt>
      <trkpt lat="35.47273" lon="-118.17349"><ele>1400.0</ele></trkpt>
      <trkpt lat="35.47282" lon="-118.17371"><ele>1400.0</ele></trkpt>
      <trkpt lat="35.47289" lon="-118.17393"><ele>1381.0</ele></trkpt>
      <trkpt lat="35.47297" lon="-118.17412"><ele>1381.0</ele></trkpt>
      <trkpt lat="35.47311" lon="-118.17424"><ele>1381.0</ele></trkpt>
      <trkpt lat="35.47323" lon="-118.17438"><ele>1381.0</ele></trkpt>
      <trkpt lat="35.47334" lon="-118.17453"><ele>1381.0</ele></trkpt>
      <trkpt lat="35.47346" lon="-118.17464"><ele>1381.0</ele></trkpt>
      <trkpt lat="35.47361" lon="-118.17476"><ele>1381.0</ele></trkpt>
      <trkpt lat="35.47375" lon="-118.17491"><ele>1381.0</ele></trkpt>
      <trkpt lat="35.47390" lon="-118.17505"><ele>1381.0</ele></trkpt>
      <trkpt lat="35.47403" lon="-118.17515"><ele>1381.0</ele></trkpt>
      <trkpt lat="35.47418" lon="-118.17518"><ele>1381.0</ele></trkpt>
      <trkpt lat="35.47433" lon="-118.17517"><ele>1381.0</ele></trkpt>
      <trkpt lat="35.47445" lon="-118.17518"><ele>1368.0</ele></trkpt>
      <trkpt lat="35.47455" lon="-118.17524"><ele>1368.0</ele></trkpt>
      <trkpt lat="35.47460" lon="-118.17531"><ele>1368.0</ele></trkpt>
      <trkpt lat="35.47468" lon="-118.17537"><ele>1368.0</ele></trkpt>
      <trkpt lat="35.47478" lon="-118.17545"><ele>1368.0</ele></trkpt>
      <trkpt lat="35.47493" lon="-118.17555"><ele>1368.0</ele></trkpt>
      <trkpt lat="35.47509" lon="-118.17566"><ele>1368.0</ele></trkpt>
      <trkpt lat="35.47524" lon="-118.17576"><ele>1368.0</ele></trkpt>
      <trkpt lat="35.47536" lon="-118.17586"><ele>1368.0</ele></trkpt>
      <trkpt lat="35.47546" lon="-118.17596"><ele>1368.0</ele></trkpt>
      <trkpt lat="35.47553" lon="-118.17610"><ele>1368.0</ele></trkpt>
      <trkpt lat="35.47556" lon="-118.17626"><ele>1368.0</ele></trkpt>
      <trkpt lat="35.47559" lon="-118.17641"><ele>1368.0</ele></trkpt>
      <trkpt lat="35.47569" lon="-118.17653"><ele>1354.0</ele></trkpt>
      <trkpt lat="35.47583" lon="-118.17662"><ele>1354.0</ele></trkpt>
      <trkpt lat="35.47601" lon="-118.17669"><ele>1354.0</ele></trkpt>
      <trkpt lat="35.47620" lon="-118.17675"><ele>1354.0</ele></trkpt>
      <trkpt lat="35.47638" lon="-118.17683"><ele>1354.0</ele></trkpt>
      <trkpt lat="35.47652" lon="-118.17696"><ele>1354.0</ele></trkpt>
      <trkpt lat="35.47662" lon="-118.17714"><ele>1354.0</ele></trkpt>
      <trkpt lat="35.47675" lon="-118.17727"><ele>1354.0</ele></trkpt>
      <trkpt lat="35.47687" lon="-118.17737"><ele>1354.0</ele></trkpt>
      <trkpt lat="35.47694" lon="-118.17750"><ele>1354.0</ele></trkpt>
      <trkpt lat="35.47699" lon="-118.17763"><ele>1354.0</ele></trkpt>
      <trkpt lat="35.47707" lon="-118.17781"><ele>1354.0</ele></trkpt>
      <trkpt lat="35.47716" lon="-118.17803"><ele>1344.0</ele></trkpt>
      <trkpt lat="35.47721" lon="-118.17822"><ele>1344.0</ele></trkpt>
      <trkpt lat="35.47722" lon="-118.17836"><ele>1344.0</ele></trkpt>
      <trkpt lat="35.47726" lon="-118.17852"><ele>1344.0</ele></trkpt>
      <trkpt lat="35.47729" lon="-118.17868"><ele>1344.0</ele></trkpt>
      <trkpt lat="35.47725" lon="-118.17884"><ele>1344.0</ele></trkpt>
      <trkpt lat="35.47722" lon="-118.17898"><ele>1344.0</ele></trkpt>
      <trkpt lat="35.47730" lon="-118.17907"><ele>1344.0</ele></trkpt>
      <trkpt lat="35.47741" lon="-118.17915"><ele>1344.0</ele></trkpt>
      <trkpt lat="35.47751" lon="-118.17929"><ele>1344.0</ele></trkpt>
      <trkpt lat="35.47760" lon="-118.17946"><ele>1344.0</ele></trkpt>
      <trkpt lat="35.47772" lon="-118.17969"><ele>1344.0</ele></trkpt>
      <trkpt lat="35.47783" lon="-118.17996"><ele>1344.0</ele></trkpt>
      <trkpt lat="35.47795" lon="-118.18022"><ele>1326.0</ele></trkpt>
      <trkpt lat="35.47806" lon="-118.18049"><ele>1326.0</ele></trkpt>
      <trkpt lat="35.47815" lon="-118.18074"><ele>1326.0</ele></trkpt>
      <trkpt lat="35.47823" lon="-118.18093"><ele>1326.0</ele></trkpt>
      <trkpt lat="35.47828" lon="-118.18107"><ele>1326.0</ele></trkpt>
      <trkpt lat="35.47832" lon="-118.18120"><ele>1326.0</ele></trkpt>
      <trkpt lat="35.47838" lon="-118.18137"><ele>1326.0</ele></trkpt>
      <trkpt lat="35.47844" lon="-118.18162"><ele>1326.0</ele></trkpt>
      <trkpt lat="35.47847" lon="-118.18188"><ele>1326.0</ele></trkpt>
      <trkpt lat="35.47849" lon="-118.18214"><ele>1326.0</ele></trkpt>
      <trkpt lat="35.47852" lon="-118.18240"><ele>1326.0</ele></trkpt>
      <trkpt lat="35.47855" lon="-118.18262"><ele>1326.0</ele></trkpt>
      <trkpt lat="35.47859" lon="-118.18279"><ele>1313.0</ele></trkpt>
      <trkpt lat="35.47865" lon="-118.18297"><ele>1313.0</ele></trkpt>
      <trkpt lat="35.47874" lon="-118.18312"><ele>1313.0</ele></trkpt>
      <trkpt lat="35.47881" lon="-118.18323"><ele>1313.0</ele></trkpt>
      <trkpt lat="35.47891" lon="-118.18334"><ele>1313.0</ele></trkpt>
      <trkpt lat="35.47902" lon="-118.18349"><ele>1313.0</ele></trkpt>
      <trkpt lat="35.47915" lon="-118.18363"><ele>1313.0</ele></trkpt>
      <trkpt lat="35.47929" lon="-118.18377"><ele>1313.0</ele></trkpt>
      <trkpt lat="35.47941" lon="-118.18388"><ele>1313.0</ele></trkpt>
      <trkpt lat="35.47953" lon="-118.18398"><ele>1313.0</ele></trkpt>
      <trkpt lat="35.47966" lon="-118.18404"><ele>1313.0</ele></trkpt>
      <trkpt lat="35.47983" lon="-118.18408"><ele>1313.0</ele></trkpt>
      <trkpt lat="35.47998" lon="-118.18410"><ele>1313.0</ele></trkpt>
      <trkpt lat="35.48011" lon="-118.18412"><ele>1312.0</ele></trkpt>
      <trkpt lat="35.48021" lon="-118.18422"><ele>1312.0</ele></trkpt>
      <trkpt lat="35.48028" lon="-118.18438"><ele>1312.0</ele></trkpt>
      <trkpt lat="35.48032" lon="-118.18456"><ele>1312.0</ele></trkpt>
      <trkpt lat="35.48035" lon="-118.18478"><ele>1312.0</ele></trkpt>
      <trkpt lat="35.48038" lon="-118.18501"><ele>1312.0</ele></trkpt>
      <trkpt lat="35.48041" lon="-118.18519"><ele>1312.0</ele></trkpt>
      <trkpt lat="35.48045" lon="-118.18537"><ele>1312.0</ele></trkpt>
      <trkpt lat="35.48050" lon="-118.18553"><ele>1312.0</ele></trkpt>
      <trkpt lat="35.48055" lon="-118.18568"><ele>1312.0</ele></trkpt>
      <trkpt lat="35.48062" lon="-118.18585"><ele>1312.0</ele></trkpt>
      <trkpt lat="35.48071" lon="-118.18601"><ele>1312.0</ele></trkpt>
      <trkpt lat="35.48080" lon="-118.18615"><ele>1298.0</ele></trkpt>
      <trkpt lat="35.48089" lon="-118.18629"><ele>1298.0</ele></trkpt>
      <trkpt lat="35.48099" lon="-118.18642"><ele>1298.0</ele></trkpt>
      <trkpt lat="35.48109" lon="-118.18658"><ele>1298.0</ele></trkpt>
      <trkpt lat="35.48118" lon="-118.18676"><ele>1298.0</ele></trkpt>
      <trkpt lat="35.48126" lon="-118.18691"><ele>1298.0</ele></trkpt>
      <trkpt lat="35.48133" lon="-118.18704"><ele>1298.0</ele></trkpt>
      <trkpt lat="35.48143" lon="-118.18721"><ele>1298.0</ele></trkpt>
      <trkpt lat="35.48151" lon="-118.18734"><ele>1298.0</ele></trkpt>
      <trkpt lat="35.48154" lon="-118.18744"><ele>1298.0</ele></trkpt>
      <trkpt lat="35.48158" lon="-118.18761"><ele>1298.0</ele></trkpt>
      <trkpt lat="35.48161" lon="-118.18778"><ele>1298.0</ele></trkpt>
      <trkpt lat="35.48166" lon="-118.18801"><ele>1298.0</ele></trkpt>
      <trkpt lat="35.48174" lon="-118.18837"><ele>1289.0</ele></trkpt>
      <trkpt lat="35.48180" lon="-118.18865"><ele>1289.0</ele></trkpt>
      <trkpt lat="35.48187" lon="-118.18894"><ele>1289.0</ele></trkpt>
      <trkpt lat="35.48193" lon="-118.18922"><ele>1289.0</ele></trkpt>
      <trkpt lat="35.48197" lon="-118.18945"><ele>1289.0</ele></trkpt>
      <trkpt lat="35.48199" lon="-118.18962"><ele>1289.0</ele></trkpt>
      <trkpt lat="35.48202" lon="-118.18980"><ele>1289.0</ele></trkpt>
      <trkpt lat="35.48204" lon="-118.19001"><ele>1289.0</ele></trkpt>
      <trkpt lat="35.48206" lon="-118.19020"><ele>1289.0</ele></trkpt>
      <trkpt lat="35.48209" lon="-118.19041"><ele>1289.0</ele></trkpt>
      <trkpt lat="35.48215" lon="-118.19064"><ele>1289.0</ele></trkpt>
      <trkpt lat="35.48223" lon="-118.19088"><ele>1289.0</ele></trkpt>
      <trkpt lat="35.48231" lon="-118.19107"><ele>1274.0</ele></trkpt>
      <trkpt lat="35.48238" lon="-118.19125"><ele>1274.0</ele></trkpt>
      <trkpt lat="35.48246" lon="-118.19142"><ele>1274.0</ele></trkpt>
      <trkpt lat="35.48252" lon="-118.19156"><ele>1274.0</ele></trkpt>
      <trkpt lat="35.48257" lon="-118.19173"><ele>1274.0</ele></trkpt>
      <trkpt lat="35.48263" lon="-118.19193"><ele>1274.0</ele></trkpt>
      <trkpt lat="35.48268" lon="-118.19212"><ele>1274.0</ele></trkpt>
      <trkpt lat="35.48276" lon="-118.19233"><ele>1274.0</ele></trkpt>
      <trkpt lat="35.48286" lon="-118.19258"><ele>1274.0</ele></trkpt>
      <trkpt lat="35.48298" lon="-118.19284"><ele>1274.0</ele></trkpt>
      <trkpt lat="35.48311" lon="-118.19309"><ele>1274.0</ele></trkpt>
      <trkpt lat="35.48323" lon="-118.19334"><ele>1274.0</ele></trkpt>
      <trkpt lat="35.48335" lon="-118.19359"><ele>1274.0</ele></trkpt>
      <trkpt lat="35.48348" lon="-118.19382"><ele>1257.0</ele></trkpt>
      <trkpt lat="35.48361" lon="-118.19404"><ele>1257.0</ele></trkpt>
      <trkpt lat="35.48372" lon="-118.19424"><ele>1257.0</ele></trkpt>
      <trkpt lat="35.48382" lon="-118.19445"><ele>1257.0</ele></trkpt>
      <trkpt lat="35.48394" lon="-118.19472"><ele>1257.0</ele></trkpt>
      <trkpt lat="35.48408" lon="-118.19499"><ele>1257.0</ele></trkpt>
      <trkpt lat="35.48422" lon="-118.19525"><ele>1257.0</ele></trkpt>
      <trkpt lat="35.48435" lon="-118.19550"><ele>1257.0</ele></trkpt>
      <trkpt lat="35.48447" lon="-118.19574"><ele>1257.0</ele></trkpt>
      <trkpt lat="35.48459" lon="-118.19598"><ele>1257.0</ele></trkpt>
      <trkpt lat="35.48470" lon="-118.19620"><ele>1257.0</ele></trkpt>
      <trkpt lat="35.48481" lon="-118.19641"><ele>1257.0</ele></trkpt>
      <trkpt lat="35.48491" lon="-118.19660"><ele>1245.0</ele></trkpt>
      <trkpt lat="35.48499" lon="-118.19675"><ele>1245.0</ele></trkpt>
      <trkpt lat="35.48507" lon="-118.19686"><ele>1245.0</ele></trkpt>
      <trkpt lat="35.48516" lon="-118.19697"><ele>1245.0</ele></trkpt>
      <trkpt lat="35.48526" lon="-118.19712"><ele>1245.0</ele></trkpt>
      <trkpt lat="35.48538" lon="-118.19729"><ele>1245.0</ele></trkpt>
      <trkpt lat="35.48547" lon="-118.19748"><ele>1245.0</ele></trkpt>
      <trkpt lat="35.48556" lon="-118.19763"><ele>1245.0</ele></trkpt>
      <trkpt lat="35.48566" lon="-118.19775"><ele>1245.0</ele></trkpt>
      <trkpt lat="35.48577" lon="-118.19787"><ele>1245.0</ele></trkpt>
      <trkpt lat="35.48588" lon="-118.19802"><ele>1245.0</ele></trkpt>
      <trkpt lat="35.48599" lon="-118.19816"><ele>1245.0</ele></trkpt>
      <trkpt lat="35.48611" lon="-118.19832"><ele>1245.0</ele></trkpt>
      <trkpt lat="35.48623" lon="-118.19848"><ele>1239.0</ele></trkpt>
      <trkpt lat="35.48635" lon="-118.19857"><ele>1239.0</ele></trkpt>
      <trkpt lat="35.48649" lon="-118.19862"><ele>1239.0</ele></trkpt>
      <trkpt lat="35.48661" lon="-118.19865"><ele>1239.0</ele></trkpt>
      <trkpt lat="35.48674" lon="-118.19873"><ele>1239.0</ele></trkpt>
      <trkpt lat="35.48685" lon="-118.19881"><ele>1239.0</ele></trkpt>
      <trkpt lat="35.48696" lon="-118.19891"><ele>1239.0</ele></trkpt>
      <trkpt lat="35.48705" lon="-118.19904"><ele>1239.0</ele></trkpt>
      <trkpt lat="35.48714" lon="-118.19916"><ele>1239.0</ele></trkpt>
      <trkpt lat="35.48725" lon="-118.19925"><ele>1239.0</ele></trkpt>
      <trkpt lat="35.48733" lon="-118.19935"><ele>1239.0</ele></trkpt>
      <trkpt lat="35.48737" lon="-118.19949"><ele>1239.0</ele></trkpt>
      <trkpt lat="35.48742" lon="-118.19967"><ele>1237.0</ele></trkpt>
      <trkpt lat="35.48749" lon="-118.19985"><ele>1237.0</ele></trkpt>
      <trkpt lat="35.48758" lon="-118.20002"><ele>1237.0</ele></trkpt>
      <trkpt lat="35.48773" lon="-118.20017"><ele>1237.0</ele></trkpt>
      <trkpt lat="35.48788" lon="-118.20027"><ele>1237.0</ele></trkpt>
      <trkpt lat="35.48802" lon="-118.20039"><ele>1237.0</ele></trkpt>
      <trkpt lat="35.48811" lon="-118.20057"><ele>1237.0</ele></trkpt>
      <trkpt lat="35.48815" lon="-118.20076"><ele>1237.0</ele></trkpt>
      <trkpt lat="35.48818" lon="-118.20091"><ele>1237.0</ele></trkpt>
      <trkpt lat="35.48824" lon="-118.20106"><ele>1237.0</ele></trkpt>
      <trkpt lat="35.48831" lon="-118.20119"><ele>1237.0</ele></trkpt>
      <trkpt lat="35.48835" lon="-118.20132"><ele>1237.0</ele></trkpt>
      <trkpt lat="35.48837" lon="-118.20147"><ele>1237.0</ele></trkpt>
      <trkpt lat="35.48839" lon="-118.20162"><ele>1230.0</ele></trkpt>
      <trkpt lat="35.48839" lon="-118.20176"><ele>1230.0</ele></trkpt>
      <trkpt lat="35.48839" lon="-118.20200"><ele>1230.0</ele></trkpt>
      <trkpt lat="35.48837" lon="-118.20221"><ele>1230.0</ele></trkpt>
      <trkpt lat="35.48833" lon="-118.20239"><ele>1230.0</ele></trkpt>
      <trkpt lat="35.48826" lon="-118.20254"><ele>1230.0</ele></trkpt>
      <trkpt lat="35.48816" lon="-118.20268"><ele>1230.0</ele></trkpt>
      <trkpt lat="35.48803" lon="-118.20278"><ele>1230.0</ele></trkpt>
      <trkpt lat="35.48794" lon="-118.20284"><ele>1230.0</ele></trkpt>
      <trkpt lat="35.48787" lon="-118.20287"><ele>1230.0</ele></trkpt>
      <trkpt lat="35.48779" lon="-118.20291"><ele>1230.0</ele></trkpt>
      <trkpt lat="35.48772" lon="-118.20294"><ele>1230.0</ele></trkpt>
      <trkpt lat="35.48764" lon="-118.20295"><ele>1219.0</ele></trkpt>
      <trkpt lat="35.48756" lon="-118.20294"><ele>1219.0</ele></trkpt>
      <trkpt lat="35.48746" lon="-118.20291"><ele>1219.0</ele></trkpt>
      <trkpt lat="35.48736" lon="-118.20291"><ele>1219.0</ele></trkpt>
      <trkpt lat="35.48725" lon="-118.20296"><ele>1219.0</ele></trkpt>
      <trkpt lat="35.48713" lon="-118.20306"><ele>1219.0</ele></trkpt>
      <trkpt lat="35.48705" lon="-118.20320"><ele>1219.0</ele></trkpt>
      <trkpt lat="35.48697" lon="-118.20332"><ele>1219.0</ele></trkpt>
      <trkpt lat="35.48689" lon="-118.20348"><ele>1219.0</ele></trkpt>
      <trkpt lat="35.48683" lon="-118.20363"><ele>1219.0</ele></trkpt>
      <trkpt lat="35.48684" lon="-118.20377"><ele>1219.0</ele></trkpt>
      <trkpt lat="35.48688" lon="-118.20388"><ele>1219.0</ele></trkpt>
      <trkpt lat="35.48696" lon="-118.20397"><ele>1219.0</ele></trkpt>
      <trkpt lat="35.48704" lon="-118.20405"><ele>1202.0</ele></trkpt>
      <trkpt lat="35.48716" lon="-118.20415"><ele>1202.0</ele></trkpt>
      <trkpt lat="35.48729" lon="-118.20425"><ele>1202.0</ele></trkpt>
      <trkpt lat="35.48744" lon="-118.20426"><ele>1202.0</ele></trkpt>
      <trkpt lat="35.48757" lon="-118.20424"><ele>1202.0</ele></trkpt>
      <trkpt lat="35.48771" lon="-118.20420"><ele>1202.0</ele></trkpt>
      <trkpt lat="35.48784" lon="-118.20418"><ele>1202.0</ele></trkpt>
      <trkpt lat="35.48799" lon="-118.20420"><ele>1202.0</ele></trkpt>
      <trkpt lat="35.48814" lon="-118.20423"><ele>1202.0</ele></trkpt>
      <trkpt lat="35.48826" lon="-118.20425"><ele>1202.0</ele></trkpt>
      <trkpt lat="35.48837" lon="-118.20427"><ele>1202.0</ele></trkpt>
      <trkpt lat="35.48847" lon="-118.20429"><ele>1202.0</ele></trkpt>
      <trkpt lat="35.48861" lon="-118.20435"><ele>867.0</ele></trkpt>
    </trkseg>
    <trkseg>
      <trkpt lat="35.39568" lon="-117.99677"><ele>867.0</ele></trkpt>
      <trkpt lat="35.39568" lon="-117.99678"><ele>867.0</ele></trkpt>
      <trkpt lat="35.39590" lon="-117.99708"><ele>867.0</ele></trkpt>
      <trkpt lat="35.39607" lon="-117.99729"><ele>867.0</ele></trkpt>
      <trkpt lat="35.39617" lon="-117.99740"><ele>867.0</ele></trkpt>
      <trkpt lat="35.39626" lon="-117.99749"><ele>867.0</ele></trkpt>
      <trkpt lat="35.39648" lon="-117.99767"><ele>867.0</ele></trkpt>
      <trkpt lat="35.39672" lon="-117.99782"><ele>867.0</ele></trkpt>
      <trkpt lat="35.39687" lon="-117.99790"><ele>867.0</ele></trkpt>
      <trkpt lat="35.39696" lon="-117.99795"><ele>867.0</ele></trkpt>
      <trkpt lat="35.39720" lon="-117.99808"><ele>867.0</ele></trkpt>
      <trkpt lat="35.39744" lon="-117.99820"><ele>867.0</ele></trkpt>
      <trkpt lat="35.39753" lon="-117.99825"><ele>878.0</ele></trkpt>
      <trkpt lat="35.39768" lon="-117.99832"><ele>878.0</ele></trkpt>
      <trkpt lat="35.39793" lon="-117.99845"><ele>878.0</ele></trkpt>
      <trkpt lat="35.39818" lon="-117.99858"><ele>878.0</ele></trkpt>
      <trkpt lat="35.39843" lon="-117.99871"><ele>878.0</ele></trkpt>
      <trkpt lat="35.39867" lon="-117.99884"><ele>878.0</ele></trkpt>
      <trkpt lat="35.39891" lon="-117.99897"><ele>878.0</ele></trkpt>
      <trkpt lat="35.39892" lon="-117.99897"><ele>878.0</ele></trkpt>
      <trkpt lat="35.39916" lon="-117.99909"><ele>878.0</ele></trkpt>
      <trkpt lat="35.39941" lon="-117.99920"><ele>878.0</ele></trkpt>
      <trkpt lat="35.39965" lon="-117.99932"><ele>878.0</ele></trkpt>
      <trkpt lat="35.39988" lon="-117.99946"><ele>878.0</ele></trkpt>
      <trkpt lat="35.39995" lon="-117.99949"><ele>889.0</ele></trkpt>
      <trkpt lat="35.40014" lon="-117.99957"><ele>889.0</ele></trkpt>
      <trkpt lat="35.40026" lon="-117.99961"><ele>889.0</ele></trkpt>
      <trkpt lat="35.40041" lon="-117.99966"><ele>889.0</ele></trkpt>
      <trkpt lat="35.40067" lon="-117.99979"><ele>889.0</ele></trkpt>
      <trkpt lat="35.40091" lon="-117.99996"><ele>889.0</ele></trkpt>
      <trkpt lat="35.40116" lon="-118.00010"><ele>889.0</ele></trkpt>
      <trkpt lat="35.40141" lon="-118.00021"><ele>889.0</ele></trkpt>
      <trkpt lat="35.40165" lon="-118.00026"><ele>889.0</ele></trkpt>
      <trkpt lat="35.40191" lon="-118.00029"><ele>889.0</ele></trkpt>
      <trkpt lat="35.40214" lon="-118.00036"><ele>889.0</ele></trkpt>
      <trkpt lat="35.40223" lon="-118.00041"><ele>889.0</ele></trkpt>
      <trkpt lat="35.40232" lon="-118.00045"><ele>889.0</ele></trkpt>
      <trkpt lat="35.40250" lon="-118.00064"><ele>899.0</ele></trkpt>
      <trkpt lat="35.40270" lon="-118.00088"><ele>899.0</ele></trkpt>
      <trkpt lat="35.40290" lon="-118.00111"><ele>899.0</ele></trkpt>
      <trkpt lat="35.40312" lon="-118.00133"><ele>899.0</ele></trkpt>
      <trkpt lat="35.40333" lon="-118.00154"><ele>899.0</ele></trkpt>
      <trkpt lat="35.40355" lon="-118.00175"><ele>899.0</ele></trkpt>
      <trkpt lat="35.40377" lon="-118.00197"><ele>899.0</ele></trkpt>
      <trkpt lat="35.40399" lon="-118.00220"><ele>899.0</ele></trkpt>
      <trkpt lat="35.40422" lon="-118.00242"><ele>899.0</ele></trkpt>
      <trkpt lat="35.40445" lon="-118.00265"><ele>899.0</ele></trkpt>
      <trkpt lat="35.40469" lon="-118.00287"><ele>899.0</ele></trkpt>
      <trkpt lat="35.40494" lon="-118.00306"><ele>899.0</ele></trkpt>
      <trkpt lat="35.40521" lon="-118.00322"><ele>912.0</ele></trkpt>
      <trkpt lat="35.40544" lon="-118.00330"><ele>912.0</ele></trkpt>
      <trkpt lat="35.40547" lon="-118.00331"><ele>912.0</ele></trkpt>
      <trkpt lat="35.40575" lon="-118.00333"><ele>912.0</ele></trkpt>
      <trkpt lat="35.40603" lon="-118.00332"><ele>912.0</ele></trkpt>
      <trkpt lat="35.40630" lon="-118.00330"><ele>912.0</ele></trkpt>
      <trkpt lat="35.40657" lon="-118.00328"><ele>912.0</ele></trkpt>
      <trkpt lat="35.40684" lon="-118.00326"><ele>912.0</ele></trkpt>
      <trkpt lat="35.40709" lon="-118.00329"><ele>912.0</ele></trkpt>
      <trkpt lat="35.40731" lon="-118.00341"><ele>912.0</ele></trkpt>
      <trkpt lat="35.40751" lon="-118.00357"><ele>912.0</ele></trkpt>
      <trkpt lat="35.40771" lon="-118.00376"><ele>912.0</ele></trkpt>
      <trkpt lat="35.40791" lon="-118.00395"><ele>912.0</ele></trkpt>
      <trkpt lat="35.40813" lon="-118.00414"><ele>924.0</ele></trkpt>
      <trkpt lat="35.40835" lon="-118.00431"><ele>924.0</ele></trkpt>
      <trkpt lat="35.40856" lon="-118.00447"><ele>924.0</ele></trkpt>
      <trkpt lat="35.40876" lon="-118.00462"><ele>924.0</ele></trkpt>
      <trkpt lat="35.40898" lon="-118.00478"><ele>924.0</ele></trkpt>
      <trkpt lat="35.40919" lon="-118.00495"><ele>924.0</ele></trkpt>
      <trkpt lat="35.40940" lon="-118.00514"><ele>924.0</ele></trkpt>
      <trkpt lat="35.40959" lon="-118.00534"><ele>924.0</ele></trkpt>
      <trkpt lat="35.40978" lon="-118.00554"><ele>924.0</ele></trkpt>
      <trkpt lat="35.40995" lon="-118.00575"><ele>924.0</ele></trkpt>
      <trkpt lat="35.41012" lon="-118.00596"><ele>924.0</ele></trkpt>
      <trkpt lat="35.41029" lon="-118.00616"><ele>924.0</ele></trkpt>
      <trkpt lat="35.41046" lon="-118.00636"><ele>935.0</ele></trkpt>
      <trkpt lat="35.41063" lon="-118.00656"><ele>935.0</ele></trkpt>
      <trkpt lat="35.41077" lon="-118.00676"><ele>935.0</ele></trkpt>
      <trkpt lat="35.41090" lon="-118.00692"><ele>935.0</ele></trkpt>
      <trkpt lat="35.41104" lon="-118.00710"><ele>935.0</ele></trkpt>
      <trkpt lat="35.41120" lon="-118.00719"><ele>935.0</ele></trkpt>
      <trkpt lat="35.41125" lon="-118.00719"><ele>935.0</ele></trkpt>
      <trkpt lat="35.41136" lon="-118.00718"><ele>935.0</ele></trkpt>
      <trkpt lat="35.41147" lon="-118.00718"><ele>935.0</ele></trkpt>
      <trkpt lat="35.41157" lon="-118.00723"><ele>935.0</ele></trkpt>
      <trkpt lat="35.41167" lon="-118.00737"><ele>935.0</ele></trkpt>
      <trkpt lat="35.41180" lon="-118.00757"><ele>935.0</ele></trkpt>
      <trkpt lat="35.41197" lon="-118.00771"><ele>935.0</ele></trkpt>
      <trkpt lat="35.41218" lon="-118.00777"><ele>944.0</ele></trkpt>
      <trkpt lat="35.41241" lon="-118.00780"><ele>944.0</ele></trkpt>
      <trkpt lat="35.41265" lon="-118.00781"><ele>944.0</ele></trkpt>
      <trkpt lat="35.41288" lon="-118.00785"><ele>944.0</ele></trkpt>
      <trkpt lat="35.41311" lon="-118.00789"><ele>944.0</ele></trkpt>
      <trkpt lat="35.41335" lon="-118.00792"><ele>944.0</ele></trkpt>
      <trkpt lat="35.41358" lon="-118.00795"><ele>944.0</ele></trkpt>
      <trkpt lat="35.41359" lon="-118.00795"><ele>944.0</ele></trkpt>
      <trkpt lat="35.41382" lon="-118.00798"><ele>944.0</ele></trkpt>
      <trkpt lat="35.41405" lon="-118.00800"><ele>944.0</ele></trkpt>
      <trkpt lat="35.41410" lon="-118.00800"><ele>944.0</ele></trkpt>
      <trkpt lat="35.41428" lon="-118.00802"><ele>944.0</ele></trkpt>
      <trkpt lat="35.41452" lon="-118.00805"><ele>950.0</ele></trkpt>
      <trkpt lat="35.41456" lon="-118.00806"><ele>950.0</ele></trkpt>
      <trkpt lat="35.41475" lon="-118.00810"><ele>950.0</ele></trkpt>
      <trkpt lat="35.41497" lon="-118.00816"><ele>950.0</ele></trkpt>
      <trkpt lat="35.41518" lon="-118.00823"><ele>950.0</ele></trkpt>
      <trkpt lat="35.41519" lon="-118.00823"><ele>950.0</ele></trkpt>
      <trkpt lat="35.41539" lon="-118.00830"><ele>950.0</ele></trkpt>
      <trkpt lat="35.41551" lon="-118.00834"><ele>950.0</ele></trkpt>
      <trkpt lat="35.41559" lon="-118.00837"><ele>950.0</ele></trkpt>
      <trkpt lat="35.41577" lon="-118.00846"><ele>950.0</ele></trkpt>
      <trkpt lat="35.41594" lon="-118.00859"><ele>950.0</ele></trkpt>
      <trkpt lat="35.41610" lon="-118.00875"><ele>950.0</ele></trkpt>
      <trkpt lat="35.41625" lon="-118.00889"><ele>950.0</ele></trkpt>
      <trkpt lat="35.41642" lon="-118.00903"><ele>960.0</ele></trkpt>
      <trkpt lat="35.41662" lon="-118.00920"><ele>960.0</ele></trkpt>
      <trkpt lat="35.41683" lon="-118.00937"><ele>960.0</ele></trkpt>
      <trkpt lat="35.41703" lon="-118.00954"><ele>960.0</ele></trkpt>
      <trkpt lat="35.41722" lon="-118.00970"><ele>960.0</ele></trkpt>
      <trkpt lat="35.41741" lon="-118.00986"><ele>960.0</ele></trkpt>
      <trkpt lat="35.41763" lon="-118.01003"><ele>960.0</ele></trkpt>
      <trkpt lat="35.41780" lon="-118.01018"><ele>960.0</ele></trkpt>
      <trkpt lat="35.41784" lon="-118.01021"><ele>960.0</ele></trkpt>
      <trkpt lat="35.41804" lon="-118.01038"><ele>960.0</ele></trkpt>
      <trkpt lat="35.41825" lon="-118.01055"><ele>960.0</ele></trkpt>
      <trkpt lat="35.41845" lon="-118.01070"><ele>960.0</ele></trkpt>
      <trkpt lat="35.41865" lon="-118.01082"><ele>972.0</ele></trkpt>
      <trkpt lat="35.41884" lon="-118.01093"><ele>972.0</ele></trkpt>
      <trkpt lat="35.41902" lon="-118.01104"><ele>972.0</ele></trkpt>
      <trkpt lat="35.41921" lon="-118.01117"><ele>972.0</ele></trkpt>
      <trkpt lat="35.41940" lon="-118.01129"><ele>972.0</ele></trkpt>
      <trkpt lat="35.41957" lon="-118.01140"><ele>972.0</ele></trkpt>
      <trkpt lat="35.41974" lon="-118.01152"><ele>972.0</ele></trkpt>
      <trkpt lat="35.41992" lon="-118.01164"><ele>972.0</ele></trkpt>
      <trkpt lat="35.42009" lon="-118.01174"><ele>972.0</ele></trkpt>
      <trkpt lat="35.42026" lon="-118.01185"><ele>972.0</ele></trkpt>
      <trkpt lat="35.42040" lon="-118.01195"><ele>972.0</ele></trkpt>
      <trkpt lat="35.42041" lon="-118.01196"><ele>972.0</ele></trkpt>
      <trkpt lat="35.42056" lon="-118.01205"><ele>972.0</ele></trkpt>
      <trkpt lat="35.42069" lon="-118.01214"><ele>979.0</ele></trkpt>
      <trkpt lat="35.42085" lon="-118.01225"><ele>979.0</ele></trkpt>
      <trkpt lat="35.42102" lon="-118.01237"><ele>979.0</ele></trkpt>
      <trkpt lat="35.42117" lon="-118.01248"><ele>979.0</ele></trkpt>
      <trkpt lat="35.42137" lon="-118.01261"><ele>979.0</ele></trkpt>
      <trkpt lat="35.42160" lon="-118.01276"><ele>979.0</ele></trkpt>
      <trkpt lat="35.42182" lon="-118.01291"><ele>979.0</ele></trkpt>
      <trkpt lat="35.42204" lon="-118.01306"><ele>979.0</ele></trkpt>
      <trkpt lat="35.42224" lon="-118.01320"><ele>979.0</ele></trkpt>
      <trkpt lat="35.42244" lon="-118.01331"><ele>979.0</ele></trkpt>
      <trkpt lat="35.42264" lon="-118.01341"><ele>979.0</ele></trkpt>
      <trkpt lat="35.42283" lon="-118.01353"><ele>979.0</ele></trkpt>
      <trkpt lat="35.42302" lon="-118.01370"><ele>983.0</ele></trkpt>
      <trkpt lat="35.42321" lon="-118.01385"><ele>983.0</ele></trkpt>
      <trkpt lat="35.42342" lon="-118.01399"><ele>983.0</ele></trkpt>
      <trkpt lat="35.42363" lon="-118.01413"><ele>983.0</ele></trkpt>
      <trkpt lat="35.42381" lon="-118.01426"><ele>983.0</ele></trkpt>
      <trkpt lat="35.42386" lon="-118.01430"><ele>983.0</ele></trkpt>
      <trkpt lat="35.42395" lon="-118.01437"><ele>983.0</ele></trkpt>
      <trkpt lat="35.42409" lon="-118.01446"><ele>983.0</ele></trkpt>
      <trkpt lat="35.42419" lon="-118.01456"><ele>983.0</ele></trkpt>
      <trkpt lat="35.42433" lon="-118.01471"><ele>983.0</ele></trkpt>
      <trkpt lat="35.42446" lon="-118.01484"><ele>983.0</ele></trkpt>
      <trkpt lat="35.42452" lon="-118.01489"><ele>983.0</ele></trkpt>
      <trkpt lat="35.42472" lon="-118.01509"><ele>983.0</ele></trkpt>
      <trkpt lat="35.42492" lon="-118.01530"><ele>988.0</ele></trkpt>
      <trkpt lat="35.42500" lon="-118.01539"><ele>988.0</ele></trkpt>
      <trkpt lat="35.42512" lon="-118.01550"><ele>988.0</ele></trkpt>
      <trkpt lat="35.42516" lon="-118.01555"><ele>988.0</ele></trkpt>
      <trkpt lat="35.42531" lon="-118.01571"><ele>988.0</ele></trkpt>
      <trkpt lat="35.42545" lon="-118.01588"><ele>988.0</ele></trkpt>
      <trkpt lat="35.42548" lon="-118.01592"><ele>988.0</ele></trkpt>
      <trkpt lat="35.42563" lon="-118.01615"><ele>988.0</ele></trkpt>
      <trkpt lat="35.42578" lon="-118.01637"><ele>988.0</ele></trkpt>
      <trkpt lat="35.42594" lon="-118.01657"><ele>988.0</ele></trkpt>
      <trkpt lat="35.42610" lon="-118.01675"><ele>988.0</ele></trkpt>
      <trkpt lat="35.42612" lon="-118.01677"><ele>988.0</ele></trkpt>
      <trkpt lat="35.42621" lon="-118.01689"><ele>992.0</ele></trkpt>
      <trkpt lat="35.42621" lon="-118.01689"><ele>992.0</ele></trkpt>
      <trkpt lat="35.42625" lon="-118.01694"><ele>992.0</ele></trkpt>
      <trkpt lat="35.42639" lon="-118.01717"><ele>992.0</ele></trkpt>
      <trkpt lat="35.42652" lon="-118.01742"><ele>992.0</ele></trkpt>
      <trkpt lat="35.42664" lon="-118.01772"><ele>992.0</ele></trkpt>
      <trkpt lat="35.42674" lon="-118.01799"><ele>992.0</ele></trkpt>
      <trkpt lat="35.42674" lon="-118.01799"><ele>992.0</ele></trkpt>
      <trkpt lat="35.42675" lon="-118.01802"><ele>992.0</ele></trkpt>
      <trkpt lat="35.42680" lon="-118.01819"><ele>992.0</ele></trkpt>
      <trkpt lat="35.42684" lon="-118.01833"><ele>992.0</ele></trkpt>
      <trkpt lat="35.42693" lon="-118.01864"><ele>992.0</ele></trkpt>
      <trkpt lat="35.42704" lon="-118.01894"><ele>992.0</ele></trkpt>
      <trkpt lat="35.42713" lon="-118.01922"><ele>998.0</ele></trkpt>
      <trkpt lat="35.42717" lon="-118.01934"><ele>998.0</ele></trkpt>
      <trkpt lat="35.42721" lon="-118.01945"><ele>998.0</ele></trkpt>
      <trkpt lat="35.42722" lon="-118.01948"><ele>998.0</ele></trkpt>
      <trkpt lat="35.42728" lon="-118.01970"><ele>998.0</ele></trkpt>
      <trkpt lat="35.42733" lon="-118.01990"><ele>998.0</ele></trkpt>
      <trkpt lat="35.42735" lon="-118.02004"><ele>998.0</ele></trkpt>
      <trkpt lat="35.42735" lon="-118.02011"><ele>998.0</ele></trkpt>
      <trkpt lat="35.42734" lon="-118.02031"><ele>998.0</ele></trkpt>
      <trkpt lat="35.42732" lon="-118.02051"><ele>998.0</ele></trkpt>
      <trkpt lat="35.42731" lon="-118.02060"><ele>998.0</ele></trkpt>
      <trkpt lat="35.42730" lon="-118.02069"><ele>998.0</ele></trkpt>
      <trkpt lat="35.42728" lon="-118.02087"><ele>1001.0</ele></trkpt>
      <trkpt lat="35.42727" lon="-118.02106"><ele>1001.0</ele></trkpt>
      <trkpt lat="35.42728" lon="-118.02125"><ele>1001.0</ele></trkpt>
      <trkpt lat="35.42733" lon="-118.02143"><ele>1001.0</ele></trkpt>
      <trkpt lat="35.42739" lon="-118.02152"><ele>1001.0</ele></trkpt>
      <trkpt lat="35.42744" lon="-118.02159"><ele>1001.0</ele></trkpt>
      <trkpt lat="35.42760" lon="-118.02174"><ele>1001.0</ele></trkpt>
      <trkpt lat="35.42775" lon="-118.02191"><ele>1001.0</ele></trkpt>
      <trkpt lat="35.42790" lon="-118.02208"><ele>1001.0</ele></trkpt>
      <trkpt lat="35.42796" lon="-118.02215"><ele>1001.0</ele></trkpt>
      <trkpt lat="35.42801" lon="-118.02221"><ele>1001.0</ele></trkpt>
      <trkpt lat="35.42803" lon="-118.02224"><ele>1001.0</ele></trkpt>
      <trkpt lat="35.42804" lon="-118.02225"><ele>1001.0</ele></trkpt>
      <trkpt lat="35.42818" lon="-118.02243"><ele>1006.0</ele></trkpt>
      <trkpt lat="35.42832" lon="-118.02260"><ele>1006.0</ele></trkpt>
      <trkpt lat="35.42845" lon="-118.02276"><ele>1006.0</ele></trkpt>
      <trkpt lat="35.42860" lon="-118.02293"><ele>1006.0</ele></trkpt>
      <trkpt lat="35.42875" lon="-118.02311"><ele>1006.0</ele></trkpt>
      <trkpt lat="35.42888" lon="-118.02328"><ele>1006.0</ele></trkpt>
      <trkpt lat="35.42900" lon="-118.02347"><ele>1006.0</ele></trkpt>
      <trkpt lat="35.42912" lon="-118.02367"><ele>1006.0</ele></trkpt>
      <trkpt lat="35.42923" lon="-118.02389"><ele>1006.0</ele></trkpt>
      <trkpt lat="35.42934" lon="-118.02409"><ele>1006.0</ele></trkpt>
      <trkpt lat="35.42945" lon="-118.02428"><ele>1006.0</ele></trkpt>
      <trkpt lat="35.42957" lon="-118.02445"><ele>1006.0</ele></trkpt>
      <trkpt lat="35.42972" lon="-118.02459"><ele>1015.0</ele></trkpt>
      <trkpt lat="35.42987" lon="-118.02474"><ele>1015.0</ele></trkpt>
      <trkpt lat="35.43002" lon="-118.02483"><ele>1015.0</ele></trkpt>
      <trkpt lat="35.43019" lon="-118.02487"><ele>1015.0</ele></trkpt>
      <trkpt lat="35.43036" lon="-118.02493"><ele>1015.0</ele></trkpt>
      <trkpt lat="35.43049" lon="-118.02503"><ele>1015.0</ele></trkpt>
      <trkpt lat="35.43059" lon="-118.02516"><ele>1015.0</ele></trkpt>
      <trkpt lat="35.43064" lon="-118.02532"><ele>1015.0</ele></trkpt>
      <trkpt lat="35.43061" lon="-118.02548"><ele>1015.0</ele></trkpt>
      <trkpt lat="35.43052" lon="-118.02565"><ele>1015.0</ele></trkpt>
      <trkpt lat="35.43040" lon="-118.02583"><ele>1015.0</ele></trkpt>
      <trkpt lat="35.43028" lon="-118.02597"><ele>1015.0</ele></trkpt>
      <trkpt lat="35.43027" lon="-118.02599"><ele>1015.0</ele></trkpt>
      <trkpt lat="35.43014" lon="-118.02614"><ele>1019.0</ele></trkpt>
      <trkpt lat="35.43007" lon="-118.02630"><ele>1019.0</ele></trkpt>
      <trkpt lat="35.43002" lon="-118.02648"><ele>1019.0</ele></trkpt>
      <trkpt lat="35.42997" lon="-118.02670"><ele>1019.0</ele></trkpt>
      <trkpt lat="35.42993" lon="-118.02689"><ele>1019.0</ele></trkpt>
      <trkpt lat="35.42990" lon="-118.02709"><ele>1019.0</ele></trkpt>
      <trkpt lat="35.42993" lon="-118.02734"><ele>1019.0</ele></trkpt>
      <trkpt lat="35.42999" lon="-118.02758"><ele>1019.0</ele></trkpt>
      <trkpt lat="35.43003" lon="-118.02782"><ele>1019.0</ele></trkpt>
      <trkpt lat="35.43004" lon="-118.02806"><ele>1019.0</ele></trkpt>
      <trkpt lat="35.43003" lon="-118.02827"><ele>1019.0</ele></trkpt>
      <trkpt lat="35.43002" lon="-118.02846"><ele>1019.0</ele></trkpt>
      <trkpt lat="35.43001" lon="-118.02864"><ele>1024.0</ele></trkpt>
      <trkpt lat="35.43001" lon="-118.02883"><ele>1024.0</ele></trkpt>
      <trkpt lat="35.43003" lon="-118.02902"><ele>1024.0</ele></trkpt>
      <trkpt lat="35.43006" lon="-118.02921"><ele>1024.0</ele></trkpt>
      <trkpt lat="35.43010" lon="-118.02940"><ele>1024.0</ele></trkpt>
      <trkpt lat="35.43014" lon="-118.02959"><ele>1024.0</ele></trkpt>
      <trkpt lat="35.43018" lon="-118.02979"><ele>1024.0</ele></trkpt>
      <trkpt lat="35.43022" lon="-118.02999"><ele>1024.0</ele></trkpt>
      <trkpt lat="35.43025" lon="-118.03019"><ele>1024.0</ele></trkpt>
      <trkpt lat="35.43030" lon="-118.03040"><ele>1024.0</ele></trkpt>
      <trkpt lat="35.43035" lon="-118.03061"><ele>1024.0</ele></trkpt>
      <trkpt lat="35.43043" lon="-118.03081"><ele>1024.0</ele></trkpt>
      <trkpt lat="35.43053" lon="-118.03102"><ele>1024.0</ele></trkpt>
      <trkpt lat="35.43063" lon="-118.03123"><ele>1030.0</ele></trkpt>
      <trkpt lat="35.43073" lon="-118.03143"><ele>1030.0</ele></trkpt>
      <trkpt lat="35.43083" lon="-118.03162"><ele>1030.0</ele></trkpt>
      <trkpt lat="35.43092" lon="-118.03178"><ele>1030.0</ele></trkpt>
      <trkpt lat="35.43103" lon="-118.03192"><ele>1030.0</ele></trkpt>
      <trkpt lat="35.43115" lon="-118.03205"><ele>1030.0</ele></trkpt>
      <trkpt lat="35.43126" lon="-118.03221"><ele>1030.0</ele></trkpt>
      <trkpt lat="35.43135" lon="-118.03236"><ele>1030.0</ele></trkpt>
      <trkpt lat="35.43144" lon="-118.03249"><ele>1030.0</ele></trkpt>
      <trkpt lat="35.43156" lon="-118.03259"><ele>1030.0</ele></trkpt>
      <trkpt lat="35.43172" lon="-118.03269"><ele>1030.0</ele></trkpt>
      <trkpt lat="35.43186" lon="-118.03283"><ele>1030.0</ele></trkpt>
      <trkpt lat="35.43201" lon="-118.03299"><ele>1037.0</ele></trkpt>
      <trkpt lat="35.43214" lon="-118.03316"><ele>1037.0</ele></trkpt>
      <trkpt lat="35.43228" lon="-118.03333"><ele>1037.0</ele></trkpt>
      <trkpt lat="35.43241" lon="-118.03349"><ele>1037.0</ele></trkpt>
      <trkpt lat="35.43252" lon="-118.03364"><ele>1037.0</ele></trkpt>
      <trkpt lat="35.43263" lon="-118.03378"><ele>1037.0</ele></trkpt>
      <trkpt lat="35.43276" lon="-118.03393"><ele>1037.0</ele></trkpt>
      <trkpt lat="35.43288" lon="-118.03410"><ele>1037.0</ele></trkpt>
      <trkpt lat="35.43291" lon="-118.03414"><ele>1037.0</ele></trkpt>
      <trkpt lat="35.43298" lon="-118.03425"><ele>1037.0</ele></trkpt>
      <trkpt lat="35.43309" lon="-118.03439"><ele>1037.0</ele></trkpt>
      <trkpt lat="35.43323" lon="-118.03451"><ele>1037.0</ele></trkpt>
      <trkpt lat="35.43337" lon="-118.03465"><ele>1037.0</ele></trkpt>
      <trkpt lat="35.43350" lon="-118.03480"><ele>1040.0</ele></trkpt>
      <trkpt lat="35.43363" lon="-118.03496"><ele>1040.0</ele></trkpt>
      <trkpt lat="35.43375" lon="-118.03511"><ele>1040.0</ele></trkpt>
      <trkpt lat="35.43386" lon="-118.03527"><ele>1040.0</ele></trkpt>
      <trkpt lat="35.43396" lon="-118.03544"><ele>1040.0</ele></trkpt>
      <trkpt lat="35.43407" lon="-118.03560"><ele>1040.0</ele></trkpt>
      <trkpt lat="35.43420" lon="-118.03576"><ele>1040.0</ele></trkpt>
      <trkpt lat="35.43430" lon="-118.03593"><ele>1040.0</ele></trkpt>
      <trkpt lat="35.43441" lon="-118.03611"><ele>1040.0</ele></trkpt>
      <trkpt lat="35.43449" lon="-118.03628"><ele>1040.0</ele></trkpt>
      <trkpt lat="35.43459" lon="-118.03641"><ele>1040.0</ele></trkpt>
      <trkpt lat="35.43473" lon="-118.03653"><ele>1040.0</ele></trkpt>
      <trkpt lat="35.43488" lon="-118.03664"><ele>1050.0</ele></trkpt>
      <trkpt lat="35.43503" lon="-118.03675"><ele>1050.0</ele></trkpt>
      <trkpt lat="35.43515" lon="-118.03689"><ele>1050.0</ele></trkpt>
      <trkpt lat="35.43516" lon="-118.03690"><ele>1050.0</ele></trkpt>
      <trkpt lat="35.43528" lon="-118.03703"><ele>1050.0</ele></trkpt>
      <trkpt lat="35.43540" lon="-118.03717"><ele>1050.0</ele></trkpt>
      <trkpt lat="35.43553" lon="-118.03729"><ele>1050.0</ele></trkpt>
      <trkpt lat="35.43571" lon="-118.03740"><ele>1050.0</ele></trkpt>
      <trkpt lat="35.43588" lon="-118.03750"><ele>1050.0</ele></trkpt>
      <trkpt lat="35.43604" lon="-118.03756"><ele>1050.0</ele></trkpt>
      <trkpt lat="35.43617" lon="-118.03757"><ele>1050.0</ele></trkpt>
      <trkpt lat="35.43623" lon="-118.03758"><ele>1050.0</ele></trkpt>
      <trkpt lat="35.43643" lon="-118.03756"><ele>1050.0</ele></trkpt>
      <trkpt lat="35.43661" lon="-118.03757"><ele>1052.0</ele></trkpt>
      <trkpt lat="35.43676" lon="-118.03765"><ele>1052.0</ele></trkpt>
      <trkpt lat="35.43686" lon="-118.03777"><ele>1052.0</ele></trkpt>
      <trkpt lat="35.43694" lon="-118.03796"><ele>1052.0</ele></trkpt>
      <trkpt lat="35.43694" lon="-118.03799"><ele>1052.0</ele></trkpt>
      <trkpt lat="35.43696" lon="-118.03813"><ele>1052.0</ele></trkpt>
      <trkpt lat="35.43697" lon="-118.03819"><ele>1052.0</ele></trkpt>
      <trkpt lat="35.43696" lon="-118.03844"><ele>1052.0</ele></trkpt>
      <trkpt lat="35.43694" lon="-118.03869"><ele>1052.0</ele></trkpt>
      <trkpt lat="35.43690" lon="-118.03893"><ele>1052.0</ele></trkpt>
      <trkpt lat="35.43686" lon="-118.03914"><ele>1052.0</ele></trkpt>
      <trkpt lat="35.43678" lon="-118.03934"><ele>1052.0</ele></trkpt>
      <trkpt lat="35.43667" lon="-118.03953"><ele>1057.0</ele></trkpt>
      <trkpt lat="35.43655" lon="-118.03967"><ele>1057.0</ele></trkpt>
      <trkpt lat="35.43640" lon="-118.03974"><ele>1057.0</ele></trkpt>
      <trkpt lat="35.43626" lon="-118.03982"><ele>1057.0</ele></trkpt>
      <trkpt lat="35.43614" lon="-118.03994"><ele>1057.0</ele></trkpt>
      <trkpt lat="35.43610" lon="-118.04010"><ele>1057.0</ele></trkpt>
      <trkpt lat="35.43612" lon="-118.04024"><ele>1057.0</ele></trkpt>
      <trkpt lat="35.43613" lon="-118.04026"><ele>1057.0</ele></trkpt>
      <trkpt lat="35.43619" lon="-118.04045"><ele>1057.0</ele></trkpt>
      <trkpt lat="35.43624" lon="-118.04065"><ele>1057.0</ele></trkpt>
      <trkpt lat="35.43626" lon="-118.04088"><ele>1057.0</ele></trkpt>
      <trkpt lat="35.43627" lon="-118.04111"><ele>1057.0</ele></trkpt>
      <trkpt lat="35.43627" lon="-118.04116"><ele>1057.0</ele></trkpt>
      <trkpt lat="35.43626" lon="-118.04132"><ele>1056.0</ele></trkpt>
      <trkpt lat="35.43620" lon="-118.04150"><ele>1056.0</ele></trkpt>
      <trkpt lat="35.43609" lon="-118.04168"><ele>1056.0</ele></trkpt>
      <trkpt lat="35.43606" lon="-118.04188"><ele>1056.0</ele></trkpt>
      <trkpt lat="35.43607" lon="-118.04209"><ele>1056.0</ele></trkpt>
      <trkpt lat="35.43602" lon="-118.04229"><ele>1056.0</ele></trkpt>
      <trkpt lat="35.43595" lon="-118.04248"><ele>1056.0</ele></trkpt>
      <trkpt lat="35.43592" lon="-118.04267"><ele>1056.0</ele></trkpt>
      <trkpt lat="35.43595" lon="-118.04288"><ele>1056.0</ele></trkpt>
      <trkpt lat="35.43597" lon="-118.04309"><ele>1056.0</ele></trkpt>
      <trkpt lat="35.43600" lon="-118.04330"><ele>1056.0</ele></trkpt>
      <trkpt lat="35.43606" lon="-118.04349"><ele>1056.0</ele></trkpt>
      <trkpt lat="35.43611" lon="-118.04356"><ele>1065.0</ele></trkpt>
      <trkpt lat="35.43618" lon="-118.04366"><ele>1065.0</ele></trkpt>
      <trkpt lat="35.43631" lon="-118.04383"><ele>1065.0</ele></trkpt>
      <trkpt lat="35.43642" lon="-118.04401"><ele>1065.0</ele></trkpt>
      <trkpt lat="35.43652" lon="-118.04420"><ele>1065.0</ele></trkpt>
      <trkpt lat="35.43661" lon="-118.04440"><ele>1065.0</ele></trkpt>
      <trkpt lat="35.43661" lon="-118.04440"><ele>1065.0</ele></trkpt>
      <trkpt lat="35.43671" lon="-118.04460"><ele>1065.0</ele></trkpt>
      <trkpt lat="35.43681" lon="-118.04478"><ele>1065.0</ele></trkpt>
      <trkpt lat="35.43691" lon="-118.04496"><ele>1065.0</ele></trkpt>
      <trkpt lat="35.43701" lon="-118.04512"><ele>1065.0</ele></trkpt>
      <trkpt lat="35.43710" lon="-118.04530"><ele>1065.0</ele></trkpt>
      <trkpt lat="35.43716" lon="-118.04550"><ele>1065.0</ele></trkpt>
      <trkpt lat="35.43717" lon="-118.04557"><ele>1066.0</ele></trkpt>
      <trkpt lat="35.43719" lon="-118.04564"><ele>1066.0</ele></trkpt>
      <trkpt lat="35.43720" lon="-118.04571"><ele>1066.0</ele></trkpt>
      <trkpt lat="35.43727" lon="-118.04592"><ele>1066.0</ele></trkpt>
      <trkpt lat="35.43735" lon="-118.04612"><ele>1066.0</ele></trkpt>
      <trkpt lat="35.43743" lon="-118.04629"><ele>1066.0</ele></trkpt>
      <trkpt lat="35.43744" lon="-118.04630"><ele>1066.0</ele></trkpt>
      <trkpt lat="35.43753" lon="-118.04647"><ele>1066.0</ele></trkpt>
      <trkpt lat="35.43760" lon="-118.04660"><ele>1066.0</ele></trkpt>
      <trkpt lat="35.43762" lon="-118.04663"><ele>1066.0</ele></trkpt>
      <trkpt lat="35.43766" lon="-118.04674"><ele>1066.0</ele></trkpt>
      <trkpt lat="35.43771" lon="-118.04690"><ele>1066.0</ele></trkpt>
      <trkpt lat="35.43778" lon="-118.04710"><ele>1073.0</ele></trkpt>
      <trkpt lat="35.43785" lon="-118.04734"><ele>1073.0</ele></trkpt>
      <trkpt lat="35.43791" lon="-118.04759"><ele>1073.0</ele></trkpt>
      <trkpt lat="35.43799" lon="-118.04783"><ele>1073.0</ele></trkpt>
      <trkpt lat="35.43807" lon="-118.04807"><ele>1073.0</ele></trkpt>
      <trkpt lat="35.43815" lon="-118.04832"><ele>1073.0</ele></trkpt>
      <trkpt lat="35.43822" lon="-118.04855"><ele>1073.0</ele></trkpt>
      <trkpt lat="35.43829" lon="-118.04877"><ele>1073.0</ele></trkpt>
      <trkpt lat="35.43836" lon="-118.04900"><ele>1073.0</ele></trkpt>
      <trkpt lat="35.43842" lon="-118.04923"><ele>1073.0</ele></trkpt>
      <trkpt lat="35.43848" lon="-118.04945"><ele>1073.0</ele></trkpt>
      <trkpt lat="35.43854" lon="-118.04965"><ele>1073.0</ele></trkpt>
      <trkpt lat="35.43858" lon="-118.04982"><ele>1073.0</ele></trkpt>
      <trkpt lat="35.43864" lon="-118.04998"><ele>1084.0</ele></trkpt>
      <trkpt lat="35.43872" lon="-118.05017"><ele>1084.0</ele></trkpt>
      <trkpt lat="35.43882" lon="-118.05037"><ele>1084.0</ele></trkpt>
      <trkpt lat="35.43893" lon="-118.05055"><ele>1084.0</ele></trkpt>
      <trkpt lat="35.43904" lon="-118.05072"><ele>1084.0</ele></trkpt>
      <trkpt lat="35.43916" lon="-118.05090"><ele>1084.0</ele></trkpt>
      <trkpt lat="35.43927" lon="-118.05106"><ele>1084.0</ele></trkpt>
      <trkpt lat="35.43940" lon="-118.05123"><ele>1084.0</ele></trkpt>
      <trkpt lat="35.43954" lon="-118.05140"><ele>1084.0</ele></trkpt>
      <trkpt lat="35.43967" lon="-118.05158"><ele>1084.0</ele></trkpt>
      <trkpt lat="35.43978" lon="-118.05174"><ele>1084.0</ele></trkpt>
      <trkpt lat="35.43989" lon="-118.05190"><ele>1084.0</ele></trkpt>
      <trkpt lat="35.44000" lon="-118.05207"><ele>1092.0</ele></trkpt>
      <trkpt lat="35.44011" lon="-118.05224"><ele>1092.0</ele></trkpt>
      <trkpt lat="35.44022" lon="-118.05242"><ele>1092.0</ele></trkpt>
      <trkpt lat="35.44032" lon="-118.05261"><ele>1092.0</ele></trkpt>
      <trkpt lat="35.44042" lon="-118.05280"><ele>1092.0</ele></trkpt>
      <trkpt lat="35.44052" lon="-118.05299"><ele>1092.0</ele></trkpt>
      <trkpt lat="35.44062" lon="-118.05317"><ele>1092.0</ele></trkpt>
      <trkpt lat="35.44071" lon="-118.05333"><ele>1092.0</ele></trkpt>
      <trkpt lat="35.44071" lon="-118.05334"><ele>1092.0</ele></trkpt>
      <trkpt lat="35.44078" lon="-118.05349"><ele>1092.0</ele></trkpt>
      <trkpt lat="35.44081" lon="-118.05364"><ele>1092.0</ele></trkpt>
      <trkpt lat="35.44082" lon="-118.05368"><ele>1092.0</ele></trkpt>
      <trkpt lat="35.44085" lon="-118.05387"><ele>1092.0</ele></trkpt>
      <trkpt lat="35.44092" lon="-118.05406"><ele>1092.0</ele></trkpt>
      <trkpt lat="35.44100" lon="-118.05421"><ele>1092.0</ele></trkpt>
      <trkpt lat="35.44110" lon="-118.05432"><ele>1092.0</ele></trkpt>
      <trkpt lat="35.44116" lon="-118.05438"><ele>1092.0</ele></trkpt>
      <trkpt lat="35.44121" lon="-118.05443"><ele>1092.0</ele></trkpt>
      <trkpt lat="35.44133" lon="-118.05455"><ele>1092.0</ele></trkpt>
      <trkpt lat="35.44147" lon="-118.05470"><ele>1092.0</ele></trkpt>
      <trkpt lat="35.44150" lon="-118.05474"><ele>1092.0</ele></trkpt>
      <trkpt lat="35.44162" lon="-118.05488"><ele>1092.0</ele></trkpt>
      <trkpt lat="35.44177" lon="-118.05506"><ele>1092.0</ele></trkpt>
      <trkpt lat="35.44190" lon="-118.05522"><ele>1092.0</ele></trkpt>
      <trkpt lat="35.44203" lon="-118.05535"><ele>1092.0</ele></trkpt>
      <trkpt lat="35.44219" lon="-118.05544"><ele>1102.0</ele></trkpt>
      <trkpt lat="35.44235" lon="-118.05553"><ele>1102.0</ele></trkpt>
      <trkpt lat="35.44247" lon="-118.05565"><ele>1102.0</ele></trkpt>
      <trkpt lat="35.44254" lon="-118.05578"><ele>1102.0</ele></trkpt>
      <trkpt lat="35.44257" lon="-118.05591"><ele>1102.0</ele></trkpt>
      <trkpt lat="35.44258" lon="-118.05594"><ele>1102.0</ele></trkpt>
      <trkpt lat="35.44262" lon="-118.05613"><ele>1102.0</ele></trkpt>
      <trkpt lat="35.44268" lon="-118.05637"><ele>1102.0</ele></trkpt>
      <trkpt lat="35.44276" lon="-118.05657"><ele>1102.0</ele></trkpt>
      <trkpt lat="35.44286" lon="-118.05674"><ele>1102.0</ele></trkpt>
      <trkpt lat="35.44291" lon="-118.05687"><ele>1102.0</ele></trkpt>
      <trkpt lat="35.44295" lon="-118.05705"><ele>1102.0</ele></trkpt>
      <trkpt lat="35.44296" lon="-118.05730"><ele>1102.0</ele></trkpt>
      <trkpt lat="35.44296" lon="-118.05755"><ele>1107.0</ele></trkpt>
      <trkpt lat="35.44296" lon="-118.05780"><ele>1107.0</ele></trkpt>
      <trkpt lat="35.44298" lon="-118.05803"><ele>1107.0</ele></trkpt>
      <trkpt lat="35.44299" lon="-118.05808"><ele>1107.0</ele></trkpt>
      <trkpt lat="35.44301" lon="-118.05827"><ele>1107.0</ele></trkpt>
      <trkpt lat="35.44304" lon="-118.05850"><ele>1107.0</ele></trkpt>
      <trkpt lat="35.44305" lon="-118.05873"><ele>1107.0</ele></trkpt>
      <trkpt lat="35.44305" lon="-118.05896"><ele>1107.0</ele></trkpt>
      <trkpt lat="35.44302" lon="-118.05918"><ele>1107.0</ele></trkpt>
      <trkpt lat="35.44299" lon="-118.05938"><ele>1107.0</ele></trkpt>
      <trkpt lat="35.44294" lon="-118.05957"><ele>1107.0</ele></trkpt>
      <trkpt lat="35.44289" lon="-118.05978"><ele>1107.0</ele></trkpt>
      <trkpt lat="35.44291" lon="-118.05990"><ele>1323.0</ele></trkpt>
      <trkpt lat="35.44295" lon="-118.06000"><ele>1323.0</ele></trkpt>
      <trkpt lat="35.44305" lon="-118.06016"><ele>1323.0</ele></trkpt>
      <trkpt lat="35.44318" lon="-118.06033"><ele>1323.0</ele></trkpt>
      <trkpt lat="35.44332" lon="-118.06046"><ele>1323.0</ele></trkpt>
      <trkpt lat="35.44342" lon="-118.06053"><ele>1323.0</ele></trkpt>
    </trkseg>
    <trkseg>
      <trkpt lat="35.43384" lon="-118.08639"><ele>1323.0</ele></trkpt>
      <trkpt lat="35.43388" lon="-118.08647"><ele>1323.0</ele></trkpt>
      <trkpt lat="35.43402" lon="-118.08666"><ele>1323.0</ele></trkpt>
      <trkpt lat="35.43415" lon="-118.08684"><ele>1323.0</ele></trkpt>
      <trkpt lat="35.43429" lon="-118.08703"><ele>1323.0</ele></trkpt>
      <trkpt lat="35.43443" lon="-118.08725"><ele>1323.0</ele></trkpt>
      <trkpt lat="35.43456" lon="-118.08742"><ele>1323.0</ele></trkpt>
      <trkpt lat="35.43466" lon="-118.08757"><ele>1339.0</ele></trkpt>
      <trkpt lat="35.43479" lon="-118.08777"><ele>1339.0</ele></trkpt>
      <trkpt lat="35.43490" lon="-118.08800"><ele>1339.0</ele></trkpt>
      <trkpt lat="35.43499" lon="-118.08821"><ele>1339.0</ele></trkpt>
      <trkpt lat="35.43507" lon="-118.08835"><ele>1339.0</ele></trkpt>
      <trkpt lat="35.43514" lon="-118.08845"><ele>1339.0</ele></trkpt>
      <trkpt lat="35.43522" lon="-118.08854"><ele>1339.0</ele></trkpt>
      <trkpt lat="35.43533" lon="-118.08864"><ele>1339.0</ele></trkpt>
      <trkpt lat="35.43543" lon="-118.08879"><ele>1339.0</ele></trkpt>
      <trkpt lat="35.43555" lon="-118.08899"><ele>1339.0</ele></trkpt>
      <trkpt lat="35.43567" lon="-118.08921"><ele>1339.0</ele></trkpt>
      <trkpt lat="35.43577" lon="-118.08941"><ele>1339.0</ele></trkpt>
      <trkpt lat="35.43586" lon="-118.08961"><ele>1354.0</ele></trkpt>
      <trkpt lat="35.43592" lon="-118.08985"><ele>1354.0</ele></trkpt>
      <trkpt lat="35.43595" lon="-118.09003"><ele>1354.0</ele></trkpt>
      <trkpt lat="35.43598" lon="-118.09023"><ele>1354.0</ele></trkpt>
      <trkpt lat="35.43603" lon="-118.09053"><ele>1354.0</ele></trkpt>
      <trkpt lat="35.43611" lon="-118.09082"><ele>1354.0</ele></trkpt>
      <trkpt lat="35.43619" lon="-118.09110"><ele>1354.0</ele></trkpt>
      <trkpt lat="35.43625" lon="-118.09136"><ele>1354.0</ele></trkpt>
      <trkpt lat="35.43629" lon="-118.09161"><ele>1354.0</ele></trkpt>
      <trkpt lat="35.43633" lon="-118.09183"><ele>1354.0</ele></trkpt>
      <trkpt lat="35.43638" lon="-118.09201"><ele>1354.0</ele></trkpt>
      <trkpt lat="35.43644" lon="-118.09221"><ele>1354.0</ele></trkpt>
      <trkpt lat="35.43652" lon="-118.09242"><ele>1354.0</ele></trkpt>
      <trkpt lat="35.43660" lon="-118.09261"><ele>1374.0</ele></trkpt>
      <trkpt lat="35.43668" lon="-118.09281"><ele>1374.0</ele></trkpt>
      <trkpt lat="35.43678" lon="-118.09301"><ele>1374.0</ele></trkpt>
      <trkpt lat="35.43688" lon="-118.09321"><ele>1374.0</ele></trkpt>
      <trkpt lat="35.43697" lon="-118.09338"><ele>1374.0</ele></trkpt>
      <trkpt lat="35.43704" lon="-118.09354"><ele>1374.0</ele></trkpt>
      <trkpt lat="35.43710" lon="-118.09367"><ele>1374.0</ele></trkpt>
    </trkseg>
    <trkseg>
      <trkpt lat="35.43329" lon="-118.06834"><ele>1374.0</ele></trkpt>
      <trkpt lat="35.43329" lon="-118.06836"><ele>1374.0</ele></trkpt>
      <trkpt lat="35.43329" lon="-118.06845"><ele>1374.0</ele></trkpt>
      <trkpt lat="35.43329" lon="-118.06855"><ele>1374.0</ele></trkpt>
      <trkpt lat="35.43331" lon="-118.06876"><ele>1374.0</ele></trkpt>
      <trkpt lat="35.43333" lon="-118.06894"><ele>1246.0</ele></trkpt>
      <trkpt lat="35.43334" lon="-118.06913"><ele>1246.0</ele></trkpt>
      <trkpt lat="35.43336" lon="-118.06937"><ele>1246.0</ele></trkpt>
      <trkpt lat="35.43337" lon="-118.06958"><ele>1246.0</ele></trkpt>
      <trkpt lat="35.43340" lon="-118.07133"><ele>1246.0</ele></trkpt>
      <trkpt lat="35.43337" lon="-118.07150"><ele>1246.0</ele></trkpt>
      <trkpt lat="35.43334" lon="-118.07171"><ele>1246.0</ele></trkpt>
      <trkpt lat="35.43331" lon="-118.07192"><ele>1246.0</ele></trkpt>
      <trkpt lat="35.43328" lon="-118.07214"><ele>1246.0</ele></trkpt>
      <trkpt lat="35.43324" lon="-118.07239"><ele>1246.0</ele></trkpt>
      <trkpt lat="35.43321" lon="-118.07264"><ele>1246.0</ele></trkpt>
      <trkpt lat="35.43320" lon="-118.07290"><ele>1246.0</ele></trkpt>
      <trkpt lat="35.43319" lon="-118.07314"><ele>1246.0</ele></trkpt>
      <trkpt lat="35.43318" lon="-118.07319"><ele>1255.0</ele></trkpt>
      <trkpt lat="35.43318" lon="-118.07324"><ele>1255.0</ele></trkpt>
      <trkpt lat="35.43316" lon="-118.07338"><ele>1255.0</ele></trkpt>
      <trkpt lat="35.43311" lon="-118.07360"><ele>1255.0</ele></trkpt>
      <trkpt lat="35.43309" lon="-118.07370"><ele>1255.0</ele></trkpt>
      <trkpt lat="35.43306" lon="-118.07379"><ele>1255.0</ele></trkpt>
      <trkpt lat="35.43303" lon="-118.07394"><ele>1255.0</ele></trkpt>
      <trkpt lat="35.43300" lon="-118.07406"><ele>1255.0</ele></trkpt>
      <trkpt lat="35.43294" lon="-118.07418"><ele>1255.0</ele></trkpt>
      <trkpt lat="35.43287" lon="-118.07433"><ele>1255.0</ele></trkpt>
      <trkpt lat="35.43279" lon="-118.07451"><ele>1255.0</ele></trkpt>
      <trkpt lat="35.43273" lon="-118.07467"><ele>1255.0</ele></trkpt>
      <trkpt lat="35.43266" lon="-118.07483"><ele>1265.0</ele></trkpt>
      <trkpt lat="35.43261" lon="-118.07500"><ele>1265.0</ele></trkpt>
      <trkpt lat="35.43256" lon="-118.07521"><ele>1265.0</ele></trkpt>
      <trkpt lat="35.43250" lon="-118.07544"><ele>1265.0</ele></trkpt>
      <trkpt lat="35.43245" lon="-118.07565"><ele>1265.0</ele></trkpt>
      <trkpt lat="35.43240" lon="-118.07585"><ele>1265.0</ele></trkpt>
      <trkpt lat="35.43238" lon="-118.07591"><ele>1265.0</ele></trkpt>
    </trkseg>
  </trk>
</gpx>
