<?xml version="1.0" encoding="UTF-8"?>
<gpx version="1.1" creator="dirt-bikes build-blm-routes (BLM GTLF geometry + SRTM elevation)" xmlns="http://www.topografix.com/GPX/1/1">
  <trk><name>SC-94</name>
    <trkseg>
      <trkpt lat="35.43469" lon="-118.01626"><ele>1076.0</ele></trkpt>
      <trkpt lat="35.43471" lon="-118.01628"><ele>1076.0</ele></trkpt>
      <trkpt lat="35.43472" lon="-118.01630"><ele>1076.0</ele></trkpt>
      <trkpt lat="35.43478" lon="-118.01643"><ele>1076.0</ele></trkpt>
      <trkpt lat="35.43486" lon="-118.01663"><ele>1078.0</ele></trkpt>
      <trkpt lat="35.43495" lon="-118.01685"><ele>1078.0</ele></trkpt>
      <trkpt lat="35.43505" lon="-118.01705"><ele>1078.0</ele></trkpt>
      <trkpt lat="35.43516" lon="-118.01726"><ele>1078.0</ele></trkpt>
      <trkpt lat="35.43528" lon="-118.01749"><ele>1078.0</ele></trkpt>
      <trkpt lat="35.43539" lon="-118.01772"><ele>1078.0</ele></trkpt>
      <trkpt lat="35.43552" lon="-118.01792"><ele>1078.0</ele></trkpt>
      <trkpt lat="35.43563" lon="-118.01811"><ele>1080.0</ele></trkpt>
      <trkpt lat="35.43573" lon="-118.01826"><ele>1080.0</ele></trkpt>
      <trkpt lat="35.43575" lon="-118.01830"><ele>1080.0</ele></trkpt>
      <trkpt lat="35.43580" lon="-118.01838"><ele>1080.0</ele></trkpt>
      <trkpt lat="35.43589" lon="-118.01855"><ele>1080.0</ele></trkpt>
      <trkpt lat="35.43593" lon="-118.01863"><ele>1080.0</ele></trkpt>
      <trkpt lat="35.43600" lon="-118.01876"><ele>1081.0</ele></trkpt>
      <trkpt lat="35.43611" lon="-118.01896"><ele>1081.0</ele></trkpt>
      <trkpt lat="35.43619" lon="-118.01909"><ele>1081.0</ele></trkpt>
      <trkpt lat="35.43620" lon="-118.01909"><ele>1081.0</ele></trkpt>
      <trkpt lat="35.43621" lon="-118.01911"><ele>1081.0</ele></trkpt>
      <trkpt lat="35.43633" lon="-118.01929"><ele>1081.0</ele></trkpt>
      <trkpt lat="35.43647" lon="-118.01951"><ele>1081.0</ele></trkpt>
      <trkpt lat="35.43660" lon="-118.01971"><ele>1084.0</ele></trkpt>
      <trkpt lat="35.43662" lon="-118.01973"><ele>1084.0</ele></trkpt>
      <trkpt lat="35.43675" lon="-118.01993"><ele>1084.0</ele></trkpt>
      <trkpt lat="35.43688" lon="-118.02013"><ele>1084.0</ele></trkpt>
      <trkpt lat="35.43699" lon="-118.02032"><ele>1084.0</ele></trkpt>
      <trkpt lat="35.43710" lon="-118.02052"><ele>1084.0</ele></trkpt>
      <trkpt lat="35.43722" lon="-118.02073"><ele>1084.0</ele></trkpt>
      <trkpt lat="35.43735" lon="-118.02096"><ele>1084.0</ele></trkpt>
      <trkpt lat="35.43748" lon="-118.02120"><ele>1084.0</ele></trkpt>
      <trkpt lat="35.43760" lon="-118.02143"><ele>1084.0</ele></trkpt>
      <trkpt lat="35.43772" lon="-118.02164"><ele>1084.0</ele></trkpt>
      <trkpt lat="35.43783" lon="-118.02185"><ele>1084.0</ele></trkpt>
      <trkpt lat="35.43787" lon="-118.02194"><ele>1084.0</ele></trkpt>
      <trkpt lat="35.43794" lon="-118.02206"><ele>1086.0</ele></trkpt>
      <trkpt lat="35.43805" lon="-118.02226"><ele>1086.0</ele></trkpt>
      <trkpt lat="35.43817" lon="-118.02248"><ele>1086.0</ele></trkpt>
      <trkpt lat="35.43830" lon="-118.02270"><ele>1086.0</ele></trkpt>
      <trkpt lat="35.43842" lon="-118.02293"><ele>1086.0</ele></trkpt>
      <trkpt lat="35.43854" lon="-118.02314"><ele>1086.0</ele></trkpt>
      <trkpt lat="35.43860" lon="-118.02324"><ele>1086.0</ele></trkpt>
      <trkpt lat="35.43866" lon="-118.02333"><ele>1086.0</ele></trkpt>
      <trkpt lat="35.43878" lon="-118.02350"><ele>1086.0</ele></trkpt>
      <trkpt lat="35.43890" lon="-118.02369"><ele>1086.0</ele></trkpt>
      <trkpt lat="35.43900" lon="-118.02387"><ele>1086.0</ele></trkpt>
      <trkpt lat="35.43908" lon="-118.02405"><ele>1086.0</ele></trkpt>
      <trkpt lat="35.43916" lon="-118.02422"><ele>1086.0</ele></trkpt>
      <trkpt lat="35.43924" lon="-118.02438"><ele>1088.0</ele></trkpt>
      <trkpt lat="35.43934" lon="-118.02455"><ele>1088.0</ele></trkpt>
      <trkpt lat="35.43943" lon="-118.02472"><ele>1088.0</ele></trkpt>
      <trkpt lat="35.43950" lon="-118.02484"><ele>1088.0</ele></trkpt>
      <trkpt lat="35.43953" lon="-118.02489"><ele>1088.0</ele></trkpt>
      <trkpt lat="35.43963" lon="-118.02506"><ele>1088.0</ele></trkpt>
      <trkpt lat="35.43972" lon="-118.02522"><ele>1088.0</ele></trkpt>
      <trkpt lat="35.43980" lon="-118.02537"><ele>1089.0</ele></trkpt>
      <trkpt lat="35.43989" lon="-118.02552"><ele>1089.0</ele></trkpt>
      <trkpt lat="35.43998" lon="-118.02565"><ele>1089.0</ele></trkpt>
      <trkpt lat="35.44008" lon="-118.02581"><ele>1089.0</ele></trkpt>
      <trkpt lat="35.44017" lon="-118.02596"><ele>1089.0</ele></trkpt>
      <trkpt lat="35.44026" lon="-118.02611"><ele>1089.0</ele></trkpt>
      <trkpt lat="35.44036" lon="-118.02628"><ele>1089.0</ele></trkpt>
      <trkpt lat="35.44044" lon="-118.02640"><ele>1089.0</ele></trkpt>
      <trkpt lat="35.44049" lon="-118.02648"><ele>1089.0</ele></trkpt>
      <trkpt lat="35.44056" lon="-118.02660"><ele>1089.0</ele></trkpt>
      <trkpt lat="35.44063" lon="-118.02670"><ele>1089.0</ele></trkpt>
      <trkpt lat="35.44068" lon="-118.02679"><ele>1089.0</ele></trkpt>
      <trkpt lat="35.44073" lon="-118.02687"><ele>1089.0</ele></trkpt>
      <trkpt lat="35.44079" lon="-118.02697"><ele>1088.0</ele></trkpt>
      <trkpt lat="35.44079" lon="-118.02697"><ele>1088.0</ele></trkpt>
      <trkpt lat="35.44086" lon="-118.02708"><ele>1088.0</ele></trkpt>
      <trkpt lat="35.44092" lon="-118.02719"><ele>1088.0</ele></trkpt>
      <trkpt lat="35.44099" lon="-118.02729"><ele>1088.0</ele></trkpt>
      <trkpt lat="35.44109" lon="-118.02744"><ele>1088.0</ele></trkpt>
      <trkpt lat="35.44118" lon="-118.02760"><ele>1088.0</ele></trkpt>
      <trkpt lat="35.44126" lon="-118.02773"><ele>1090.0</ele></trkpt>
      <trkpt lat="35.44133" lon="-118.02786"><ele>1090.0</ele></trkpt>
      <trkpt lat="35.44143" lon="-118.02802"><ele>1090.0</ele></trkpt>
      <trkpt lat="35.44155" lon="-118.02820"><ele>1090.0</ele></trkpt>
      <trkpt lat="35.44166" lon="-118.02837"><ele>1090.0</ele></trkpt>
      <trkpt lat="35.44177" lon="-118.02855"><ele>1090.0</ele></trkpt>
      <trkpt lat="35.44186" lon="-118.02871"><ele>1090.0</ele></trkpt>
      <trkpt lat="35.44192" lon="-118.02885"><ele>1093.0</ele></trkpt>
      <trkpt lat="35.44199" lon="-118.02898"><ele>1093.0</ele></trkpt>
      <trkpt lat="35.44208" lon="-118.02912"><ele>1093.0</ele></trkpt>
      <trkpt lat="35.44218" lon="-118.02928"><ele>1093.0</ele></trkpt>
      <trkpt lat="35.44229" lon="-118.02946"><ele>1093.0</ele></trkpt>
      <trkpt lat="35.44241" lon="-118.02965"><ele>1093.0</ele></trkpt>
      <trkpt lat="35.44253" lon="-118.02984"><ele>1095.0</ele></trkpt>
      <trkpt lat="35.44264" lon="-118.03003"><ele>1095.0</ele></trkpt>
      <trkpt lat="35.44274" lon="-118.03019"><ele>1095.0</ele></trkpt>
      <trkpt lat="35.44283" lon="-118.03033"><ele>1095.0</ele></trkpt>
      <trkpt lat="35.44292" lon="-118.03047"><ele>1095.0</ele></trkpt>
      <trkpt lat="35.44295" lon="-118.03053"><ele>1095.0</ele></trkpt>
      <trkpt lat="35.44302" lon="-118.03064"><ele>1095.0</ele></trkpt>
      <trkpt lat="35.44312" lon="-118.03083"><ele>1095.0</ele></trkpt>
      <trkpt lat="35.44323" lon="-118.03102"><ele>1095.0</ele></trkpt>
      <trkpt lat="35.44333" lon="-118.03117"><ele>1095.0</ele></trkpt>
      <trkpt lat="35.44342" lon="-118.03133"><ele>1095.0</ele></trkpt>
      <trkpt lat="35.44351" lon="-118.03147"><ele>1095.0</ele></trkpt>
      <trkpt lat="35.44359" lon="-118.03161"><ele>1095.0</ele></trkpt>
      <trkpt lat="35.44367" lon="-118.03172"><ele>1098.0</ele></trkpt>
      <trkpt lat="35.44377" lon="-118.03187"><ele>1098.0</ele></trkpt>
      <trkpt lat="35.44390" lon="-118.03207"><ele>1098.0</ele></trkpt>
      <trkpt lat="35.44403" lon="-118.03227"><ele>1098.0</ele></trkpt>
      <trkpt lat="35.44415" lon="-118.03249"><ele>1098.0</ele></trkpt>
      <trkpt lat="35.44426" lon="-118.03267"><ele>1098.0</ele></trkpt>
      <trkpt lat="35.44436" lon="-118.03283"><ele>1098.0</ele></trkpt>
      <trkpt lat="35.44446" lon="-118.03302"><ele>1103.0</ele></trkpt>
      <trkpt lat="35.44457" lon="-118.03319"><ele>1103.0</ele></trkpt>
      <trkpt lat="35.44460" lon="-118.03324"><ele>1103.0</ele></trkpt>
      <trkpt lat="35.44466" lon="-118.03333"><ele>1103.0</ele></trkpt>
      <trkpt lat="35.44474" lon="-118.03346"><ele>1103.0</ele></trkpt>
      <trkpt lat="35.44484" lon="-118.03360"><ele>1103.0</ele></trkpt>
      <trkpt lat="35.44494" lon="-118.03376"><ele>1103.0</ele></trkpt>
      <trkpt lat="35.44503" lon="-118.03393"><ele>1104.0</ele></trkpt>
      <trkpt lat="35.44513" lon="-118.03410"><ele>1104.0</ele></trkpt>
      <trkpt lat="35.44523" lon="-118.03428"><ele>1104.0</ele></trkpt>
      <trkpt lat="35.44534" lon="-118.03448"><ele>1104.0</ele></trkpt>
      <trkpt lat="35.44539" lon="-118.03458"><ele>1104.0</ele></trkpt>
      <trkpt lat="35.44544" lon="-118.03467"><ele>1104.0</ele></trkpt>
      <trkpt lat="35.44554" lon="-118.03485"><ele>1108.0</ele></trkpt>
      <trkpt lat="35.44563" lon="-118.03504"><ele>1108.0</ele></trkpt>
      <trkpt lat="35.44573" lon="-118.03524"><ele>1108.0</ele></trkpt>
      <trkpt lat="35.44584" lon="-118.03544"><ele>1108.0</ele></trkpt>
      <trkpt lat="35.44596" lon="-118.03564"><ele>1108.0</ele></trkpt>
      <trkpt lat="35.44599" lon="-118.03568"><ele>1108.0</ele></trkpt>
      <trkpt lat="35.44609" lon="-118.03583"><ele>1108.0</ele></trkpt>
      <trkpt lat="35.44621" lon="-118.03603"><ele>1112.0</ele></trkpt>
      <trkpt lat="35.44632" lon="-118.03622"><ele>1112.0</ele></trkpt>
      <trkpt lat="35.44644" lon="-118.03642"><ele>1112.0</ele></trkpt>
      <trkpt lat="35.44657" lon="-118.03662"><ele>1112.0</ele></trkpt>
      <trkpt lat="35.44670" lon="-118.03684"><ele>1112.0</ele></trkpt>
      <trkpt lat="35.44683" lon="-118.03705"><ele>1112.0</ele></trkpt>
      <trkpt lat="35.44695" lon="-118.03723"><ele>1112.0</ele></trkpt>
      <trkpt lat="35.44708" lon="-118.03742"><ele>1114.0</ele></trkpt>
      <trkpt lat="35.44722" lon="-118.03763"><ele>1114.0</ele></trkpt>
      <trkpt lat="35.44737" lon="-118.03787"><ele>1114.0</ele></trkpt>
      <trkpt lat="35.44752" lon="-118.03811"><ele>1114.0</ele></trkpt>
      <trkpt lat="35.44766" lon="-118.03835"><ele>1114.0</ele></trkpt>
      <trkpt lat="35.44781" lon="-118.03859"><ele>1114.0</ele></trkpt>
      <trkpt lat="35.44796" lon="-118.03881"><ele>1120.0</ele></trkpt>
      <trkpt lat="35.44809" lon="-118.03903"><ele>1120.0</ele></trkpt>
      <trkpt lat="35.44820" lon="-118.03921"><ele>1120.0</ele></trkpt>
      <trkpt lat="35.44831" lon="-118.03938"><ele>1120.0</ele></trkpt>
      <trkpt lat="35.44842" lon="-118.03956"><ele>1120.0</ele></trkpt>
      <trkpt lat="35.44856" lon="-118.03976"><ele>1120.0</ele></trkpt>
      <trkpt lat="35.44870" lon="-118.03996"><ele>1120.0</ele></trkpt>
      <trkpt lat="35.44884" lon="-118.04017"><ele>1127.0</ele></trkpt>
      <trkpt lat="35.44897" lon="-118.04039"><ele>1127.0</ele></trkpt>
      <trkpt lat="35.44909" lon="-118.04061"><ele>1127.0</ele></trkpt>
      <trkpt lat="35.44920" lon="-118.04079"><ele>1127.0</ele></trkpt>
      <trkpt lat="35.44927" lon="-118.04091"><ele>1127.0</ele></trkpt>
      <trkpt lat="35.44934" lon="-118.04101"><ele>1127.0</ele></trkpt>
      <trkpt lat="35.44943" lon="-118.04115"><ele>1129.0</ele></trkpt>
      <trkpt lat="35.44952" lon="-118.04131"><ele>1129.0</ele></trkpt>
      <trkpt lat="35.44961" lon="-118.04147"><ele>1129.0</ele></trkpt>
      <trkpt lat="35.44972" lon="-118.04165"><ele>1129.0</ele></trkpt>
      <trkpt lat="35.44984" lon="-118.04186"><ele>1129.0</ele></trkpt>
      <trkpt lat="35.44995" lon="-118.04204"><ele>1129.0</ele></trkpt>
      <trkpt lat="35.45003" lon="-118.04218"><ele>1129.0</ele></trkpt>
      <trkpt lat="35.45013" lon="-118.04233"><ele>1131.0</ele></trkpt>
      <trkpt lat="35.45021" lon="-118.04247"><ele>1131.0</ele></trkpt>
      <trkpt lat="35.45029" lon="-118.04260"><ele>1131.0</ele></trkpt>
      <trkpt lat="35.45033" lon="-118.04269"><ele>1131.0</ele></trkpt>
      <trkpt lat="35.45035" lon="-118.04273"><ele>1131.0</ele></trkpt>
      <trkpt lat="35.45042" lon="-118.04283"><ele>1131.0</ele></trkpt>
      <trkpt lat="35.45051" lon="-118.04295"><ele>1131.0</ele></trkpt>
      <trkpt lat="35.45058" lon="-118.04305"><ele>1133.0</ele></trkpt>
      <trkpt lat="35.45066" lon="-118.04317"><ele>1133.0</ele></trkpt>
      <trkpt lat="35.45077" lon="-118.04332"><ele>1133.0</ele></trkpt>
      <trkpt lat="35.45086" lon="-118.04347"><ele>1133.0</ele></trkpt>
      <trkpt lat="35.45095" lon="-118.04362"><ele>1133.0</ele></trkpt>
      <trkpt lat="35.45106" lon="-118.04381"><ele>1133.0</ele></trkpt>
      <trkpt lat="35.45116" lon="-118.04399"><ele>1134.0</ele></trkpt>
      <trkpt lat="35.45126" lon="-118.04415"><ele>1134.0</ele></trkpt>
      <trkpt lat="35.45132" lon="-118.04427"><ele>1134.0</ele></trkpt>
      <trkpt lat="35.45133" lon="-118.04428"><ele>1134.0</ele></trkpt>
      <trkpt lat="35.45141" lon="-118.04440"><ele>1134.0</ele></trkpt>
      <trkpt lat="35.45152" lon="-118.04457"><ele>1134.0</ele></trkpt>
      <trkpt lat="35.45165" lon="-118.04477"><ele>1134.0</ele></trkpt>
      <trkpt lat="35.45179" lon="-118.04498"><ele>1139.0</ele></trkpt>
      <trkpt lat="35.45192" lon="-118.04521"><ele>1139.0</ele></trkpt>
      <trkpt lat="35.45205" lon="-118.04544"><ele>1139.0</ele></trkpt>
      <trkpt lat="35.45219" lon="-118.04567"><ele>1139.0</ele></trkpt>
      <trkpt lat="35.45232" lon="-118.04590"><ele>1139.0</ele></trkpt>
      <trkpt lat="35.45246" lon="-118.04613"><ele>1139.0</ele></trkpt>
      <trkpt lat="35.45260" lon="-118.04637"><ele>1139.0</ele></trkpt>
      <trkpt lat="35.45275" lon="-118.04660"><ele>1146.0</ele></trkpt>
      <trkpt lat="35.45288" lon="-118.04681"><ele>1146.0</ele></trkpt>
      <trkpt lat="35.45299" lon="-118.04700"><ele>1146.0</ele></trkpt>
      <trkpt lat="35.45311" lon="-118.04722"><ele>1146.0</ele></trkpt>
      <trkpt lat="35.45324" lon="-118.04746"><ele>1146.0</ele></trkpt>
      <trkpt lat="35.45336" lon="-118.04765"><ele>1146.0</ele></trkpt>
      <trkpt lat="35.45339" lon="-118.04770"><ele>1152.0</ele></trkpt>
      <trkpt lat="35.45342" lon="-118.04775"><ele>1152.0</ele></trkpt>
      <trkpt lat="35.45353" lon="-118.04794"><ele>1152.0</ele></trkpt>
      <trkpt lat="35.45367" lon="-118.04818"><ele>1152.0</ele></trkpt>
      <trkpt lat="35.45379" lon="-118.04837"><ele>1152.0</ele></trkpt>
      <trkpt lat="35.45381" lon="-118.04842"><ele>1152.0</ele></trkpt>
      <trkpt lat="35.45396" lon="-118.04866"><ele>1152.0</ele></trkpt>
      <trkpt lat="35.45411" lon="-118.04891"><ele>1158.0</ele></trkpt>
      <trkpt lat="35.45425" lon="-118.04915"><ele>1158.0</ele></trkpt>
      <trkpt lat="35.45440" lon="-118.04939"><ele>1158.0</ele></trkpt>
      <trkpt lat="35.45456" lon="-118.04962"><ele>1158.0</ele></trkpt>
      <trkpt lat="35.45469" lon="-118.04985"><ele>1158.0</ele></trkpt>
      <trkpt lat="35.45472" lon="-118.04989"><ele>1158.0</ele></trkpt>
      <trkpt lat="35.45481" lon="-118.05005"><ele>1158.0</ele></trkpt>
      <trkpt lat="35.45488" lon="-118.05017"><ele>1162.0</ele></trkpt>
      <trkpt lat="35.45494" lon="-118.05027"><ele>1162.0</ele></trkpt>
      <trkpt lat="35.45507" lon="-118.05048"><ele>1162.0</ele></trkpt>
      <trkpt lat="35.45516" lon="-118.05062"><ele>1162.0</ele></trkpt>
      <trkpt lat="35.45521" lon="-118.05070"><ele>1162.0</ele></trkpt>
      <trkpt lat="35.45528" lon="-118.05081"><ele>1162.0</ele></trkpt>
      <trkpt lat="35.45538" lon="-118.05095"><ele>1166.0</ele></trkpt>
      <trkpt lat="35.45550" lon="-118.05111"><ele>1166.0</ele></trkpt>
      <trkpt lat="35.45563" lon="-118.05130"><ele>1166.0</ele></trkpt>
      <trkpt lat="35.45577" lon="-118.05151"><ele>1166.0</ele></trkpt>
      <trkpt lat="35.45591" lon="-118.05171"><ele>1166.0</ele></trkpt>
      <trkpt lat="35.45604" lon="-118.05190"><ele>1166.0</ele></trkpt>
      <trkpt lat="35.45615" lon="-118.05206"><ele>1166.0</ele></trkpt>
      <trkpt lat="35.45625" lon="-118.05222"><ele>1171.0</ele></trkpt>
      <trkpt lat="35.45635" lon="-118.05238"><ele>1171.0</ele></trkpt>
      <trkpt lat="35.45641" lon="-118.05249"><ele>1171.0</ele></trkpt>
      <trkpt lat="35.45641" lon="-118.05249"><ele>1171.0</ele></trkpt>
      <trkpt lat="35.45644" lon="-118.05254"><ele>1171.0</ele></trkpt>
      <trkpt lat="35.45652" lon="-118.05268"><ele>1171.0</ele></trkpt>
      <trkpt lat="35.45661" lon="-118.05283"><ele>1175.0</ele></trkpt>
      <trkpt lat="35.45671" lon="-118.05302"><ele>1175.0</ele></trkpt>
      <trkpt lat="35.45682" lon="-118.05323"><ele>1175.0</ele></trkpt>
      <trkpt lat="35.45693" lon="-118.05345"><ele>1175.0</ele></trkpt>
      <trkpt lat="35.45706" lon="-118.05366"><ele>1175.0</ele></trkpt>
      <trkpt lat="35.45718" lon="-118.05385"><ele>1175.0</ele></trkpt>
      <trkpt lat="35.45727" lon="-118.05401"><ele>1175.0</ele></trkpt>
      <trkpt lat="35.45737" lon="-118.05415"><ele>1181.0</ele></trkpt>
      <trkpt lat="35.45748" lon="-118.05433"><ele>1181.0</ele></trkpt>
      <trkpt lat="35.45759" lon="-118.05452"><ele>1181.0</ele></trkpt>
      <trkpt lat="35.45771" lon="-118.05474"><ele>1181.0</ele></trkpt>
      <trkpt lat="35.45784" lon="-118.05497"><ele>1181.0</ele></trkpt>
      <trkpt lat="35.45797" lon="-118.05518"><ele>1181.0</ele></trkpt>
      <trkpt lat="35.45809" lon="-118.05538"><ele>1181.0</ele></trkpt>
      <trkpt lat="35.45821" lon="-118.05559"><ele>1184.0</ele></trkpt>
      <trkpt lat="35.45833" lon="-118.05582"><ele>1184.0</ele></trkpt>
      <trkpt lat="35.45846" lon="-118.05604"><ele>1184.0</ele></trkpt>
      <trkpt lat="35.45857" lon="-118.05626"><ele>1184.0</ele></trkpt>
      <trkpt lat="35.45869" lon="-118.05646"><ele>1184.0</ele></trkpt>
      <trkpt lat="35.45882" lon="-118.05667"><ele>1184.0</ele></trkpt>
      <trkpt lat="35.45896" lon="-118.05688"><ele>1190.0</ele></trkpt>
      <trkpt lat="35.45910" lon="-118.05707"><ele>1190.0</ele></trkpt>
      <trkpt lat="35.45923" lon="-118.05727"><ele>1190.0</ele></trkpt>
      <trkpt lat="35.45935" lon="-118.05748"><ele>1190.0</ele></trkpt>
      <trkpt lat="35.45947" lon="-118.05771"><ele>1190.0</ele></trkpt>
      <trkpt lat="35.45960" lon="-118.05795"><ele>1190.0</ele></trkpt>
      <trkpt lat="35.45974" lon="-118.05818"><ele>1190.0</ele></trkpt>
      <trkpt lat="35.45987" lon="-118.05839"><ele>1193.0</ele></trkpt>
      <trkpt lat="35.45999" lon="-118.05856"><ele>1193.0</ele></trkpt>
      <trkpt lat="35.46009" lon="-118.05874"><ele>1193.0</ele></trkpt>
      <trkpt lat="35.46020" lon="-118.05893"><ele>1193.0</ele></trkpt>
      <trkpt lat="35.46032" lon="-118.05913"><ele>1193.0</ele></trkpt>
      <trkpt lat="35.46045" lon="-118.05932"><ele>1193.0</ele></trkpt>
      <trkpt lat="35.46056" lon="-118.05952"><ele>1193.0</ele></trkpt>
      <trkpt lat="35.46067" lon="-118.05970"><ele>1199.0</ele></trkpt>
      <trkpt lat="35.46077" lon="-118.05989"><ele>1199.0</ele></trkpt>
      <trkpt lat="35.46089" lon="-118.06008"><ele>1199.0</ele></trkpt>
      <trkpt lat="35.46100" lon="-118.06030"><ele>1199.0</ele></trkpt>
      <trkpt lat="35.46110" lon="-118.06053"><ele>1199.0</ele></trkpt>
      <trkpt lat="35.46121" lon="-118.06075"><ele>1199.0</ele></trkpt>
      <trkpt lat="35.46132" lon="-118.06098"><ele>1202.0</ele></trkpt>
      <trkpt lat="35.46143" lon="-118.06122"><ele>1202.0</ele></trkpt>
      <trkpt lat="35.46154" lon="-118.06144"><ele>1202.0</ele></trkpt>
      <trkpt lat="35.46164" lon="-118.06164"><ele>1202.0</ele></trkpt>
      <trkpt lat="35.46174" lon="-118.06182"><ele>1202.0</ele></trkpt>
      <trkpt lat="35.46184" lon="-118.06200"><ele>1202.0</ele></trkpt>
      <trkpt lat="35.46194" lon="-118.06220"><ele>1202.0</ele></trkpt>
      <trkpt lat="35.46204" lon="-118.06237"><ele>1209.0</ele></trkpt>
      <trkpt lat="35.46215" lon="-118.06257"><ele>1209.0</ele></trkpt>
      <trkpt lat="35.46227" lon="-118.06277"><ele>1209.0</ele></trkpt>
      <trkpt lat="35.46239" lon="-118.06298"><ele>1209.0</ele></trkpt>
      <trkpt lat="35.46249" lon="-118.06317"><ele>1209.0</ele></trkpt>
      <trkpt lat="35.46262" lon="-118.06336"><ele>1209.0</ele></trkpt>
      <trkpt lat="35.46273" lon="-118.06350"><ele>1207.0</ele></trkpt>
      <trkpt lat="35.46279" lon="-118.06359"><ele>1207.0</ele></trkpt>
      <trkpt lat="35.46284" lon="-118.06368"><ele>1207.0</ele></trkpt>
      <trkpt lat="35.46293" lon="-118.06381"><ele>1207.0</ele></trkpt>
      <trkpt lat="35.46304" lon="-118.06400"><ele>1207.0</ele></trkpt>
      <trkpt lat="35.46318" lon="-118.06421"><ele>1207.0</ele></trkpt>
      <trkpt lat="35.46333" lon="-118.06442"><ele>1207.0</ele></trkpt>
      <trkpt lat="35.46352" lon="-118.06470"><ele>1203.0</ele></trkpt>
      <trkpt lat="35.46364" lon="-118.06491"><ele>1203.0</ele></trkpt>
      <trkpt lat="35.46375" lon="-118.06513"><ele>1203.0</ele></trkpt>
      <trkpt lat="35.46386" lon="-118.06535"><ele>1203.0</ele></trkpt>
      <trkpt lat="35.46395" lon="-118.06551"><ele>1203.0</ele></trkpt>
      <trkpt lat="35.46402" lon="-118.06563"><ele>1203.0</ele></trkpt>
      <trkpt lat="35.46411" lon="-118.06580"><ele>1203.0</ele></trkpt>
      <trkpt lat="35.46422" lon="-118.06599"><ele>1205.0</ele></trkpt>
      <trkpt lat="35.46434" lon="-118.06618"><ele>1205.0</ele></trkpt>
      <trkpt lat="35.46445" lon="-118.06634"><ele>1205.0</ele></trkpt>
      <trkpt lat="35.46453" lon="-118.06646"><ele>1205.0</ele></trkpt>
      <trkpt lat="35.46462" lon="-118.06660"><ele>1205.0</ele></trkpt>
      <trkpt lat="35.46472" lon="-118.06677"><ele>1205.0</ele></trkpt>
      <trkpt lat="35.46482" lon="-118.06695"><ele>1208.0</ele></trkpt>
      <trkpt lat="35.46493" lon="-118.06713"><ele>1208.0</ele></trkpt>
      <trkpt lat="35.46504" lon="-118.06729"><ele>1208.0</ele></trkpt>
      <trkpt lat="35.46515" lon="-118.06746"><ele>1208.0</ele></trkpt>
      <trkpt lat="35.46527" lon="-118.06764"><ele>1208.0</ele></trkpt>
      <trkpt lat="35.46539" lon="-118.06782"><ele>1208.0</ele></trkpt>
      <trkpt lat="35.46548" lon="-118.06798"><ele>1208.0</ele></trkpt>
      <trkpt lat="35.46555" lon="-118.06810"><ele>1210.0</ele></trkpt>
      <trkpt lat="35.46560" lon="-118.06820"><ele>1210.0</ele></trkpt>
      <trkpt lat="35.46569" lon="-118.06833"><ele>1210.0</ele></trkpt>
      <trkpt lat="35.46581" lon="-118.06852"><ele>1210.0</ele></trkpt>
      <trkpt lat="35.46590" lon="-118.06865"><ele>1210.0</ele></trkpt>
      <trkpt lat="35.46597" lon="-118.06877"><ele>1210.0</ele></trkpt>
      <trkpt lat="35.46606" lon="-118.06891"><ele>1210.0</ele></trkpt>
      <trkpt lat="35.46618" lon="-118.06910"><ele>1214.0</ele></trkpt>
      <trkpt lat="35.46632" lon="-118.06932"><ele>1214.0</ele></trkpt>
      <trkpt lat="35.46646" lon="-118.06954"><ele>1214.0</ele></trkpt>
      <trkpt lat="35.46660" lon="-118.06976"><ele>1214.0</ele></trkpt>
      <trkpt lat="35.46673" lon="-118.06996"><ele>1214.0</ele></trkpt>
      <trkpt lat="35.46685" lon="-118.07017"><ele>1214.0</ele></trkpt>
      <trkpt lat="35.46696" lon="-118.07036"><ele>1217.0</ele></trkpt>
      <trkpt lat="35.46702" lon="-118.07050"><ele>1217.0</ele></trkpt>
      <trkpt lat="35.46707" lon="-118.07061"><ele>1217.0</ele></trkpt>
      <trkpt lat="35.46712" lon="-118.07068"><ele>1217.0</ele></trkpt>
      <trkpt lat="35.46721" lon="-118.07078"><ele>1217.0</ele></trkpt>
      <trkpt lat="35.46729" lon="-118.07092"><ele>1217.0</ele></trkpt>
      <trkpt lat="35.46738" lon="-118.07107"><ele>1217.0</ele></trkpt>
      <trkpt lat="35.46747" lon="-118.07124"><ele>1219.0</ele></trkpt>
      <trkpt lat="35.46755" lon="-118.07136"><ele>1219.0</ele></trkpt>
      <trkpt lat="35.46763" lon="-118.07149"><ele>1219.0</ele></trkpt>
      <trkpt lat="35.46772" lon="-118.07164"><ele>1219.0</ele></trkpt>
      <trkpt lat="35.46780" lon="-118.07177"><ele>1219.0</ele></trkpt>
      <trkpt lat="35.46787" lon="-118.07187"><ele>1219.0</ele></trkpt>
      <trkpt lat="35.46795" lon="-118.07200"><ele>1223.0</ele></trkpt>
      <trkpt lat="35.46801" lon="-118.07212"><ele>1223.0</ele></trkpt>
      <trkpt lat="35.46807" lon="-118.07221"><ele>1223.0</ele></trkpt>
      <trkpt lat="35.46813" lon="-118.07233"><ele>1223.0</ele></trkpt>
      <trkpt lat="35.46821" lon="-118.07246"><ele>1223.0</ele></trkpt>
      <trkpt lat="35.46829" lon="-118.07259"><ele>1223.0</ele></trkpt>
      <trkpt lat="35.46837" lon="-118.07272"><ele>1223.0</ele></trkpt>
      <trkpt lat="35.46845" lon="-118.07285"><ele>1226.0</ele></trkpt>
      <trkpt lat="35.46854" lon="-118.07301"><ele>1226.0</ele></trkpt>
      <trkpt lat="35.46864" lon="-118.07317"><ele>1226.0</ele></trkpt>
      <trkpt lat="35.46875" lon="-118.07334"><ele>1226.0</ele></trkpt>
      <trkpt lat="35.46885" lon="-118.07350"><ele>1226.0</ele></trkpt>
      <trkpt lat="35.46892" lon="-118.07363"><ele>1226.0</ele></trkpt>
      <trkpt lat="35.46898" lon="-118.07373"><ele>1226.0</ele></trkpt>
      <trkpt lat="35.46904" lon="-118.07383"><ele>1230.0</ele></trkpt>
      <trkpt lat="35.46911" lon="-118.07395"><ele>1230.0</ele></trkpt>
      <trkpt lat="35.46922" lon="-118.07411"><ele>1230.0</ele></trkpt>
      <trkpt lat="35.46932" lon="-118.07430"><ele>1230.0</ele></trkpt>
      <trkpt lat="35.46940" lon="-118.07446"><ele>1230.0</ele></trkpt>
      <trkpt lat="35.46948" lon="-118.07460"><ele>1230.0</ele></trkpt>
      <trkpt lat="35.46957" lon="-118.07473"><ele>1234.0</ele></trkpt>
      <trkpt lat="35.46966" lon="-118.07488"><ele>1234.0</ele></trkpt>
      <trkpt lat="35.46976" lon="-118.07504"><ele>1234.0</ele></trkpt>
      <trkpt lat="35.46988" lon="-118.07522"><ele>1234.0</ele></trkpt>
      <trkpt lat="35.47000" lon="-118.07541"><ele>1234.0</ele></trkpt>
      <trkpt lat="35.47011" lon="-118.07560"><ele>1234.0</ele></trkpt>
      <trkpt lat="35.47020" lon="-118.07577"><ele>1234.0</ele></trkpt>
      <trkpt lat="35.47029" lon="-118.07591"><ele>1239.0</ele></trkpt>
      <trkpt lat="35.47037" lon="-118.07604"><ele>1239.0</ele></trkpt>
      <trkpt lat="35.47046" lon="-118.07619"><ele>1239.0</ele></trkpt>
      <trkpt lat="35.47057" lon="-118.07636"><ele>1239.0</ele></trkpt>
      <trkpt lat="35.47068" lon="-118.07654"><ele>1239.0</ele></trkpt>
      <trkpt lat="35.47080" lon="-118.07673"><ele>1239.0</ele></trkpt>
      <trkpt lat="35.47093" lon="-118.07693"><ele>1239.0</ele></trkpt>
      <trkpt lat="35.47107" lon="-118.07713"><ele>1245.0</ele></trkpt>
      <trkpt lat="35.47119" lon="-118.07731"><ele>1245.0</ele></trkpt>
      <trkpt lat="35.47131" lon="-118.07751"><ele>1245.0</ele></trkpt>
      <trkpt lat="35.47142" lon="-118.07771"><ele>1245.0</ele></trkpt>
      <trkpt lat="35.47154" lon="-118.07784"><ele>1245.0</ele></trkpt>
      <trkpt lat="35.47166" lon="-118.07798"><ele>1245.0</ele></trkpt>
      <trkpt lat="35.47178" lon="-118.07813"><ele>1251.0</ele></trkpt>
      <trkpt lat="35.47191" lon="-118.07830"><ele>1251.0</ele></trkpt>
      <trkpt lat="35.47205" lon="-118.07847"><ele>1251.0</ele></trkpt>
      <trkpt lat="35.47218" lon="-118.07864"><ele>1251.0</ele></trkpt>
      <trkpt lat="35.47230" lon="-118.07881"><ele>1251.0</ele></trkpt>
      <trkpt lat="35.47242" lon="-118.07900"><ele>1251.0</ele></trkpt>
      <trkpt lat="35.47254" lon="-118.07921"><ele>1251.0</ele></trkpt>
      <trkpt lat="35.47267" lon="-118.07944"><ele>1255.0</ele></trkpt>
      <trkpt lat="35.47279" lon="-118.07964"><ele>1255.0</ele></trkpt>
      <trkpt lat="35.47291" lon="-118.07984"><ele>1255.0</ele></trkpt>
      <trkpt lat="35.47305" lon="-118.08004"><ele>1255.0</ele></trkpt>
      <trkpt lat="35.47319" lon="-118.08025"><ele>1255.0</ele></trkpt>
      <trkpt lat="35.47331" lon="-118.08046"><ele>1255.0</ele></trkpt>
      <trkpt lat="35.47343" lon="-118.08068"><ele>1260.0</ele></trkpt>
      <trkpt lat="35.47355" lon="-118.08090"><ele>1260.0</ele></trkpt>
      <trkpt lat="35.47368" lon="-118.08111"><ele>1260.0</ele></trkpt>
      <trkpt lat="35.47379" lon="-118.08128"><ele>1260.0</ele></trkpt>
      <trkpt lat="35.47391" lon="-118.08145"><ele>1260.0</ele></trkpt>
      <trkpt lat="35.47403" lon="-118.08165"><ele>1260.0</ele></trkpt>
      <trkpt lat="35.47415" lon="-118.08182"><ele>1260.0</ele></trkpt>
      <trkpt lat="35.47426" lon="-118.08199"><ele>1264.0</ele></trkpt>
      <trkpt lat="35.47435" lon="-118.08219"><ele>1264.0</ele></trkpt>
      <trkpt lat="35.47444" lon="-118.08238"><ele>1264.0</ele></trkpt>
      <trkpt lat="35.47452" lon="-118.08257"><ele>1264.0</ele></trkpt>
      <trkpt lat="35.47461" lon="-118.08277"><ele>1264.0</ele></trkpt>
      <trkpt lat="35.47471" lon="-118.08298"><ele>1264.0</ele></trkpt>
      <trkpt lat="35.47481" lon="-118.08318"><ele>1264.0</ele></trkpt>
      <trkpt lat="35.47492" lon="-118.08335"><ele>1269.0</ele></trkpt>
      <trkpt lat="35.47502" lon="-118.08349"><ele>1269.0</ele></trkpt>
      <trkpt lat="35.47510" lon="-118.08361"><ele>1269.0</ele></trkpt>
      <trkpt lat="35.47519" lon="-118.08374"><ele>1269.0</ele></trkpt>
      <trkpt lat="35.47528" lon="-118.08390"><ele>1269.0</ele></trkpt>
      <trkpt lat="35.47537" lon="-118.08407"><ele>1269.0</ele></trkpt>
      <trkpt lat="35.47548" lon="-118.08425"><ele>1275.0</ele></trkpt>
      <trkpt lat="35.47560" lon="-118.08442"><ele>1275.0</ele></trkpt>
      <trkpt lat="35.47569" lon="-118.08459"><ele>1275.0</ele></trkpt>
      <trkpt lat="35.47576" lon="-118.08476"><ele>1275.0</ele></trkpt>
      <trkpt lat="35.47585" lon="-118.08493"><ele>1275.0</ele></trkpt>
      <trkpt lat="35.47595" lon="-118.08508"><ele>1275.0</ele></trkpt>
      <trkpt lat="35.47605" lon="-118.08521"><ele>1275.0</ele></trkpt>
      <trkpt lat="35.47618" lon="-118.08536"><ele>1278.0</ele></trkpt>
      <trkpt lat="35.47629" lon="-118.08554"><ele>1278.0</ele></trkpt>
      <trkpt lat="35.47641" lon="-118.08573"><ele>1278.0</ele></trkpt>
      <trkpt lat="35.47653" lon="-118.08595"><ele>1278.0</ele></trkpt>
      <trkpt lat="35.47664" lon="-118.08617"><ele>1278.0</ele></trkpt>
      <trkpt lat="35.47676" lon="-118.08640"><ele>1278.0</ele></trkpt>
      <trkpt lat="35.47688" lon="-118.08661"><ele>1278.0</ele></trkpt>
      <trkpt lat="35.47698" lon="-118.08680"><ele>1280.0</ele></trkpt>
      <trkpt lat="35.47707" lon="-118.08694"><ele>1280.0</ele></trkpt>
      <trkpt lat="35.47716" lon="-118.08708"><ele>1280.0</ele></trkpt>
      <trkpt lat="35.47728" lon="-118.08725"><ele>1280.0</ele></trkpt>
      <trkpt lat="35.47739" lon="-118.08740"><ele>1280.0</ele></trkpt>
      <trkpt lat="35.47747" lon="-118.08754"><ele>1280.0</ele></trkpt>
      <trkpt lat="35.47755" lon="-118.08769"><ele>1282.0</ele></trkpt>
      <trkpt lat="35.47760" lon="-118.08782"><ele>1282.0</ele></trkpt>
      <trkpt lat="35.47766" lon="-118.08793"><ele>1282.0</ele></trkpt>
      <trkpt lat="35.47772" lon="-118.08802"><ele>1282.0</ele></trkpt>
      <trkpt lat="35.47779" lon="-118.08812"><ele>1282.0</ele></trkpt>
      <trkpt lat="35.47789" lon="-118.08826"><ele>1282.0</ele></trkpt>
      <trkpt lat="35.47800" lon="-118.08841"><ele>1282.0</ele></trkpt>
      <trkpt lat="35.47810" lon="-118.08856"><ele>1283.0</ele></trkpt>
      <trkpt lat="35.47818" lon="-118.08868"><ele>1283.0</ele></trkpt>
      <trkpt lat="35.47823" lon="-118.08879"><ele>1283.0</ele></trkpt>
      <trkpt lat="35.47830" lon="-118.08891"><ele>1283.0</ele></trkpt>
      <trkpt lat="35.47836" lon="-118.08902"><ele>1283.0</ele></trkpt>
      <trkpt lat="35.47842" lon="-118.08915"><ele>1283.0</ele></trkpt>
      <trkpt lat="35.47849" lon="-118.08927"><ele>1283.0</ele></trkpt>
      <trkpt lat="35.47857" lon="-118.08942"><ele>1286.0</ele></trkpt>
      <trkpt lat="35.47866" lon="-118.08957"><ele>1286.0</ele></trkpt>
      <trkpt lat="35.47876" lon="-118.08973"><ele>1286.0</ele></trkpt>
      <trkpt lat="35.47887" lon="-118.08989"><ele>1286.0</ele></trkpt>
      <trkpt lat="35.47897" lon="-118.09004"><ele>1286.0</ele></trkpt>
      <trkpt lat="35.47907" lon="-118.09018"><ele>1286.0</ele></trkpt>
      <trkpt lat="35.47915" lon="-118.09029"><ele>1291.0</ele></trkpt>
      <trkpt lat="35.47922" lon="-118.09042"><ele>1291.0</ele></trkpt>
      <trkpt lat="35.47931" lon="-118.09056"><ele>1291.0</ele></trkpt>
      <trkpt lat="35.47940" lon="-118.09069"><ele>1291.0</ele></trkpt>
      <trkpt lat="35.47947" lon="-118.09083"><ele>1291.0</ele></trkpt>
      <trkpt lat="35.47953" lon="-118.09092"><ele>1291.0</ele></trkpt>
      <trkpt lat="35.47959" lon="-118.09101"><ele>1291.0</ele></trkpt>
      <trkpt lat="35.47968" lon="-118.09114"><ele>1292.0</ele></trkpt>
      <trkpt lat="35.47979" lon="-118.09131"><ele>1292.0</ele></trkpt>
      <trkpt lat="35.47990" lon="-118.09152"><ele>1292.0</ele></trkpt>
      <trkpt lat="35.48000" lon="-118.09175"><ele>1292.0</ele></trkpt>
      <trkpt lat="35.48009" lon="-118.09197"><ele>1292.0</ele></trkpt>
      <trkpt lat="35.48017" lon="-118.09216"><ele>1292.0</ele></trkpt>
      <trkpt lat="35.48026" lon="-118.09231"><ele>1298.0</ele></trkpt>
      <trkpt lat="35.48036" lon="-118.09243"><ele>1298.0</ele></trkpt>
      <trkpt lat="35.48045" lon="-118.09254"><ele>1298.0</ele></trkpt>
      <trkpt lat="35.48052" lon="-118.09266"><ele>1298.0</ele></trkpt>
      <trkpt lat="35.48060" lon="-118.09281"><ele>1298.0</ele></trkpt>
      <trkpt lat="35.48067" lon="-118.09295"><ele>1298.0</ele></trkpt>
      <trkpt lat="35.48073" lon="-118.09309"><ele>1298.0</ele></trkpt>
      <trkpt lat="35.48081" lon="-118.09327"><ele>1305.0</ele></trkpt>
      <trkpt lat="35.48088" lon="-118.09343"><ele>1305.0</ele></trkpt>
      <trkpt lat="35.48097" lon="-118.09362"><ele>1305.0</ele></trkpt>
      <trkpt lat="35.48105" lon="-118.09377"><ele>1305.0</ele></trkpt>
      <trkpt lat="35.48110" lon="-118.09385"><ele>1305.0</ele></trkpt>
      <trkpt lat="35.48118" lon="-118.09395"><ele>1305.0</ele></trkpt>
      <trkpt lat="35.48126" lon="-118.09405"><ele>1305.0</ele></trkpt>
      <trkpt lat="35.48131" lon="-118.09411"><ele>1308.0</ele></trkpt>
      <trkpt lat="35.48138" lon="-118.09420"><ele>1308.0</ele></trkpt>
      <trkpt lat="35.48143" lon="-118.09430"><ele>1308.0</ele></trkpt>
      <trkpt lat="35.48144" lon="-118.09434"><ele>1308.0</ele></trkpt>
      <trkpt lat="35.48146" lon="-118.09441"><ele>1308.0</ele></trkpt>
      <trkpt lat="35.48149" lon="-118.09451"><ele>1308.0</ele></trkpt>
      <trkpt lat="35.48152" lon="-118.09461"><ele>1315.0</ele></trkpt>
      <trkpt lat="35.48155" lon="-118.09470"><ele>1315.0</ele></trkpt>
      <trkpt lat="35.48161" lon="-118.09481"><ele>1315.0</ele></trkpt>
      <trkpt lat="35.48166" lon="-118.09492"><ele>1315.0</ele></trkpt>
      <trkpt lat="35.48171" lon="-118.09504"><ele>1315.0</ele></trkpt>
      <trkpt lat="35.48177" lon="-118.09518"><ele>1315.0</ele></trkpt>
      <trkpt lat="35.48183" lon="-118.09532"><ele>1315.0</ele></trkpt>
      <trkpt lat="35.48189" lon="-118.09548"><ele>1321.0</ele></trkpt>
      <trkpt lat="35.48197" lon="-118.09562"><ele>1321.0</ele></trkpt>
      <trkpt lat="35.48207" lon="-118.09574"><ele>1321.0</ele></trkpt>
      <trkpt lat="35.48218" lon="-118.09583"><ele>1321.0</ele></trkpt>
      <trkpt lat="35.48229" lon="-118.09586"><ele>1321.0</ele></trkpt>
      <trkpt lat="35.48242" lon="-118.09588"><ele>1321.0</ele></trkpt>
      <trkpt lat="35.48253" lon="-118.09590"><ele>1321.0</ele></trkpt>
      <trkpt lat="35.48267" lon="-118.09592"><ele>1324.0</ele></trkpt>
      <trkpt lat="35.48284" lon="-118.09597"><ele>1324.0</ele></trkpt>
      <trkpt lat="35.48303" lon="-118.09599"><ele>1324.0</ele></trkpt>
      <trkpt lat="35.48324" lon="-118.09599"><ele>1324.0</ele></trkpt>
      <trkpt lat="35.48343" lon="-118.09601"><ele>1324.0</ele></trkpt>
      <trkpt lat="35.48361" lon="-118.09606"><ele>1324.0</ele></trkpt>
      <trkpt lat="35.48376" lon="-118.09611"><ele>1323.0</ele></trkpt>
      <trkpt lat="35.48389" lon="-118.09615"><ele>1323.0</ele></trkpt>
      <trkpt lat="35.48401" lon="-118.09617"><ele>1323.0</ele></trkpt>
      <trkpt lat="35.48415" lon="-118.09616"><ele>1323.0</ele></trkpt>
      <trkpt lat="35.48431" lon="-118.09612"><ele>1323.0</ele></trkpt>
      <trkpt lat="35.48449" lon="-118.09604"><ele>1323.0</ele></trkpt>
      <trkpt lat="35.48466" lon="-118.09591"><ele>1323.0</ele></trkpt>
      <trkpt lat="35.48483" lon="-118.09577"><ele>1313.0</ele></trkpt>
      <trkpt lat="35.48497" lon="-118.09569"><ele>1313.0</ele></trkpt>
      <trkpt lat="35.48509" lon="-118.09564"><ele>1313.0</ele></trkpt>
      <trkpt lat="35.48521" lon="-118.09562"><ele>1313.0</ele></trkpt>
      <trkpt lat="35.48534" lon="-118.09567"><ele>1313.0</ele></trkpt>
      <trkpt lat="35.48541" lon="-118.09573"><ele>1313.0</ele></trkpt>
      <trkpt lat="35.48551" lon="-118.09578"><ele>1311.0</ele></trkpt>
      <trkpt lat="35.48565" lon="-118.09579"><ele>1311.0</ele></trkpt>
      <trkpt lat="35.48578" lon="-118.09579"><ele>1311.0</ele></trkpt>
      <trkpt lat="35.48591" lon="-118.09581"><ele>1311.0</ele></trkpt>
      <trkpt lat="35.48603" lon="-118.09581"><ele>1311.0</ele></trkpt>
      <trkpt lat="35.48617" lon="-118.09582"><ele>1311.0</ele></trkpt>
      <trkpt lat="35.48633" lon="-118.09587"><ele>1311.0</ele></trkpt>
      <trkpt lat="35.48646" lon="-118.09596"><ele>1310.0</ele></trkpt>
      <trkpt lat="35.48659" lon="-118.09605"><ele>1310.0</ele></trkpt>
      <trkpt lat="35.48668" lon="-118.09610"><ele>1310.0</ele></trkpt>
      <trkpt lat="35.48676" lon="-118.09613"><ele>1310.0</ele></trkpt>
      <trkpt lat="35.48686" lon="-118.09615"><ele>1310.0</ele></trkpt>
      <trkpt lat="35.48697" lon="-118.09616"><ele>1310.0</ele></trkpt>
      <trkpt lat="35.48709" lon="-118.09619"><ele>1310.0</ele></trkpt>
      <trkpt lat="35.48719" lon="-118.09622"><ele>1311.0</ele></trkpt>
      <trkpt lat="35.48728" lon="-118.09624"><ele>1311.0</ele></trkpt>
      <trkpt lat="35.48736" lon="-118.09624"><ele>1311.0</ele></trkpt>
      <trkpt lat="35.48745" lon="-118.09623"><ele>1311.0</ele></trkpt>
      <trkpt lat="35.48756" lon="-118.09621"><ele>1311.0</ele></trkpt>
      <trkpt lat="35.48768" lon="-118.09619"><ele>1311.0</ele></trkpt>
      <trkpt lat="35.48783" lon="-118.09618"><ele>1311.0</ele></trkpt>
      <trkpt lat="35.48794" lon="-118.09616"><ele>1311.0</ele></trkpt>
      <trkpt lat="35.48802" lon="-118.09615"><ele>1311.0</ele></trkpt>
      <trkpt lat="35.48809" lon="-118.09615"><ele>1311.0</ele></trkpt>
      <trkpt lat="35.48820" lon="-118.09615"><ele>1311.0</ele></trkpt>
      <trkpt lat="35.48833" lon="-118.09615"><ele>1311.0</ele></trkpt>
      <trkpt lat="35.48846" lon="-118.09616"><ele>1311.0</ele></trkpt>
      <trkpt lat="35.48856" lon="-118.09618"><ele>1311.0</ele></trkpt>
      <trkpt lat="35.48866" lon="-118.09617"><ele>1311.0</ele></trkpt>
      <trkpt lat="35.48880" lon="-118.09615"><ele>1311.0</ele></trkpt>
      <trkpt lat="35.48898" lon="-118.09614"><ele>1311.0</ele></trkpt>
      <trkpt lat="35.48912" lon="-118.09616"><ele>1311.0</ele></trkpt>
      <trkpt lat="35.48921" lon="-118.09616"><ele>1311.0</ele></trkpt>
      <trkpt lat="35.48930" lon="-118.09614"><ele>1311.0</ele></trkpt>
      <trkpt lat="35.48942" lon="-118.09611"><ele>1313.0</ele></trkpt>
      <trkpt lat="35.48957" lon="-118.09609"><ele>1313.0</ele></trkpt>
      <trkpt lat="35.48969" lon="-118.09607"><ele>1313.0</ele></trkpt>
      <trkpt lat="35.48980" lon="-118.09606"><ele>1313.0</ele></trkpt>
      <trkpt lat="35.48990" lon="-118.09605"><ele>1313.0</ele></trkpt>
      <trkpt lat="35.48998" lon="-118.09604"><ele>1313.0</ele></trkpt>
      <trkpt lat="35.49007" lon="-118.09604"><ele>1316.0</ele></trkpt>
      <trkpt lat="35.49017" lon="-118.09606"><ele>1316.0</ele></trkpt>
      <trkpt lat="35.49029" lon="-118.09607"><ele>1316.0</ele></trkpt>
      <trkpt lat="35.49041" lon="-118.09609"><ele>1316.0</ele></trkpt>
      <trkpt lat="35.49055" lon="-118.09611"><ele>1316.0</ele></trkpt>
      <trkpt lat="35.49066" lon="-118.09613"><ele>1316.0</ele></trkpt>
      <trkpt lat="35.49077" lon="-118.09617"><ele>1316.0</ele></trkpt>
      <trkpt lat="35.49085" lon="-118.09621"><ele>1318.0</ele></trkpt>
      <trkpt lat="35.49092" lon="-118.09623"><ele>1318.0</ele></trkpt>
      <trkpt lat="35.49100" lon="-118.09623"><ele>1318.0</ele></trkpt>
      <trkpt lat="35.49109" lon="-118.09621"><ele>1318.0</ele></trkpt>
      <trkpt lat="35.49120" lon="-118.09619"><ele>1318.0</ele></trkpt>
      <trkpt lat="35.49132" lon="-118.09618"><ele>1318.0</ele></trkpt>
      <trkpt lat="35.49145" lon="-118.09617"><ele>1318.0</ele></trkpt>
      <trkpt lat="35.49157" lon="-118.09618"><ele>1318.0</ele></trkpt>
      <trkpt lat="35.49166" lon="-118.09617"><ele>1318.0</ele></trkpt>
      <trkpt lat="35.49173" lon="-118.09618"><ele>1318.0</ele></trkpt>
      <trkpt lat="35.49180" lon="-118.09618"><ele>1318.0</ele></trkpt>
      <trkpt lat="35.49188" lon="-118.09618"><ele>1318.0</ele></trkpt>
      <trkpt lat="35.49196" lon="-118.09618"><ele>1318.0</ele></trkpt>
      <trkpt lat="35.49209" lon="-118.09617"><ele>1316.0</ele></trkpt>
      <trkpt lat="35.49222" lon="-118.09618"><ele>1316.0</ele></trkpt>
      <trkpt lat="35.49231" lon="-118.09619"><ele>1316.0</ele></trkpt>
      <trkpt lat="35.49242" lon="-118.09620"><ele>1316.0</ele></trkpt>
      <trkpt lat="35.49253" lon="-118.09621"><ele>1316.0</ele></trkpt>
      <trkpt lat="35.49262" lon="-118.09622"><ele>1316.0</ele></trkpt>
      <trkpt lat="35.49272" lon="-118.09622"><ele>1316.0</ele></trkpt>
      <trkpt lat="35.49283" lon="-118.09621"><ele>1317.0</ele></trkpt>
      <trkpt lat="35.49298" lon="-118.09622"><ele>1317.0</ele></trkpt>
      <trkpt lat="35.49313" lon="-118.09623"><ele>1317.0</ele></trkpt>
      <trkpt lat="35.49326" lon="-118.09623"><ele>1317.0</ele></trkpt>
      <trkpt lat="35.49335" lon="-118.09622"><ele>1317.0</ele></trkpt>
      <trkpt lat="35.49345" lon="-118.09622"><ele>1317.0</ele></trkpt>
      <trkpt lat="35.49354" lon="-118.09623"><ele>1318.0</ele></trkpt>
      <trkpt lat="35.49365" lon="-118.09624"><ele>1318.0</ele></trkpt>
      <trkpt lat="35.49373" lon="-118.09626"><ele>1318.0</ele></trkpt>
      <trkpt lat="35.49376" lon="-118.09626"><ele>1318.0</ele></trkpt>
    </trkseg>
  </trk>
</gpx>
