<?xml version="1.0" encoding="UTF-8"?>
<gpx version="1.1" creator="dirt-bikes build-area-routes (MVUM geometry + SRTM elevation)" xmlns="http://www.topografix.com/GPX/1/1">
  <trk><name>Scott Russell OHV</name><trkseg>
    <trkpt lat="34.82520" lon="-119.01164"><ele>1625.0</ele></trkpt>
    <trkpt lat="34.82533" lon="-119.01148"><ele>1625.0</ele></trkpt>
    <trkpt lat="34.82543" lon="-119.01130"><ele>1625.0</ele></trkpt>
    <trkpt lat="34.82545" lon="-119.01121"><ele>1633.0</ele></trkpt>
    <trkpt lat="34.82553" lon="-119.01098"><ele>1633.0</ele></trkpt>
    <trkpt lat="34.82561" lon="-119.01077"><ele>1633.0</ele></trkpt>
    <trkpt lat="34.82581" lon="-119.01050"><ele>1633.0</ele></trkpt>
    <trkpt lat="34.82591" lon="-119.01041"><ele>1633.0</ele></trkpt>
    <trkpt lat="34.82605" lon="-119.01023"><ele>1650.0</ele></trkpt>
    <trkpt lat="34.82615" lon="-119.01012"><ele>1650.0</ele></trkpt>
    <trkpt lat="34.82630" lon="-119.00996"><ele>1650.0</ele></trkpt>
    <trkpt lat="34.82638" lon="-119.00989"><ele>1650.0</ele></trkpt>
    <trkpt lat="34.82650" lon="-119.00982"><ele>1660.0</ele></trkpt>
    <trkpt lat="34.82656" lon="-119.00981"><ele>1660.0</ele></trkpt>
    <trkpt lat="34.82675" lon="-119.00973"><ele>1660.0</ele></trkpt>
    <trkpt lat="34.82695" lon="-119.00963"><ele>1660.0</ele></trkpt>
    <trkpt lat="34.82712" lon="-119.00958"><ele>1660.0</ele></trkpt>
    <trkpt lat="34.82720" lon="-119.00953"><ele>1675.0</ele></trkpt>
    <trkpt lat="34.82737" lon="-119.00953"><ele>1675.0</ele></trkpt>
    <trkpt lat="34.82752" lon="-119.00949"><ele>1675.0</ele></trkpt>
    <trkpt lat="34.82758" lon="-119.00940"><ele>1675.0</ele></trkpt>
    <trkpt lat="34.82766" lon="-119.00926"><ele>1688.0</ele></trkpt>
    <trkpt lat="34.82776" lon="-119.00918"><ele>1688.0</ele></trkpt>
    <trkpt lat="34.82790" lon="-119.00915"><ele>1688.0</ele></trkpt>
    <trkpt lat="34.82803" lon="-119.00907"><ele>1688.0</ele></trkpt>
    <trkpt lat="34.82810" lon="-119.00895"><ele>1688.0</ele></trkpt>
    <trkpt lat="34.82815" lon="-119.00883"><ele>1700.0</ele></trkpt>
    <trkpt lat="34.82828" lon="-119.00872"><ele>1700.0</ele></trkpt>
    <trkpt lat="34.82840" lon="-119.00866"><ele>1700.0</ele></trkpt>
    <trkpt lat="34.82845" lon="-119.00856"><ele>1700.0</ele></trkpt>
    <trkpt lat="34.82857" lon="-119.00832"><ele>1700.0</ele></trkpt>
    <trkpt lat="34.82865" lon="-119.00822"><ele>1713.0</ele></trkpt>
    <trkpt lat="34.82878" lon="-119.00801"><ele>1713.0</ele></trkpt>
    <trkpt lat="34.82887" lon="-119.00779"><ele>1713.0</ele></trkpt>
    <trkpt lat="34.82895" lon="-119.00771"><ele>1713.0</ele></trkpt>
    <trkpt lat="34.82907" lon="-119.00757"><ele>1724.0</ele></trkpt>
    <trkpt lat="34.82925" lon="-119.00744"><ele>1724.0</ele></trkpt>
    <trkpt lat="34.82929" lon="-119.00742"><ele>1724.0</ele></trkpt>
    <trkpt lat="34.82938" lon="-119.00745"><ele>1724.0</ele></trkpt>
    <trkpt lat="34.82952" lon="-119.00762"><ele>1724.0</ele></trkpt>
    <trkpt lat="34.82960" lon="-119.00769"><ele>1733.0</ele></trkpt>
    <trkpt lat="34.82970" lon="-119.00769"><ele>1733.0</ele></trkpt>
    <trkpt lat="34.82984" lon="-119.00769"><ele>1733.0</ele></trkpt>
    <trkpt lat="34.82989" lon="-119.00771"><ele>1733.0</ele></trkpt>
    <trkpt lat="34.82998" lon="-119.00782"><ele>1744.0</ele></trkpt>
    <trkpt lat="34.83009" lon="-119.00808"><ele>1744.0</ele></trkpt>
    <trkpt lat="34.83019" lon="-119.00824"><ele>1744.0</ele></trkpt>
    <trkpt lat="34.83026" lon="-119.00830"><ele>1744.0</ele></trkpt>
    <trkpt lat="34.83045" lon="-119.00838"><ele>1744.0</ele></trkpt>
    <trkpt lat="34.83054" lon="-119.00845"><ele>1756.0</ele></trkpt>
    <trkpt lat="34.83071" lon="-119.00862"><ele>1756.0</ele></trkpt>
    <trkpt lat="34.83078" lon="-119.00870"><ele>1756.0</ele></trkpt>
    <trkpt lat="34.83098" lon="-119.00872"><ele>1756.0</ele></trkpt>
    <trkpt lat="34.83105" lon="-119.00873"><ele>1766.0</ele></trkpt>
    <trkpt lat="34.83129" lon="-119.00883"><ele>1766.0</ele></trkpt>
    <trkpt lat="34.83136" lon="-119.00886"><ele>1766.0</ele></trkpt>
    <trkpt lat="34.83139" lon="-119.00908"><ele>1766.0</ele></trkpt>
    <trkpt lat="34.83139" lon="-119.00944"><ele>1766.0</ele></trkpt>
    <trkpt lat="34.83140" lon="-119.00962"><ele>1776.0</ele></trkpt>
    <trkpt lat="34.83145" lon="-119.00970"><ele>1776.0</ele></trkpt>
    <trkpt lat="34.83155" lon="-119.00974"><ele>1776.0</ele></trkpt>
    <trkpt lat="34.83168" lon="-119.00972"><ele>1776.0</ele></trkpt>
    <trkpt lat="34.83195" lon="-119.00964"><ele>1776.0</ele></trkpt>
    <trkpt lat="34.83211" lon="-119.00963"><ele>1786.0</ele></trkpt>
    <trkpt lat="34.83221" lon="-119.00969"><ele>1786.0</ele></trkpt>
    <trkpt lat="34.83236" lon="-119.00984"><ele>1786.0</ele></trkpt>
    <trkpt lat="34.83257" lon="-119.01007"><ele>1786.0</ele></trkpt>
    <trkpt lat="34.83272" lon="-119.01016"><ele>1806.0</ele></trkpt>
    <trkpt lat="34.83296" lon="-119.01026"><ele>1806.0</ele></trkpt>
    <trkpt lat="34.83316" lon="-119.01028"><ele>1806.0</ele></trkpt>
    <trkpt lat="34.83328" lon="-119.01040"><ele>1806.0</ele></trkpt>
    <trkpt lat="34.83334" lon="-119.01054"><ele>1806.0</ele></trkpt>
    <trkpt lat="34.83345" lon="-119.01087"><ele>1815.0</ele></trkpt>
    <trkpt lat="34.83351" lon="-119.01116"><ele>1815.0</ele></trkpt>
    <trkpt lat="34.83360" lon="-119.01139"><ele>1815.0</ele></trkpt>
    <trkpt lat="34.83378" lon="-119.01160"><ele>1815.0</ele></trkpt>
    <trkpt lat="34.83396" lon="-119.01187"><ele>1827.0</ele></trkpt>
    <trkpt lat="34.83409" lon="-119.01208"><ele>1827.0</ele></trkpt>
    <trkpt lat="34.83420" lon="-119.01233"><ele>1827.0</ele></trkpt>
    <trkpt lat="34.83436" lon="-119.01262"><ele>1827.0</ele></trkpt>
    <trkpt lat="34.83449" lon="-119.01279"><ele>1827.0</ele></trkpt>
    <trkpt lat="34.83466" lon="-119.01293"><ele>1841.0</ele></trkpt>
    <trkpt lat="34.83476" lon="-119.01303"><ele>1841.0</ele></trkpt>
    <trkpt lat="34.83507" lon="-119.01323"><ele>1841.0</ele></trkpt>
    <trkpt lat="34.83528" lon="-119.01334"><ele>1841.0</ele></trkpt>
    <trkpt lat="34.83545" lon="-119.01343"><ele>1841.0</ele></trkpt>
    <trkpt lat="34.83565" lon="-119.01367"><ele>1857.0</ele></trkpt>
    <trkpt lat="34.83586" lon="-119.01384"><ele>1857.0</ele></trkpt>
    <trkpt lat="34.83608" lon="-119.01391"><ele>1857.0</ele></trkpt>
    <trkpt lat="34.83624" lon="-119.01397"><ele>1857.0</ele></trkpt>
    <trkpt lat="34.83640" lon="-119.01409"><ele>1863.0</ele></trkpt>
    <trkpt lat="34.83647" lon="-119.01414"><ele>1863.0</ele></trkpt>
    <trkpt lat="34.83667" lon="-119.01426"><ele>1863.0</ele></trkpt>
    <trkpt lat="34.83692" lon="-119.01432"><ele>1863.0</ele></trkpt>
    <trkpt lat="34.83698" lon="-119.01434"><ele>1863.0</ele></trkpt>
    <trkpt lat="34.83718" lon="-119.01450"><ele>1878.0</ele></trkpt>
    <trkpt lat="34.83734" lon="-119.01468"><ele>1878.0</ele></trkpt>
    <trkpt lat="34.83763" lon="-119.01500"><ele>1878.0</ele></trkpt>
    <trkpt lat="34.83773" lon="-119.01511"><ele>1878.0</ele></trkpt>
    <trkpt lat="34.83779" lon="-119.01519"><ele>1895.0</ele></trkpt>
    <trkpt lat="34.83790" lon="-119.01533"><ele>1895.0</ele></trkpt>
    <trkpt lat="34.83802" lon="-119.01548"><ele>1895.0</ele></trkpt>
    <trkpt lat="34.83815" lon="-119.01558"><ele>1895.0</ele></trkpt>
    <trkpt lat="34.83824" lon="-119.01566"><ele>1895.0</ele></trkpt>
    <trkpt lat="34.83838" lon="-119.01571"><ele>1896.0</ele></trkpt>
    <trkpt lat="34.83847" lon="-119.01573"><ele>1896.0</ele></trkpt>
    <trkpt lat="34.83877" lon="-119.01584"><ele>1896.0</ele></trkpt>
    <trkpt lat="34.83902" lon="-119.01595"><ele>1896.0</ele></trkpt>
    <trkpt lat="34.83908" lon="-119.01598"><ele>1911.0</ele></trkpt>
    <trkpt lat="34.83936" lon="-119.01613"><ele>1911.0</ele></trkpt>
    <trkpt lat="34.83942" lon="-119.01616"><ele>1911.0</ele></trkpt>
    <trkpt lat="34.83965" lon="-119.01630"><ele>1911.0</ele></trkpt>
    <trkpt lat="34.83977" lon="-119.01636"><ele>1911.0</ele></trkpt>
    <trkpt lat="34.84002" lon="-119.01650"><ele>1926.0</ele></trkpt>
    <trkpt lat="34.84015" lon="-119.01655"><ele>1926.0</ele></trkpt>
    <trkpt lat="34.84042" lon="-119.01674"><ele>1926.0</ele></trkpt>
    <trkpt lat="34.84056" lon="-119.01683"><ele>1926.0</ele></trkpt>
    <trkpt lat="34.84085" lon="-119.01704"><ele>1926.0</ele></trkpt>
    <trkpt lat="34.84110" lon="-119.01719"><ele>1945.0</ele></trkpt>
    <trkpt lat="34.84135" lon="-119.01738"><ele>1945.0</ele></trkpt>
    <trkpt lat="34.84151" lon="-119.01751"><ele>1945.0</ele></trkpt>
    <trkpt lat="34.84172" lon="-119.01765"><ele>1945.0</ele></trkpt>
    <trkpt lat="34.84203" lon="-119.01777"><ele>1958.0</ele></trkpt>
    <trkpt lat="34.84216" lon="-119.01779"><ele>1958.0</ele></trkpt>
    <trkpt lat="34.84228" lon="-119.01785"><ele>1958.0</ele></trkpt>
    <trkpt lat="34.84244" lon="-119.01795"><ele>1958.0</ele></trkpt>
    <trkpt lat="34.84257" lon="-119.01806"><ele>1958.0</ele></trkpt>
    <trkpt lat="34.84266" lon="-119.01809"><ele>1966.0</ele></trkpt>
    <trkpt lat="34.84292" lon="-119.01814"><ele>1966.0</ele></trkpt>
    <trkpt lat="34.84318" lon="-119.01816"><ele>1966.0</ele></trkpt>
    <trkpt lat="34.84330" lon="-119.01814"><ele>1966.0</ele></trkpt>
    <trkpt lat="34.84349" lon="-119.01818"><ele>1977.0</ele></trkpt>
    <trkpt lat="34.84359" lon="-119.01819"><ele>1977.0</ele></trkpt>
    <trkpt lat="34.84378" lon="-119.01827"><ele>1977.0</ele></trkpt>
    <trkpt lat="34.84390" lon="-119.01828"><ele>1977.0</ele></trkpt>
    <trkpt lat="34.84413" lon="-119.01825"><ele>1977.0</ele></trkpt>
    <trkpt lat="34.84422" lon="-119.01822"><ele>1986.0</ele></trkpt>
    <trkpt lat="34.84429" lon="-119.01820"><ele>1986.0</ele></trkpt>
    <trkpt lat="34.84439" lon="-119.01818"><ele>1986.0</ele></trkpt>
    <trkpt lat="34.84447" lon="-119.01817"><ele>1986.0</ele></trkpt>
    <trkpt lat="34.84448" lon="-119.01814"><ele>1986.0</ele></trkpt>
    <trkpt lat="34.84449" lon="-119.01811"><ele>1987.0</ele></trkpt>
    <trkpt lat="34.84435" lon="-119.01801"><ele>1987.0</ele></trkpt>
    <trkpt lat="34.84419" lon="-119.01792"><ele>1987.0</ele></trkpt>
    <trkpt lat="34.84394" lon="-119.01775"><ele>1987.0</ele></trkpt>
    <trkpt lat="34.84386" lon="-119.01769"><ele>1984.0</ele></trkpt>
    <trkpt lat="34.84377" lon="-119.01754"><ele>1984.0</ele></trkpt>
    <trkpt lat="34.84369" lon="-119.01734"><ele>1984.0</ele></trkpt>
    <trkpt lat="34.84358" lon="-119.01718"><ele>1984.0</ele></trkpt>
    <trkpt lat="34.84352" lon="-119.01706"><ele>1984.0</ele></trkpt>
    <trkpt lat="34.84349" lon="-119.01692"><ele>1991.0</ele></trkpt>
    <trkpt lat="34.84345" lon="-119.01671"><ele>1991.0</ele></trkpt>
    <trkpt lat="34.84346" lon="-119.01632"><ele>1991.0</ele></trkpt>
    <trkpt lat="34.84345" lon="-119.01620"><ele>1991.0</ele></trkpt>
    <trkpt lat="34.84340" lon="-119.01609"><ele>1991.0</ele></trkpt>
    <trkpt lat="34.84332" lon="-119.01586"><ele>1991.0</ele></trkpt>
    <trkpt lat="34.84320" lon="-119.01553"><ele>1991.0</ele></trkpt>
    <trkpt lat="34.84313" lon="-119.01537"><ele>1991.0</ele></trkpt>
    <trkpt lat="34.84303" lon="-119.01507"><ele>1991.0</ele></trkpt>
    <trkpt lat="34.84295" lon="-119.01485"><ele>1986.0</ele></trkpt>
    <trkpt lat="34.84282" lon="-119.01461"><ele>1986.0</ele></trkpt>
    <trkpt lat="34.84273" lon="-119.01442"><ele>1986.0</ele></trkpt>
    <trkpt lat="34.84259" lon="-119.01412"><ele>1986.0</ele></trkpt>
    <trkpt lat="34.84249" lon="-119.01390"><ele>1985.0</ele></trkpt>
    <trkpt lat="34.84242" lon="-119.01370"><ele>1985.0</ele></trkpt>
    <trkpt lat="34.84236" lon="-119.01350"><ele>1985.0</ele></trkpt>
    <trkpt lat="34.84226" lon="-119.01334"><ele>1985.0</ele></trkpt>
    <trkpt lat="34.84220" lon="-119.01312"><ele>1985.0</ele></trkpt>
    <trkpt lat="34.84213" lon="-119.01296"><ele>1988.0</ele></trkpt>
    <trkpt lat="34.84206" lon="-119.01278"><ele>1988.0</ele></trkpt>
    <trkpt lat="34.84201" lon="-119.01271"><ele>1988.0</ele></trkpt>
    <trkpt lat="34.84187" lon="-119.01257"><ele>1988.0</ele></trkpt>
    <trkpt lat="34.84179" lon="-119.01247"><ele>1988.0</ele></trkpt>
    <trkpt lat="34.84166" lon="-119.01228"><ele>1991.0</ele></trkpt>
    <trkpt lat="34.84158" lon="-119.01207"><ele>1991.0</ele></trkpt>
    <trkpt lat="34.84153" lon="-119.01199"><ele>1991.0</ele></trkpt>
    <trkpt lat="34.84137" lon="-119.01177"><ele>1991.0</ele></trkpt>
    <trkpt lat="34.84123" lon="-119.01155"><ele>1993.0</ele></trkpt>
    <trkpt lat="34.84115" lon="-119.01146"><ele>1993.0</ele></trkpt>
    <trkpt lat="34.84107" lon="-119.01143"><ele>1993.0</ele></trkpt>
    <trkpt lat="34.84084" lon="-119.01145"><ele>1993.0</ele></trkpt>
    <trkpt lat="34.84073" lon="-119.01146"><ele>1993.0</ele></trkpt>
    <trkpt lat="34.84061" lon="-119.01152"><ele>1995.0</ele></trkpt>
    <trkpt lat="34.84050" lon="-119.01151"><ele>1995.0</ele></trkpt>
    <trkpt lat="34.84042" lon="-119.01148"><ele>1995.0</ele></trkpt>
    <trkpt lat="34.84025" lon="-119.01136"><ele>1995.0</ele></trkpt>
    <trkpt lat="34.84009" lon="-119.01126"><ele>2000.0</ele></trkpt>
    <trkpt lat="34.83992" lon="-119.01112"><ele>2000.0</ele></trkpt>
    <trkpt lat="34.83979" lon="-119.01100"><ele>2000.0</ele></trkpt>
    <trkpt lat="34.83967" lon="-119.01093"><ele>2000.0</ele></trkpt>
    <trkpt lat="34.83945" lon="-119.01086"><ele>2000.0</ele></trkpt>
    <trkpt lat="34.83936" lon="-119.01083"><ele>2006.0</ele></trkpt>
    <trkpt lat="34.83936" lon="-119.01083"><ele>2006.0</ele></trkpt>
    <trkpt lat="34.83935" lon="-119.01082"><ele>2006.0</ele></trkpt>
    <trkpt lat="34.83933" lon="-119.01079"><ele>2006.0</ele></trkpt>
    <trkpt lat="34.83920" lon="-119.01070"><ele>2006.0</ele></trkpt>
    <trkpt lat="34.83910" lon="-119.01054"><ele>2011.0</ele></trkpt>
    <trkpt lat="34.83904" lon="-119.01039"><ele>2011.0</ele></trkpt>
    <trkpt lat="34.83897" lon="-119.01013"><ele>2011.0</ele></trkpt>
    <trkpt lat="34.83894" lon="-119.00987"><ele>2011.0</ele></trkpt>
    <trkpt lat="34.83892" lon="-119.00963"><ele>2014.0</ele></trkpt>
    <trkpt lat="34.83892" lon="-119.00937"><ele>2014.0</ele></trkpt>
    <trkpt lat="34.83891" lon="-119.00902"><ele>2014.0</ele></trkpt>
    <trkpt lat="34.83893" lon="-119.00866"><ele>2014.0</ele></trkpt>
    <trkpt lat="34.83892" lon="-119.00843"><ele>2014.0</ele></trkpt>
    <trkpt lat="34.83896" lon="-119.00834"><ele>2011.0</ele></trkpt>
    <trkpt lat="34.83909" lon="-119.00819"><ele>2011.0</ele></trkpt>
    <trkpt lat="34.83916" lon="-119.00806"><ele>2011.0</ele></trkpt>
    <trkpt lat="34.83925" lon="-119.00770"><ele>2011.0</ele></trkpt>
    <trkpt lat="34.83930" lon="-119.00744"><ele>1997.0</ele></trkpt>
    <trkpt lat="34.83933" lon="-119.00724"><ele>1997.0</ele></trkpt>
    <trkpt lat="34.83935" lon="-119.00714"><ele>1997.0</ele></trkpt>
    <trkpt lat="34.83946" lon="-119.00699"><ele>1997.0</ele></trkpt>
    <trkpt lat="34.83962" lon="-119.00688"><ele>1997.0</ele></trkpt>
    <trkpt lat="34.83981" lon="-119.00678"><ele>1992.0</ele></trkpt>
    <trkpt lat="34.84003" lon="-119.00667"><ele>1992.0</ele></trkpt>
    <trkpt lat="34.84015" lon="-119.00647"><ele>1992.0</ele></trkpt>
    <trkpt lat="34.84025" lon="-119.00621"><ele>1992.0</ele></trkpt>
    <trkpt lat="34.84033" lon="-119.00594"><ele>1992.0</ele></trkpt>
    <trkpt lat="34.84035" lon="-119.00584"><ele>1992.0</ele></trkpt>
    <trkpt lat="34.84036" lon="-119.00561"><ele>1992.0</ele></trkpt>
    <trkpt lat="34.84047" lon="-119.00538"><ele>1992.0</ele></trkpt>
    <trkpt lat="34.84057" lon="-119.00521"><ele>1992.0</ele></trkpt>
    <trkpt lat="34.84064" lon="-119.00498"><ele>2004.0</ele></trkpt>
    <trkpt lat="34.84053" lon="-119.00472"><ele>2004.0</ele></trkpt>
    <trkpt lat="34.84045" lon="-119.00458"><ele>2004.0</ele></trkpt>
    <trkpt lat="34.84033" lon="-119.00436"><ele>2004.0</ele></trkpt>
    <trkpt lat="34.84023" lon="-119.00419"><ele>2004.0</ele></trkpt>
    <trkpt lat="34.84014" lon="-119.00406"><ele>2011.0</ele></trkpt>
    <trkpt lat="34.83994" lon="-119.00391"><ele>2011.0</ele></trkpt>
    <trkpt lat="34.83983" lon="-119.00380"><ele>2011.0</ele></trkpt>
    <trkpt lat="34.83970" lon="-119.00373"><ele>2011.0</ele></trkpt>
    <trkpt lat="34.83962" lon="-119.00366"><ele>2013.0</ele></trkpt>
    <trkpt lat="34.83963" lon="-119.00362"><ele>2013.0</ele></trkpt>
    <trkpt lat="34.83965" lon="-119.00350"><ele>2013.0</ele></trkpt>
    <trkpt lat="34.83970" lon="-119.00339"><ele>2013.0</ele></trkpt>
    <trkpt lat="34.83983" lon="-119.00313"><ele>2013.0</ele></trkpt>
    <trkpt lat="34.83988" lon="-119.00300"><ele>2035.0</ele></trkpt>
    <trkpt lat="34.83989" lon="-119.00289"><ele>2035.0</ele></trkpt>
    <trkpt lat="34.83987" lon="-119.00288"><ele>2035.0</ele></trkpt>
    <trkpt lat="34.83978" lon="-119.00272"><ele>2035.0</ele></trkpt>
    <trkpt lat="34.83960" lon="-119.00249"><ele>2042.0</ele></trkpt>
    <trkpt lat="34.83938" lon="-119.00236"><ele>2042.0</ele></trkpt>
    <trkpt lat="34.83919" lon="-119.00225"><ele>2042.0</ele></trkpt>
    <trkpt lat="34.83910" lon="-119.00221"><ele>2042.0</ele></trkpt>
    <trkpt lat="34.83906" lon="-119.00217"><ele>2042.0</ele></trkpt>
    <trkpt lat="34.83888" lon="-119.00204"><ele>2044.0</ele></trkpt>
    <trkpt lat="34.83882" lon="-119.00200"><ele>2044.0</ele></trkpt>
    <trkpt lat="34.83865" lon="-119.00195"><ele>2044.0</ele></trkpt>
    <trkpt lat="34.83856" lon="-119.00194"><ele>2044.0</ele></trkpt>
    <trkpt lat="34.83837" lon="-119.00189"><ele>2044.0</ele></trkpt>
    <trkpt lat="34.83832" lon="-119.00184"><ele>2044.0</ele></trkpt>
    <trkpt lat="34.83830" lon="-119.00175"><ele>2044.0</ele></trkpt>
    <trkpt lat="34.83828" lon="-119.00161"><ele>2044.0</ele></trkpt>
    <trkpt lat="34.83830" lon="-119.00145"><ele>2044.0</ele></trkpt>
    <trkpt lat="34.83840" lon="-119.00134"><ele>2049.0</ele></trkpt>
    <trkpt lat="34.83849" lon="-119.00125"><ele>2049.0</ele></trkpt>
    <trkpt lat="34.83858" lon="-119.00118"><ele>2049.0</ele></trkpt>
    <trkpt lat="34.83879" lon="-119.00102"><ele>2049.0</ele></trkpt>
    <trkpt lat="34.83888" lon="-119.00095"><ele>2049.0</ele></trkpt>
    <trkpt lat="34.83908" lon="-119.00086"><ele>2065.0</ele></trkpt>
    <trkpt lat="34.83926" lon="-119.00081"><ele>2065.0</ele></trkpt>
    <trkpt lat="34.83940" lon="-119.00076"><ele>2065.0</ele></trkpt>
    <trkpt lat="34.83955" lon="-119.00081"><ele>2065.0</ele></trkpt>
    <trkpt lat="34.83970" lon="-119.00085"><ele>2082.0</ele></trkpt>
    <trkpt lat="34.83991" lon="-119.00081"><ele>2082.0</ele></trkpt>
    <trkpt lat="34.84010" lon="-119.00081"><ele>2082.0</ele></trkpt>
    <trkpt lat="34.84033" lon="-119.00077"><ele>2082.0</ele></trkpt>
    <trkpt lat="34.84052" lon="-119.00071"><ele>2082.0</ele></trkpt>
    <trkpt lat="34.84067" lon="-119.00064"><ele>2091.0</ele></trkpt>
    <trkpt lat="34.84076" lon="-119.00058"><ele>2091.0</ele></trkpt>
    <trkpt lat="34.84091" lon="-119.00044"><ele>2091.0</ele></trkpt>
    <trkpt lat="34.84099" lon="-119.00034"><ele>2091.0</ele></trkpt>
    <trkpt lat="34.84112" lon="-119.00014"><ele>2095.0</ele></trkpt>
    <trkpt lat="34.84124" lon="-118.99997"><ele>2095.0</ele></trkpt>
    <trkpt lat="34.84134" lon="-118.99981"><ele>2095.0</ele></trkpt>
    <trkpt lat="34.84137" lon="-118.99971"><ele>2095.0</ele></trkpt>
    <trkpt lat="34.84143" lon="-118.99948"><ele>2095.0</ele></trkpt>
    <trkpt lat="34.84146" lon="-118.99934"><ele>2099.0</ele></trkpt>
    <trkpt lat="34.84144" lon="-118.99918"><ele>2099.0</ele></trkpt>
    <trkpt lat="34.84139" lon="-118.99900"><ele>2099.0</ele></trkpt>
    <trkpt lat="34.84139" lon="-118.99900"><ele>2099.0</ele></trkpt>
    <trkpt lat="34.84148" lon="-118.99908"><ele>2099.0</ele></trkpt>
    <trkpt lat="34.84166" lon="-118.99914"><ele>2099.0</ele></trkpt>
    <trkpt lat="34.84172" lon="-118.99911"><ele>2099.0</ele></trkpt>
    <trkpt lat="34.84181" lon="-118.99900"><ele>2099.0</ele></trkpt>
    <trkpt lat="34.84197" lon="-118.99878"><ele>2099.0</ele></trkpt>
    <trkpt lat="34.84216" lon="-118.99855"><ele>2100.0</ele></trkpt>
    <trkpt lat="34.84236" lon="-118.99837"><ele>2100.0</ele></trkpt>
    <trkpt lat="34.84254" lon="-118.99819"><ele>2100.0</ele></trkpt>
    <trkpt lat="34.84277" lon="-118.99794"><ele>2100.0</ele></trkpt>
    <trkpt lat="34.84281" lon="-118.99790"><ele>2100.0</ele></trkpt>
    <trkpt lat="34.84289" lon="-118.99790"><ele>2099.0</ele></trkpt>
    <trkpt lat="34.84305" lon="-118.99796"><ele>2099.0</ele></trkpt>
    <trkpt lat="34.84314" lon="-118.99798"><ele>2099.0</ele></trkpt>
    <trkpt lat="34.84329" lon="-118.99794"><ele>2099.0</ele></trkpt>
    <trkpt lat="34.84357" lon="-118.99782"><ele>2097.0</ele></trkpt>
    <trkpt lat="34.84375" lon="-118.99775"><ele>2097.0</ele></trkpt>
    <trkpt lat="34.84392" lon="-118.99772"><ele>2097.0</ele></trkpt>
    <trkpt lat="34.84400" lon="-118.99772"><ele>2097.0</ele></trkpt>
    <trkpt lat="34.84408" lon="-118.99774"><ele>2097.0</ele></trkpt>
    <trkpt lat="34.84432" lon="-118.99779"><ele>2095.0</ele></trkpt>
    <trkpt lat="34.84463" lon="-118.99781"><ele>2095.0</ele></trkpt>
    <trkpt lat="34.84472" lon="-118.99779"><ele>2095.0</ele></trkpt>
    <trkpt lat="34.84487" lon="-118.99774"><ele>2095.0</ele></trkpt>
    <trkpt lat="34.84492" lon="-118.99770"><ele>2095.0</ele></trkpt>
    <trkpt lat="34.84510" lon="-118.99768"><ele>2093.0</ele></trkpt>
    <trkpt lat="34.84531" lon="-118.99768"><ele>2093.0</ele></trkpt>
    <trkpt lat="34.84546" lon="-118.99766"><ele>2093.0</ele></trkpt>
    <trkpt lat="34.84564" lon="-118.99754"><ele>2093.0</ele></trkpt>
    <trkpt lat="34.84579" lon="-118.99735"><ele>2091.0</ele></trkpt>
    <trkpt lat="34.84589" lon="-118.99719"><ele>2091.0</ele></trkpt>
    <trkpt lat="34.84603" lon="-118.99697"><ele>2091.0</ele></trkpt>
    <trkpt lat="34.84606" lon="-118.99692"><ele>2091.0</ele></trkpt>
    <trkpt lat="34.84618" lon="-118.99667"><ele>2091.0</ele></trkpt>
    <trkpt lat="34.84626" lon="-118.99648"><ele>2086.0</ele></trkpt>
    <trkpt lat="34.84633" lon="-118.99622"><ele>2086.0</ele></trkpt>
    <trkpt lat="34.84639" lon="-118.99601"><ele>2086.0</ele></trkpt>
    <trkpt lat="34.84661" lon="-118.99580"><ele>2086.0</ele></trkpt>
    <trkpt lat="34.84671" lon="-118.99560"><ele>2072.0</ele></trkpt>
    <trkpt lat="34.84683" lon="-118.99542"><ele>2072.0</ele></trkpt>
    <trkpt lat="34.84690" lon="-118.99531"><ele>2072.0</ele></trkpt>
    <trkpt lat="34.84698" lon="-118.99518"><ele>2072.0</ele></trkpt>
    <trkpt lat="34.84709" lon="-118.99510"><ele>2072.0</ele></trkpt>
    <trkpt lat="34.84726" lon="-118.99497"><ele>2066.0</ele></trkpt>
    <trkpt lat="34.84737" lon="-118.99482"><ele>2066.0</ele></trkpt>
    <trkpt lat="34.84743" lon="-118.99477"><ele>2066.0</ele></trkpt>
    <trkpt lat="34.84747" lon="-118.99464"><ele>2066.0</ele></trkpt>
    <trkpt lat="34.84741" lon="-118.99437"><ele>2054.0</ele></trkpt>
    <trkpt lat="34.84733" lon="-118.99403"><ele>2054.0</ele></trkpt>
    <trkpt lat="34.84727" lon="-118.99384"><ele>2054.0</ele></trkpt>
    <trkpt lat="34.84716" lon="-118.99354"><ele>2054.0</ele></trkpt>
    <trkpt lat="34.84708" lon="-118.99339"><ele>2054.0</ele></trkpt>
    <trkpt lat="34.84699" lon="-118.99321"><ele>2050.0</ele></trkpt>
    <trkpt lat="34.84690" lon="-118.99292"><ele>2050.0</ele></trkpt>
    <trkpt lat="34.84685" lon="-118.99273"><ele>2050.0</ele></trkpt>
    <trkpt lat="34.84683" lon="-118.99257"><ele>2050.0</ele></trkpt>
    <trkpt lat="34.84685" lon="-118.99222"><ele>2050.0</ele></trkpt>
    <trkpt lat="34.84684" lon="-118.99188"><ele>2059.0</ele></trkpt>
    <trkpt lat="34.84683" lon="-118.99166"><ele>2059.0</ele></trkpt>
    <trkpt lat="34.84670" lon="-118.99139"><ele>2059.0</ele></trkpt>
    <trkpt lat="34.84666" lon="-118.99121"><ele>2059.0</ele></trkpt>
    <trkpt lat="34.84662" lon="-118.99090"><ele>2063.0</ele></trkpt>
    <trkpt lat="34.84667" lon="-118.99068"><ele>2063.0</ele></trkpt>
    <trkpt lat="34.84675" lon="-118.99044"><ele>2063.0</ele></trkpt>
    <trkpt lat="34.84699" lon="-118.99013"><ele>2063.0</ele></trkpt>
    <trkpt lat="34.84702" lon="-118.99006"><ele>2063.0</ele></trkpt>
    <trkpt lat="34.84716" lon="-118.98989"><ele>2068.0</ele></trkpt>
    <trkpt lat="34.84736" lon="-118.98966"><ele>2068.0</ele></trkpt>
    <trkpt lat="34.84737" lon="-118.98947"><ele>2068.0</ele></trkpt>
    <trkpt lat="34.84746" lon="-118.98901"><ele>2068.0</ele></trkpt>
    <trkpt lat="34.84747" lon="-118.98874"><ele>2101.0</ele></trkpt>
    <trkpt lat="34.84747" lon="-118.98844"><ele>2101.0</ele></trkpt>
    <trkpt lat="34.84746" lon="-118.98820"><ele>2101.0</ele></trkpt>
    <trkpt lat="34.84737" lon="-118.98799"><ele>2101.0</ele></trkpt>
    <trkpt lat="34.84730" lon="-118.98783"><ele>2101.0</ele></trkpt>
    <trkpt lat="34.84715" lon="-118.98760"><ele>2113.0</ele></trkpt>
    <trkpt lat="34.84707" lon="-118.98750"><ele>2113.0</ele></trkpt>
    <trkpt lat="34.84686" lon="-118.98741"><ele>2113.0</ele></trkpt>
    <trkpt lat="34.84655" lon="-118.98724"><ele>2113.0</ele></trkpt>
    <trkpt lat="34.84638" lon="-118.98707"><ele>2113.0</ele></trkpt>
    <trkpt lat="34.84626" lon="-118.98688"><ele>2128.0</ele></trkpt>
    <trkpt lat="34.84608" lon="-118.98651"><ele>2128.0</ele></trkpt>
    <trkpt lat="34.84598" lon="-118.98632"><ele>2128.0</ele></trkpt>
    <trkpt lat="34.84588" lon="-118.98622"><ele>2128.0</ele></trkpt>
    <trkpt lat="34.84582" lon="-118.98615"><ele>2136.0</ele></trkpt>
    <trkpt lat="34.84558" lon="-118.98602"><ele>2136.0</ele></trkpt>
    <trkpt lat="34.84546" lon="-118.98598"><ele>2136.0</ele></trkpt>
    <trkpt lat="34.84515" lon="-118.98585"><ele>2136.0</ele></trkpt>
    <trkpt lat="34.84501" lon="-118.98578"><ele>2136.0</ele></trkpt>
    <trkpt lat="34.84481" lon="-118.98564"><ele>2143.0</ele></trkpt>
    <trkpt lat="34.84459" lon="-118.98552"><ele>2143.0</ele></trkpt>
    <trkpt lat="34.84433" lon="-118.98524"><ele>2143.0</ele></trkpt>
    <trkpt lat="34.84417" lon="-118.98502"><ele>2143.0</ele></trkpt>
    <trkpt lat="34.84406" lon="-118.98485"><ele>2136.0</ele></trkpt>
    <trkpt lat="34.84398" lon="-118.98462"><ele>2136.0</ele></trkpt>
    <trkpt lat="34.84389" lon="-118.98435"><ele>2136.0</ele></trkpt>
    <trkpt lat="34.84383" lon="-118.98406"><ele>2136.0</ele></trkpt>
    <trkpt lat="34.84380" lon="-118.98386"><ele>2136.0</ele></trkpt>
    <trkpt lat="34.84376" lon="-118.98363"><ele>2136.0</ele></trkpt>
    <trkpt lat="34.84365" lon="-118.98340"><ele>2136.0</ele></trkpt>
    <trkpt lat="34.84348" lon="-118.98304"><ele>2136.0</ele></trkpt>
    <trkpt lat="34.84338" lon="-118.98274"><ele>2136.0</ele></trkpt>
    <trkpt lat="34.84327" lon="-118.98233"><ele>2172.0</ele></trkpt>
    <trkpt lat="34.84326" lon="-118.98213"><ele>2172.0</ele></trkpt>
    <trkpt lat="34.84315" lon="-118.98183"><ele>2172.0</ele></trkpt>
    <trkpt lat="34.84302" lon="-118.98162"><ele>2172.0</ele></trkpt>
    <trkpt lat="34.84294" lon="-118.98143"><ele>2172.0</ele></trkpt>
    <trkpt lat="34.84296" lon="-118.98124"><ele>2163.0</ele></trkpt>
    <trkpt lat="34.84301" lon="-118.98115"><ele>2163.0</ele></trkpt>
    <trkpt lat="34.84319" lon="-118.98094"><ele>2163.0</ele></trkpt>
    <trkpt lat="34.84339" lon="-118.98073"><ele>2163.0</ele></trkpt>
    <trkpt lat="34.84356" lon="-118.98056"><ele>2163.0</ele></trkpt>
    <trkpt lat="34.84383" lon="-118.98027"><ele>2131.0</ele></trkpt>
    <trkpt lat="34.84398" lon="-118.98008"><ele>2131.0</ele></trkpt>
    <trkpt lat="34.84409" lon="-118.97991"><ele>2131.0</ele></trkpt>
    <trkpt lat="34.84426" lon="-118.97970"><ele>2131.0</ele></trkpt>
    <trkpt lat="34.84436" lon="-118.97956"><ele>2115.0</ele></trkpt>
    <trkpt lat="34.84454" lon="-118.97937"><ele>2115.0</ele></trkpt>
    <trkpt lat="34.84456" lon="-118.97920"><ele>2115.0</ele></trkpt>
    <trkpt lat="34.84457" lon="-118.97899"><ele>2115.0</ele></trkpt>
    <trkpt lat="34.84456" lon="-118.97867"><ele>2115.0</ele></trkpt>
    <trkpt lat="34.84450" lon="-118.97812"><ele>2120.0</ele></trkpt>
    <trkpt lat="34.84445" lon="-118.97777"><ele>2120.0</ele></trkpt>
    <trkpt lat="34.84441" lon="-118.97736"><ele>2120.0</ele></trkpt>
    <trkpt lat="34.84442" lon="-118.97715"><ele>2120.0</ele></trkpt>
    <trkpt lat="34.84442" lon="-118.97670"><ele>2108.0</ele></trkpt>
    <trkpt lat="34.84440" lon="-118.97639"><ele>2108.0</ele></trkpt>
    <trkpt lat="34.84437" lon="-118.97614"><ele>2108.0</ele></trkpt>
  </trkseg></trk>
</gpx>
