<?xml version="1.0" encoding="UTF-8"?>
<gpx version="1.1" creator="dirt-bikes build-angeles-routes (TrailNFS/RoadBasic geometry + SRTM elevation)" xmlns="http://www.topografix.com/GPX/1/1">
  <trk><name>Sierra Pelona Road</name>
    <trkseg>
      <trkpt lat="34.52645" lon="-118.44236"><ele>617.0</ele></trkpt>
      <trkpt lat="34.52642" lon="-118.44221"><ele>617.0</ele></trkpt>
      <trkpt lat="34.52642" lon="-118.44213"><ele>617.0</ele></trkpt>
      <trkpt lat="34.52643" lon="-118.44199"><ele>617.0</ele></trkpt>
      <trkpt lat="34.52643" lon="-118.44189"><ele>617.0</ele></trkpt>
      <trkpt lat="34.52643" lon="-118.44179"><ele>617.0</ele></trkpt>
      <trkpt lat="34.52640" lon="-118.44174"><ele>617.0</ele></trkpt>
      <trkpt lat="34.52638" lon="-118.44171"><ele>623.0</ele></trkpt>
      <trkpt lat="34.52632" lon="-118.44171"><ele>623.0</ele></trkpt>
      <trkpt lat="34.52623" lon="-118.44175"><ele>623.0</ele></trkpt>
      <trkpt lat="34.52617" lon="-118.44180"><ele>623.0</ele></trkpt>
      <trkpt lat="34.52608" lon="-118.44186"><ele>623.0</ele></trkpt>
      <trkpt lat="34.52601" lon="-118.44191"><ele>623.0</ele></trkpt>
      <trkpt lat="34.52590" lon="-118.44200"><ele>623.0</ele></trkpt>
      <trkpt lat="34.52574" lon="-118.44206"><ele>623.0</ele></trkpt>
      <trkpt lat="34.52567" lon="-118.44206"><ele>623.0</ele></trkpt>
      <trkpt lat="34.52556" lon="-118.44199"><ele>623.0</ele></trkpt>
      <trkpt lat="34.52555" lon="-118.44198"><ele>623.0</ele></trkpt>
      <trkpt lat="34.52544" lon="-118.44190"><ele>623.0</ele></trkpt>
      <trkpt lat="34.52539" lon="-118.44179"><ele>623.0</ele></trkpt>
      <trkpt lat="34.52533" lon="-118.44165"><ele>633.0</ele></trkpt>
      <trkpt lat="34.52529" lon="-118.44152"><ele>633.0</ele></trkpt>
      <trkpt lat="34.52529" lon="-118.44141"><ele>633.0</ele></trkpt>
      <trkpt lat="34.52534" lon="-118.44136"><ele>633.0</ele></trkpt>
      <trkpt lat="34.52540" lon="-118.44131"><ele>633.0</ele></trkpt>
      <trkpt lat="34.52540" lon="-118.44130"><ele>633.0</ele></trkpt>
      <trkpt lat="34.52546" lon="-118.44130"><ele>633.0</ele></trkpt>
      <trkpt lat="34.52553" lon="-118.44135"><ele>633.0</ele></trkpt>
      <trkpt lat="34.52555" lon="-118.44139"><ele>633.0</ele></trkpt>
      <trkpt lat="34.52559" lon="-118.44147"><ele>633.0</ele></trkpt>
      <trkpt lat="34.52564" lon="-118.44159"><ele>633.0</ele></trkpt>
      <trkpt lat="34.52567" lon="-118.44169"><ele>633.0</ele></trkpt>
      <trkpt lat="34.52570" lon="-118.44171"><ele>633.0</ele></trkpt>
      <trkpt lat="34.52575" lon="-118.44172"><ele>633.0</ele></trkpt>
      <trkpt lat="34.52577" lon="-118.44172"><ele>642.0</ele></trkpt>
      <trkpt lat="34.52581" lon="-118.44172"><ele>642.0</ele></trkpt>
      <trkpt lat="34.52587" lon="-118.44168"><ele>642.0</ele></trkpt>
      <trkpt lat="34.52593" lon="-118.44163"><ele>642.0</ele></trkpt>
      <trkpt lat="34.52600" lon="-118.44156"><ele>642.0</ele></trkpt>
      <trkpt lat="34.52603" lon="-118.44147"><ele>642.0</ele></trkpt>
      <trkpt lat="34.52603" lon="-118.44125"><ele>642.0</ele></trkpt>
      <trkpt lat="34.52604" lon="-118.44110"><ele>642.0</ele></trkpt>
      <trkpt lat="34.52606" lon="-118.44097"><ele>642.0</ele></trkpt>
      <trkpt lat="34.52607" lon="-118.44088"><ele>642.0</ele></trkpt>
      <trkpt lat="34.52607" lon="-118.44081"><ele>642.0</ele></trkpt>
      <trkpt lat="34.52611" lon="-118.44069"><ele>642.0</ele></trkpt>
      <trkpt lat="34.52614" lon="-118.44060"><ele>642.0</ele></trkpt>
      <trkpt lat="34.52616" lon="-118.44052"><ele>679.0</ele></trkpt>
      <trkpt lat="34.52618" lon="-118.44043"><ele>679.0</ele></trkpt>
      <trkpt lat="34.52617" lon="-118.44030"><ele>679.0</ele></trkpt>
      <trkpt lat="34.52616" lon="-118.44019"><ele>679.0</ele></trkpt>
      <trkpt lat="34.52616" lon="-118.44008"><ele>679.0</ele></trkpt>
      <trkpt lat="34.52614" lon="-118.43993"><ele>679.0</ele></trkpt>
      <trkpt lat="34.52614" lon="-118.43983"><ele>679.0</ele></trkpt>
      <trkpt lat="34.52615" lon="-118.43973"><ele>679.0</ele></trkpt>
      <trkpt lat="34.52619" lon="-118.43961"><ele>679.0</ele></trkpt>
      <trkpt lat="34.52622" lon="-118.43953"><ele>679.0</ele></trkpt>
      <trkpt lat="34.52627" lon="-118.43943"><ele>679.0</ele></trkpt>
      <trkpt lat="34.52631" lon="-118.43935"><ele>679.0</ele></trkpt>
      <trkpt lat="34.52635" lon="-118.43925"><ele>679.0</ele></trkpt>
      <trkpt lat="34.52643" lon="-118.43909"><ele>683.0</ele></trkpt>
      <trkpt lat="34.52648" lon="-118.43899"><ele>683.0</ele></trkpt>
      <trkpt lat="34.52657" lon="-118.43897"><ele>683.0</ele></trkpt>
      <trkpt lat="34.52659" lon="-118.43900"><ele>683.0</ele></trkpt>
      <trkpt lat="34.52662" lon="-118.43904"><ele>683.0</ele></trkpt>
      <trkpt lat="34.52664" lon="-118.43918"><ele>683.0</ele></trkpt>
      <trkpt lat="34.52665" lon="-118.43928"><ele>683.0</ele></trkpt>
      <trkpt lat="34.52668" lon="-118.43941"><ele>683.0</ele></trkpt>
      <trkpt lat="34.52668" lon="-118.43943"><ele>683.0</ele></trkpt>
      <trkpt lat="34.52671" lon="-118.43951"><ele>683.0</ele></trkpt>
      <trkpt lat="34.52675" lon="-118.43962"><ele>683.0</ele></trkpt>
      <trkpt lat="34.52682" lon="-118.43969"><ele>683.0</ele></trkpt>
      <trkpt lat="34.52690" lon="-118.43976"><ele>683.0</ele></trkpt>
      <trkpt lat="34.52693" lon="-118.43979"><ele>675.0</ele></trkpt>
      <trkpt lat="34.52698" lon="-118.43985"><ele>675.0</ele></trkpt>
      <trkpt lat="34.52700" lon="-118.43987"><ele>675.0</ele></trkpt>
      <trkpt lat="34.52702" lon="-118.43997"><ele>675.0</ele></trkpt>
      <trkpt lat="34.52706" lon="-118.44011"><ele>675.0</ele></trkpt>
      <trkpt lat="34.52703" lon="-118.44026"><ele>675.0</ele></trkpt>
      <trkpt lat="34.52704" lon="-118.44032"><ele>675.0</ele></trkpt>
      <trkpt lat="34.52706" lon="-118.44043"><ele>675.0</ele></trkpt>
      <trkpt lat="34.52710" lon="-118.44053"><ele>675.0</ele></trkpt>
      <trkpt lat="34.52712" lon="-118.44059"><ele>675.0</ele></trkpt>
      <trkpt lat="34.52717" lon="-118.44070"><ele>675.0</ele></trkpt>
      <trkpt lat="34.52720" lon="-118.44077"><ele>675.0</ele></trkpt>
      <trkpt lat="34.52720" lon="-118.44084"><ele>675.0</ele></trkpt>
      <trkpt lat="34.52722" lon="-118.44091"><ele>677.0</ele></trkpt>
      <trkpt lat="34.52723" lon="-118.44097"><ele>677.0</ele></trkpt>
      <trkpt lat="34.52728" lon="-118.44104"><ele>677.0</ele></trkpt>
      <trkpt lat="34.52732" lon="-118.44110"><ele>677.0</ele></trkpt>
      <trkpt lat="34.52739" lon="-118.44110"><ele>677.0</ele></trkpt>
      <trkpt lat="34.52741" lon="-118.44111"><ele>677.0</ele></trkpt>
      <trkpt lat="34.52745" lon="-118.44107"><ele>677.0</ele></trkpt>
      <trkpt lat="34.52745" lon="-118.44099"><ele>677.0</ele></trkpt>
      <trkpt lat="34.52742" lon="-118.44092"><ele>677.0</ele></trkpt>
      <trkpt lat="34.52739" lon="-118.44080"><ele>677.0</ele></trkpt>
      <trkpt lat="34.52739" lon="-118.44071"><ele>677.0</ele></trkpt>
      <trkpt lat="34.52740" lon="-118.44061"><ele>677.0</ele></trkpt>
      <trkpt lat="34.52739" lon="-118.44048"><ele>677.0</ele></trkpt>
      <trkpt lat="34.52739" lon="-118.44039"><ele>695.0</ele></trkpt>
      <trkpt lat="34.52740" lon="-118.44028"><ele>695.0</ele></trkpt>
      <trkpt lat="34.52740" lon="-118.44019"><ele>695.0</ele></trkpt>
      <trkpt lat="34.52740" lon="-118.44014"><ele>695.0</ele></trkpt>
      <trkpt lat="34.52739" lon="-118.44007"><ele>695.0</ele></trkpt>
      <trkpt lat="34.52737" lon="-118.43992"><ele>695.0</ele></trkpt>
      <trkpt lat="34.52736" lon="-118.43985"><ele>695.0</ele></trkpt>
      <trkpt lat="34.52730" lon="-118.43964"><ele>695.0</ele></trkpt>
      <trkpt lat="34.52727" lon="-118.43953"><ele>695.0</ele></trkpt>
      <trkpt lat="34.52726" lon="-118.43935"><ele>695.0</ele></trkpt>
      <trkpt lat="34.52726" lon="-118.43922"><ele>695.0</ele></trkpt>
      <trkpt lat="34.52726" lon="-118.43909"><ele>695.0</ele></trkpt>
      <trkpt lat="34.52724" lon="-118.43895"><ele>695.0</ele></trkpt>
      <trkpt lat="34.52725" lon="-118.43883"><ele>695.0</ele></trkpt>
      <trkpt lat="34.52725" lon="-118.43868"><ele>732.0</ele></trkpt>
      <trkpt lat="34.52729" lon="-118.43854"><ele>732.0</ele></trkpt>
      <trkpt lat="34.52731" lon="-118.43844"><ele>732.0</ele></trkpt>
      <trkpt lat="34.52736" lon="-118.43835"><ele>732.0</ele></trkpt>
      <trkpt lat="34.52742" lon="-118.43819"><ele>732.0</ele></trkpt>
      <trkpt lat="34.52744" lon="-118.43807"><ele>732.0</ele></trkpt>
      <trkpt lat="34.52743" lon="-118.43793"><ele>732.0</ele></trkpt>
      <trkpt lat="34.52743" lon="-118.43776"><ele>732.0</ele></trkpt>
      <trkpt lat="34.52750" lon="-118.43765"><ele>732.0</ele></trkpt>
      <trkpt lat="34.52755" lon="-118.43755"><ele>732.0</ele></trkpt>
      <trkpt lat="34.52760" lon="-118.43753"><ele>732.0</ele></trkpt>
      <trkpt lat="34.52767" lon="-118.43745"><ele>732.0</ele></trkpt>
      <trkpt lat="34.52775" lon="-118.43738"><ele>732.0</ele></trkpt>
      <trkpt lat="34.52780" lon="-118.43731"><ele>756.0</ele></trkpt>
      <trkpt lat="34.52784" lon="-118.43723"><ele>756.0</ele></trkpt>
      <trkpt lat="34.52789" lon="-118.43713"><ele>756.0</ele></trkpt>
      <trkpt lat="34.52797" lon="-118.43703"><ele>756.0</ele></trkpt>
      <trkpt lat="34.52803" lon="-118.43698"><ele>756.0</ele></trkpt>
      <trkpt lat="34.52807" lon="-118.43693"><ele>756.0</ele></trkpt>
      <trkpt lat="34.52809" lon="-118.43683"><ele>756.0</ele></trkpt>
      <trkpt lat="34.52811" lon="-118.43674"><ele>756.0</ele></trkpt>
      <trkpt lat="34.52812" lon="-118.43656"><ele>756.0</ele></trkpt>
      <trkpt lat="34.52814" lon="-118.43645"><ele>756.0</ele></trkpt>
      <trkpt lat="34.52818" lon="-118.43637"><ele>756.0</ele></trkpt>
      <trkpt lat="34.52825" lon="-118.43630"><ele>756.0</ele></trkpt>
      <trkpt lat="34.52828" lon="-118.43626"><ele>756.0</ele></trkpt>
      <trkpt lat="34.52835" lon="-118.43620"><ele>772.0</ele></trkpt>
      <trkpt lat="34.52846" lon="-118.43605"><ele>772.0</ele></trkpt>
      <trkpt lat="34.52851" lon="-118.43601"><ele>772.0</ele></trkpt>
      <trkpt lat="34.52856" lon="-118.43590"><ele>772.0</ele></trkpt>
      <trkpt lat="34.52866" lon="-118.43567"><ele>772.0</ele></trkpt>
      <trkpt lat="34.52872" lon="-118.43553"><ele>772.0</ele></trkpt>
      <trkpt lat="34.52881" lon="-118.43543"><ele>772.0</ele></trkpt>
      <trkpt lat="34.52888" lon="-118.43539"><ele>772.0</ele></trkpt>
      <trkpt lat="34.52895" lon="-118.43535"><ele>772.0</ele></trkpt>
      <trkpt lat="34.52903" lon="-118.43532"><ele>772.0</ele></trkpt>
      <trkpt lat="34.52908" lon="-118.43528"><ele>772.0</ele></trkpt>
      <trkpt lat="34.52911" lon="-118.43521"><ele>772.0</ele></trkpt>
      <trkpt lat="34.52906" lon="-118.43510"><ele>772.0</ele></trkpt>
      <trkpt lat="34.52895" lon="-118.43505"><ele>772.0</ele></trkpt>
      <trkpt lat="34.52893" lon="-118.43504"><ele>772.0</ele></trkpt>
      <trkpt lat="34.52881" lon="-118.43510"><ele>772.0</ele></trkpt>
      <trkpt lat="34.52873" lon="-118.43517"><ele>772.0</ele></trkpt>
      <trkpt lat="34.52866" lon="-118.43523"><ele>772.0</ele></trkpt>
      <trkpt lat="34.52855" lon="-118.43536"><ele>772.0</ele></trkpt>
      <trkpt lat="34.52854" lon="-118.43538"><ele>772.0</ele></trkpt>
      <trkpt lat="34.52853" lon="-118.43538"><ele>772.0</ele></trkpt>
      <trkpt lat="34.52845" lon="-118.43540"><ele>772.0</ele></trkpt>
      <trkpt lat="34.52840" lon="-118.43539"><ele>772.0</ele></trkpt>
      <trkpt lat="34.52819" lon="-118.43539"><ele>772.0</ele></trkpt>
      <trkpt lat="34.52818" lon="-118.43539"><ele>772.0</ele></trkpt>
      <trkpt lat="34.52807" lon="-118.43537"><ele>772.0</ele></trkpt>
      <trkpt lat="34.52790" lon="-118.43534"><ele>790.0</ele></trkpt>
      <trkpt lat="34.52783" lon="-118.43533"><ele>790.0</ele></trkpt>
      <trkpt lat="34.52769" lon="-118.43531"><ele>790.0</ele></trkpt>
      <trkpt lat="34.52764" lon="-118.43529"><ele>790.0</ele></trkpt>
      <trkpt lat="34.52755" lon="-118.43533"><ele>790.0</ele></trkpt>
      <trkpt lat="34.52750" lon="-118.43539"><ele>790.0</ele></trkpt>
      <trkpt lat="34.52750" lon="-118.43549"><ele>790.0</ele></trkpt>
      <trkpt lat="34.52753" lon="-118.43567"><ele>790.0</ele></trkpt>
      <trkpt lat="34.52756" lon="-118.43581"><ele>790.0</ele></trkpt>
      <trkpt lat="34.52757" lon="-118.43594"><ele>790.0</ele></trkpt>
      <trkpt lat="34.52757" lon="-118.43600"><ele>790.0</ele></trkpt>
      <trkpt lat="34.52757" lon="-118.43601"><ele>790.0</ele></trkpt>
      <trkpt lat="34.52749" lon="-118.43616"><ele>790.0</ele></trkpt>
      <trkpt lat="34.52737" lon="-118.43624"><ele>790.0</ele></trkpt>
      <trkpt lat="34.52736" lon="-118.43625"><ele>779.0</ele></trkpt>
      <trkpt lat="34.52729" lon="-118.43628"><ele>779.0</ele></trkpt>
      <trkpt lat="34.52714" lon="-118.43630"><ele>779.0</ele></trkpt>
      <trkpt lat="34.52702" lon="-118.43631"><ele>779.0</ele></trkpt>
      <trkpt lat="34.52696" lon="-118.43628"><ele>779.0</ele></trkpt>
      <trkpt lat="34.52694" lon="-118.43626"><ele>779.0</ele></trkpt>
      <trkpt lat="34.52689" lon="-118.43610"><ele>779.0</ele></trkpt>
      <trkpt lat="34.52686" lon="-118.43600"><ele>779.0</ele></trkpt>
      <trkpt lat="34.52682" lon="-118.43589"><ele>779.0</ele></trkpt>
      <trkpt lat="34.52678" lon="-118.43579"><ele>779.0</ele></trkpt>
      <trkpt lat="34.52673" lon="-118.43563"><ele>779.0</ele></trkpt>
      <trkpt lat="34.52669" lon="-118.43557"><ele>779.0</ele></trkpt>
      <trkpt lat="34.52659" lon="-118.43553"><ele>779.0</ele></trkpt>
      <trkpt lat="34.52651" lon="-118.43548"><ele>808.0</ele></trkpt>
      <trkpt lat="34.52638" lon="-118.43539"><ele>808.0</ele></trkpt>
      <trkpt lat="34.52627" lon="-118.43528"><ele>808.0</ele></trkpt>
      <trkpt lat="34.52619" lon="-118.43512"><ele>808.0</ele></trkpt>
      <trkpt lat="34.52608" lon="-118.43490"><ele>808.0</ele></trkpt>
      <trkpt lat="34.52606" lon="-118.43484"><ele>808.0</ele></trkpt>
      <trkpt lat="34.52600" lon="-118.43471"><ele>808.0</ele></trkpt>
      <trkpt lat="34.52595" lon="-118.43462"><ele>808.0</ele></trkpt>
      <trkpt lat="34.52590" lon="-118.43450"><ele>808.0</ele></trkpt>
      <trkpt lat="34.52583" lon="-118.43432"><ele>808.0</ele></trkpt>
      <trkpt lat="34.52581" lon="-118.43422"><ele>808.0</ele></trkpt>
      <trkpt lat="34.52579" lon="-118.43415"><ele>808.0</ele></trkpt>
      <trkpt lat="34.52573" lon="-118.43411"><ele>808.0</ele></trkpt>
      <trkpt lat="34.52573" lon="-118.43411"><ele>824.0</ele></trkpt>
      <trkpt lat="34.52566" lon="-118.43409"><ele>824.0</ele></trkpt>
      <trkpt lat="34.52557" lon="-118.43415"><ele>824.0</ele></trkpt>
      <trkpt lat="34.52550" lon="-118.43424"><ele>824.0</ele></trkpt>
      <trkpt lat="34.52540" lon="-118.43444"><ele>824.0</ele></trkpt>
      <trkpt lat="34.52534" lon="-118.43453"><ele>824.0</ele></trkpt>
      <trkpt lat="34.52524" lon="-118.43462"><ele>824.0</ele></trkpt>
      <trkpt lat="34.52520" lon="-118.43463"><ele>824.0</ele></trkpt>
      <trkpt lat="34.52517" lon="-118.43464"><ele>824.0</ele></trkpt>
      <trkpt lat="34.52501" lon="-118.43475"><ele>824.0</ele></trkpt>
      <trkpt lat="34.52488" lon="-118.43482"><ele>824.0</ele></trkpt>
      <trkpt lat="34.52469" lon="-118.43493"><ele>824.0</ele></trkpt>
      <trkpt lat="34.52454" lon="-118.43500"><ele>824.0</ele></trkpt>
      <trkpt lat="34.52436" lon="-118.43510"><ele>841.0</ele></trkpt>
      <trkpt lat="34.52418" lon="-118.43514"><ele>841.0</ele></trkpt>
      <trkpt lat="34.52410" lon="-118.43516"><ele>841.0</ele></trkpt>
      <trkpt lat="34.52398" lon="-118.43516"><ele>841.0</ele></trkpt>
      <trkpt lat="34.52384" lon="-118.43510"><ele>841.0</ele></trkpt>
      <trkpt lat="34.52375" lon="-118.43505"><ele>841.0</ele></trkpt>
      <trkpt lat="34.52368" lon="-118.43501"><ele>841.0</ele></trkpt>
      <trkpt lat="34.52355" lon="-118.43494"><ele>841.0</ele></trkpt>
      <trkpt lat="34.52346" lon="-118.43491"><ele>841.0</ele></trkpt>
      <trkpt lat="34.52345" lon="-118.43491"><ele>841.0</ele></trkpt>
      <trkpt lat="34.52332" lon="-118.43493"><ele>841.0</ele></trkpt>
      <trkpt lat="34.52327" lon="-118.43497"><ele>841.0</ele></trkpt>
      <trkpt lat="34.52315" lon="-118.43504"><ele>841.0</ele></trkpt>
      <trkpt lat="34.52304" lon="-118.43503"><ele>861.0</ele></trkpt>
      <trkpt lat="34.52297" lon="-118.43503"><ele>861.0</ele></trkpt>
      <trkpt lat="34.52288" lon="-118.43503"><ele>861.0</ele></trkpt>
      <trkpt lat="34.52271" lon="-118.43500"><ele>861.0</ele></trkpt>
      <trkpt lat="34.52258" lon="-118.43499"><ele>861.0</ele></trkpt>
      <trkpt lat="34.52238" lon="-118.43504"><ele>861.0</ele></trkpt>
      <trkpt lat="34.52229" lon="-118.43507"><ele>861.0</ele></trkpt>
      <trkpt lat="34.52224" lon="-118.43508"><ele>861.0</ele></trkpt>
      <trkpt lat="34.52204" lon="-118.43509"><ele>861.0</ele></trkpt>
      <trkpt lat="34.52200" lon="-118.43511"><ele>861.0</ele></trkpt>
      <trkpt lat="34.52191" lon="-118.43513"><ele>861.0</ele></trkpt>
      <trkpt lat="34.52182" lon="-118.43518"><ele>861.0</ele></trkpt>
      <trkpt lat="34.52176" lon="-118.43526"><ele>861.0</ele></trkpt>
      <trkpt lat="34.52167" lon="-118.43532"><ele>864.0</ele></trkpt>
      <trkpt lat="34.52163" lon="-118.43535"><ele>864.0</ele></trkpt>
      <trkpt lat="34.52145" lon="-118.43544"><ele>864.0</ele></trkpt>
      <trkpt lat="34.52138" lon="-118.43548"><ele>864.0</ele></trkpt>
      <trkpt lat="34.52129" lon="-118.43552"><ele>864.0</ele></trkpt>
      <trkpt lat="34.52117" lon="-118.43564"><ele>864.0</ele></trkpt>
      <trkpt lat="34.52110" lon="-118.43573"><ele>864.0</ele></trkpt>
      <trkpt lat="34.52104" lon="-118.43579"><ele>864.0</ele></trkpt>
      <trkpt lat="34.52101" lon="-118.43585"><ele>864.0</ele></trkpt>
      <trkpt lat="34.52093" lon="-118.43602"><ele>864.0</ele></trkpt>
      <trkpt lat="34.52086" lon="-118.43608"><ele>864.0</ele></trkpt>
      <trkpt lat="34.52079" lon="-118.43612"><ele>864.0</ele></trkpt>
      <trkpt lat="34.52075" lon="-118.43612"><ele>864.0</ele></trkpt>
      <trkpt lat="34.52067" lon="-118.43608"><ele>864.0</ele></trkpt>
      <trkpt lat="34.52065" lon="-118.43602"><ele>871.0</ele></trkpt>
      <trkpt lat="34.52063" lon="-118.43596"><ele>871.0</ele></trkpt>
      <trkpt lat="34.52071" lon="-118.43583"><ele>871.0</ele></trkpt>
      <trkpt lat="34.52084" lon="-118.43570"><ele>871.0</ele></trkpt>
      <trkpt lat="34.52091" lon="-118.43559"><ele>871.0</ele></trkpt>
      <trkpt lat="34.52101" lon="-118.43549"><ele>871.0</ele></trkpt>
      <trkpt lat="34.52115" lon="-118.43530"><ele>871.0</ele></trkpt>
      <trkpt lat="34.52123" lon="-118.43521"><ele>871.0</ele></trkpt>
      <trkpt lat="34.52138" lon="-118.43500"><ele>871.0</ele></trkpt>
      <trkpt lat="34.52148" lon="-118.43492"><ele>871.0</ele></trkpt>
      <trkpt lat="34.52153" lon="-118.43486"><ele>871.0</ele></trkpt>
      <trkpt lat="34.52154" lon="-118.43484"><ele>871.0</ele></trkpt>
      <trkpt lat="34.52161" lon="-118.43476"><ele>871.0</ele></trkpt>
      <trkpt lat="34.52167" lon="-118.43470"><ele>902.0</ele></trkpt>
      <trkpt lat="34.52175" lon="-118.43465"><ele>902.0</ele></trkpt>
      <trkpt lat="34.52190" lon="-118.43456"><ele>902.0</ele></trkpt>
      <trkpt lat="34.52204" lon="-118.43450"><ele>902.0</ele></trkpt>
      <trkpt lat="34.52222" lon="-118.43441"><ele>902.0</ele></trkpt>
      <trkpt lat="34.52232" lon="-118.43431"><ele>902.0</ele></trkpt>
      <trkpt lat="34.52254" lon="-118.43417"><ele>902.0</ele></trkpt>
      <trkpt lat="34.52264" lon="-118.43409"><ele>902.0</ele></trkpt>
      <trkpt lat="34.52283" lon="-118.43397"><ele>902.0</ele></trkpt>
      <trkpt lat="34.52294" lon="-118.43390"><ele>902.0</ele></trkpt>
      <trkpt lat="34.52300" lon="-118.43388"><ele>902.0</ele></trkpt>
      <trkpt lat="34.52306" lon="-118.43378"><ele>902.0</ele></trkpt>
      <trkpt lat="34.52314" lon="-118.43371"><ele>902.0</ele></trkpt>
      <trkpt lat="34.52317" lon="-118.43362"><ele>918.0</ele></trkpt>
      <trkpt lat="34.52323" lon="-118.43353"><ele>918.0</ele></trkpt>
      <trkpt lat="34.52329" lon="-118.43350"><ele>918.0</ele></trkpt>
      <trkpt lat="34.52337" lon="-118.43345"><ele>918.0</ele></trkpt>
      <trkpt lat="34.52350" lon="-118.43334"><ele>918.0</ele></trkpt>
      <trkpt lat="34.52357" lon="-118.43323"><ele>918.0</ele></trkpt>
      <trkpt lat="34.52362" lon="-118.43313"><ele>918.0</ele></trkpt>
      <trkpt lat="34.52369" lon="-118.43300"><ele>918.0</ele></trkpt>
      <trkpt lat="34.52381" lon="-118.43277"><ele>918.0</ele></trkpt>
      <trkpt lat="34.52388" lon="-118.43262"><ele>918.0</ele></trkpt>
      <trkpt lat="34.52392" lon="-118.43250"><ele>918.0</ele></trkpt>
      <trkpt lat="34.52395" lon="-118.43242"><ele>918.0</ele></trkpt>
      <trkpt lat="34.52399" lon="-118.43232"><ele>918.0</ele></trkpt>
      <trkpt lat="34.52404" lon="-118.43224"><ele>936.0</ele></trkpt>
      <trkpt lat="34.52410" lon="-118.43218"><ele>936.0</ele></trkpt>
      <trkpt lat="34.52413" lon="-118.43216"><ele>936.0</ele></trkpt>
      <trkpt lat="34.52414" lon="-118.43215"><ele>936.0</ele></trkpt>
      <trkpt lat="34.52417" lon="-118.43209"><ele>936.0</ele></trkpt>
      <trkpt lat="34.52426" lon="-118.43191"><ele>936.0</ele></trkpt>
      <trkpt lat="34.52431" lon="-118.43175"><ele>936.0</ele></trkpt>
      <trkpt lat="34.52437" lon="-118.43165"><ele>936.0</ele></trkpt>
      <trkpt lat="34.52445" lon="-118.43155"><ele>936.0</ele></trkpt>
      <trkpt lat="34.52448" lon="-118.43151"><ele>936.0</ele></trkpt>
      <trkpt lat="34.52455" lon="-118.43147"><ele>936.0</ele></trkpt>
      <trkpt lat="34.52470" lon="-118.43145"><ele>936.0</ele></trkpt>
      <trkpt lat="34.52486" lon="-118.43142"><ele>936.0</ele></trkpt>
      <trkpt lat="34.52506" lon="-118.43138"><ele>945.0</ele></trkpt>
      <trkpt lat="34.52522" lon="-118.43132"><ele>945.0</ele></trkpt>
      <trkpt lat="34.52537" lon="-118.43125"><ele>945.0</ele></trkpt>
      <trkpt lat="34.52553" lon="-118.43112"><ele>945.0</ele></trkpt>
      <trkpt lat="34.52561" lon="-118.43107"><ele>945.0</ele></trkpt>
      <trkpt lat="34.52571" lon="-118.43099"><ele>945.0</ele></trkpt>
      <trkpt lat="34.52580" lon="-118.43087"><ele>945.0</ele></trkpt>
      <trkpt lat="34.52589" lon="-118.43072"><ele>945.0</ele></trkpt>
      <trkpt lat="34.52600" lon="-118.43054"><ele>945.0</ele></trkpt>
      <trkpt lat="34.52605" lon="-118.43039"><ele>945.0</ele></trkpt>
      <trkpt lat="34.52614" lon="-118.43020"><ele>945.0</ele></trkpt>
      <trkpt lat="34.52616" lon="-118.43017"><ele>945.0</ele></trkpt>
      <trkpt lat="34.52618" lon="-118.43013"><ele>945.0</ele></trkpt>
      <trkpt lat="34.52626" lon="-118.42999"><ele>953.0</ele></trkpt>
      <trkpt lat="34.52633" lon="-118.42985"><ele>953.0</ele></trkpt>
      <trkpt lat="34.52644" lon="-118.42963"><ele>953.0</ele></trkpt>
      <trkpt lat="34.52653" lon="-118.42950"><ele>953.0</ele></trkpt>
      <trkpt lat="34.52654" lon="-118.42949"><ele>953.0</ele></trkpt>
      <trkpt lat="34.52667" lon="-118.42926"><ele>953.0</ele></trkpt>
      <trkpt lat="34.52678" lon="-118.42912"><ele>953.0</ele></trkpt>
      <trkpt lat="34.52682" lon="-118.42908"><ele>953.0</ele></trkpt>
      <trkpt lat="34.52688" lon="-118.42902"><ele>953.0</ele></trkpt>
      <trkpt lat="34.52693" lon="-118.42895"><ele>953.0</ele></trkpt>
      <trkpt lat="34.52705" lon="-118.42881"><ele>953.0</ele></trkpt>
      <trkpt lat="34.52712" lon="-118.42876"><ele>953.0</ele></trkpt>
      <trkpt lat="34.52723" lon="-118.42867"><ele>953.0</ele></trkpt>
      <trkpt lat="34.52724" lon="-118.42866"><ele>953.0</ele></trkpt>
      <trkpt lat="34.52736" lon="-118.42857"><ele>955.0</ele></trkpt>
      <trkpt lat="34.52746" lon="-118.42855"><ele>955.0</ele></trkpt>
      <trkpt lat="34.52756" lon="-118.42853"><ele>955.0</ele></trkpt>
      <trkpt lat="34.52771" lon="-118.42855"><ele>955.0</ele></trkpt>
      <trkpt lat="34.52780" lon="-118.42855"><ele>955.0</ele></trkpt>
      <trkpt lat="34.52789" lon="-118.42855"><ele>955.0</ele></trkpt>
      <trkpt lat="34.52797" lon="-118.42858"><ele>955.0</ele></trkpt>
      <trkpt lat="34.52803" lon="-118.42859"><ele>955.0</ele></trkpt>
      <trkpt lat="34.52809" lon="-118.42859"><ele>955.0</ele></trkpt>
      <trkpt lat="34.52816" lon="-118.42858"><ele>955.0</ele></trkpt>
      <trkpt lat="34.52823" lon="-118.42857"><ele>955.0</ele></trkpt>
      <trkpt lat="34.52828" lon="-118.42856"><ele>955.0</ele></trkpt>
      <trkpt lat="34.52834" lon="-118.42854"><ele>955.0</ele></trkpt>
      <trkpt lat="34.52840" lon="-118.42848"><ele>956.0</ele></trkpt>
      <trkpt lat="34.52847" lon="-118.42842"><ele>956.0</ele></trkpt>
      <trkpt lat="34.52855" lon="-118.42834"><ele>956.0</ele></trkpt>
      <trkpt lat="34.52861" lon="-118.42827"><ele>956.0</ele></trkpt>
      <trkpt lat="34.52866" lon="-118.42823"><ele>956.0</ele></trkpt>
      <trkpt lat="34.52876" lon="-118.42813"><ele>956.0</ele></trkpt>
      <trkpt lat="34.52889" lon="-118.42806"><ele>956.0</ele></trkpt>
      <trkpt lat="34.52894" lon="-118.42805"><ele>956.0</ele></trkpt>
      <trkpt lat="34.52899" lon="-118.42804"><ele>956.0</ele></trkpt>
      <trkpt lat="34.52904" lon="-118.42804"><ele>956.0</ele></trkpt>
      <trkpt lat="34.52920" lon="-118.42802"><ele>956.0</ele></trkpt>
      <trkpt lat="34.52922" lon="-118.42802"><ele>956.0</ele></trkpt>
      <trkpt lat="34.52924" lon="-118.42802"><ele>956.0</ele></trkpt>
      <trkpt lat="34.52932" lon="-118.42801"><ele>952.0</ele></trkpt>
      <trkpt lat="34.52948" lon="-118.42796"><ele>952.0</ele></trkpt>
      <trkpt lat="34.52955" lon="-118.42794"><ele>952.0</ele></trkpt>
      <trkpt lat="34.52966" lon="-118.42791"><ele>952.0</ele></trkpt>
      <trkpt lat="34.52986" lon="-118.42787"><ele>952.0</ele></trkpt>
      <trkpt lat="34.52999" lon="-118.42784"><ele>952.0</ele></trkpt>
      <trkpt lat="34.53016" lon="-118.42781"><ele>952.0</ele></trkpt>
      <trkpt lat="34.53033" lon="-118.42774"><ele>952.0</ele></trkpt>
      <trkpt lat="34.53047" lon="-118.42766"><ele>952.0</ele></trkpt>
      <trkpt lat="34.53057" lon="-118.42755"><ele>952.0</ele></trkpt>
      <trkpt lat="34.53065" lon="-118.42746"><ele>952.0</ele></trkpt>
      <trkpt lat="34.53070" lon="-118.42740"><ele>952.0</ele></trkpt>
      <trkpt lat="34.53079" lon="-118.42729"><ele>952.0</ele></trkpt>
      <trkpt lat="34.53087" lon="-118.42716"><ele>968.0</ele></trkpt>
      <trkpt lat="34.53094" lon="-118.42707"><ele>968.0</ele></trkpt>
      <trkpt lat="34.53100" lon="-118.42702"><ele>968.0</ele></trkpt>
      <trkpt lat="34.53106" lon="-118.42696"><ele>968.0</ele></trkpt>
      <trkpt lat="34.53117" lon="-118.42688"><ele>968.0</ele></trkpt>
      <trkpt lat="34.53128" lon="-118.42683"><ele>968.0</ele></trkpt>
      <trkpt lat="34.53134" lon="-118.42680"><ele>968.0</ele></trkpt>
      <trkpt lat="34.53140" lon="-118.42677"><ele>968.0</ele></trkpt>
      <trkpt lat="34.53149" lon="-118.42675"><ele>968.0</ele></trkpt>
      <trkpt lat="34.53157" lon="-118.42673"><ele>968.0</ele></trkpt>
      <trkpt lat="34.53164" lon="-118.42672"><ele>968.0</ele></trkpt>
      <trkpt lat="34.53171" lon="-118.42671"><ele>968.0</ele></trkpt>
      <trkpt lat="34.53181" lon="-118.42671"><ele>968.0</ele></trkpt>
      <trkpt lat="34.53191" lon="-118.42669"><ele>984.0</ele></trkpt>
      <trkpt lat="34.53196" lon="-118.42667"><ele>984.0</ele></trkpt>
      <trkpt lat="34.53202" lon="-118.42665"><ele>984.0</ele></trkpt>
      <trkpt lat="34.53213" lon="-118.42663"><ele>984.0</ele></trkpt>
      <trkpt lat="34.53222" lon="-118.42665"><ele>984.0</ele></trkpt>
      <trkpt lat="34.53237" lon="-118.42667"><ele>984.0</ele></trkpt>
      <trkpt lat="34.53253" lon="-118.42674"><ele>984.0</ele></trkpt>
      <trkpt lat="34.53259" lon="-118.42679"><ele>984.0</ele></trkpt>
      <trkpt lat="34.53265" lon="-118.42685"><ele>984.0</ele></trkpt>
      <trkpt lat="34.53288" lon="-118.42709"><ele>984.0</ele></trkpt>
      <trkpt lat="34.53300" lon="-118.42729"><ele>984.0</ele></trkpt>
      <trkpt lat="34.53317" lon="-118.42741"><ele>984.0</ele></trkpt>
      <trkpt lat="34.53326" lon="-118.42744"><ele>984.0</ele></trkpt>
      <trkpt lat="34.53336" lon="-118.42747"><ele>984.0</ele></trkpt>
      <trkpt lat="34.53348" lon="-118.42746"><ele>1000.0</ele></trkpt>
      <trkpt lat="34.53366" lon="-118.42744"><ele>1000.0</ele></trkpt>
      <trkpt lat="34.53385" lon="-118.42738"><ele>1000.0</ele></trkpt>
      <trkpt lat="34.53407" lon="-118.42733"><ele>1000.0</ele></trkpt>
      <trkpt lat="34.53420" lon="-118.42731"><ele>1000.0</ele></trkpt>
      <trkpt lat="34.53439" lon="-118.42729"><ele>1000.0</ele></trkpt>
      <trkpt lat="34.53454" lon="-118.42730"><ele>1000.0</ele></trkpt>
      <trkpt lat="34.53475" lon="-118.42730"><ele>1000.0</ele></trkpt>
      <trkpt lat="34.53490" lon="-118.42732"><ele>1000.0</ele></trkpt>
      <trkpt lat="34.53512" lon="-118.42736"><ele>1000.0</ele></trkpt>
      <trkpt lat="34.53524" lon="-118.42738"><ele>1000.0</ele></trkpt>
      <trkpt lat="34.53535" lon="-118.42743"><ele>1000.0</ele></trkpt>
      <trkpt lat="34.53536" lon="-118.42744"><ele>1000.0</ele></trkpt>
      <trkpt lat="34.53545" lon="-118.42747"><ele>1015.0</ele></trkpt>
      <trkpt lat="34.53558" lon="-118.42752"><ele>1015.0</ele></trkpt>
      <trkpt lat="34.53569" lon="-118.42758"><ele>1015.0</ele></trkpt>
      <trkpt lat="34.53580" lon="-118.42760"><ele>1015.0</ele></trkpt>
      <trkpt lat="34.53591" lon="-118.42761"><ele>1015.0</ele></trkpt>
      <trkpt lat="34.53600" lon="-118.42760"><ele>1015.0</ele></trkpt>
      <trkpt lat="34.53611" lon="-118.42758"><ele>1015.0</ele></trkpt>
      <trkpt lat="34.53616" lon="-118.42760"><ele>1015.0</ele></trkpt>
      <trkpt lat="34.53624" lon="-118.42759"><ele>1015.0</ele></trkpt>
      <trkpt lat="34.53632" lon="-118.42757"><ele>1015.0</ele></trkpt>
      <trkpt lat="34.53642" lon="-118.42755"><ele>1015.0</ele></trkpt>
      <trkpt lat="34.53649" lon="-118.42750"><ele>1015.0</ele></trkpt>
      <trkpt lat="34.53659" lon="-118.42752"><ele>1015.0</ele></trkpt>
      <trkpt lat="34.53661" lon="-118.42752"><ele>1016.0</ele></trkpt>
      <trkpt lat="34.53667" lon="-118.42752"><ele>1016.0</ele></trkpt>
      <trkpt lat="34.53677" lon="-118.42751"><ele>1016.0</ele></trkpt>
      <trkpt lat="34.53682" lon="-118.42750"><ele>1016.0</ele></trkpt>
      <trkpt lat="34.53688" lon="-118.42749"><ele>1016.0</ele></trkpt>
      <trkpt lat="34.53701" lon="-118.42746"><ele>1016.0</ele></trkpt>
      <trkpt lat="34.53716" lon="-118.42738"><ele>1016.0</ele></trkpt>
      <trkpt lat="34.53728" lon="-118.42733"><ele>1016.0</ele></trkpt>
      <trkpt lat="34.53738" lon="-118.42728"><ele>1016.0</ele></trkpt>
      <trkpt lat="34.53738" lon="-118.42728"><ele>1016.0</ele></trkpt>
      <trkpt lat="34.53750" lon="-118.42717"><ele>1016.0</ele></trkpt>
      <trkpt lat="34.53767" lon="-118.42700"><ele>1016.0</ele></trkpt>
      <trkpt lat="34.53778" lon="-118.42689"><ele>1016.0</ele></trkpt>
      <trkpt lat="34.53799" lon="-118.42672"><ele>1022.0</ele></trkpt>
      <trkpt lat="34.53828" lon="-118.42657"><ele>1022.0</ele></trkpt>
      <trkpt lat="34.53845" lon="-118.42647"><ele>1022.0</ele></trkpt>
      <trkpt lat="34.53861" lon="-118.42634"><ele>1022.0</ele></trkpt>
      <trkpt lat="34.53878" lon="-118.42621"><ele>1022.0</ele></trkpt>
      <trkpt lat="34.53894" lon="-118.42612"><ele>1022.0</ele></trkpt>
      <trkpt lat="34.53907" lon="-118.42601"><ele>1022.0</ele></trkpt>
      <trkpt lat="34.53909" lon="-118.42600"><ele>1022.0</ele></trkpt>
      <trkpt lat="34.53925" lon="-118.42589"><ele>1022.0</ele></trkpt>
      <trkpt lat="34.53941" lon="-118.42578"><ele>1022.0</ele></trkpt>
      <trkpt lat="34.53947" lon="-118.42575"><ele>1022.0</ele></trkpt>
      <trkpt lat="34.53956" lon="-118.42570"><ele>1022.0</ele></trkpt>
      <trkpt lat="34.53971" lon="-118.42560"><ele>1022.0</ele></trkpt>
      <trkpt lat="34.53985" lon="-118.42553"><ele>1037.0</ele></trkpt>
      <trkpt lat="34.54002" lon="-118.42548"><ele>1037.0</ele></trkpt>
      <trkpt lat="34.54013" lon="-118.42546"><ele>1037.0</ele></trkpt>
      <trkpt lat="34.54027" lon="-118.42544"><ele>1037.0</ele></trkpt>
      <trkpt lat="34.54038" lon="-118.42543"><ele>1037.0</ele></trkpt>
      <trkpt lat="34.54053" lon="-118.42542"><ele>1037.0</ele></trkpt>
      <trkpt lat="34.54070" lon="-118.42546"><ele>1037.0</ele></trkpt>
      <trkpt lat="34.54080" lon="-118.42547"><ele>1037.0</ele></trkpt>
      <trkpt lat="34.54082" lon="-118.42547"><ele>1037.0</ele></trkpt>
      <trkpt lat="34.54094" lon="-118.42551"><ele>1037.0</ele></trkpt>
      <trkpt lat="34.54109" lon="-118.42552"><ele>1037.0</ele></trkpt>
      <trkpt lat="34.54123" lon="-118.42554"><ele>1037.0</ele></trkpt>
      <trkpt lat="34.54136" lon="-118.42554"><ele>1037.0</ele></trkpt>
      <trkpt lat="34.54140" lon="-118.42554"><ele>1039.0</ele></trkpt>
      <trkpt lat="34.54151" lon="-118.42552"><ele>1039.0</ele></trkpt>
      <trkpt lat="34.54157" lon="-118.42547"><ele>1039.0</ele></trkpt>
      <trkpt lat="34.54160" lon="-118.42545"><ele>1039.0</ele></trkpt>
      <trkpt lat="34.54166" lon="-118.42542"><ele>1039.0</ele></trkpt>
      <trkpt lat="34.54166" lon="-118.42541"><ele>1039.0</ele></trkpt>
      <trkpt lat="34.54167" lon="-118.42541"><ele>1039.0</ele></trkpt>
      <trkpt lat="34.54172" lon="-118.42535"><ele>1039.0</ele></trkpt>
      <trkpt lat="34.54180" lon="-118.42523"><ele>1039.0</ele></trkpt>
      <trkpt lat="34.54185" lon="-118.42510"><ele>1039.0</ele></trkpt>
      <trkpt lat="34.54189" lon="-118.42497"><ele>1039.0</ele></trkpt>
      <trkpt lat="34.54190" lon="-118.42488"><ele>1039.0</ele></trkpt>
      <trkpt lat="34.54191" lon="-118.42486"><ele>1039.0</ele></trkpt>
      <trkpt lat="34.54193" lon="-118.42473"><ele>1039.0</ele></trkpt>
      <trkpt lat="34.54196" lon="-118.42459"><ele>1044.0</ele></trkpt>
      <trkpt lat="34.54197" lon="-118.42448"><ele>1044.0</ele></trkpt>
      <trkpt lat="34.54197" lon="-118.42444"><ele>1044.0</ele></trkpt>
      <trkpt lat="34.54200" lon="-118.42428"><ele>1044.0</ele></trkpt>
      <trkpt lat="34.54202" lon="-118.42422"><ele>1044.0</ele></trkpt>
      <trkpt lat="34.54204" lon="-118.42412"><ele>1044.0</ele></trkpt>
      <trkpt lat="34.54203" lon="-118.42409"><ele>1044.0</ele></trkpt>
      <trkpt lat="34.54201" lon="-118.42398"><ele>1044.0</ele></trkpt>
      <trkpt lat="34.54194" lon="-118.42381"><ele>1044.0</ele></trkpt>
      <trkpt lat="34.54189" lon="-118.42368"><ele>1044.0</ele></trkpt>
      <trkpt lat="34.54186" lon="-118.42361"><ele>1044.0</ele></trkpt>
      <trkpt lat="34.54181" lon="-118.42346"><ele>1044.0</ele></trkpt>
      <trkpt lat="34.54178" lon="-118.42330"><ele>1044.0</ele></trkpt>
      <trkpt lat="34.54177" lon="-118.42319"><ele>1059.0</ele></trkpt>
      <trkpt lat="34.54177" lon="-118.42307"><ele>1059.0</ele></trkpt>
      <trkpt lat="34.54178" lon="-118.42290"><ele>1059.0</ele></trkpt>
      <trkpt lat="34.54178" lon="-118.42278"><ele>1059.0</ele></trkpt>
      <trkpt lat="34.54179" lon="-118.42263"><ele>1059.0</ele></trkpt>
      <trkpt lat="34.54179" lon="-118.42252"><ele>1059.0</ele></trkpt>
      <trkpt lat="34.54177" lon="-118.42238"><ele>1059.0</ele></trkpt>
      <trkpt lat="34.54178" lon="-118.42225"><ele>1059.0</ele></trkpt>
      <trkpt lat="34.54180" lon="-118.42213"><ele>1059.0</ele></trkpt>
      <trkpt lat="34.54184" lon="-118.42192"><ele>1059.0</ele></trkpt>
      <trkpt lat="34.54188" lon="-118.42182"><ele>1059.0</ele></trkpt>
      <trkpt lat="34.54191" lon="-118.42172"><ele>1059.0</ele></trkpt>
      <trkpt lat="34.54191" lon="-118.42157"><ele>1059.0</ele></trkpt>
      <trkpt lat="34.54188" lon="-118.42145"><ele>1077.0</ele></trkpt>
      <trkpt lat="34.54183" lon="-118.42132"><ele>1077.0</ele></trkpt>
      <trkpt lat="34.54178" lon="-118.42122"><ele>1077.0</ele></trkpt>
      <trkpt lat="34.54172" lon="-118.42111"><ele>1077.0</ele></trkpt>
      <trkpt lat="34.54167" lon="-118.42098"><ele>1077.0</ele></trkpt>
      <trkpt lat="34.54166" lon="-118.42095"><ele>1077.0</ele></trkpt>
      <trkpt lat="34.54163" lon="-118.42081"><ele>1077.0</ele></trkpt>
      <trkpt lat="34.54162" lon="-118.42068"><ele>1077.0</ele></trkpt>
      <trkpt lat="34.54163" lon="-118.42055"><ele>1077.0</ele></trkpt>
      <trkpt lat="34.54165" lon="-118.42043"><ele>1077.0</ele></trkpt>
      <trkpt lat="34.54171" lon="-118.42032"><ele>1077.0</ele></trkpt>
      <trkpt lat="34.54181" lon="-118.42021"><ele>1077.0</ele></trkpt>
      <trkpt lat="34.54189" lon="-118.42013"><ele>1077.0</ele></trkpt>
      <trkpt lat="34.54189" lon="-118.42013"><ele>1085.0</ele></trkpt>
      <trkpt lat="34.54198" lon="-118.42004"><ele>1085.0</ele></trkpt>
      <trkpt lat="34.54206" lon="-118.41997"><ele>1085.0</ele></trkpt>
      <trkpt lat="34.54212" lon="-118.41989"><ele>1085.0</ele></trkpt>
      <trkpt lat="34.54221" lon="-118.41980"><ele>1085.0</ele></trkpt>
      <trkpt lat="34.54229" lon="-118.41973"><ele>1085.0</ele></trkpt>
      <trkpt lat="34.54238" lon="-118.41967"><ele>1085.0</ele></trkpt>
      <trkpt lat="34.54247" lon="-118.41957"><ele>1085.0</ele></trkpt>
      <trkpt lat="34.54254" lon="-118.41947"><ele>1085.0</ele></trkpt>
      <trkpt lat="34.54261" lon="-118.41938"><ele>1085.0</ele></trkpt>
      <trkpt lat="34.54266" lon="-118.41927"><ele>1085.0</ele></trkpt>
      <trkpt lat="34.54271" lon="-118.41910"><ele>1085.0</ele></trkpt>
      <trkpt lat="34.54272" lon="-118.41899"><ele>1085.0</ele></trkpt>
      <trkpt lat="34.54269" lon="-118.41885"><ele>1079.0</ele></trkpt>
      <trkpt lat="34.54267" lon="-118.41861"><ele>1079.0</ele></trkpt>
      <trkpt lat="34.54267" lon="-118.41860"><ele>1079.0</ele></trkpt>
      <trkpt lat="34.54269" lon="-118.41844"><ele>1079.0</ele></trkpt>
      <trkpt lat="34.54275" lon="-118.41828"><ele>1079.0</ele></trkpt>
      <trkpt lat="34.54284" lon="-118.41815"><ele>1079.0</ele></trkpt>
      <trkpt lat="34.54294" lon="-118.41806"><ele>1079.0</ele></trkpt>
      <trkpt lat="34.54305" lon="-118.41795"><ele>1079.0</ele></trkpt>
      <trkpt lat="34.54315" lon="-118.41783"><ele>1079.0</ele></trkpt>
      <trkpt lat="34.54316" lon="-118.41781"><ele>1079.0</ele></trkpt>
      <trkpt lat="34.54317" lon="-118.41780"><ele>1079.0</ele></trkpt>
      <trkpt lat="34.54323" lon="-118.41777"><ele>1079.0</ele></trkpt>
      <trkpt lat="34.54324" lon="-118.41774"><ele>1079.0</ele></trkpt>
      <trkpt lat="34.54329" lon="-118.41766"><ele>1079.0</ele></trkpt>
      <trkpt lat="34.54334" lon="-118.41762"><ele>1065.0</ele></trkpt>
      <trkpt lat="34.54346" lon="-118.41749"><ele>1065.0</ele></trkpt>
      <trkpt lat="34.54358" lon="-118.41733"><ele>1065.0</ele></trkpt>
      <trkpt lat="34.54370" lon="-118.41720"><ele>1065.0</ele></trkpt>
      <trkpt lat="34.54375" lon="-118.41710"><ele>1065.0</ele></trkpt>
      <trkpt lat="34.54377" lon="-118.41690"><ele>1065.0</ele></trkpt>
      <trkpt lat="34.54382" lon="-118.41675"><ele>1065.0</ele></trkpt>
      <trkpt lat="34.54382" lon="-118.41663"><ele>1065.0</ele></trkpt>
      <trkpt lat="34.54383" lon="-118.41653"><ele>1065.0</ele></trkpt>
      <trkpt lat="34.54390" lon="-118.41634"><ele>1065.0</ele></trkpt>
      <trkpt lat="34.54396" lon="-118.41622"><ele>1065.0</ele></trkpt>
      <trkpt lat="34.54403" lon="-118.41612"><ele>1065.0</ele></trkpt>
      <trkpt lat="34.54408" lon="-118.41602"><ele>1065.0</ele></trkpt>
      <trkpt lat="34.54416" lon="-118.41580"><ele>1056.0</ele></trkpt>
      <trkpt lat="34.54422" lon="-118.41565"><ele>1056.0</ele></trkpt>
      <trkpt lat="34.54426" lon="-118.41553"><ele>1056.0</ele></trkpt>
      <trkpt lat="34.54431" lon="-118.41542"><ele>1056.0</ele></trkpt>
      <trkpt lat="34.54434" lon="-118.41539"><ele>1056.0</ele></trkpt>
      <trkpt lat="34.54441" lon="-118.41530"><ele>1056.0</ele></trkpt>
      <trkpt lat="34.54452" lon="-118.41515"><ele>1056.0</ele></trkpt>
      <trkpt lat="34.54459" lon="-118.41505"><ele>1056.0</ele></trkpt>
      <trkpt lat="34.54461" lon="-118.41502"><ele>1056.0</ele></trkpt>
      <trkpt lat="34.54467" lon="-118.41486"><ele>1056.0</ele></trkpt>
      <trkpt lat="34.54468" lon="-118.41485"><ele>1056.0</ele></trkpt>
      <trkpt lat="34.54479" lon="-118.41460"><ele>1056.0</ele></trkpt>
      <trkpt lat="34.54484" lon="-118.41448"><ele>1056.0</ele></trkpt>
      <trkpt lat="34.54485" lon="-118.41445"><ele>1046.0</ele></trkpt>
      <trkpt lat="34.54490" lon="-118.41423"><ele>1046.0</ele></trkpt>
      <trkpt lat="34.54496" lon="-118.41393"><ele>1046.0</ele></trkpt>
      <trkpt lat="34.54498" lon="-118.41371"><ele>1046.0</ele></trkpt>
      <trkpt lat="34.54502" lon="-118.41353"><ele>1046.0</ele></trkpt>
      <trkpt lat="34.54507" lon="-118.41331"><ele>1046.0</ele></trkpt>
      <trkpt lat="34.54511" lon="-118.41309"><ele>1046.0</ele></trkpt>
      <trkpt lat="34.54508" lon="-118.41284"><ele>1046.0</ele></trkpt>
      <trkpt lat="34.54505" lon="-118.41263"><ele>1046.0</ele></trkpt>
      <trkpt lat="34.54504" lon="-118.41260"><ele>1046.0</ele></trkpt>
      <trkpt lat="34.54502" lon="-118.41246"><ele>1046.0</ele></trkpt>
      <trkpt lat="34.54500" lon="-118.41223"><ele>1046.0</ele></trkpt>
      <trkpt lat="34.54500" lon="-118.41204"><ele>1046.0</ele></trkpt>
      <trkpt lat="34.54500" lon="-118.41184"><ele>1056.0</ele></trkpt>
      <trkpt lat="34.54503" lon="-118.41167"><ele>1056.0</ele></trkpt>
      <trkpt lat="34.54511" lon="-118.41148"><ele>1056.0</ele></trkpt>
      <trkpt lat="34.54517" lon="-118.41133"><ele>1056.0</ele></trkpt>
      <trkpt lat="34.54525" lon="-118.41121"><ele>1056.0</ele></trkpt>
      <trkpt lat="34.54537" lon="-118.41107"><ele>1056.0</ele></trkpt>
      <trkpt lat="34.54544" lon="-118.41098"><ele>1056.0</ele></trkpt>
      <trkpt lat="34.54548" lon="-118.41088"><ele>1056.0</ele></trkpt>
      <trkpt lat="34.54550" lon="-118.41079"><ele>1056.0</ele></trkpt>
      <trkpt lat="34.54556" lon="-118.41059"><ele>1056.0</ele></trkpt>
      <trkpt lat="34.54560" lon="-118.41042"><ele>1056.0</ele></trkpt>
      <trkpt lat="34.54561" lon="-118.41020"><ele>1056.0</ele></trkpt>
      <trkpt lat="34.54562" lon="-118.41014"><ele>1056.0</ele></trkpt>
      <trkpt lat="34.54570" lon="-118.40996"><ele>1062.0</ele></trkpt>
      <trkpt lat="34.54577" lon="-118.40984"><ele>1062.0</ele></trkpt>
      <trkpt lat="34.54579" lon="-118.40976"><ele>1062.0</ele></trkpt>
      <trkpt lat="34.54581" lon="-118.40969"><ele>1062.0</ele></trkpt>
      <trkpt lat="34.54581" lon="-118.40969"><ele>1062.0</ele></trkpt>
      <trkpt lat="34.54581" lon="-118.40959"><ele>1062.0</ele></trkpt>
      <trkpt lat="34.54580" lon="-118.40952"><ele>1062.0</ele></trkpt>
      <trkpt lat="34.54570" lon="-118.40944"><ele>1062.0</ele></trkpt>
      <trkpt lat="34.54555" lon="-118.40934"><ele>1062.0</ele></trkpt>
      <trkpt lat="34.54540" lon="-118.40922"><ele>1062.0</ele></trkpt>
      <trkpt lat="34.54524" lon="-118.40914"><ele>1062.0</ele></trkpt>
      <trkpt lat="34.54514" lon="-118.40907"><ele>1062.0</ele></trkpt>
      <trkpt lat="34.54508" lon="-118.40901"><ele>1062.0</ele></trkpt>
      <trkpt lat="34.54501" lon="-118.40893"><ele>1078.0</ele></trkpt>
      <trkpt lat="34.54500" lon="-118.40890"><ele>1078.0</ele></trkpt>
      <trkpt lat="34.54498" lon="-118.40883"><ele>1078.0</ele></trkpt>
      <trkpt lat="34.54498" lon="-118.40882"><ele>1078.0</ele></trkpt>
      <trkpt lat="34.54498" lon="-118.40875"><ele>1078.0</ele></trkpt>
      <trkpt lat="34.54501" lon="-118.40861"><ele>1078.0</ele></trkpt>
      <trkpt lat="34.54503" lon="-118.40851"><ele>1078.0</ele></trkpt>
      <trkpt lat="34.54522" lon="-118.40794"><ele>1078.0</ele></trkpt>
      <trkpt lat="34.54534" lon="-118.40756"><ele>1078.0</ele></trkpt>
      <trkpt lat="34.54545" lon="-118.40714"><ele>1078.0</ele></trkpt>
      <trkpt lat="34.54557" lon="-118.40677"><ele>1078.0</ele></trkpt>
      <trkpt lat="34.54572" lon="-118.40632"><ele>1078.0</ele></trkpt>
      <trkpt lat="34.54583" lon="-118.40599"><ele>1078.0</ele></trkpt>
      <trkpt lat="34.54597" lon="-118.40557"><ele>1078.0</ele></trkpt>
      <trkpt lat="34.54612" lon="-118.40515"><ele>1092.0</ele></trkpt>
      <trkpt lat="34.54614" lon="-118.40510"><ele>1092.0</ele></trkpt>
      <trkpt lat="34.54617" lon="-118.40503"><ele>1092.0</ele></trkpt>
      <trkpt lat="34.54622" lon="-118.40494"><ele>1092.0</ele></trkpt>
      <trkpt lat="34.54622" lon="-118.40489"><ele>1092.0</ele></trkpt>
      <trkpt lat="34.54623" lon="-118.40481"><ele>1092.0</ele></trkpt>
      <trkpt lat="34.54625" lon="-118.40473"><ele>1092.0</ele></trkpt>
      <trkpt lat="34.54627" lon="-118.40465"><ele>1092.0</ele></trkpt>
      <trkpt lat="34.54628" lon="-118.40449"><ele>1092.0</ele></trkpt>
      <trkpt lat="34.54628" lon="-118.40438"><ele>1092.0</ele></trkpt>
      <trkpt lat="34.54631" lon="-118.40396"><ele>1092.0</ele></trkpt>
      <trkpt lat="34.54636" lon="-118.40355"><ele>1092.0</ele></trkpt>
      <trkpt lat="34.54637" lon="-118.40338"><ele>1092.0</ele></trkpt>
      <trkpt lat="34.54640" lon="-118.40324"><ele>1099.0</ele></trkpt>
      <trkpt lat="34.54645" lon="-118.40308"><ele>1099.0</ele></trkpt>
      <trkpt lat="34.54650" lon="-118.40295"><ele>1099.0</ele></trkpt>
      <trkpt lat="34.54658" lon="-118.40284"><ele>1099.0</ele></trkpt>
      <trkpt lat="34.54668" lon="-118.40272"><ele>1099.0</ele></trkpt>
      <trkpt lat="34.54677" lon="-118.40262"><ele>1099.0</ele></trkpt>
      <trkpt lat="34.54680" lon="-118.40258"><ele>1099.0</ele></trkpt>
      <trkpt lat="34.54692" lon="-118.40247"><ele>1099.0</ele></trkpt>
      <trkpt lat="34.54707" lon="-118.40235"><ele>1099.0</ele></trkpt>
      <trkpt lat="34.54717" lon="-118.40226"><ele>1099.0</ele></trkpt>
      <trkpt lat="34.54718" lon="-118.40226"><ele>1099.0</ele></trkpt>
      <trkpt lat="34.54723" lon="-118.40223"><ele>1099.0</ele></trkpt>
      <trkpt lat="34.54733" lon="-118.40213"><ele>1099.0</ele></trkpt>
      <trkpt lat="34.54743" lon="-118.40206"><ele>1094.0</ele></trkpt>
      <trkpt lat="34.54759" lon="-118.40192"><ele>1094.0</ele></trkpt>
      <trkpt lat="34.54767" lon="-118.40185"><ele>1094.0</ele></trkpt>
      <trkpt lat="34.54778" lon="-118.40173"><ele>1094.0</ele></trkpt>
      <trkpt lat="34.54793" lon="-118.40163"><ele>1094.0</ele></trkpt>
      <trkpt lat="34.54801" lon="-118.40155"><ele>1094.0</ele></trkpt>
      <trkpt lat="34.54803" lon="-118.40153"><ele>1094.0</ele></trkpt>
      <trkpt lat="34.54808" lon="-118.40144"><ele>1094.0</ele></trkpt>
      <trkpt lat="34.54813" lon="-118.40133"><ele>1094.0</ele></trkpt>
      <trkpt lat="34.54816" lon="-118.40119"><ele>1094.0</ele></trkpt>
      <trkpt lat="34.54814" lon="-118.40103"><ele>1094.0</ele></trkpt>
      <trkpt lat="34.54812" lon="-118.40090"><ele>1094.0</ele></trkpt>
      <trkpt lat="34.54811" lon="-118.40080"><ele>1094.0</ele></trkpt>
      <trkpt lat="34.54811" lon="-118.40077"><ele>1113.0</ele></trkpt>
      <trkpt lat="34.54810" lon="-118.40065"><ele>1113.0</ele></trkpt>
      <trkpt lat="34.54811" lon="-118.40051"><ele>1113.0</ele></trkpt>
      <trkpt lat="34.54815" lon="-118.40030"><ele>1113.0</ele></trkpt>
      <trkpt lat="34.54819" lon="-118.40004"><ele>1113.0</ele></trkpt>
      <trkpt lat="34.54830" lon="-118.39964"><ele>1113.0</ele></trkpt>
      <trkpt lat="34.54832" lon="-118.39954"><ele>1113.0</ele></trkpt>
      <trkpt lat="34.54839" lon="-118.39929"><ele>1113.0</ele></trkpt>
      <trkpt lat="34.54845" lon="-118.39911"><ele>1113.0</ele></trkpt>
      <trkpt lat="34.54852" lon="-118.39889"><ele>1113.0</ele></trkpt>
      <trkpt lat="34.54856" lon="-118.39874"><ele>1113.0</ele></trkpt>
      <trkpt lat="34.54862" lon="-118.39848"><ele>1113.0</ele></trkpt>
      <trkpt lat="34.54864" lon="-118.39833"><ele>1113.0</ele></trkpt>
      <trkpt lat="34.54869" lon="-118.39809"><ele>1144.0</ele></trkpt>
      <trkpt lat="34.54874" lon="-118.39791"><ele>1144.0</ele></trkpt>
      <trkpt lat="34.54881" lon="-118.39771"><ele>1144.0</ele></trkpt>
      <trkpt lat="34.54886" lon="-118.39755"><ele>1144.0</ele></trkpt>
      <trkpt lat="34.54892" lon="-118.39729"><ele>1144.0</ele></trkpt>
      <trkpt lat="34.54898" lon="-118.39712"><ele>1144.0</ele></trkpt>
      <trkpt lat="34.54908" lon="-118.39690"><ele>1144.0</ele></trkpt>
      <trkpt lat="34.54914" lon="-118.39678"><ele>1144.0</ele></trkpt>
      <trkpt lat="34.54924" lon="-118.39656"><ele>1144.0</ele></trkpt>
      <trkpt lat="34.54929" lon="-118.39641"><ele>1144.0</ele></trkpt>
      <trkpt lat="34.54931" lon="-118.39627"><ele>1144.0</ele></trkpt>
      <trkpt lat="34.54933" lon="-118.39615"><ele>1144.0</ele></trkpt>
      <trkpt lat="34.54933" lon="-118.39605"><ele>1144.0</ele></trkpt>
      <trkpt lat="34.54938" lon="-118.39586"><ele>1144.0</ele></trkpt>
      <trkpt lat="34.54953" lon="-118.39549"><ele>1178.0</ele></trkpt>
      <trkpt lat="34.54969" lon="-118.39514"><ele>1178.0</ele></trkpt>
      <trkpt lat="34.54988" lon="-118.39478"><ele>1178.0</ele></trkpt>
      <trkpt lat="34.55010" lon="-118.39439"><ele>1178.0</ele></trkpt>
      <trkpt lat="34.55028" lon="-118.39406"><ele>1178.0</ele></trkpt>
      <trkpt lat="34.55045" lon="-118.39385"><ele>1178.0</ele></trkpt>
      <trkpt lat="34.55051" lon="-118.39376"><ele>1178.0</ele></trkpt>
      <trkpt lat="34.55056" lon="-118.39365"><ele>1178.0</ele></trkpt>
      <trkpt lat="34.55063" lon="-118.39352"><ele>1178.0</ele></trkpt>
      <trkpt lat="34.55072" lon="-118.39338"><ele>1178.0</ele></trkpt>
      <trkpt lat="34.55074" lon="-118.39334"><ele>1178.0</ele></trkpt>
      <trkpt lat="34.55078" lon="-118.39327"><ele>1178.0</ele></trkpt>
      <trkpt lat="34.55079" lon="-118.39325"><ele>1178.0</ele></trkpt>
      <trkpt lat="34.55084" lon="-118.39319"><ele>1200.0</ele></trkpt>
      <trkpt lat="34.55090" lon="-118.39309"><ele>1200.0</ele></trkpt>
      <trkpt lat="34.55105" lon="-118.39300"><ele>1200.0</ele></trkpt>
      <trkpt lat="34.55120" lon="-118.39290"><ele>1200.0</ele></trkpt>
      <trkpt lat="34.55131" lon="-118.39280"><ele>1200.0</ele></trkpt>
      <trkpt lat="34.55138" lon="-118.39274"><ele>1200.0</ele></trkpt>
      <trkpt lat="34.55147" lon="-118.39260"><ele>1200.0</ele></trkpt>
      <trkpt lat="34.55147" lon="-118.39259"><ele>1200.0</ele></trkpt>
      <trkpt lat="34.55149" lon="-118.39256"><ele>1200.0</ele></trkpt>
      <trkpt lat="34.55151" lon="-118.39250"><ele>1200.0</ele></trkpt>
      <trkpt lat="34.55156" lon="-118.39236"><ele>1200.0</ele></trkpt>
      <trkpt lat="34.55159" lon="-118.39219"><ele>1200.0</ele></trkpt>
      <trkpt lat="34.55162" lon="-118.39207"><ele>1200.0</ele></trkpt>
      <trkpt lat="34.55170" lon="-118.39182"><ele>1223.0</ele></trkpt>
      <trkpt lat="34.55176" lon="-118.39167"><ele>1223.0</ele></trkpt>
      <trkpt lat="34.55184" lon="-118.39155"><ele>1223.0</ele></trkpt>
      <trkpt lat="34.55191" lon="-118.39141"><ele>1223.0</ele></trkpt>
      <trkpt lat="34.55201" lon="-118.39125"><ele>1223.0</ele></trkpt>
      <trkpt lat="34.55213" lon="-118.39111"><ele>1223.0</ele></trkpt>
      <trkpt lat="34.55225" lon="-118.39088"><ele>1223.0</ele></trkpt>
      <trkpt lat="34.55228" lon="-118.39075"><ele>1223.0</ele></trkpt>
      <trkpt lat="34.55233" lon="-118.39060"><ele>1223.0</ele></trkpt>
      <trkpt lat="34.55236" lon="-118.39051"><ele>1223.0</ele></trkpt>
      <trkpt lat="34.55241" lon="-118.39035"><ele>1223.0</ele></trkpt>
      <trkpt lat="34.55239" lon="-118.39026"><ele>1223.0</ele></trkpt>
      <trkpt lat="34.55238" lon="-118.39022"><ele>1223.0</ele></trkpt>
      <trkpt lat="34.55229" lon="-118.39017"><ele>1225.0</ele></trkpt>
      <trkpt lat="34.55214" lon="-118.39017"><ele>1225.0</ele></trkpt>
      <trkpt lat="34.55204" lon="-118.39020"><ele>1225.0</ele></trkpt>
      <trkpt lat="34.55199" lon="-118.39021"><ele>1225.0</ele></trkpt>
      <trkpt lat="34.55198" lon="-118.39021"><ele>1225.0</ele></trkpt>
      <trkpt lat="34.55184" lon="-118.39021"><ele>1225.0</ele></trkpt>
      <trkpt lat="34.55176" lon="-118.39017"><ele>1225.0</ele></trkpt>
      <trkpt lat="34.55166" lon="-118.39013"><ele>1225.0</ele></trkpt>
      <trkpt lat="34.55154" lon="-118.39005"><ele>1225.0</ele></trkpt>
      <trkpt lat="34.55151" lon="-118.39002"><ele>1225.0</ele></trkpt>
      <trkpt lat="34.55148" lon="-118.38998"><ele>1225.0</ele></trkpt>
      <trkpt lat="34.55142" lon="-118.38990"><ele>1225.0</ele></trkpt>
      <trkpt lat="34.55134" lon="-118.38981"><ele>1225.0</ele></trkpt>
      <trkpt lat="34.55129" lon="-118.38965"><ele>1246.0</ele></trkpt>
      <trkpt lat="34.55126" lon="-118.38951"><ele>1246.0</ele></trkpt>
      <trkpt lat="34.55124" lon="-118.38939"><ele>1246.0</ele></trkpt>
      <trkpt lat="34.55121" lon="-118.38923"><ele>1246.0</ele></trkpt>
      <trkpt lat="34.55117" lon="-118.38921"><ele>1246.0</ele></trkpt>
      <trkpt lat="34.55112" lon="-118.38915"><ele>1246.0</ele></trkpt>
      <trkpt lat="34.55108" lon="-118.38913"><ele>1246.0</ele></trkpt>
      <trkpt lat="34.55105" lon="-118.38904"><ele>1246.0</ele></trkpt>
      <trkpt lat="34.55097" lon="-118.38894"><ele>1246.0</ele></trkpt>
      <trkpt lat="34.55087" lon="-118.38888"><ele>1246.0</ele></trkpt>
      <trkpt lat="34.55085" lon="-118.38888"><ele>1246.0</ele></trkpt>
      <trkpt lat="34.55079" lon="-118.38886"><ele>1246.0</ele></trkpt>
      <trkpt lat="34.55072" lon="-118.38889"><ele>1246.0</ele></trkpt>
      <trkpt lat="34.55064" lon="-118.38898"><ele>1243.0</ele></trkpt>
      <trkpt lat="34.55054" lon="-118.38906"><ele>1243.0</ele></trkpt>
      <trkpt lat="34.55047" lon="-118.38911"><ele>1243.0</ele></trkpt>
      <trkpt lat="34.55036" lon="-118.38916"><ele>1243.0</ele></trkpt>
      <trkpt lat="34.55036" lon="-118.38916"><ele>1243.0</ele></trkpt>
      <trkpt lat="34.55022" lon="-118.38911"><ele>1243.0</ele></trkpt>
      <trkpt lat="34.55008" lon="-118.38906"><ele>1243.0</ele></trkpt>
      <trkpt lat="34.54996" lon="-118.38898"><ele>1243.0</ele></trkpt>
      <trkpt lat="34.54992" lon="-118.38895"><ele>1243.0</ele></trkpt>
      <trkpt lat="34.54985" lon="-118.38883"><ele>1243.0</ele></trkpt>
      <trkpt lat="34.54977" lon="-118.38868"><ele>1243.0</ele></trkpt>
      <trkpt lat="34.54974" lon="-118.38863"><ele>1243.0</ele></trkpt>
      <trkpt lat="34.54967" lon="-118.38847"><ele>1243.0</ele></trkpt>
      <trkpt lat="34.54966" lon="-118.38846"><ele>1243.0</ele></trkpt>
      <trkpt lat="34.54966" lon="-118.38844"><ele>1254.0</ele></trkpt>
      <trkpt lat="34.54949" lon="-118.38804"><ele>1254.0</ele></trkpt>
      <trkpt lat="34.54946" lon="-118.38790"><ele>1254.0</ele></trkpt>
      <trkpt lat="34.54946" lon="-118.38789"><ele>1254.0</ele></trkpt>
      <trkpt lat="34.54947" lon="-118.38779"><ele>1254.0</ele></trkpt>
      <trkpt lat="34.54949" lon="-118.38773"><ele>1254.0</ele></trkpt>
      <trkpt lat="34.54949" lon="-118.38771"><ele>1254.0</ele></trkpt>
      <trkpt lat="34.54954" lon="-118.38757"><ele>1254.0</ele></trkpt>
      <trkpt lat="34.54956" lon="-118.38754"><ele>1254.0</ele></trkpt>
      <trkpt lat="34.54962" lon="-118.38746"><ele>1254.0</ele></trkpt>
      <trkpt lat="34.54973" lon="-118.38743"><ele>1254.0</ele></trkpt>
      <trkpt lat="34.54982" lon="-118.38741"><ele>1254.0</ele></trkpt>
      <trkpt lat="34.54986" lon="-118.38741"><ele>1254.0</ele></trkpt>
      <trkpt lat="34.55013" lon="-118.38744"><ele>1276.0</ele></trkpt>
      <trkpt lat="34.55041" lon="-118.38751"><ele>1276.0</ele></trkpt>
      <trkpt lat="34.55048" lon="-118.38753"><ele>1276.0</ele></trkpt>
      <trkpt lat="34.55055" lon="-118.38755"><ele>1276.0</ele></trkpt>
      <trkpt lat="34.55058" lon="-118.38755"><ele>1276.0</ele></trkpt>
      <trkpt lat="34.55071" lon="-118.38755"><ele>1276.0</ele></trkpt>
      <trkpt lat="34.55086" lon="-118.38751"><ele>1276.0</ele></trkpt>
      <trkpt lat="34.55095" lon="-118.38743"><ele>1276.0</ele></trkpt>
      <trkpt lat="34.55097" lon="-118.38741"><ele>1276.0</ele></trkpt>
      <trkpt lat="34.55105" lon="-118.38734"><ele>1276.0</ele></trkpt>
      <trkpt lat="34.55114" lon="-118.38727"><ele>1276.0</ele></trkpt>
      <trkpt lat="34.55128" lon="-118.38716"><ele>1276.0</ele></trkpt>
      <trkpt lat="34.55136" lon="-118.38709"><ele>1276.0</ele></trkpt>
      <trkpt lat="34.55141" lon="-118.38702"><ele>1287.0</ele></trkpt>
      <trkpt lat="34.55148" lon="-118.38689"><ele>1287.0</ele></trkpt>
      <trkpt lat="34.55152" lon="-118.38673"><ele>1287.0</ele></trkpt>
      <trkpt lat="34.55158" lon="-118.38650"><ele>1287.0</ele></trkpt>
      <trkpt lat="34.55160" lon="-118.38630"><ele>1287.0</ele></trkpt>
      <trkpt lat="34.55165" lon="-118.38622"><ele>1287.0</ele></trkpt>
      <trkpt lat="34.55169" lon="-118.38617"><ele>1287.0</ele></trkpt>
      <trkpt lat="34.55175" lon="-118.38612"><ele>1287.0</ele></trkpt>
      <trkpt lat="34.55183" lon="-118.38606"><ele>1287.0</ele></trkpt>
      <trkpt lat="34.55196" lon="-118.38601"><ele>1287.0</ele></trkpt>
      <trkpt lat="34.55213" lon="-118.38601"><ele>1287.0</ele></trkpt>
      <trkpt lat="34.55231" lon="-118.38603"><ele>1287.0</ele></trkpt>
      <trkpt lat="34.55232" lon="-118.38603"><ele>1287.0</ele></trkpt>
      <trkpt lat="34.55247" lon="-118.38601"><ele>1310.0</ele></trkpt>
      <trkpt lat="34.55269" lon="-118.38596"><ele>1310.0</ele></trkpt>
      <trkpt lat="34.55280" lon="-118.38593"><ele>1310.0</ele></trkpt>
      <trkpt lat="34.55280" lon="-118.38593"><ele>1310.0</ele></trkpt>
      <trkpt lat="34.55302" lon="-118.38585"><ele>1310.0</ele></trkpt>
      <trkpt lat="34.55314" lon="-118.38578"><ele>1310.0</ele></trkpt>
      <trkpt lat="34.55315" lon="-118.38577"><ele>1310.0</ele></trkpt>
      <trkpt lat="34.55333" lon="-118.38571"><ele>1310.0</ele></trkpt>
      <trkpt lat="34.55347" lon="-118.38565"><ele>1310.0</ele></trkpt>
      <trkpt lat="34.55352" lon="-118.38563"><ele>1310.0</ele></trkpt>
      <trkpt lat="34.55358" lon="-118.38561"><ele>1310.0</ele></trkpt>
      <trkpt lat="34.55362" lon="-118.38556"><ele>1310.0</ele></trkpt>
      <trkpt lat="34.55362" lon="-118.38556"><ele>1310.0</ele></trkpt>
      <trkpt lat="34.55363" lon="-118.38553"><ele>1315.0</ele></trkpt>
      <trkpt lat="34.55368" lon="-118.38539"><ele>1315.0</ele></trkpt>
      <trkpt lat="34.55371" lon="-118.38513"><ele>1315.0</ele></trkpt>
      <trkpt lat="34.55376" lon="-118.38501"><ele>1315.0</ele></trkpt>
      <trkpt lat="34.55386" lon="-118.38479"><ele>1315.0</ele></trkpt>
      <trkpt lat="34.55396" lon="-118.38463"><ele>1315.0</ele></trkpt>
      <trkpt lat="34.55397" lon="-118.38462"><ele>1315.0</ele></trkpt>
      <trkpt lat="34.55405" lon="-118.38453"><ele>1315.0</ele></trkpt>
      <trkpt lat="34.55413" lon="-118.38447"><ele>1315.0</ele></trkpt>
      <trkpt lat="34.55416" lon="-118.38444"><ele>1315.0</ele></trkpt>
      <trkpt lat="34.55420" lon="-118.38441"><ele>1315.0</ele></trkpt>
      <trkpt lat="34.55426" lon="-118.38437"><ele>1315.0</ele></trkpt>
      <trkpt lat="34.55435" lon="-118.38431"><ele>1315.0</ele></trkpt>
      <trkpt lat="34.55442" lon="-118.38428"><ele>1315.0</ele></trkpt>
      <trkpt lat="34.55454" lon="-118.38425"><ele>1331.0</ele></trkpt>
      <trkpt lat="34.55464" lon="-118.38421"><ele>1331.0</ele></trkpt>
      <trkpt lat="34.55465" lon="-118.38421"><ele>1331.0</ele></trkpt>
      <trkpt lat="34.55475" lon="-118.38411"><ele>1331.0</ele></trkpt>
      <trkpt lat="34.55484" lon="-118.38397"><ele>1331.0</ele></trkpt>
      <trkpt lat="34.55492" lon="-118.38380"><ele>1331.0</ele></trkpt>
      <trkpt lat="34.55502" lon="-118.38365"><ele>1331.0</ele></trkpt>
      <trkpt lat="34.55511" lon="-118.38347"><ele>1331.0</ele></trkpt>
      <trkpt lat="34.55520" lon="-118.38329"><ele>1331.0</ele></trkpt>
      <trkpt lat="34.55521" lon="-118.38321"><ele>1331.0</ele></trkpt>
      <trkpt lat="34.55530" lon="-118.38312"><ele>1331.0</ele></trkpt>
      <trkpt lat="34.55537" lon="-118.38304"><ele>1331.0</ele></trkpt>
      <trkpt lat="34.55550" lon="-118.38297"><ele>1331.0</ele></trkpt>
      <trkpt lat="34.55559" lon="-118.38292"><ele>1340.0</ele></trkpt>
      <trkpt lat="34.55569" lon="-118.38289"><ele>1340.0</ele></trkpt>
      <trkpt lat="34.55574" lon="-118.38289"><ele>1340.0</ele></trkpt>
      <trkpt lat="34.55580" lon="-118.38290"><ele>1340.0</ele></trkpt>
      <trkpt lat="34.55586" lon="-118.38291"><ele>1340.0</ele></trkpt>
      <trkpt lat="34.55589" lon="-118.38294"><ele>1340.0</ele></trkpt>
      <trkpt lat="34.55592" lon="-118.38297"><ele>1340.0</ele></trkpt>
      <trkpt lat="34.55600" lon="-118.38308"><ele>1340.0</ele></trkpt>
      <trkpt lat="34.55602" lon="-118.38313"><ele>1340.0</ele></trkpt>
      <trkpt lat="34.55603" lon="-118.38314"><ele>1340.0</ele></trkpt>
      <trkpt lat="34.55605" lon="-118.38317"><ele>1340.0</ele></trkpt>
      <trkpt lat="34.55609" lon="-118.38317"><ele>1340.0</ele></trkpt>
      <trkpt lat="34.55613" lon="-118.38316"><ele>1340.0</ele></trkpt>
      <trkpt lat="34.55619" lon="-118.38312"><ele>1346.0</ele></trkpt>
      <trkpt lat="34.55637" lon="-118.38296"><ele>1346.0</ele></trkpt>
      <trkpt lat="34.55654" lon="-118.38284"><ele>1346.0</ele></trkpt>
      <trkpt lat="34.55682" lon="-118.38266"><ele>1346.0</ele></trkpt>
      <trkpt lat="34.55706" lon="-118.38252"><ele>1346.0</ele></trkpt>
      <trkpt lat="34.55727" lon="-118.38244"><ele>1346.0</ele></trkpt>
      <trkpt lat="34.55746" lon="-118.38229"><ele>1346.0</ele></trkpt>
      <trkpt lat="34.55757" lon="-118.38216"><ele>1346.0</ele></trkpt>
      <trkpt lat="34.55773" lon="-118.38206"><ele>1346.0</ele></trkpt>
      <trkpt lat="34.55793" lon="-118.38191"><ele>1346.0</ele></trkpt>
      <trkpt lat="34.55808" lon="-118.38181"><ele>1346.0</ele></trkpt>
      <trkpt lat="34.55815" lon="-118.38176"><ele>1346.0</ele></trkpt>
      <trkpt lat="34.55824" lon="-118.38168"><ele>1346.0</ele></trkpt>
      <trkpt lat="34.55831" lon="-118.38149"><ele>1343.0</ele></trkpt>
      <trkpt lat="34.55836" lon="-118.38133"><ele>1343.0</ele></trkpt>
      <trkpt lat="34.55839" lon="-118.38125"><ele>1343.0</ele></trkpt>
      <trkpt lat="34.55839" lon="-118.38121"><ele>1343.0</ele></trkpt>
      <trkpt lat="34.55837" lon="-118.38077"><ele>1343.0</ele></trkpt>
      <trkpt lat="34.55834" lon="-118.38031"><ele>1343.0</ele></trkpt>
      <trkpt lat="34.55841" lon="-118.37987"><ele>1343.0</ele></trkpt>
      <trkpt lat="34.55835" lon="-118.37948"><ele>1343.0</ele></trkpt>
      <trkpt lat="34.55847" lon="-118.37889"><ele>1343.0</ele></trkpt>
      <trkpt lat="34.55848" lon="-118.37885"><ele>1343.0</ele></trkpt>
      <trkpt lat="34.55854" lon="-118.37878"><ele>1343.0</ele></trkpt>
      <trkpt lat="34.55866" lon="-118.37864"><ele>1343.0</ele></trkpt>
      <trkpt lat="34.55868" lon="-118.37861"><ele>1343.0</ele></trkpt>
      <trkpt lat="34.55920" lon="-118.37824"><ele>1327.0</ele></trkpt>
      <trkpt lat="34.55936" lon="-118.37813"><ele>1327.0</ele></trkpt>
      <trkpt lat="34.55939" lon="-118.37810"><ele>1327.0</ele></trkpt>
      <trkpt lat="34.55955" lon="-118.37790"><ele>1327.0</ele></trkpt>
      <trkpt lat="34.55960" lon="-118.37772"><ele>1327.0</ele></trkpt>
      <trkpt lat="34.55966" lon="-118.37752"><ele>1327.0</ele></trkpt>
      <trkpt lat="34.55992" lon="-118.37735"><ele>1327.0</ele></trkpt>
      <trkpt lat="34.56022" lon="-118.37716"><ele>1327.0</ele></trkpt>
      <trkpt lat="34.56025" lon="-118.37714"><ele>1327.0</ele></trkpt>
      <trkpt lat="34.56032" lon="-118.37702"><ele>1327.0</ele></trkpt>
      <trkpt lat="34.56033" lon="-118.37699"><ele>1327.0</ele></trkpt>
      <trkpt lat="34.56044" lon="-118.37680"><ele>1327.0</ele></trkpt>
      <trkpt lat="34.56055" lon="-118.37661"><ele>1327.0</ele></trkpt>
      <trkpt lat="34.56107" lon="-118.37617"><ele>1338.0</ele></trkpt>
      <trkpt lat="34.56118" lon="-118.37595"><ele>1338.0</ele></trkpt>
      <trkpt lat="34.56132" lon="-118.37561"><ele>1338.0</ele></trkpt>
      <trkpt lat="34.56139" lon="-118.37542"><ele>1338.0</ele></trkpt>
      <trkpt lat="34.56144" lon="-118.37530"><ele>1338.0</ele></trkpt>
      <trkpt lat="34.56152" lon="-118.37507"><ele>1338.0</ele></trkpt>
      <trkpt lat="34.56158" lon="-118.37489"><ele>1338.0</ele></trkpt>
      <trkpt lat="34.56165" lon="-118.37469"><ele>1338.0</ele></trkpt>
      <trkpt lat="34.56165" lon="-118.37468"><ele>1338.0</ele></trkpt>
      <trkpt lat="34.56174" lon="-118.37445"><ele>1338.0</ele></trkpt>
      <trkpt lat="34.56176" lon="-118.37439"><ele>1338.0</ele></trkpt>
      <trkpt lat="34.56180" lon="-118.37431"><ele>1338.0</ele></trkpt>
      <trkpt lat="34.56189" lon="-118.37414"><ele>1338.0</ele></trkpt>
      <trkpt lat="34.56190" lon="-118.37411"><ele>1338.0</ele></trkpt>
      <trkpt lat="34.56195" lon="-118.37403"><ele>1344.0</ele></trkpt>
      <trkpt lat="34.56195" lon="-118.37402"><ele>1344.0</ele></trkpt>
      <trkpt lat="34.56204" lon="-118.37386"><ele>1344.0</ele></trkpt>
      <trkpt lat="34.56209" lon="-118.37366"><ele>1344.0</ele></trkpt>
      <trkpt lat="34.56211" lon="-118.37357"><ele>1344.0</ele></trkpt>
      <trkpt lat="34.56214" lon="-118.37338"><ele>1344.0</ele></trkpt>
      <trkpt lat="34.56217" lon="-118.37318"><ele>1344.0</ele></trkpt>
      <trkpt lat="34.56219" lon="-118.37293"><ele>1344.0</ele></trkpt>
      <trkpt lat="34.56220" lon="-118.37279"><ele>1344.0</ele></trkpt>
      <trkpt lat="34.56226" lon="-118.37263"><ele>1344.0</ele></trkpt>
      <trkpt lat="34.56232" lon="-118.37249"><ele>1344.0</ele></trkpt>
      <trkpt lat="34.56238" lon="-118.37232"><ele>1344.0</ele></trkpt>
      <trkpt lat="34.56240" lon="-118.37217"><ele>1344.0</ele></trkpt>
      <trkpt lat="34.56240" lon="-118.37196"><ele>1356.0</ele></trkpt>
      <trkpt lat="34.56239" lon="-118.37178"><ele>1356.0</ele></trkpt>
      <trkpt lat="34.56234" lon="-118.37160"><ele>1356.0</ele></trkpt>
      <trkpt lat="34.56228" lon="-118.37147"><ele>1356.0</ele></trkpt>
      <trkpt lat="34.56227" lon="-118.37146"><ele>1356.0</ele></trkpt>
      <trkpt lat="34.56223" lon="-118.37141"><ele>1356.0</ele></trkpt>
      <trkpt lat="34.56217" lon="-118.37134"><ele>1356.0</ele></trkpt>
      <trkpt lat="34.56197" lon="-118.37114"><ele>1356.0</ele></trkpt>
      <trkpt lat="34.56187" lon="-118.37105"><ele>1356.0</ele></trkpt>
      <trkpt lat="34.56176" lon="-118.37093"><ele>1356.0</ele></trkpt>
      <trkpt lat="34.56162" lon="-118.37076"><ele>1356.0</ele></trkpt>
      <trkpt lat="34.56158" lon="-118.37071"><ele>1356.0</ele></trkpt>
      <trkpt lat="34.56153" lon="-118.37053"><ele>1356.0</ele></trkpt>
      <trkpt lat="34.56147" lon="-118.37036"><ele>1355.0</ele></trkpt>
      <trkpt lat="34.56148" lon="-118.37016"><ele>1355.0</ele></trkpt>
      <trkpt lat="34.56153" lon="-118.37004"><ele>1355.0</ele></trkpt>
      <trkpt lat="34.56158" lon="-118.36992"><ele>1355.0</ele></trkpt>
      <trkpt lat="34.56164" lon="-118.36966"><ele>1355.0</ele></trkpt>
      <trkpt lat="34.56165" lon="-118.36949"><ele>1355.0</ele></trkpt>
      <trkpt lat="34.56168" lon="-118.36938"><ele>1355.0</ele></trkpt>
      <trkpt lat="34.56173" lon="-118.36925"><ele>1355.0</ele></trkpt>
      <trkpt lat="34.56174" lon="-118.36912"><ele>1355.0</ele></trkpt>
      <trkpt lat="34.56171" lon="-118.36902"><ele>1355.0</ele></trkpt>
      <trkpt lat="34.56166" lon="-118.36887"><ele>1355.0</ele></trkpt>
      <trkpt lat="34.56162" lon="-118.36876"><ele>1355.0</ele></trkpt>
      <trkpt lat="34.56158" lon="-118.36861"><ele>1355.0</ele></trkpt>
      <trkpt lat="34.56158" lon="-118.36849"><ele>1355.0</ele></trkpt>
      <trkpt lat="34.56159" lon="-118.36833"><ele>1355.0</ele></trkpt>
      <trkpt lat="34.56161" lon="-118.36821"><ele>1355.0</ele></trkpt>
      <trkpt lat="34.56165" lon="-118.36810"><ele>1355.0</ele></trkpt>
      <trkpt lat="34.56169" lon="-118.36799"><ele>1355.0</ele></trkpt>
      <trkpt lat="34.56174" lon="-118.36788"><ele>1355.0</ele></trkpt>
      <trkpt lat="34.56182" lon="-118.36778"><ele>1355.0</ele></trkpt>
      <trkpt lat="34.56185" lon="-118.36769"><ele>1355.0</ele></trkpt>
      <trkpt lat="34.56191" lon="-118.36758"><ele>1355.0</ele></trkpt>
      <trkpt lat="34.56196" lon="-118.36749"><ele>1355.0</ele></trkpt>
      <trkpt lat="34.56200" lon="-118.36738"><ele>1355.0</ele></trkpt>
      <trkpt lat="34.56200" lon="-118.36738"><ele>1355.0</ele></trkpt>
      <trkpt lat="34.56202" lon="-118.36726"><ele>1355.0</ele></trkpt>
      <trkpt lat="34.56204" lon="-118.36698"><ele>1357.0</ele></trkpt>
      <trkpt lat="34.56206" lon="-118.36668"><ele>1357.0</ele></trkpt>
      <trkpt lat="34.56206" lon="-118.36631"><ele>1357.0</ele></trkpt>
      <trkpt lat="34.56210" lon="-118.36601"><ele>1357.0</ele></trkpt>
      <trkpt lat="34.56209" lon="-118.36579"><ele>1357.0</ele></trkpt>
      <trkpt lat="34.56210" lon="-118.36576"><ele>1357.0</ele></trkpt>
      <trkpt lat="34.56212" lon="-118.36565"><ele>1357.0</ele></trkpt>
      <trkpt lat="34.56214" lon="-118.36562"><ele>1357.0</ele></trkpt>
      <trkpt lat="34.56216" lon="-118.36559"><ele>1357.0</ele></trkpt>
      <trkpt lat="34.56218" lon="-118.36555"><ele>1357.0</ele></trkpt>
      <trkpt lat="34.56225" lon="-118.36550"><ele>1357.0</ele></trkpt>
      <trkpt lat="34.56238" lon="-118.36542"><ele>1357.0</ele></trkpt>
      <trkpt lat="34.56247" lon="-118.36537"><ele>1357.0</ele></trkpt>
      <trkpt lat="34.56257" lon="-118.36532"><ele>1367.0</ele></trkpt>
      <trkpt lat="34.56265" lon="-118.36526"><ele>1367.0</ele></trkpt>
      <trkpt lat="34.56272" lon="-118.36521"><ele>1367.0</ele></trkpt>
      <trkpt lat="34.56285" lon="-118.36508"><ele>1367.0</ele></trkpt>
      <trkpt lat="34.56289" lon="-118.36497"><ele>1367.0</ele></trkpt>
      <trkpt lat="34.56294" lon="-118.36482"><ele>1367.0</ele></trkpt>
      <trkpt lat="34.56296" lon="-118.36471"><ele>1367.0</ele></trkpt>
      <trkpt lat="34.56299" lon="-118.36453"><ele>1367.0</ele></trkpt>
      <trkpt lat="34.56299" lon="-118.36429"><ele>1367.0</ele></trkpt>
      <trkpt lat="34.56299" lon="-118.36416"><ele>1367.0</ele></trkpt>
      <trkpt lat="34.56299" lon="-118.36389"><ele>1367.0</ele></trkpt>
      <trkpt lat="34.56299" lon="-118.36384"><ele>1367.0</ele></trkpt>
      <trkpt lat="34.56298" lon="-118.36368"><ele>1367.0</ele></trkpt>
      <trkpt lat="34.56298" lon="-118.36350"><ele>1367.0</ele></trkpt>
      <trkpt lat="34.56298" lon="-118.36344"><ele>1380.0</ele></trkpt>
      <trkpt lat="34.56298" lon="-118.36338"><ele>1380.0</ele></trkpt>
      <trkpt lat="34.56299" lon="-118.36329"><ele>1380.0</ele></trkpt>
      <trkpt lat="34.56302" lon="-118.36318"><ele>1380.0</ele></trkpt>
      <trkpt lat="34.56307" lon="-118.36297"><ele>1380.0</ele></trkpt>
      <trkpt lat="34.56311" lon="-118.36285"><ele>1380.0</ele></trkpt>
      <trkpt lat="34.56316" lon="-118.36273"><ele>1380.0</ele></trkpt>
      <trkpt lat="34.56321" lon="-118.36264"><ele>1380.0</ele></trkpt>
      <trkpt lat="34.56324" lon="-118.36244"><ele>1380.0</ele></trkpt>
      <trkpt lat="34.56321" lon="-118.36225"><ele>1380.0</ele></trkpt>
      <trkpt lat="34.56317" lon="-118.36217"><ele>1380.0</ele></trkpt>
      <trkpt lat="34.56309" lon="-118.36207"><ele>1380.0</ele></trkpt>
      <trkpt lat="34.56295" lon="-118.36200"><ele>1380.0</ele></trkpt>
      <trkpt lat="34.56286" lon="-118.36198"><ele>1399.0</ele></trkpt>
      <trkpt lat="34.56275" lon="-118.36188"><ele>1399.0</ele></trkpt>
      <trkpt lat="34.56275" lon="-118.36185"><ele>1399.0</ele></trkpt>
      <trkpt lat="34.56273" lon="-118.36174"><ele>1399.0</ele></trkpt>
      <trkpt lat="34.56272" lon="-118.36170"><ele>1399.0</ele></trkpt>
      <trkpt lat="34.56273" lon="-118.36157"><ele>1399.0</ele></trkpt>
      <trkpt lat="34.56273" lon="-118.36143"><ele>1399.0</ele></trkpt>
      <trkpt lat="34.56268" lon="-118.36124"><ele>1399.0</ele></trkpt>
      <trkpt lat="34.56269" lon="-118.36114"><ele>1399.0</ele></trkpt>
      <trkpt lat="34.56269" lon="-118.36109"><ele>1399.0</ele></trkpt>
      <trkpt lat="34.56270" lon="-118.36099"><ele>1399.0</ele></trkpt>
      <trkpt lat="34.56275" lon="-118.36093"><ele>1399.0</ele></trkpt>
      <trkpt lat="34.56278" lon="-118.36088"><ele>1399.0</ele></trkpt>
      <trkpt lat="34.56286" lon="-118.36086"><ele>1405.0</ele></trkpt>
      <trkpt lat="34.56297" lon="-118.36082"><ele>1405.0</ele></trkpt>
      <trkpt lat="34.56304" lon="-118.36075"><ele>1405.0</ele></trkpt>
      <trkpt lat="34.56310" lon="-118.36066"><ele>1405.0</ele></trkpt>
      <trkpt lat="34.56319" lon="-118.36050"><ele>1405.0</ele></trkpt>
      <trkpt lat="34.56329" lon="-118.36039"><ele>1405.0</ele></trkpt>
      <trkpt lat="34.56339" lon="-118.36026"><ele>1405.0</ele></trkpt>
      <trkpt lat="34.56349" lon="-118.36020"><ele>1405.0</ele></trkpt>
      <trkpt lat="34.56359" lon="-118.36012"><ele>1405.0</ele></trkpt>
      <trkpt lat="34.56368" lon="-118.35998"><ele>1405.0</ele></trkpt>
      <trkpt lat="34.56374" lon="-118.35984"><ele>1405.0</ele></trkpt>
      <trkpt lat="34.56378" lon="-118.35967"><ele>1405.0</ele></trkpt>
      <trkpt lat="34.56377" lon="-118.35957"><ele>1405.0</ele></trkpt>
      <trkpt lat="34.56376" lon="-118.35939"><ele>1416.0</ele></trkpt>
      <trkpt lat="34.56373" lon="-118.35924"><ele>1416.0</ele></trkpt>
      <trkpt lat="34.56364" lon="-118.35910"><ele>1416.0</ele></trkpt>
      <trkpt lat="34.56352" lon="-118.35902"><ele>1416.0</ele></trkpt>
      <trkpt lat="34.56342" lon="-118.35901"><ele>1416.0</ele></trkpt>
      <trkpt lat="34.56334" lon="-118.35903"><ele>1416.0</ele></trkpt>
      <trkpt lat="34.56324" lon="-118.35907"><ele>1416.0</ele></trkpt>
      <trkpt lat="34.56322" lon="-118.35908"><ele>1416.0</ele></trkpt>
      <trkpt lat="34.56322" lon="-118.35908"><ele>1416.0</ele></trkpt>
      <trkpt lat="34.56315" lon="-118.35910"><ele>1416.0</ele></trkpt>
      <trkpt lat="34.56304" lon="-118.35914"><ele>1416.0</ele></trkpt>
      <trkpt lat="34.56303" lon="-118.35915"><ele>1416.0</ele></trkpt>
      <trkpt lat="34.56301" lon="-118.35915"><ele>1416.0</ele></trkpt>
      <trkpt lat="34.56293" lon="-118.35916"><ele>1429.0</ele></trkpt>
      <trkpt lat="34.56281" lon="-118.35905"><ele>1429.0</ele></trkpt>
      <trkpt lat="34.56274" lon="-118.35894"><ele>1429.0</ele></trkpt>
      <trkpt lat="34.56267" lon="-118.35886"><ele>1429.0</ele></trkpt>
      <trkpt lat="34.56260" lon="-118.35878"><ele>1429.0</ele></trkpt>
      <trkpt lat="34.56251" lon="-118.35870"><ele>1429.0</ele></trkpt>
      <trkpt lat="34.56245" lon="-118.35862"><ele>1429.0</ele></trkpt>
      <trkpt lat="34.56236" lon="-118.35856"><ele>1429.0</ele></trkpt>
      <trkpt lat="34.56226" lon="-118.35840"><ele>1429.0</ele></trkpt>
      <trkpt lat="34.56225" lon="-118.35826"><ele>1429.0</ele></trkpt>
      <trkpt lat="34.56229" lon="-118.35813"><ele>1429.0</ele></trkpt>
      <trkpt lat="34.56231" lon="-118.35802"><ele>1429.0</ele></trkpt>
      <trkpt lat="34.56236" lon="-118.35792"><ele>1429.0</ele></trkpt>
      <trkpt lat="34.56237" lon="-118.35790"><ele>1429.0</ele></trkpt>
      <trkpt lat="34.56241" lon="-118.35780"><ele>1435.0</ele></trkpt>
      <trkpt lat="34.56246" lon="-118.35766"><ele>1435.0</ele></trkpt>
      <trkpt lat="34.56252" lon="-118.35752"><ele>1435.0</ele></trkpt>
      <trkpt lat="34.56256" lon="-118.35738"><ele>1435.0</ele></trkpt>
      <trkpt lat="34.56259" lon="-118.35722"><ele>1435.0</ele></trkpt>
      <trkpt lat="34.56261" lon="-118.35712"><ele>1435.0</ele></trkpt>
      <trkpt lat="34.56260" lon="-118.35695"><ele>1435.0</ele></trkpt>
      <trkpt lat="34.56258" lon="-118.35682"><ele>1435.0</ele></trkpt>
      <trkpt lat="34.56255" lon="-118.35669"><ele>1435.0</ele></trkpt>
      <trkpt lat="34.56254" lon="-118.35664"><ele>1435.0</ele></trkpt>
      <trkpt lat="34.56251" lon="-118.35650"><ele>1435.0</ele></trkpt>
      <trkpt lat="34.56245" lon="-118.35624"><ele>1435.0</ele></trkpt>
      <trkpt lat="34.56239" lon="-118.35595"><ele>1435.0</ele></trkpt>
      <trkpt lat="34.56230" lon="-118.35572"><ele>1455.0</ele></trkpt>
      <trkpt lat="34.56223" lon="-118.35553"><ele>1455.0</ele></trkpt>
      <trkpt lat="34.56222" lon="-118.35548"><ele>1455.0</ele></trkpt>
      <trkpt lat="34.56213" lon="-118.35525"><ele>1455.0</ele></trkpt>
      <trkpt lat="34.56205" lon="-118.35504"><ele>1455.0</ele></trkpt>
      <trkpt lat="34.56197" lon="-118.35493"><ele>1455.0</ele></trkpt>
      <trkpt lat="34.56190" lon="-118.35486"><ele>1455.0</ele></trkpt>
      <trkpt lat="34.56181" lon="-118.35482"><ele>1455.0</ele></trkpt>
      <trkpt lat="34.56170" lon="-118.35476"><ele>1455.0</ele></trkpt>
      <trkpt lat="34.56159" lon="-118.35471"><ele>1455.0</ele></trkpt>
      <trkpt lat="34.56145" lon="-118.35466"><ele>1455.0</ele></trkpt>
      <trkpt lat="34.56140" lon="-118.35460"><ele>1455.0</ele></trkpt>
      <trkpt lat="34.56134" lon="-118.35454"><ele>1455.0</ele></trkpt>
      <trkpt lat="34.56133" lon="-118.35442"><ele>1457.0</ele></trkpt>
      <trkpt lat="34.56131" lon="-118.35431"><ele>1457.0</ele></trkpt>
      <trkpt lat="34.56127" lon="-118.35410"><ele>1457.0</ele></trkpt>
      <trkpt lat="34.56121" lon="-118.35396"><ele>1457.0</ele></trkpt>
      <trkpt lat="34.56118" lon="-118.35385"><ele>1457.0</ele></trkpt>
      <trkpt lat="34.56119" lon="-118.35372"><ele>1457.0</ele></trkpt>
      <trkpt lat="34.56120" lon="-118.35359"><ele>1457.0</ele></trkpt>
      <trkpt lat="34.56119" lon="-118.35349"><ele>1457.0</ele></trkpt>
      <trkpt lat="34.56118" lon="-118.35345"><ele>1457.0</ele></trkpt>
      <trkpt lat="34.56116" lon="-118.35338"><ele>1457.0</ele></trkpt>
      <trkpt lat="34.56115" lon="-118.35336"><ele>1457.0</ele></trkpt>
      <trkpt lat="34.56109" lon="-118.35327"><ele>1457.0</ele></trkpt>
      <trkpt lat="34.56102" lon="-118.35316"><ele>1457.0</ele></trkpt>
      <trkpt lat="34.56086" lon="-118.35315"><ele>1464.0</ele></trkpt>
      <trkpt lat="34.56085" lon="-118.35307"><ele>1464.0</ele></trkpt>
      <trkpt lat="34.56083" lon="-118.35283"><ele>1464.0</ele></trkpt>
      <trkpt lat="34.56083" lon="-118.35283"><ele>1464.0</ele></trkpt>
      <trkpt lat="34.56083" lon="-118.35268"><ele>1464.0</ele></trkpt>
      <trkpt lat="34.56083" lon="-118.35245"><ele>1464.0</ele></trkpt>
      <trkpt lat="34.56082" lon="-118.35235"><ele>1464.0</ele></trkpt>
      <trkpt lat="34.56081" lon="-118.35228"><ele>1464.0</ele></trkpt>
      <trkpt lat="34.56095" lon="-118.35211"><ele>1464.0</ele></trkpt>
      <trkpt lat="34.56102" lon="-118.35199"><ele>1464.0</ele></trkpt>
      <trkpt lat="34.56106" lon="-118.35185"><ele>1464.0</ele></trkpt>
      <trkpt lat="34.56108" lon="-118.35171"><ele>1464.0</ele></trkpt>
      <trkpt lat="34.56110" lon="-118.35159"><ele>1464.0</ele></trkpt>
      <trkpt lat="34.56114" lon="-118.35149"><ele>1470.0</ele></trkpt>
      <trkpt lat="34.56119" lon="-118.35140"><ele>1470.0</ele></trkpt>
      <trkpt lat="34.56124" lon="-118.35131"><ele>1470.0</ele></trkpt>
      <trkpt lat="34.56134" lon="-118.35120"><ele>1470.0</ele></trkpt>
      <trkpt lat="34.56141" lon="-118.35111"><ele>1470.0</ele></trkpt>
      <trkpt lat="34.56145" lon="-118.35100"><ele>1470.0</ele></trkpt>
      <trkpt lat="34.56147" lon="-118.35088"><ele>1470.0</ele></trkpt>
      <trkpt lat="34.56149" lon="-118.35070"><ele>1470.0</ele></trkpt>
      <trkpt lat="34.56150" lon="-118.35053"><ele>1470.0</ele></trkpt>
      <trkpt lat="34.56149" lon="-118.35040"><ele>1470.0</ele></trkpt>
      <trkpt lat="34.56147" lon="-118.35035"><ele>1470.0</ele></trkpt>
      <trkpt lat="34.56145" lon="-118.35030"><ele>1470.0</ele></trkpt>
      <trkpt lat="34.56147" lon="-118.35015"><ele>1470.0</ele></trkpt>
      <trkpt lat="34.56151" lon="-118.35008"><ele>1469.0</ele></trkpt>
      <trkpt lat="34.56154" lon="-118.35001"><ele>1469.0</ele></trkpt>
      <trkpt lat="34.56158" lon="-118.34983"><ele>1469.0</ele></trkpt>
      <trkpt lat="34.56162" lon="-118.34966"><ele>1469.0</ele></trkpt>
      <trkpt lat="34.56164" lon="-118.34948"><ele>1469.0</ele></trkpt>
      <trkpt lat="34.56165" lon="-118.34937"><ele>1469.0</ele></trkpt>
      <trkpt lat="34.56164" lon="-118.34926"><ele>1469.0</ele></trkpt>
      <trkpt lat="34.56163" lon="-118.34915"><ele>1469.0</ele></trkpt>
      <trkpt lat="34.56162" lon="-118.34914"><ele>1469.0</ele></trkpt>
      <trkpt lat="34.56150" lon="-118.34895"><ele>1469.0</ele></trkpt>
      <trkpt lat="34.56142" lon="-118.34885"><ele>1469.0</ele></trkpt>
      <trkpt lat="34.56130" lon="-118.34870"><ele>1469.0</ele></trkpt>
      <trkpt lat="34.56126" lon="-118.34859"><ele>1469.0</ele></trkpt>
      <trkpt lat="34.56130" lon="-118.34838"><ele>1469.0</ele></trkpt>
      <trkpt lat="34.56135" lon="-118.34823"><ele>1455.0</ele></trkpt>
      <trkpt lat="34.56139" lon="-118.34813"><ele>1455.0</ele></trkpt>
      <trkpt lat="34.56141" lon="-118.34797"><ele>1455.0</ele></trkpt>
      <trkpt lat="34.56137" lon="-118.34786"><ele>1455.0</ele></trkpt>
      <trkpt lat="34.56132" lon="-118.34776"><ele>1455.0</ele></trkpt>
      <trkpt lat="34.56127" lon="-118.34772"><ele>1455.0</ele></trkpt>
      <trkpt lat="34.56123" lon="-118.34768"><ele>1455.0</ele></trkpt>
      <trkpt lat="34.56108" lon="-118.34758"><ele>1455.0</ele></trkpt>
      <trkpt lat="34.56107" lon="-118.34757"><ele>1455.0</ele></trkpt>
      <trkpt lat="34.56092" lon="-118.34750"><ele>1455.0</ele></trkpt>
      <trkpt lat="34.56084" lon="-118.34748"><ele>1455.0</ele></trkpt>
      <trkpt lat="34.56078" lon="-118.34747"><ele>1455.0</ele></trkpt>
      <trkpt lat="34.56072" lon="-118.34734"><ele>1455.0</ele></trkpt>
      <trkpt lat="34.56067" lon="-118.34724"><ele>1441.0</ele></trkpt>
      <trkpt lat="34.56074" lon="-118.34703"><ele>1441.0</ele></trkpt>
      <trkpt lat="34.56086" lon="-118.34690"><ele>1441.0</ele></trkpt>
      <trkpt lat="34.56091" lon="-118.34687"><ele>1441.0</ele></trkpt>
      <trkpt lat="34.56106" lon="-118.34678"><ele>1441.0</ele></trkpt>
      <trkpt lat="34.56113" lon="-118.34675"><ele>1441.0</ele></trkpt>
      <trkpt lat="34.56121" lon="-118.34671"><ele>1441.0</ele></trkpt>
      <trkpt lat="34.56136" lon="-118.34664"><ele>1441.0</ele></trkpt>
      <trkpt lat="34.56149" lon="-118.34656"><ele>1441.0</ele></trkpt>
      <trkpt lat="34.56159" lon="-118.34650"><ele>1441.0</ele></trkpt>
      <trkpt lat="34.56171" lon="-118.34641"><ele>1441.0</ele></trkpt>
      <trkpt lat="34.56182" lon="-118.34634"><ele>1441.0</ele></trkpt>
      <trkpt lat="34.56188" lon="-118.34631"><ele>1441.0</ele></trkpt>
      <trkpt lat="34.56195" lon="-118.34623"><ele>1428.0</ele></trkpt>
      <trkpt lat="34.56197" lon="-118.34621"><ele>1428.0</ele></trkpt>
      <trkpt lat="34.56202" lon="-118.34615"><ele>1428.0</ele></trkpt>
      <trkpt lat="34.56208" lon="-118.34606"><ele>1428.0</ele></trkpt>
      <trkpt lat="34.56217" lon="-118.34589"><ele>1428.0</ele></trkpt>
      <trkpt lat="34.56222" lon="-118.34578"><ele>1428.0</ele></trkpt>
      <trkpt lat="34.56223" lon="-118.34571"><ele>1428.0</ele></trkpt>
    </trkseg>
  </trk>
</gpx>
