<?xml version="1.0" encoding="UTF-8"?>
<gpx version="1.1" creator="dirt-bikes build-area-routes (MVUM geometry + SRTM elevation)" xmlns="http://www.topografix.com/GPX/1/1">
  <trk><name>Skye Valley Road</name><trkseg>
    <trkpt lat="32.72498" lon="-116.55925"><ele>1168.0</ele></trkpt>
    <trkpt lat="32.72492" lon="-116.55920"><ele>1168.0</ele></trkpt>
    <trkpt lat="32.72474" lon="-116.55894"><ele>1168.0</ele></trkpt>
    <trkpt lat="32.72463" lon="-116.55879"><ele>1168.0</ele></trkpt>
    <trkpt lat="32.72460" lon="-116.55876"><ele>1168.0</ele></trkpt>
    <trkpt lat="32.72449" lon="-116.55862"><ele>1169.0</ele></trkpt>
    <trkpt lat="32.72437" lon="-116.55847"><ele>1169.0</ele></trkpt>
    <trkpt lat="32.72399" lon="-116.55807"><ele>1171.0</ele></trkpt>
    <trkpt lat="32.72350" lon="-116.55800"><ele>1171.0</ele></trkpt>
    <trkpt lat="32.72297" lon="-116.55814"><ele>1171.0</ele></trkpt>
    <trkpt lat="32.72250" lon="-116.55851"><ele>1174.0</ele></trkpt>
    <trkpt lat="32.72248" lon="-116.55854"><ele>1174.0</ele></trkpt>
    <trkpt lat="32.72220" lon="-116.55887"><ele>1174.0</ele></trkpt>
    <trkpt lat="32.72214" lon="-116.55895"><ele>1170.0</ele></trkpt>
    <trkpt lat="32.72192" lon="-116.55891"><ele>1170.0</ele></trkpt>
    <trkpt lat="32.72150" lon="-116.55824"><ele>1172.0</ele></trkpt>
    <trkpt lat="32.72067" lon="-116.55835"><ele>1172.0</ele></trkpt>
    <trkpt lat="32.72044" lon="-116.55858"><ele>1172.0</ele></trkpt>
    <trkpt lat="32.72006" lon="-116.55878"><ele>1171.0</ele></trkpt>
    <trkpt lat="32.71999" lon="-116.55882"><ele>1171.0</ele></trkpt>
    <trkpt lat="32.71846" lon="-116.55921"><ele>1171.0</ele></trkpt>
    <trkpt lat="32.71804" lon="-116.55869"><ele>1171.0</ele></trkpt>
    <trkpt lat="32.71755" lon="-116.55836"><ele>1171.0</ele></trkpt>
    <trkpt lat="32.71753" lon="-116.55835"><ele>1179.0</ele></trkpt>
    <trkpt lat="32.71644" lon="-116.55781"><ele>1179.0</ele></trkpt>
    <trkpt lat="32.71562" lon="-116.55770"><ele>1179.0</ele></trkpt>
    <trkpt lat="32.71531" lon="-116.55750"><ele>1179.0</ele></trkpt>
    <trkpt lat="32.71527" lon="-116.55745"><ele>1179.0</ele></trkpt>
    <trkpt lat="32.71485" lon="-116.55693"><ele>1179.0</ele></trkpt>
    <trkpt lat="32.71442" lon="-116.55656"><ele>1172.0</ele></trkpt>
    <trkpt lat="32.71410" lon="-116.55668"><ele>1172.0</ele></trkpt>
    <trkpt lat="32.71399" lon="-116.55706"><ele>1169.0</ele></trkpt>
    <trkpt lat="32.71362" lon="-116.55706"><ele>1169.0</ele></trkpt>
    <trkpt lat="32.71302" lon="-116.55769"><ele>1169.0</ele></trkpt>
    <trkpt lat="32.71289" lon="-116.55797"><ele>1161.0</ele></trkpt>
    <trkpt lat="32.71275" lon="-116.55827"><ele>1161.0</ele></trkpt>
    <trkpt lat="32.71275" lon="-116.55827"><ele>1161.0</ele></trkpt>
    <trkpt lat="32.71271" lon="-116.55836"><ele>1160.0</ele></trkpt>
    <trkpt lat="32.71271" lon="-116.55836"><ele>1160.0</ele></trkpt>
    <trkpt lat="32.71268" lon="-116.55838"><ele>1160.0</ele></trkpt>
    <trkpt lat="32.71264" lon="-116.55840"><ele>1160.0</ele></trkpt>
    <trkpt lat="32.71264" lon="-116.55840"><ele>1160.0</ele></trkpt>
    <trkpt lat="32.71259" lon="-116.55843"><ele>1160.0</ele></trkpt>
    <trkpt lat="32.71258" lon="-116.55843"><ele>1160.0</ele></trkpt>
    <trkpt lat="32.71222" lon="-116.55862"><ele>1160.0</ele></trkpt>
    <trkpt lat="32.71193" lon="-116.55861"><ele>1161.0</ele></trkpt>
    <trkpt lat="32.71158" lon="-116.55841"><ele>1161.0</ele></trkpt>
    <trkpt lat="32.71130" lon="-116.55841"><ele>1161.0</ele></trkpt>
    <trkpt lat="32.71096" lon="-116.55818"><ele>1161.0</ele></trkpt>
    <trkpt lat="32.71078" lon="-116.55812"><ele>1161.0</ele></trkpt>
    <trkpt lat="32.71054" lon="-116.55767"><ele>1161.0</ele></trkpt>
    <trkpt lat="32.71041" lon="-116.55743"><ele>1161.0</ele></trkpt>
    <trkpt lat="32.71021" lon="-116.55664"><ele>1161.0</ele></trkpt>
    <trkpt lat="32.71007" lon="-116.55642"><ele>1155.0</ele></trkpt>
    <trkpt lat="32.70970" lon="-116.55520"><ele>1155.0</ele></trkpt>
    <trkpt lat="32.70950" lon="-116.55499"><ele>1139.0</ele></trkpt>
    <trkpt lat="32.70916" lon="-116.55394"><ele>1139.0</ele></trkpt>
    <trkpt lat="32.70906" lon="-116.55384"><ele>1139.0</ele></trkpt>
    <trkpt lat="32.70859" lon="-116.55274"><ele>1131.0</ele></trkpt>
    <trkpt lat="32.70834" lon="-116.55254"><ele>1131.0</ele></trkpt>
    <trkpt lat="32.70778" lon="-116.55174"><ele>1131.0</ele></trkpt>
    <trkpt lat="32.70707" lon="-116.55158"><ele>1128.0</ele></trkpt>
    <trkpt lat="32.70671" lon="-116.55145"><ele>1128.0</ele></trkpt>
    <trkpt lat="32.70627" lon="-116.55086"><ele>1123.0</ele></trkpt>
    <trkpt lat="32.70584" lon="-116.55084"><ele>1123.0</ele></trkpt>
    <trkpt lat="32.70562" lon="-116.55076"><ele>1123.0</ele></trkpt>
    <trkpt lat="32.70520" lon="-116.55039"><ele>1118.0</ele></trkpt>
    <trkpt lat="32.70494" lon="-116.55045"><ele>1118.0</ele></trkpt>
    <trkpt lat="32.70485" lon="-116.55045"><ele>1118.0</ele></trkpt>
    <trkpt lat="32.70485" lon="-116.55045"><ele>1118.0</ele></trkpt>
    <trkpt lat="32.70460" lon="-116.55047"><ele>1118.0</ele></trkpt>
    <trkpt lat="32.70428" lon="-116.55029"><ele>1110.0</ele></trkpt>
    <trkpt lat="32.70393" lon="-116.54978"><ele>1110.0</ele></trkpt>
    <trkpt lat="32.70333" lon="-116.54927"><ele>1110.0</ele></trkpt>
    <trkpt lat="32.70222" lon="-116.54936"><ele>1089.0</ele></trkpt>
    <trkpt lat="32.70165" lon="-116.54946"><ele>1089.0</ele></trkpt>
    <trkpt lat="32.70140" lon="-116.54989"><ele>1089.0</ele></trkpt>
    <trkpt lat="32.70109" lon="-116.55005"><ele>1084.0</ele></trkpt>
    <trkpt lat="32.70109" lon="-116.55005"><ele>1084.0</ele></trkpt>
    <trkpt lat="32.70085" lon="-116.55017"><ele>1078.0</ele></trkpt>
    <trkpt lat="32.70039" lon="-116.55027"><ele>1078.0</ele></trkpt>
    <trkpt lat="32.70014" lon="-116.55010"><ele>1078.0</ele></trkpt>
    <trkpt lat="32.69984" lon="-116.55006"><ele>1072.0</ele></trkpt>
    <trkpt lat="32.69925" lon="-116.55012"><ele>1072.0</ele></trkpt>
    <trkpt lat="32.69899" lon="-116.55036"><ele>1072.0</ele></trkpt>
    <trkpt lat="32.69862" lon="-116.55034"><ele>1069.0</ele></trkpt>
    <trkpt lat="32.69830" lon="-116.55052"><ele>1069.0</ele></trkpt>
    <trkpt lat="32.69804" lon="-116.55046"><ele>1064.0</ele></trkpt>
    <trkpt lat="32.69769" lon="-116.54995"><ele>1064.0</ele></trkpt>
    <trkpt lat="32.69741" lon="-116.54980"><ele>1064.0</ele></trkpt>
    <trkpt lat="32.69692" lon="-116.54998"><ele>1058.0</ele></trkpt>
    <trkpt lat="32.69672" lon="-116.54986"><ele>1058.0</ele></trkpt>
    <trkpt lat="32.69629" lon="-116.54982"><ele>1058.0</ele></trkpt>
    <trkpt lat="32.69619" lon="-116.54998"><ele>1057.0</ele></trkpt>
    <trkpt lat="32.69571" lon="-116.55010"><ele>1057.0</ele></trkpt>
    <trkpt lat="32.69509" lon="-116.55010"><ele>1047.0</ele></trkpt>
    <trkpt lat="32.69439" lon="-116.54991"><ele>1047.0</ele></trkpt>
    <trkpt lat="32.69414" lon="-116.54979"><ele>1047.0</ele></trkpt>
    <trkpt lat="32.69380" lon="-116.54946"><ele>1043.0</ele></trkpt>
    <trkpt lat="32.69355" lon="-116.54944"><ele>1043.0</ele></trkpt>
    <trkpt lat="32.69342" lon="-116.54968"><ele>1043.0</ele></trkpt>
    <trkpt lat="32.69355" lon="-116.54999"><ele>1042.0</ele></trkpt>
    <trkpt lat="32.69377" lon="-116.55035"><ele>1042.0</ele></trkpt>
    <trkpt lat="32.69426" lon="-116.55088"><ele>1040.0</ele></trkpt>
    <trkpt lat="32.69483" lon="-116.55113"><ele>1040.0</ele></trkpt>
    <trkpt lat="32.69493" lon="-116.55143"><ele>1040.0</ele></trkpt>
    <trkpt lat="32.69519" lon="-116.55152"><ele>1036.0</ele></trkpt>
    <trkpt lat="32.69539" lon="-116.55184"><ele>1036.0</ele></trkpt>
    <trkpt lat="32.69573" lon="-116.55217"><ele>1036.0</ele></trkpt>
    <trkpt lat="32.69570" lon="-116.55239"><ele>1033.0</ele></trkpt>
    <trkpt lat="32.69523" lon="-116.55275"><ele>1033.0</ele></trkpt>
    <trkpt lat="32.69483" lon="-116.55291"><ele>1035.0</ele></trkpt>
    <trkpt lat="32.69471" lon="-116.55279"><ele>1035.0</ele></trkpt>
    <trkpt lat="32.69450" lon="-116.55273"><ele>1035.0</ele></trkpt>
    <trkpt lat="32.69400" lon="-116.55275"><ele>1038.0</ele></trkpt>
    <trkpt lat="32.69395" lon="-116.55295"><ele>1038.0</ele></trkpt>
    <trkpt lat="32.69365" lon="-116.55305"><ele>1038.0</ele></trkpt>
    <trkpt lat="32.69303" lon="-116.55274"><ele>1040.0</ele></trkpt>
    <trkpt lat="32.69301" lon="-116.55275"><ele>1040.0</ele></trkpt>
    <trkpt lat="32.69288" lon="-116.55284"><ele>1044.0</ele></trkpt>
    <trkpt lat="32.69289" lon="-116.55288"><ele>1044.0</ele></trkpt>
    <trkpt lat="32.69306" lon="-116.55341"><ele>1044.0</ele></trkpt>
    <trkpt lat="32.69324" lon="-116.55449"><ele>1049.0</ele></trkpt>
    <trkpt lat="32.69311" lon="-116.55507"><ele>1049.0</ele></trkpt>
    <trkpt lat="32.69312" lon="-116.55639"><ele>1033.0</ele></trkpt>
    <trkpt lat="32.69329" lon="-116.55732"><ele>1033.0</ele></trkpt>
    <trkpt lat="32.69327" lon="-116.55759"><ele>1033.0</ele></trkpt>
    <trkpt lat="32.69344" lon="-116.55856"><ele>1024.0</ele></trkpt>
    <trkpt lat="32.69341" lon="-116.55897"><ele>1024.0</ele></trkpt>
    <trkpt lat="32.69344" lon="-116.55937"><ele>1024.0</ele></trkpt>
    <trkpt lat="32.69341" lon="-116.55986"><ele>1021.0</ele></trkpt>
    <trkpt lat="32.69366" lon="-116.56008"><ele>1021.0</ele></trkpt>
    <trkpt lat="32.69375" lon="-116.56061"><ele>1009.0</ele></trkpt>
    <trkpt lat="32.69405" lon="-116.56104"><ele>1009.0</ele></trkpt>
    <trkpt lat="32.69441" lon="-116.56256"><ele>1009.0</ele></trkpt>
    <trkpt lat="32.69447" lon="-116.56299"><ele>1002.0</ele></trkpt>
    <trkpt lat="32.69457" lon="-116.56329"><ele>1002.0</ele></trkpt>
    <trkpt lat="32.69485" lon="-116.56363"><ele>1002.0</ele></trkpt>
    <trkpt lat="32.69502" lon="-116.56384"><ele>1003.0</ele></trkpt>
    <trkpt lat="32.69507" lon="-116.56431"><ele>1003.0</ele></trkpt>
    <trkpt lat="32.69534" lon="-116.56473"><ele>1008.0</ele></trkpt>
    <trkpt lat="32.69564" lon="-116.56549"><ele>1008.0</ele></trkpt>
    <trkpt lat="32.69564" lon="-116.56595"><ele>1008.0</ele></trkpt>
    <trkpt lat="32.69595" lon="-116.56654"><ele>1006.0</ele></trkpt>
    <trkpt lat="32.69598" lon="-116.56667"><ele>1006.0</ele></trkpt>
    <trkpt lat="32.69605" lon="-116.56695"><ele>1006.0</ele></trkpt>
    <trkpt lat="32.69612" lon="-116.56733"><ele>1014.0</ele></trkpt>
    <trkpt lat="32.69642" lon="-116.56821"><ele>1014.0</ele></trkpt>
    <trkpt lat="32.69644" lon="-116.56865"><ele>1029.0</ele></trkpt>
    <trkpt lat="32.69707" lon="-116.56965"><ele>1029.0</ele></trkpt>
    <trkpt lat="32.69712" lon="-116.57032"><ele>1029.0</ele></trkpt>
    <trkpt lat="32.69751" lon="-116.57202"><ele>1035.0</ele></trkpt>
    <trkpt lat="32.69798" lon="-116.57243"><ele>1035.0</ele></trkpt>
    <trkpt lat="32.69895" lon="-116.57310"><ele>1035.0</ele></trkpt>
    <trkpt lat="32.69920" lon="-116.57349"><ele>1040.0</ele></trkpt>
    <trkpt lat="32.69914" lon="-116.57418"><ele>1040.0</ele></trkpt>
    <trkpt lat="32.69920" lon="-116.57462"><ele>1044.0</ele></trkpt>
    <trkpt lat="32.69922" lon="-116.57513"><ele>1044.0</ele></trkpt>
    <trkpt lat="32.69909" lon="-116.57548"><ele>1044.0</ele></trkpt>
    <trkpt lat="32.69862" lon="-116.57576"><ele>1057.0</ele></trkpt>
    <trkpt lat="32.69861" lon="-116.57620"><ele>1057.0</ele></trkpt>
    <trkpt lat="32.69874" lon="-116.57649"><ele>1057.0</ele></trkpt>
    <trkpt lat="32.69915" lon="-116.57712"><ele>1059.0</ele></trkpt>
    <trkpt lat="32.69949" lon="-116.57785"><ele>1059.0</ele></trkpt>
    <trkpt lat="32.70009" lon="-116.57812"><ele>1075.0</ele></trkpt>
    <trkpt lat="32.70046" lon="-116.57854"><ele>1075.0</ele></trkpt>
    <trkpt lat="32.70062" lon="-116.58069"><ele>1075.0</ele></trkpt>
    <trkpt lat="32.70082" lon="-116.58181"><ele>1052.0</ele></trkpt>
    <trkpt lat="32.70124" lon="-116.58272"><ele>1052.0</ele></trkpt>
    <trkpt lat="32.70129" lon="-116.58305"><ele>1052.0</ele></trkpt>
    <trkpt lat="32.70151" lon="-116.58347"><ele>1045.0</ele></trkpt>
    <trkpt lat="32.70198" lon="-116.58408"><ele>1045.0</ele></trkpt>
    <trkpt lat="32.70218" lon="-116.58514"><ele>1028.0</ele></trkpt>
    <trkpt lat="32.70230" lon="-116.58666"><ele>1028.0</ele></trkpt>
    <trkpt lat="32.70235" lon="-116.58705"><ele>1028.0</ele></trkpt>
    <trkpt lat="32.70247" lon="-116.58960"><ele>1008.0</ele></trkpt>
    <trkpt lat="32.70244" lon="-116.59065"><ele>1008.0</ele></trkpt>
    <trkpt lat="32.70203" lon="-116.59227"><ele>1008.0</ele></trkpt>
    <trkpt lat="32.70215" lon="-116.59240"><ele>1004.0</ele></trkpt>
    <trkpt lat="32.70237" lon="-116.59390"><ele>1004.0</ele></trkpt>
    <trkpt lat="32.70267" lon="-116.59483"><ele>982.0</ele></trkpt>
    <trkpt lat="32.70312" lon="-116.59534"><ele>982.0</ele></trkpt>
    <trkpt lat="32.70354" lon="-116.59631"><ele>982.0</ele></trkpt>
    <trkpt lat="32.70368" lon="-116.59692"><ele>973.0</ele></trkpt>
    <trkpt lat="32.70361" lon="-116.59722"><ele>973.0</ele></trkpt>
    <trkpt lat="32.70354" lon="-116.59749"><ele>973.0</ele></trkpt>
    <trkpt lat="32.70321" lon="-116.59824"><ele>969.0</ele></trkpt>
    <trkpt lat="32.70340" lon="-116.59881"><ele>969.0</ele></trkpt>
    <trkpt lat="32.70387" lon="-116.59950"><ele>961.0</ele></trkpt>
    <trkpt lat="32.70404" lon="-116.60001"><ele>961.0</ele></trkpt>
    <trkpt lat="32.70462" lon="-116.60084"><ele>961.0</ele></trkpt>
    <trkpt lat="32.70486" lon="-116.60188"><ele>957.0</ele></trkpt>
    <trkpt lat="32.70551" lon="-116.60403"><ele>957.0</ele></trkpt>
    <trkpt lat="32.70563" lon="-116.60478"><ele>957.0</ele></trkpt>
    <trkpt lat="32.70587" lon="-116.60622"><ele>948.0</ele></trkpt>
    <trkpt lat="32.70603" lon="-116.60677"><ele>948.0</ele></trkpt>
    <trkpt lat="32.70610" lon="-116.60752"><ele>945.0</ele></trkpt>
    <trkpt lat="32.70639" lon="-116.60813"><ele>945.0</ele></trkpt>
    <trkpt lat="32.70664" lon="-116.60867"><ele>945.0</ele></trkpt>
    <trkpt lat="32.70656" lon="-116.60959"><ele>931.0</ele></trkpt>
    <trkpt lat="32.70645" lon="-116.61090"><ele>931.0</ele></trkpt>
    <trkpt lat="32.70646" lon="-116.61108"><ele>931.0</ele></trkpt>
    <trkpt lat="32.70647" lon="-116.61133"><ele>929.0</ele></trkpt>
    <trkpt lat="32.70670" lon="-116.61163"><ele>929.0</ele></trkpt>
    <trkpt lat="32.70714" lon="-116.61200"><ele>919.0</ele></trkpt>
    <trkpt lat="32.70820" lon="-116.61237"><ele>919.0</ele></trkpt>
    <trkpt lat="32.70848" lon="-116.61235"><ele>919.0</ele></trkpt>
    <trkpt lat="32.70876" lon="-116.61205"><ele>918.0</ele></trkpt>
    <trkpt lat="32.70898" lon="-116.61199"><ele>918.0</ele></trkpt>
    <trkpt lat="32.70918" lon="-116.61179"><ele>918.0</ele></trkpt>
    <trkpt lat="32.71001" lon="-116.61153"><ele>914.0</ele></trkpt>
    <trkpt lat="32.71020" lon="-116.61134"><ele>914.0</ele></trkpt>
    <trkpt lat="32.71058" lon="-116.61131"><ele>915.0</ele></trkpt>
    <trkpt lat="32.71098" lon="-116.61102"><ele>915.0</ele></trkpt>
    <trkpt lat="32.71134" lon="-116.61056"><ele>915.0</ele></trkpt>
    <trkpt lat="32.71183" lon="-116.61024"><ele>917.0</ele></trkpt>
    <trkpt lat="32.71213" lon="-116.61044"><ele>917.0</ele></trkpt>
    <trkpt lat="32.71247" lon="-116.61032"><ele>917.0</ele></trkpt>
    <trkpt lat="32.71275" lon="-116.61036"><ele>920.0</ele></trkpt>
    <trkpt lat="32.71330" lon="-116.61026"><ele>920.0</ele></trkpt>
    <trkpt lat="32.71344" lon="-116.61051"><ele>920.0</ele></trkpt>
    <trkpt lat="32.71349" lon="-116.61116"><ele>920.0</ele></trkpt>
    <trkpt lat="32.71361" lon="-116.61142"><ele>920.0</ele></trkpt>
    <trkpt lat="32.71373" lon="-116.61170"><ele>918.0</ele></trkpt>
    <trkpt lat="32.71391" lon="-116.61179"><ele>918.0</ele></trkpt>
    <trkpt lat="32.71473" lon="-116.61149"><ele>918.0</ele></trkpt>
    <trkpt lat="32.71506" lon="-116.61165"><ele>909.0</ele></trkpt>
    <trkpt lat="32.71528" lon="-116.61204"><ele>909.0</ele></trkpt>
    <trkpt lat="32.71551" lon="-116.61224"><ele>897.0</ele></trkpt>
    <trkpt lat="32.71575" lon="-116.61226"><ele>897.0</ele></trkpt>
    <trkpt lat="32.71586" lon="-116.61253"><ele>897.0</ele></trkpt>
    <trkpt lat="32.71570" lon="-116.61317"><ele>890.0</ele></trkpt>
    <trkpt lat="32.71580" lon="-116.61332"><ele>890.0</ele></trkpt>
    <trkpt lat="32.71578" lon="-116.61370"><ele>890.0</ele></trkpt>
    <trkpt lat="32.71555" lon="-116.61396"><ele>885.0</ele></trkpt>
    <trkpt lat="32.71525" lon="-116.61414"><ele>885.0</ele></trkpt>
    <trkpt lat="32.71525" lon="-116.61429"><ele>886.0</ele></trkpt>
    <trkpt lat="32.71525" lon="-116.61436"><ele>886.0</ele></trkpt>
  </trkseg></trk>
</gpx>
