<?xml version="1.0" encoding="UTF-8"?>
<gpx version="1.1" creator="dirt-bikes build-area-routes (MVUM geometry + SRTM elevation)" xmlns="http://www.topografix.com/GPX/1/1">
  <trk><name>South Main Divide Road</name><trkseg>
    <trkpt lat="33.61639" lon="-117.35409"><ele>939.0</ele></trkpt>
    <trkpt lat="33.61628" lon="-117.35396"><ele>939.0</ele></trkpt>
    <trkpt lat="33.61479" lon="-117.35349"><ele>939.0</ele></trkpt>
    <trkpt lat="33.61479" lon="-117.35349"><ele>939.0</ele></trkpt>
    <trkpt lat="33.61443" lon="-117.35338"><ele>946.0</ele></trkpt>
    <trkpt lat="33.61416" lon="-117.35321"><ele>946.0</ele></trkpt>
    <trkpt lat="33.61352" lon="-117.35284"><ele>946.0</ele></trkpt>
    <trkpt lat="33.61197" lon="-117.35311"><ele>946.0</ele></trkpt>
    <trkpt lat="33.61105" lon="-117.35325"><ele>946.0</ele></trkpt>
    <trkpt lat="33.61044" lon="-117.35333"><ele>946.0</ele></trkpt>
    <trkpt lat="33.60971" lon="-117.35298"><ele>946.0</ele></trkpt>
    <trkpt lat="33.60882" lon="-117.35255"><ele>946.0</ele></trkpt>
    <trkpt lat="33.60851" lon="-117.35251"><ele>977.0</ele></trkpt>
    <trkpt lat="33.60763" lon="-117.35304"><ele>977.0</ele></trkpt>
    <trkpt lat="33.60726" lon="-117.35301"><ele>977.0</ele></trkpt>
    <trkpt lat="33.60647" lon="-117.35233"><ele>977.0</ele></trkpt>
    <trkpt lat="33.60618" lon="-117.35198"><ele>977.0</ele></trkpt>
    <trkpt lat="33.60602" lon="-117.35178"><ele>977.0</ele></trkpt>
    <trkpt lat="33.60486" lon="-117.35125"><ele>977.0</ele></trkpt>
    <trkpt lat="33.60422" lon="-117.35137"><ele>1007.0</ele></trkpt>
    <trkpt lat="33.60380" lon="-117.35130"><ele>1007.0</ele></trkpt>
    <trkpt lat="33.60319" lon="-117.35119"><ele>1007.0</ele></trkpt>
    <trkpt lat="33.60266" lon="-117.35120"><ele>1007.0</ele></trkpt>
    <trkpt lat="33.60189" lon="-117.35089"><ele>1007.0</ele></trkpt>
    <trkpt lat="33.60155" lon="-117.35101"><ele>1007.0</ele></trkpt>
    <trkpt lat="33.60126" lon="-117.35117"><ele>1007.0</ele></trkpt>
    <trkpt lat="33.60093" lon="-117.35118"><ele>1014.0</ele></trkpt>
    <trkpt lat="33.60065" lon="-117.35098"><ele>1014.0</ele></trkpt>
    <trkpt lat="33.60032" lon="-117.35049"><ele>1014.0</ele></trkpt>
    <trkpt lat="33.60005" lon="-117.35008"><ele>1014.0</ele></trkpt>
    <trkpt lat="33.59936" lon="-117.34947"><ele>1014.0</ele></trkpt>
    <trkpt lat="33.59879" lon="-117.34912"><ele>1014.0</ele></trkpt>
    <trkpt lat="33.59811" lon="-117.34869"><ele>1014.0</ele></trkpt>
    <trkpt lat="33.59792" lon="-117.34828"><ele>1014.0</ele></trkpt>
    <trkpt lat="33.59791" lon="-117.34794"><ele>999.0</ele></trkpt>
    <trkpt lat="33.59799" lon="-117.34747"><ele>999.0</ele></trkpt>
    <trkpt lat="33.59794" lon="-117.34710"><ele>999.0</ele></trkpt>
    <trkpt lat="33.59770" lon="-117.34679"><ele>999.0</ele></trkpt>
    <trkpt lat="33.59730" lon="-117.34663"><ele>999.0</ele></trkpt>
    <trkpt lat="33.59703" lon="-117.34636"><ele>999.0</ele></trkpt>
    <trkpt lat="33.59698" lon="-117.34589"><ele>999.0</ele></trkpt>
    <trkpt lat="33.59698" lon="-117.34537"><ele>976.0</ele></trkpt>
    <trkpt lat="33.59689" lon="-117.34514"><ele>976.0</ele></trkpt>
    <trkpt lat="33.59662" lon="-117.34466"><ele>976.0</ele></trkpt>
    <trkpt lat="33.59651" lon="-117.34432"><ele>976.0</ele></trkpt>
    <trkpt lat="33.59656" lon="-117.34409"><ele>976.0</ele></trkpt>
    <trkpt lat="33.59670" lon="-117.34366"><ele>976.0</ele></trkpt>
    <trkpt lat="33.59674" lon="-117.34328"><ele>976.0</ele></trkpt>
    <trkpt lat="33.59664" lon="-117.34296"><ele>969.0</ele></trkpt>
    <trkpt lat="33.59635" lon="-117.34279"><ele>969.0</ele></trkpt>
    <trkpt lat="33.59605" lon="-117.34265"><ele>969.0</ele></trkpt>
    <trkpt lat="33.59590" lon="-117.34242"><ele>969.0</ele></trkpt>
    <trkpt lat="33.59589" lon="-117.34212"><ele>969.0</ele></trkpt>
    <trkpt lat="33.59629" lon="-117.34128"><ele>969.0</ele></trkpt>
    <trkpt lat="33.59667" lon="-117.34062"><ele>969.0</ele></trkpt>
    <trkpt lat="33.59678" lon="-117.34034"><ele>969.0</ele></trkpt>
    <trkpt lat="33.59684" lon="-117.33997"><ele>956.0</ele></trkpt>
    <trkpt lat="33.59681" lon="-117.33969"><ele>956.0</ele></trkpt>
    <trkpt lat="33.59649" lon="-117.33912"><ele>956.0</ele></trkpt>
    <trkpt lat="33.59625" lon="-117.33865"><ele>956.0</ele></trkpt>
    <trkpt lat="33.59612" lon="-117.33822"><ele>956.0</ele></trkpt>
    <trkpt lat="33.59617" lon="-117.33787"><ele>956.0</ele></trkpt>
    <trkpt lat="33.59619" lon="-117.33783"><ele>956.0</ele></trkpt>
    <trkpt lat="33.59636" lon="-117.33749"><ele>950.0</ele></trkpt>
    <trkpt lat="33.59629" lon="-117.33711"><ele>950.0</ele></trkpt>
    <trkpt lat="33.59611" lon="-117.33698"><ele>950.0</ele></trkpt>
    <trkpt lat="33.59578" lon="-117.33689"><ele>950.0</ele></trkpt>
    <trkpt lat="33.59519" lon="-117.33668"><ele>950.0</ele></trkpt>
    <trkpt lat="33.59483" lon="-117.33665"><ele>950.0</ele></trkpt>
    <trkpt lat="33.59455" lon="-117.33649"><ele>950.0</ele></trkpt>
    <trkpt lat="33.59447" lon="-117.33638"><ele>941.0</ele></trkpt>
    <trkpt lat="33.59437" lon="-117.33624"><ele>941.0</ele></trkpt>
    <trkpt lat="33.59435" lon="-117.33589"><ele>941.0</ele></trkpt>
    <trkpt lat="33.59447" lon="-117.33561"><ele>941.0</ele></trkpt>
    <trkpt lat="33.59467" lon="-117.33530"><ele>941.0</ele></trkpt>
    <trkpt lat="33.59469" lon="-117.33500"><ele>941.0</ele></trkpt>
    <trkpt lat="33.59459" lon="-117.33461"><ele>941.0</ele></trkpt>
    <trkpt lat="33.59451" lon="-117.33412"><ele>933.0</ele></trkpt>
    <trkpt lat="33.59457" lon="-117.33374"><ele>933.0</ele></trkpt>
    <trkpt lat="33.59462" lon="-117.33371"><ele>933.0</ele></trkpt>
    <trkpt lat="33.59474" lon="-117.33356"><ele>933.0</ele></trkpt>
    <trkpt lat="33.59517" lon="-117.33341"><ele>933.0</ele></trkpt>
    <trkpt lat="33.59530" lon="-117.33337"><ele>933.0</ele></trkpt>
    <trkpt lat="33.59572" lon="-117.33308"><ele>933.0</ele></trkpt>
    <trkpt lat="33.59581" lon="-117.33279"><ele>933.0</ele></trkpt>
    <trkpt lat="33.59600" lon="-117.33202"><ele>915.0</ele></trkpt>
    <trkpt lat="33.59606" lon="-117.33142"><ele>915.0</ele></trkpt>
    <trkpt lat="33.59627" lon="-117.33083"><ele>915.0</ele></trkpt>
    <trkpt lat="33.59663" lon="-117.33047"><ele>915.0</ele></trkpt>
    <trkpt lat="33.59682" lon="-117.33020"><ele>915.0</ele></trkpt>
    <trkpt lat="33.59703" lon="-117.32960"><ele>915.0</ele></trkpt>
    <trkpt lat="33.59724" lon="-117.32876"><ele>915.0</ele></trkpt>
    <trkpt lat="33.59727" lon="-117.32857"><ele>904.0</ele></trkpt>
    <trkpt lat="33.59731" lon="-117.32830"><ele>904.0</ele></trkpt>
    <trkpt lat="33.59732" lon="-117.32828"><ele>904.0</ele></trkpt>
    <trkpt lat="33.59734" lon="-117.32816"><ele>904.0</ele></trkpt>
    <trkpt lat="33.59733" lon="-117.32789"><ele>904.0</ele></trkpt>
    <trkpt lat="33.59713" lon="-117.32762"><ele>904.0</ele></trkpt>
    <trkpt lat="33.59679" lon="-117.32732"><ele>904.0</ele></trkpt>
    <trkpt lat="33.59631" lon="-117.32731"><ele>888.0</ele></trkpt>
    <trkpt lat="33.59592" lon="-117.32773"><ele>888.0</ele></trkpt>
    <trkpt lat="33.59584" lon="-117.32842"><ele>888.0</ele></trkpt>
    <trkpt lat="33.59615" lon="-117.32890"><ele>888.0</ele></trkpt>
    <trkpt lat="33.59636" lon="-117.32941"><ele>888.0</ele></trkpt>
    <trkpt lat="33.59615" lon="-117.33001"><ele>888.0</ele></trkpt>
    <trkpt lat="33.59479" lon="-117.33050"><ele>888.0</ele></trkpt>
    <trkpt lat="33.59442" lon="-117.33047"><ele>888.0</ele></trkpt>
    <trkpt lat="33.59405" lon="-117.33045"><ele>868.0</ele></trkpt>
    <trkpt lat="33.59353" lon="-117.33059"><ele>868.0</ele></trkpt>
    <trkpt lat="33.59322" lon="-117.33068"><ele>868.0</ele></trkpt>
    <trkpt lat="33.59303" lon="-117.33068"><ele>868.0</ele></trkpt>
    <trkpt lat="33.59268" lon="-117.33070"><ele>868.0</ele></trkpt>
    <trkpt lat="33.59141" lon="-117.33044"><ele>868.0</ele></trkpt>
    <trkpt lat="33.59068" lon="-117.33039"><ele>868.0</ele></trkpt>
    <trkpt lat="33.58960" lon="-117.33126"><ele>835.0</ele></trkpt>
    <trkpt lat="33.58922" lon="-117.33157"><ele>835.0</ele></trkpt>
    <trkpt lat="33.58892" lon="-117.33181"><ele>835.0</ele></trkpt>
    <trkpt lat="33.58887" lon="-117.33206"><ele>835.0</ele></trkpt>
    <trkpt lat="33.58883" lon="-117.33227"><ele>835.0</ele></trkpt>
    <trkpt lat="33.58920" lon="-117.33325"><ele>835.0</ele></trkpt>
    <trkpt lat="33.58931" lon="-117.33643"><ele>835.0</ele></trkpt>
    <trkpt lat="33.58953" lon="-117.33707"><ele>815.0</ele></trkpt>
    <trkpt lat="33.58985" lon="-117.33799"><ele>815.0</ele></trkpt>
    <trkpt lat="33.58985" lon="-117.33799"><ele>815.0</ele></trkpt>
    <trkpt lat="33.58988" lon="-117.33809"><ele>815.0</ele></trkpt>
    <trkpt lat="33.59055" lon="-117.33885"><ele>815.0</ele></trkpt>
    <trkpt lat="33.59075" lon="-117.33956"><ele>815.0</ele></trkpt>
    <trkpt lat="33.59076" lon="-117.33961"><ele>815.0</ele></trkpt>
    <trkpt lat="33.59111" lon="-117.33995"><ele>815.0</ele></trkpt>
    <trkpt lat="33.59136" lon="-117.34019"><ele>802.0</ele></trkpt>
    <trkpt lat="33.59137" lon="-117.34038"><ele>802.0</ele></trkpt>
    <trkpt lat="33.59138" lon="-117.34063"><ele>802.0</ele></trkpt>
    <trkpt lat="33.59126" lon="-117.34088"><ele>802.0</ele></trkpt>
    <trkpt lat="33.59118" lon="-117.34106"><ele>802.0</ele></trkpt>
    <trkpt lat="33.59101" lon="-117.34238"><ele>802.0</ele></trkpt>
    <trkpt lat="33.59091" lon="-117.34323"><ele>802.0</ele></trkpt>
    <trkpt lat="33.59073" lon="-117.34385"><ele>776.0</ele></trkpt>
    <trkpt lat="33.59023" lon="-117.34398"><ele>776.0</ele></trkpt>
    <trkpt lat="33.58981" lon="-117.34359"><ele>776.0</ele></trkpt>
    <trkpt lat="33.58960" lon="-117.34288"><ele>776.0</ele></trkpt>
    <trkpt lat="33.58931" lon="-117.34230"><ele>776.0</ele></trkpt>
    <trkpt lat="33.58896" lon="-117.34207"><ele>776.0</ele></trkpt>
    <trkpt lat="33.58881" lon="-117.34198"><ele>776.0</ele></trkpt>
    <trkpt lat="33.58846" lon="-117.34195"><ele>769.0</ele></trkpt>
    <trkpt lat="33.58828" lon="-117.34194"><ele>769.0</ele></trkpt>
    <trkpt lat="33.58799" lon="-117.34191"><ele>769.0</ele></trkpt>
    <trkpt lat="33.58712" lon="-117.34269"><ele>769.0</ele></trkpt>
    <trkpt lat="33.58683" lon="-117.34278"><ele>769.0</ele></trkpt>
    <trkpt lat="33.58622" lon="-117.34248"><ele>769.0</ele></trkpt>
    <trkpt lat="33.58556" lon="-117.34278"><ele>769.0</ele></trkpt>
    <trkpt lat="33.58504" lon="-117.34278"><ele>769.0</ele></trkpt>
    <trkpt lat="33.58431" lon="-117.34218"><ele>755.0</ele></trkpt>
    <trkpt lat="33.58362" lon="-117.34190"><ele>755.0</ele></trkpt>
    <trkpt lat="33.58233" lon="-117.34226"><ele>755.0</ele></trkpt>
    <trkpt lat="33.58197" lon="-117.34236"><ele>755.0</ele></trkpt>
    <trkpt lat="33.58174" lon="-117.34223"><ele>755.0</ele></trkpt>
    <trkpt lat="33.58120" lon="-117.34190"><ele>755.0</ele></trkpt>
    <trkpt lat="33.58088" lon="-117.34185"><ele>755.0</ele></trkpt>
    <trkpt lat="33.58072" lon="-117.34183"><ele>738.0</ele></trkpt>
    <trkpt lat="33.57977" lon="-117.34217"><ele>738.0</ele></trkpt>
    <trkpt lat="33.57863" lon="-117.34246"><ele>738.0</ele></trkpt>
    <trkpt lat="33.57820" lon="-117.34249"><ele>738.0</ele></trkpt>
    <trkpt lat="33.57818" lon="-117.34249"><ele>738.0</ele></trkpt>
    <trkpt lat="33.57759" lon="-117.34253"><ele>738.0</ele></trkpt>
    <trkpt lat="33.57682" lon="-117.34289"><ele>738.0</ele></trkpt>
    <trkpt lat="33.57666" lon="-117.34289"><ele>710.0</ele></trkpt>
    <trkpt lat="33.57630" lon="-117.34287"><ele>710.0</ele></trkpt>
    <trkpt lat="33.57616" lon="-117.34305"><ele>710.0</ele></trkpt>
    <trkpt lat="33.57611" lon="-117.34312"><ele>710.0</ele></trkpt>
    <trkpt lat="33.57641" lon="-117.34381"><ele>710.0</ele></trkpt>
    <trkpt lat="33.57637" lon="-117.34427"><ele>710.0</ele></trkpt>
    <trkpt lat="33.57617" lon="-117.34437"><ele>710.0</ele></trkpt>
    <trkpt lat="33.57598" lon="-117.34447"><ele>710.0</ele></trkpt>
    <trkpt lat="33.57496" lon="-117.34442"><ele>700.0</ele></trkpt>
    <trkpt lat="33.57471" lon="-117.34467"><ele>700.0</ele></trkpt>
    <trkpt lat="33.57467" lon="-117.34543"><ele>700.0</ele></trkpt>
    <trkpt lat="33.57462" lon="-117.34549"><ele>700.0</ele></trkpt>
    <trkpt lat="33.57449" lon="-117.34566"><ele>700.0</ele></trkpt>
    <trkpt lat="33.57382" lon="-117.34589"><ele>700.0</ele></trkpt>
    <trkpt lat="33.57379" lon="-117.34594"><ele>700.0</ele></trkpt>
    <trkpt lat="33.57370" lon="-117.34614"><ele>694.0</ele></trkpt>
    <trkpt lat="33.57370" lon="-117.34665"><ele>694.0</ele></trkpt>
    <trkpt lat="33.57361" lon="-117.34693"><ele>694.0</ele></trkpt>
    <trkpt lat="33.57356" lon="-117.34708"><ele>694.0</ele></trkpt>
    <trkpt lat="33.57325" lon="-117.34727"><ele>694.0</ele></trkpt>
    <trkpt lat="33.57262" lon="-117.34673"><ele>694.0</ele></trkpt>
    <trkpt lat="33.57228" lon="-117.34653"><ele>694.0</ele></trkpt>
    <trkpt lat="33.57181" lon="-117.34625"><ele>680.0</ele></trkpt>
    <trkpt lat="33.57131" lon="-117.34615"><ele>680.0</ele></trkpt>
    <trkpt lat="33.57104" lon="-117.34625"><ele>680.0</ele></trkpt>
    <trkpt lat="33.57071" lon="-117.34636"><ele>680.0</ele></trkpt>
    <trkpt lat="33.57021" lon="-117.34695"><ele>680.0</ele></trkpt>
    <trkpt lat="33.56996" lon="-117.34804"><ele>680.0</ele></trkpt>
    <trkpt lat="33.56975" lon="-117.34835"><ele>680.0</ele></trkpt>
    <trkpt lat="33.56917" lon="-117.34844"><ele>655.0</ele></trkpt>
    <trkpt lat="33.56854" lon="-117.34817"><ele>655.0</ele></trkpt>
    <trkpt lat="33.56829" lon="-117.34806"><ele>655.0</ele></trkpt>
    <trkpt lat="33.56803" lon="-117.34804"><ele>655.0</ele></trkpt>
    <trkpt lat="33.56758" lon="-117.34799"><ele>655.0</ele></trkpt>
    <trkpt lat="33.56675" lon="-117.34790"><ele>655.0</ele></trkpt>
    <trkpt lat="33.56670" lon="-117.34812"><ele>655.0</ele></trkpt>
    <trkpt lat="33.56642" lon="-117.34939"><ele>655.0</ele></trkpt>
    <trkpt lat="33.56624" lon="-117.34955"><ele>638.0</ele></trkpt>
    <trkpt lat="33.56601" lon="-117.34976"><ele>638.0</ele></trkpt>
    <trkpt lat="33.56559" lon="-117.34974"><ele>638.0</ele></trkpt>
    <trkpt lat="33.56551" lon="-117.34973"><ele>638.0</ele></trkpt>
    <trkpt lat="33.56364" lon="-117.34826"><ele>638.0</ele></trkpt>
    <trkpt lat="33.56356" lon="-117.34819"><ele>638.0</ele></trkpt>
    <trkpt lat="33.56300" lon="-117.34840"><ele>638.0</ele></trkpt>
    <trkpt lat="33.56188" lon="-117.34881"><ele>650.0</ele></trkpt>
    <trkpt lat="33.56018" lon="-117.35030"><ele>650.0</ele></trkpt>
    <trkpt lat="33.55975" lon="-117.35073"><ele>650.0</ele></trkpt>
    <trkpt lat="33.55935" lon="-117.35089"><ele>650.0</ele></trkpt>
    <trkpt lat="33.55898" lon="-117.35075"><ele>650.0</ele></trkpt>
    <trkpt lat="33.55897" lon="-117.35066"><ele>650.0</ele></trkpt>
    <trkpt lat="33.55887" lon="-117.35018"><ele>650.0</ele></trkpt>
    <trkpt lat="33.55903" lon="-117.34976"><ele>660.0</ele></trkpt>
    <trkpt lat="33.55897" lon="-117.34921"><ele>660.0</ele></trkpt>
    <trkpt lat="33.55870" lon="-117.34893"><ele>660.0</ele></trkpt>
    <trkpt lat="33.55854" lon="-117.34875"><ele>660.0</ele></trkpt>
    <trkpt lat="33.55852" lon="-117.34867"><ele>660.0</ele></trkpt>
    <trkpt lat="33.55848" lon="-117.34847"><ele>660.0</ele></trkpt>
    <trkpt lat="33.55877" lon="-117.34758"><ele>660.0</ele></trkpt>
    <trkpt lat="33.55869" lon="-117.34732"><ele>660.0</ele></trkpt>
    <trkpt lat="33.55859" lon="-117.34727"><ele>645.0</ele></trkpt>
    <trkpt lat="33.55824" lon="-117.34710"><ele>645.0</ele></trkpt>
    <trkpt lat="33.55807" lon="-117.34688"><ele>645.0</ele></trkpt>
    <trkpt lat="33.55795" lon="-117.34672"><ele>645.0</ele></trkpt>
    <trkpt lat="33.55791" lon="-117.34624"><ele>645.0</ele></trkpt>
    <trkpt lat="33.55789" lon="-117.34590"><ele>645.0</ele></trkpt>
    <trkpt lat="33.55680" lon="-117.34450"><ele>645.0</ele></trkpt>
    <trkpt lat="33.55656" lon="-117.34444"><ele>619.0</ele></trkpt>
    <trkpt lat="33.55638" lon="-117.34438"><ele>619.0</ele></trkpt>
    <trkpt lat="33.55589" lon="-117.34464"><ele>619.0</ele></trkpt>
    <trkpt lat="33.55559" lon="-117.34553"><ele>619.0</ele></trkpt>
    <trkpt lat="33.55532" lon="-117.34573"><ele>619.0</ele></trkpt>
    <trkpt lat="33.55463" lon="-117.34574"><ele>619.0</ele></trkpt>
    <trkpt lat="33.55452" lon="-117.34576"><ele>619.0</ele></trkpt>
    <trkpt lat="33.55433" lon="-117.34580"><ele>604.0</ele></trkpt>
    <trkpt lat="33.55398" lon="-117.34617"><ele>604.0</ele></trkpt>
    <trkpt lat="33.55395" lon="-117.34620"><ele>604.0</ele></trkpt>
    <trkpt lat="33.55393" lon="-117.34622"><ele>604.0</ele></trkpt>
    <trkpt lat="33.55281" lon="-117.34785"><ele>604.0</ele></trkpt>
    <trkpt lat="33.55276" lon="-117.34801"><ele>604.0</ele></trkpt>
    <trkpt lat="33.55281" lon="-117.34820"><ele>604.0</ele></trkpt>
    <trkpt lat="33.55286" lon="-117.34837"><ele>604.0</ele></trkpt>
    <trkpt lat="33.55353" lon="-117.34863"><ele>591.0</ele></trkpt>
    <trkpt lat="33.55363" lon="-117.34888"><ele>591.0</ele></trkpt>
    <trkpt lat="33.55364" lon="-117.34890"><ele>591.0</ele></trkpt>
    <trkpt lat="33.55356" lon="-117.34912"><ele>591.0</ele></trkpt>
    <trkpt lat="33.55279" lon="-117.34974"><ele>591.0</ele></trkpt>
    <trkpt lat="33.55267" lon="-117.35005"><ele>591.0</ele></trkpt>
    <trkpt lat="33.55257" lon="-117.35033"><ele>591.0</ele></trkpt>
    <trkpt lat="33.55236" lon="-117.35096"><ele>555.0</ele></trkpt>
    <trkpt lat="33.55207" lon="-117.35127"><ele>555.0</ele></trkpt>
    <trkpt lat="33.55183" lon="-117.35155"><ele>555.0</ele></trkpt>
    <trkpt lat="33.55178" lon="-117.35182"><ele>555.0</ele></trkpt>
    <trkpt lat="33.55176" lon="-117.35194"><ele>555.0</ele></trkpt>
    <trkpt lat="33.55206" lon="-117.35234"><ele>555.0</ele></trkpt>
    <trkpt lat="33.55206" lon="-117.35243"><ele>555.0</ele></trkpt>
    <trkpt lat="33.55208" lon="-117.35264"><ele>547.0</ele></trkpt>
    <trkpt lat="33.55192" lon="-117.35285"><ele>547.0</ele></trkpt>
    <trkpt lat="33.55115" lon="-117.35286"><ele>547.0</ele></trkpt>
    <trkpt lat="33.55093" lon="-117.35293"><ele>547.0</ele></trkpt>
    <trkpt lat="33.55075" lon="-117.35298"><ele>547.0</ele></trkpt>
    <trkpt lat="33.55051" lon="-117.35326"><ele>547.0</ele></trkpt>
    <trkpt lat="33.55037" lon="-117.35343"><ele>547.0</ele></trkpt>
    <trkpt lat="33.55004" lon="-117.35435"><ele>547.0</ele></trkpt>
    <trkpt lat="33.54989" lon="-117.35475"><ele>531.0</ele></trkpt>
    <trkpt lat="33.54972" lon="-117.35492"><ele>531.0</ele></trkpt>
    <trkpt lat="33.54964" lon="-117.35501"><ele>531.0</ele></trkpt>
    <trkpt lat="33.54943" lon="-117.35506"><ele>531.0</ele></trkpt>
    <trkpt lat="33.54923" lon="-117.35512"><ele>531.0</ele></trkpt>
    <trkpt lat="33.54909" lon="-117.35522"><ele>531.0</ele></trkpt>
    <trkpt lat="33.54897" lon="-117.35530"><ele>531.0</ele></trkpt>
    <trkpt lat="33.54846" lon="-117.35595"><ele>521.0</ele></trkpt>
    <trkpt lat="33.54844" lon="-117.35598"><ele>521.0</ele></trkpt>
    <trkpt lat="33.54789" lon="-117.35604"><ele>521.0</ele></trkpt>
    <trkpt lat="33.54775" lon="-117.35609"><ele>521.0</ele></trkpt>
    <trkpt lat="33.54745" lon="-117.35622"><ele>521.0</ele></trkpt>
    <trkpt lat="33.54729" lon="-117.35676"><ele>521.0</ele></trkpt>
    <trkpt lat="33.54732" lon="-117.35742"><ele>521.0</ele></trkpt>
    <trkpt lat="33.54730" lon="-117.35746"><ele>528.0</ele></trkpt>
    <trkpt lat="33.54720" lon="-117.35778"><ele>528.0</ele></trkpt>
    <trkpt lat="33.54734" lon="-117.35840"><ele>528.0</ele></trkpt>
    <trkpt lat="33.54746" lon="-117.35895"><ele>528.0</ele></trkpt>
    <trkpt lat="33.54757" lon="-117.35908"><ele>528.0</ele></trkpt>
    <trkpt lat="33.54768" lon="-117.35943"><ele>528.0</ele></trkpt>
    <trkpt lat="33.54795" lon="-117.36032"><ele>528.0</ele></trkpt>
    <trkpt lat="33.54861" lon="-117.36055"><ele>528.0</ele></trkpt>
    <trkpt lat="33.54862" lon="-117.36056"><ele>542.0</ele></trkpt>
    <trkpt lat="33.54862" lon="-117.36080"><ele>542.0</ele></trkpt>
    <trkpt lat="33.54832" lon="-117.36104"><ele>542.0</ele></trkpt>
    <trkpt lat="33.54827" lon="-117.36127"><ele>542.0</ele></trkpt>
    <trkpt lat="33.54822" lon="-117.36146"><ele>542.0</ele></trkpt>
    <trkpt lat="33.54786" lon="-117.36169"><ele>542.0</ele></trkpt>
    <trkpt lat="33.54779" lon="-117.36206"><ele>542.0</ele></trkpt>
    <trkpt lat="33.54775" lon="-117.36214"><ele>555.0</ele></trkpt>
    <trkpt lat="33.54753" lon="-117.36252"><ele>555.0</ele></trkpt>
    <trkpt lat="33.54820" lon="-117.36344"><ele>555.0</ele></trkpt>
    <trkpt lat="33.54849" lon="-117.36404"><ele>555.0</ele></trkpt>
    <trkpt lat="33.54906" lon="-117.36453"><ele>555.0</ele></trkpt>
    <trkpt lat="33.54864" lon="-117.36499"><ele>555.0</ele></trkpt>
    <trkpt lat="33.54909" lon="-117.36535"><ele>555.0</ele></trkpt>
    <trkpt lat="33.54937" lon="-117.36561"><ele>543.0</ele></trkpt>
    <trkpt lat="33.54925" lon="-117.36610"><ele>543.0</ele></trkpt>
    <trkpt lat="33.54920" lon="-117.36676"><ele>543.0</ele></trkpt>
    <trkpt lat="33.54939" lon="-117.36704"><ele>543.0</ele></trkpt>
    <trkpt lat="33.54938" lon="-117.36733"><ele>543.0</ele></trkpt>
    <trkpt lat="33.54913" lon="-117.36779"><ele>543.0</ele></trkpt>
    <trkpt lat="33.54913" lon="-117.36811"><ele>543.0</ele></trkpt>
    <trkpt lat="33.54936" lon="-117.36847"><ele>543.0</ele></trkpt>
    <trkpt lat="33.54962" lon="-117.36887"><ele>509.0</ele></trkpt>
    <trkpt lat="33.54956" lon="-117.36912"><ele>509.0</ele></trkpt>
    <trkpt lat="33.54942" lon="-117.36929"><ele>509.0</ele></trkpt>
    <trkpt lat="33.54931" lon="-117.36979"><ele>509.0</ele></trkpt>
    <trkpt lat="33.54927" lon="-117.36997"><ele>509.0</ele></trkpt>
    <trkpt lat="33.54936" lon="-117.37019"><ele>509.0</ele></trkpt>
    <trkpt lat="33.54930" lon="-117.37040"><ele>509.0</ele></trkpt>
    <trkpt lat="33.54925" lon="-117.37056"><ele>500.0</ele></trkpt>
    <trkpt lat="33.54897" lon="-117.37111"><ele>500.0</ele></trkpt>
    <trkpt lat="33.54910" lon="-117.37148"><ele>500.0</ele></trkpt>
    <trkpt lat="33.54916" lon="-117.37209"><ele>500.0</ele></trkpt>
    <trkpt lat="33.54918" lon="-117.37226"><ele>500.0</ele></trkpt>
    <trkpt lat="33.54915" lon="-117.37230"><ele>500.0</ele></trkpt>
    <trkpt lat="33.54907" lon="-117.37244"><ele>500.0</ele></trkpt>
    <trkpt lat="33.54890" lon="-117.37250"><ele>492.0</ele></trkpt>
    <trkpt lat="33.54874" lon="-117.37255"><ele>492.0</ele></trkpt>
    <trkpt lat="33.54869" lon="-117.37267"><ele>492.0</ele></trkpt>
    <trkpt lat="33.54866" lon="-117.37275"><ele>492.0</ele></trkpt>
    <trkpt lat="33.54871" lon="-117.37308"><ele>492.0</ele></trkpt>
    <trkpt lat="33.54858" lon="-117.37369"><ele>492.0</ele></trkpt>
    <trkpt lat="33.54866" lon="-117.37422"><ele>492.0</ele></trkpt>
    <trkpt lat="33.54890" lon="-117.37442"><ele>482.0</ele></trkpt>
    <trkpt lat="33.54897" lon="-117.37467"><ele>482.0</ele></trkpt>
    <trkpt lat="33.54901" lon="-117.37482"><ele>482.0</ele></trkpt>
    <trkpt lat="33.54893" lon="-117.37540"><ele>482.0</ele></trkpt>
    <trkpt lat="33.54910" lon="-117.37550"><ele>482.0</ele></trkpt>
    <trkpt lat="33.54923" lon="-117.37558"><ele>482.0</ele></trkpt>
    <trkpt lat="33.54919" lon="-117.37582"><ele>482.0</ele></trkpt>
    <trkpt lat="33.54915" lon="-117.37588"><ele>482.0</ele></trkpt>
    <trkpt lat="33.54912" lon="-117.37594"><ele>469.0</ele></trkpt>
    <trkpt lat="33.54910" lon="-117.37609"><ele>469.0</ele></trkpt>
    <trkpt lat="33.54894" lon="-117.37731"><ele>469.0</ele></trkpt>
    <trkpt lat="33.54904" lon="-117.37778"><ele>469.0</ele></trkpt>
    <trkpt lat="33.54908" lon="-117.37799"><ele>469.0</ele></trkpt>
    <trkpt lat="33.54888" lon="-117.37866"><ele>469.0</ele></trkpt>
    <trkpt lat="33.54925" lon="-117.37964"><ele>469.0</ele></trkpt>
    <trkpt lat="33.54925" lon="-117.37999"><ele>462.0</ele></trkpt>
    <trkpt lat="33.54957" lon="-117.38031"><ele>462.0</ele></trkpt>
    <trkpt lat="33.54956" lon="-117.38058"><ele>462.0</ele></trkpt>
    <trkpt lat="33.54976" lon="-117.38087"><ele>462.0</ele></trkpt>
    <trkpt lat="33.54952" lon="-117.38110"><ele>462.0</ele></trkpt>
    <trkpt lat="33.54925" lon="-117.38136"><ele>462.0</ele></trkpt>
    <trkpt lat="33.54928" lon="-117.38169"><ele>462.0</ele></trkpt>
    <trkpt lat="33.54938" lon="-117.38188"><ele>446.0</ele></trkpt>
    <trkpt lat="33.54950" lon="-117.38211"><ele>446.0</ele></trkpt>
    <trkpt lat="33.54964" lon="-117.38220"><ele>446.0</ele></trkpt>
    <trkpt lat="33.54985" lon="-117.38234"><ele>446.0</ele></trkpt>
    <trkpt lat="33.54989" lon="-117.38246"><ele>446.0</ele></trkpt>
    <trkpt lat="33.54992" lon="-117.38255"><ele>446.0</ele></trkpt>
    <trkpt lat="33.55008" lon="-117.38263"><ele>446.0</ele></trkpt>
    <trkpt lat="33.55026" lon="-117.38301"><ele>446.0</ele></trkpt>
    <trkpt lat="33.55039" lon="-117.38313"><ele>434.0</ele></trkpt>
    <trkpt lat="33.55056" lon="-117.38330"><ele>434.0</ele></trkpt>
    <trkpt lat="33.55083" lon="-117.38374"><ele>434.0</ele></trkpt>
    <trkpt lat="33.55085" lon="-117.38443"><ele>434.0</ele></trkpt>
    <trkpt lat="33.55088" lon="-117.38544"><ele>434.0</ele></trkpt>
    <trkpt lat="33.55080" lon="-117.38569"><ele>434.0</ele></trkpt>
    <trkpt lat="33.55090" lon="-117.38579"><ele>434.0</ele></trkpt>
    <trkpt lat="33.55095" lon="-117.38601"><ele>441.0</ele></trkpt>
    <trkpt lat="33.55096" lon="-117.38604"><ele>441.0</ele></trkpt>
    <trkpt lat="33.55094" lon="-117.38625"><ele>441.0</ele></trkpt>
    <trkpt lat="33.55089" lon="-117.38670"><ele>441.0</ele></trkpt>
    <trkpt lat="33.55069" lon="-117.38696"><ele>441.0</ele></trkpt>
    <trkpt lat="33.55070" lon="-117.38706"><ele>441.0</ele></trkpt>
    <trkpt lat="33.55071" lon="-117.38711"><ele>441.0</ele></trkpt>
    <trkpt lat="33.55104" lon="-117.38716"><ele>444.0</ele></trkpt>
    <trkpt lat="33.55106" lon="-117.38726"><ele>444.0</ele></trkpt>
    <trkpt lat="33.55118" lon="-117.38783"><ele>444.0</ele></trkpt>
    <trkpt lat="33.55115" lon="-117.38821"><ele>444.0</ele></trkpt>
    <trkpt lat="33.55116" lon="-117.38823"><ele>444.0</ele></trkpt>
    <trkpt lat="33.55122" lon="-117.38833"><ele>444.0</ele></trkpt>
    <trkpt lat="33.55119" lon="-117.38872"><ele>444.0</ele></trkpt>
    <trkpt lat="33.55119" lon="-117.38888"><ele>444.0</ele></trkpt>
    <trkpt lat="33.55118" lon="-117.38899"><ele>438.0</ele></trkpt>
    <trkpt lat="33.55117" lon="-117.38917"><ele>438.0</ele></trkpt>
    <trkpt lat="33.55114" lon="-117.38925"><ele>438.0</ele></trkpt>
    <trkpt lat="33.55110" lon="-117.38936"><ele>438.0</ele></trkpt>
    <trkpt lat="33.55084" lon="-117.38944"><ele>438.0</ele></trkpt>
    <trkpt lat="33.55081" lon="-117.38946"><ele>438.0</ele></trkpt>
    <trkpt lat="33.55074" lon="-117.38952"><ele>438.0</ele></trkpt>
    <trkpt lat="33.55088" lon="-117.38971"><ele>435.0</ele></trkpt>
    <trkpt lat="33.55097" lon="-117.38984"><ele>435.0</ele></trkpt>
    <trkpt lat="33.55098" lon="-117.39019"><ele>435.0</ele></trkpt>
    <trkpt lat="33.55085" lon="-117.39046"><ele>435.0</ele></trkpt>
    <trkpt lat="33.55084" lon="-117.39065"><ele>435.0</ele></trkpt>
    <trkpt lat="33.55083" lon="-117.39089"><ele>435.0</ele></trkpt>
    <trkpt lat="33.55072" lon="-117.39138"><ele>435.0</ele></trkpt>
    <trkpt lat="33.55069" lon="-117.39150"><ele>425.0</ele></trkpt>
    <trkpt lat="33.55063" lon="-117.39164"><ele>425.0</ele></trkpt>
    <trkpt lat="33.55057" lon="-117.39179"><ele>425.0</ele></trkpt>
    <trkpt lat="33.55057" lon="-117.39224"><ele>425.0</ele></trkpt>
    <trkpt lat="33.55037" lon="-117.39251"><ele>425.0</ele></trkpt>
    <trkpt lat="33.54996" lon="-117.39277"><ele>425.0</ele></trkpt>
    <trkpt lat="33.54992" lon="-117.39296"><ele>425.0</ele></trkpt>
    <trkpt lat="33.54988" lon="-117.39317"><ele>425.0</ele></trkpt>
    <trkpt lat="33.54941" lon="-117.39363"><ele>416.0</ele></trkpt>
    <trkpt lat="33.54909" lon="-117.39400"><ele>416.0</ele></trkpt>
    <trkpt lat="33.54901" lon="-117.39453"><ele>416.0</ele></trkpt>
    <trkpt lat="33.54874" lon="-117.39447"><ele>416.0</ele></trkpt>
    <trkpt lat="33.54833" lon="-117.39481"><ele>416.0</ele></trkpt>
    <trkpt lat="33.54814" lon="-117.39490"><ele>416.0</ele></trkpt>
    <trkpt lat="33.54794" lon="-117.39499"><ele>416.0</ele></trkpt>
    <trkpt lat="33.54750" lon="-117.39487"><ele>425.0</ele></trkpt>
    <trkpt lat="33.54739" lon="-117.39484"><ele>425.0</ele></trkpt>
    <trkpt lat="33.54705" lon="-117.39462"><ele>425.0</ele></trkpt>
    <trkpt lat="33.54675" lon="-117.39441"><ele>425.0</ele></trkpt>
    <trkpt lat="33.54663" lon="-117.39421"><ele>425.0</ele></trkpt>
    <trkpt lat="33.54644" lon="-117.39389"><ele>425.0</ele></trkpt>
    <trkpt lat="33.54632" lon="-117.39384"><ele>425.0</ele></trkpt>
    <trkpt lat="33.54613" lon="-117.39416"><ele>431.0</ele></trkpt>
    <trkpt lat="33.54575" lon="-117.39406"><ele>431.0</ele></trkpt>
    <trkpt lat="33.54568" lon="-117.39388"><ele>431.0</ele></trkpt>
    <trkpt lat="33.54565" lon="-117.39381"><ele>431.0</ele></trkpt>
    <trkpt lat="33.54560" lon="-117.39379"><ele>431.0</ele></trkpt>
    <trkpt lat="33.54553" lon="-117.39375"><ele>431.0</ele></trkpt>
    <trkpt lat="33.54537" lon="-117.39391"><ele>431.0</ele></trkpt>
    <trkpt lat="33.54461" lon="-117.39405"><ele>431.0</ele></trkpt>
    <trkpt lat="33.54454" lon="-117.39426"><ele>432.0</ele></trkpt>
    <trkpt lat="33.54448" lon="-117.39447"><ele>432.0</ele></trkpt>
    <trkpt lat="33.54444" lon="-117.39479"><ele>432.0</ele></trkpt>
    <trkpt lat="33.54421" lon="-117.39481"><ele>432.0</ele></trkpt>
    <trkpt lat="33.54407" lon="-117.39497"><ele>432.0</ele></trkpt>
    <trkpt lat="33.54411" lon="-117.39507"><ele>432.0</ele></trkpt>
    <trkpt lat="33.54414" lon="-117.39516"><ele>432.0</ele></trkpt>
    <trkpt lat="33.54418" lon="-117.39549"><ele>426.0</ele></trkpt>
    <trkpt lat="33.54385" lon="-117.39574"><ele>426.0</ele></trkpt>
    <trkpt lat="33.54345" lon="-117.39580"><ele>426.0</ele></trkpt>
    <trkpt lat="33.54333" lon="-117.39569"><ele>426.0</ele></trkpt>
    <trkpt lat="33.54315" lon="-117.39553"><ele>426.0</ele></trkpt>
    <trkpt lat="33.54293" lon="-117.39558"><ele>426.0</ele></trkpt>
    <trkpt lat="33.54272" lon="-117.39562"><ele>426.0</ele></trkpt>
    <trkpt lat="33.54264" lon="-117.39531"><ele>433.0</ele></trkpt>
    <trkpt lat="33.54237" lon="-117.39521"><ele>433.0</ele></trkpt>
    <trkpt lat="33.54227" lon="-117.39518"><ele>433.0</ele></trkpt>
    <trkpt lat="33.54205" lon="-117.39513"><ele>433.0</ele></trkpt>
    <trkpt lat="33.54183" lon="-117.39539"><ele>433.0</ele></trkpt>
    <trkpt lat="33.54163" lon="-117.39538"><ele>433.0</ele></trkpt>
    <trkpt lat="33.54156" lon="-117.39529"><ele>433.0</ele></trkpt>
    <trkpt lat="33.54143" lon="-117.39510"><ele>433.0</ele></trkpt>
    <trkpt lat="33.54117" lon="-117.39481"><ele>429.0</ele></trkpt>
    <trkpt lat="33.54098" lon="-117.39496"><ele>429.0</ele></trkpt>
    <trkpt lat="33.54081" lon="-117.39511"><ele>429.0</ele></trkpt>
    <trkpt lat="33.54068" lon="-117.39523"><ele>429.0</ele></trkpt>
    <trkpt lat="33.54049" lon="-117.39513"><ele>429.0</ele></trkpt>
    <trkpt lat="33.54044" lon="-117.39479"><ele>429.0</ele></trkpt>
    <trkpt lat="33.54042" lon="-117.39474"><ele>429.0</ele></trkpt>
    <trkpt lat="33.54039" lon="-117.39467"><ele>436.0</ele></trkpt>
    <trkpt lat="33.54012" lon="-117.39476"><ele>436.0</ele></trkpt>
    <trkpt lat="33.54006" lon="-117.39472"><ele>436.0</ele></trkpt>
    <trkpt lat="33.53993" lon="-117.39462"><ele>436.0</ele></trkpt>
    <trkpt lat="33.53948" lon="-117.39477"><ele>436.0</ele></trkpt>
    <trkpt lat="33.53934" lon="-117.39465"><ele>436.0</ele></trkpt>
    <trkpt lat="33.53929" lon="-117.39462"><ele>436.0</ele></trkpt>
    <trkpt lat="33.53921" lon="-117.39462"><ele>436.0</ele></trkpt>
    <trkpt lat="33.53916" lon="-117.39463"><ele>436.0</ele></trkpt>
    <trkpt lat="33.53916" lon="-117.39486"><ele>436.0</ele></trkpt>
    <trkpt lat="33.53911" lon="-117.39493"><ele>436.0</ele></trkpt>
    <trkpt lat="33.53906" lon="-117.39502"><ele>436.0</ele></trkpt>
    <trkpt lat="33.53877" lon="-117.39521"><ele>436.0</ele></trkpt>
    <trkpt lat="33.53863" lon="-117.39506"><ele>436.0</ele></trkpt>
    <trkpt lat="33.53858" lon="-117.39500"><ele>444.0</ele></trkpt>
    <trkpt lat="33.53840" lon="-117.39505"><ele>444.0</ele></trkpt>
    <trkpt lat="33.53816" lon="-117.39484"><ele>444.0</ele></trkpt>
    <trkpt lat="33.53792" lon="-117.39463"><ele>444.0</ele></trkpt>
    <trkpt lat="33.53775" lon="-117.39480"><ele>444.0</ele></trkpt>
    <trkpt lat="33.53751" lon="-117.39482"><ele>444.0</ele></trkpt>
    <trkpt lat="33.53741" lon="-117.39483"><ele>444.0</ele></trkpt>
    <trkpt lat="33.53733" lon="-117.39479"><ele>444.0</ele></trkpt>
    <trkpt lat="33.53714" lon="-117.39470"><ele>445.0</ele></trkpt>
    <trkpt lat="33.53708" lon="-117.39480"><ele>445.0</ele></trkpt>
    <trkpt lat="33.53695" lon="-117.39500"><ele>445.0</ele></trkpt>
    <trkpt lat="33.53659" lon="-117.39484"><ele>445.0</ele></trkpt>
    <trkpt lat="33.53642" lon="-117.39519"><ele>445.0</ele></trkpt>
    <trkpt lat="33.53628" lon="-117.39536"><ele>445.0</ele></trkpt>
    <trkpt lat="33.53623" lon="-117.39542"><ele>445.0</ele></trkpt>
    <trkpt lat="33.53598" lon="-117.39463"><ele>459.0</ele></trkpt>
    <trkpt lat="33.53568" lon="-117.39464"><ele>459.0</ele></trkpt>
    <trkpt lat="33.53571" lon="-117.39450"><ele>459.0</ele></trkpt>
    <trkpt lat="33.53573" lon="-117.39436"><ele>459.0</ele></trkpt>
    <trkpt lat="33.53560" lon="-117.39428"><ele>459.0</ele></trkpt>
    <trkpt lat="33.53531" lon="-117.39444"><ele>459.0</ele></trkpt>
    <trkpt lat="33.53504" lon="-117.39412"><ele>459.0</ele></trkpt>
    <trkpt lat="33.53519" lon="-117.39381"><ele>466.0</ele></trkpt>
    <trkpt lat="33.53510" lon="-117.39367"><ele>466.0</ele></trkpt>
    <trkpt lat="33.53500" lon="-117.39370"><ele>466.0</ele></trkpt>
    <trkpt lat="33.53484" lon="-117.39375"><ele>466.0</ele></trkpt>
    <trkpt lat="33.53458" lon="-117.39366"><ele>466.0</ele></trkpt>
    <trkpt lat="33.53426" lon="-117.39409"><ele>466.0</ele></trkpt>
    <trkpt lat="33.53409" lon="-117.39414"><ele>466.0</ele></trkpt>
    <trkpt lat="33.53408" lon="-117.39375"><ele>466.0</ele></trkpt>
    <trkpt lat="33.53398" lon="-117.39365"><ele>463.0</ele></trkpt>
    <trkpt lat="33.53391" lon="-117.39373"><ele>463.0</ele></trkpt>
    <trkpt lat="33.53384" lon="-117.39380"><ele>463.0</ele></trkpt>
    <trkpt lat="33.53364" lon="-117.39377"><ele>463.0</ele></trkpt>
    <trkpt lat="33.53347" lon="-117.39328"><ele>463.0</ele></trkpt>
    <trkpt lat="33.53286" lon="-117.39279"><ele>463.0</ele></trkpt>
    <trkpt lat="33.53278" lon="-117.39283"><ele>463.0</ele></trkpt>
    <trkpt lat="33.53264" lon="-117.39291"><ele>472.0</ele></trkpt>
    <trkpt lat="33.53248" lon="-117.39298"><ele>472.0</ele></trkpt>
    <trkpt lat="33.53232" lon="-117.39305"><ele>472.0</ele></trkpt>
    <trkpt lat="33.53230" lon="-117.39306"><ele>472.0</ele></trkpt>
    <trkpt lat="33.53229" lon="-117.39306"><ele>472.0</ele></trkpt>
    <trkpt lat="33.53231" lon="-117.39271"><ele>472.0</ele></trkpt>
    <trkpt lat="33.53232" lon="-117.39250"><ele>472.0</ele></trkpt>
    <trkpt lat="33.53213" lon="-117.39227"><ele>491.0</ele></trkpt>
    <trkpt lat="33.53198" lon="-117.39195"><ele>491.0</ele></trkpt>
    <trkpt lat="33.53179" lon="-117.39153"><ele>491.0</ele></trkpt>
    <trkpt lat="33.53187" lon="-117.39128"><ele>491.0</ele></trkpt>
    <trkpt lat="33.53193" lon="-117.39106"><ele>491.0</ele></trkpt>
    <trkpt lat="33.53181" lon="-117.39034"><ele>491.0</ele></trkpt>
    <trkpt lat="33.53164" lon="-117.39012"><ele>491.0</ele></trkpt>
    <trkpt lat="33.53155" lon="-117.39015"><ele>491.0</ele></trkpt>
    <trkpt lat="33.53144" lon="-117.39020"><ele>511.0</ele></trkpt>
    <trkpt lat="33.53107" lon="-117.39030"><ele>511.0</ele></trkpt>
    <trkpt lat="33.53096" lon="-117.39016"><ele>511.0</ele></trkpt>
    <trkpt lat="33.53100" lon="-117.38939"><ele>511.0</ele></trkpt>
    <trkpt lat="33.53073" lon="-117.38912"><ele>511.0</ele></trkpt>
    <trkpt lat="33.53066" lon="-117.38906"><ele>511.0</ele></trkpt>
    <trkpt lat="33.53018" lon="-117.38952"><ele>511.0</ele></trkpt>
    <trkpt lat="33.52960" lon="-117.38979"><ele>551.0</ele></trkpt>
    <trkpt lat="33.52957" lon="-117.38980"><ele>551.0</ele></trkpt>
    <trkpt lat="33.52906" lon="-117.38996"><ele>551.0</ele></trkpt>
    <trkpt lat="33.52898" lon="-117.38992"><ele>551.0</ele></trkpt>
    <trkpt lat="33.52880" lon="-117.38982"><ele>551.0</ele></trkpt>
    <trkpt lat="33.52853" lon="-117.39005"><ele>551.0</ele></trkpt>
    <trkpt lat="33.52832" lon="-117.39023"><ele>551.0</ele></trkpt>
    <trkpt lat="33.52806" lon="-117.39012"><ele>568.0</ele></trkpt>
    <trkpt lat="33.52788" lon="-117.39010"><ele>568.0</ele></trkpt>
    <trkpt lat="33.52781" lon="-117.39009"><ele>568.0</ele></trkpt>
    <trkpt lat="33.52779" lon="-117.39008"><ele>568.0</ele></trkpt>
    <trkpt lat="33.52768" lon="-117.39001"><ele>568.0</ele></trkpt>
    <trkpt lat="33.52774" lon="-117.38986"><ele>568.0</ele></trkpt>
    <trkpt lat="33.52790" lon="-117.38982"><ele>568.0</ele></trkpt>
    <trkpt lat="33.52805" lon="-117.38977"><ele>568.0</ele></trkpt>
    <trkpt lat="33.52811" lon="-117.38967"><ele>569.0</ele></trkpt>
    <trkpt lat="33.52819" lon="-117.38955"><ele>569.0</ele></trkpt>
    <trkpt lat="33.52845" lon="-117.38923"><ele>569.0</ele></trkpt>
    <trkpt lat="33.52848" lon="-117.38899"><ele>569.0</ele></trkpt>
    <trkpt lat="33.52850" lon="-117.38882"><ele>569.0</ele></trkpt>
    <trkpt lat="33.52867" lon="-117.38846"><ele>569.0</ele></trkpt>
    <trkpt lat="33.52880" lon="-117.38841"><ele>569.0</ele></trkpt>
    <trkpt lat="33.52891" lon="-117.38836"><ele>573.0</ele></trkpt>
    <trkpt lat="33.52880" lon="-117.38797"><ele>573.0</ele></trkpt>
    <trkpt lat="33.52858" lon="-117.38778"><ele>573.0</ele></trkpt>
    <trkpt lat="33.52846" lon="-117.38788"><ele>573.0</ele></trkpt>
    <trkpt lat="33.52814" lon="-117.38791"><ele>573.0</ele></trkpt>
    <trkpt lat="33.52775" lon="-117.38821"><ele>573.0</ele></trkpt>
    <trkpt lat="33.52749" lon="-117.38843"><ele>573.0</ele></trkpt>
    <trkpt lat="33.52725" lon="-117.38841"><ele>601.0</ele></trkpt>
    <trkpt lat="33.52719" lon="-117.38841"><ele>601.0</ele></trkpt>
    <trkpt lat="33.52700" lon="-117.38817"><ele>601.0</ele></trkpt>
    <trkpt lat="33.52675" lon="-117.38801"><ele>601.0</ele></trkpt>
    <trkpt lat="33.52658" lon="-117.38789"><ele>601.0</ele></trkpt>
    <trkpt lat="33.52625" lon="-117.38783"><ele>601.0</ele></trkpt>
    <trkpt lat="33.52593" lon="-117.38777"><ele>601.0</ele></trkpt>
    <trkpt lat="33.52533" lon="-117.38787"><ele>601.0</ele></trkpt>
    <trkpt lat="33.52483" lon="-117.38766"><ele>614.0</ele></trkpt>
    <trkpt lat="33.52464" lon="-117.38758"><ele>614.0</ele></trkpt>
    <trkpt lat="33.52409" lon="-117.38727"><ele>614.0</ele></trkpt>
    <trkpt lat="33.52393" lon="-117.38695"><ele>614.0</ele></trkpt>
    <trkpt lat="33.52387" lon="-117.38692"><ele>614.0</ele></trkpt>
    <trkpt lat="33.52367" lon="-117.38683"><ele>614.0</ele></trkpt>
    <trkpt lat="33.52340" lon="-117.38689"><ele>614.0</ele></trkpt>
    <trkpt lat="33.52322" lon="-117.38672"><ele>606.0</ele></trkpt>
    <trkpt lat="33.52308" lon="-117.38659"><ele>606.0</ele></trkpt>
    <trkpt lat="33.52292" lon="-117.38624"><ele>606.0</ele></trkpt>
    <trkpt lat="33.52292" lon="-117.38617"><ele>606.0</ele></trkpt>
    <trkpt lat="33.52293" lon="-117.38602"><ele>606.0</ele></trkpt>
    <trkpt lat="33.52305" lon="-117.38578"><ele>606.0</ele></trkpt>
    <trkpt lat="33.52302" lon="-117.38573"><ele>606.0</ele></trkpt>
    <trkpt lat="33.52294" lon="-117.38560"><ele>605.0</ele></trkpt>
    <trkpt lat="33.52275" lon="-117.38557"><ele>605.0</ele></trkpt>
    <trkpt lat="33.52266" lon="-117.38556"><ele>605.0</ele></trkpt>
    <trkpt lat="33.52254" lon="-117.38546"><ele>605.0</ele></trkpt>
    <trkpt lat="33.52246" lon="-117.38539"><ele>605.0</ele></trkpt>
    <trkpt lat="33.52212" lon="-117.38494"><ele>605.0</ele></trkpt>
    <trkpt lat="33.52169" lon="-117.38426"><ele>605.0</ele></trkpt>
    <trkpt lat="33.52164" lon="-117.38357"><ele>600.0</ele></trkpt>
    <trkpt lat="33.52148" lon="-117.38338"><ele>600.0</ele></trkpt>
    <trkpt lat="33.52094" lon="-117.38275"><ele>600.0</ele></trkpt>
    <trkpt lat="33.52081" lon="-117.38177"><ele>600.0</ele></trkpt>
    <trkpt lat="33.52074" lon="-117.38156"><ele>600.0</ele></trkpt>
    <trkpt lat="33.52055" lon="-117.38150"><ele>600.0</ele></trkpt>
    <trkpt lat="33.52025" lon="-117.38123"><ele>600.0</ele></trkpt>
    <trkpt lat="33.52012" lon="-117.38076"><ele>600.0</ele></trkpt>
    <trkpt lat="33.51998" lon="-117.38038"><ele>601.0</ele></trkpt>
    <trkpt lat="33.51979" lon="-117.37987"><ele>601.0</ele></trkpt>
    <trkpt lat="33.51957" lon="-117.37880"><ele>601.0</ele></trkpt>
    <trkpt lat="33.51909" lon="-117.37715"><ele>601.0</ele></trkpt>
    <trkpt lat="33.51888" lon="-117.37641"><ele>601.0</ele></trkpt>
    <trkpt lat="33.51886" lon="-117.37634"><ele>601.0</ele></trkpt>
    <trkpt lat="33.51882" lon="-117.37621"><ele>601.0</ele></trkpt>
    <trkpt lat="33.51863" lon="-117.37556"><ele>599.0</ele></trkpt>
    <trkpt lat="33.51831" lon="-117.37482"><ele>599.0</ele></trkpt>
    <trkpt lat="33.51806" lon="-117.37465"><ele>599.0</ele></trkpt>
    <trkpt lat="33.51782" lon="-117.37448"><ele>599.0</ele></trkpt>
    <trkpt lat="33.51717" lon="-117.37411"><ele>599.0</ele></trkpt>
    <trkpt lat="33.51699" lon="-117.37385"><ele>599.0</ele></trkpt>
    <trkpt lat="33.51684" lon="-117.37364"><ele>599.0</ele></trkpt>
    <trkpt lat="33.51667" lon="-117.37314"><ele>602.0</ele></trkpt>
    <trkpt lat="33.51657" lon="-117.37284"><ele>602.0</ele></trkpt>
    <trkpt lat="33.51652" lon="-117.37259"><ele>602.0</ele></trkpt>
    <trkpt lat="33.51631" lon="-117.37164"><ele>602.0</ele></trkpt>
    <trkpt lat="33.51597" lon="-117.37054"><ele>602.0</ele></trkpt>
    <trkpt lat="33.51580" lon="-117.36997"><ele>602.0</ele></trkpt>
    <trkpt lat="33.51546" lon="-117.36937"><ele>602.0</ele></trkpt>
    <trkpt lat="33.51542" lon="-117.36933"><ele>602.0</ele></trkpt>
    <trkpt lat="33.51516" lon="-117.36901"><ele>604.0</ele></trkpt>
    <trkpt lat="33.51475" lon="-117.36858"><ele>604.0</ele></trkpt>
    <trkpt lat="33.51470" lon="-117.36857"><ele>604.0</ele></trkpt>
    <trkpt lat="33.51424" lon="-117.36848"><ele>604.0</ele></trkpt>
    <trkpt lat="33.51373" lon="-117.36829"><ele>604.0</ele></trkpt>
    <trkpt lat="33.51371" lon="-117.36831"><ele>604.0</ele></trkpt>
    <trkpt lat="33.51351" lon="-117.36855"><ele>604.0</ele></trkpt>
    <trkpt lat="33.51317" lon="-117.36863"><ele>604.0</ele></trkpt>
    <trkpt lat="33.51292" lon="-117.36868"><ele>604.0</ele></trkpt>
    <trkpt lat="33.51273" lon="-117.36868"><ele>604.0</ele></trkpt>
    <trkpt lat="33.51262" lon="-117.36869"><ele>604.0</ele></trkpt>
    <trkpt lat="33.51227" lon="-117.36836"><ele>604.0</ele></trkpt>
    <trkpt lat="33.51160" lon="-117.36775"><ele>604.0</ele></trkpt>
    <trkpt lat="33.51127" lon="-117.36758"><ele>604.0</ele></trkpt>
    <trkpt lat="33.51080" lon="-117.36732"><ele>613.0</ele></trkpt>
    <trkpt lat="33.51075" lon="-117.36691"><ele>613.0</ele></trkpt>
    <trkpt lat="33.51072" lon="-117.36688"><ele>613.0</ele></trkpt>
    <trkpt lat="33.51064" lon="-117.36682"><ele>613.0</ele></trkpt>
    <trkpt lat="33.51043" lon="-117.36655"><ele>613.0</ele></trkpt>
    <trkpt lat="33.51034" lon="-117.36644"><ele>613.0</ele></trkpt>
    <trkpt lat="33.51020" lon="-117.36625"><ele>613.0</ele></trkpt>
    <trkpt lat="33.51006" lon="-117.36620"><ele>613.0</ele></trkpt>
    <trkpt lat="33.50925" lon="-117.36500"><ele>610.0</ele></trkpt>
    <trkpt lat="33.50924" lon="-117.36498"><ele>610.0</ele></trkpt>
    <trkpt lat="33.50870" lon="-117.36425"><ele>610.0</ele></trkpt>
    <trkpt lat="33.50828" lon="-117.36369"><ele>610.0</ele></trkpt>
    <trkpt lat="33.50804" lon="-117.36357"><ele>610.0</ele></trkpt>
    <trkpt lat="33.50780" lon="-117.36345"><ele>610.0</ele></trkpt>
    <trkpt lat="33.50748" lon="-117.36325"><ele>610.0</ele></trkpt>
    <trkpt lat="33.50745" lon="-117.36324"><ele>609.0</ele></trkpt>
    <trkpt lat="33.50743" lon="-117.36323"><ele>609.0</ele></trkpt>
    <trkpt lat="33.50693" lon="-117.36346"><ele>609.0</ele></trkpt>
    <trkpt lat="33.50702" lon="-117.36315"><ele>609.0</ele></trkpt>
  </trkseg></trk>
</gpx>
