<?xml version="1.0" encoding="UTF-8"?>
<gpx version="1.1" creator="dirt-bikes build-area-routes (MVUM geometry + SRTM elevation)" xmlns="http://www.topografix.com/GPX/1/1">
  <trk><name>Sunset Valley Road</name><trkseg>
    <trkpt lat="34.72686" lon="-119.91963"><ele>948.0</ele></trkpt>
    <trkpt lat="34.72697" lon="-119.91973"><ele>948.0</ele></trkpt>
    <trkpt lat="34.72705" lon="-119.91980"><ele>948.0</ele></trkpt>
    <trkpt lat="34.72718" lon="-119.91986"><ele>948.0</ele></trkpt>
    <trkpt lat="34.72736" lon="-119.91989"><ele>944.0</ele></trkpt>
    <trkpt lat="34.72751" lon="-119.91983"><ele>944.0</ele></trkpt>
    <trkpt lat="34.72768" lon="-119.91966"><ele>944.0</ele></trkpt>
    <trkpt lat="34.72782" lon="-119.91960"><ele>944.0</ele></trkpt>
    <trkpt lat="34.72813" lon="-119.91963"><ele>944.0</ele></trkpt>
    <trkpt lat="34.72845" lon="-119.91970"><ele>944.0</ele></trkpt>
    <trkpt lat="34.72880" lon="-119.91975"><ele>944.0</ele></trkpt>
    <trkpt lat="34.72923" lon="-119.91976"><ele>932.0</ele></trkpt>
    <trkpt lat="34.72955" lon="-119.91977"><ele>932.0</ele></trkpt>
    <trkpt lat="34.72981" lon="-119.91985"><ele>932.0</ele></trkpt>
    <trkpt lat="34.73000" lon="-119.91999"><ele>932.0</ele></trkpt>
    <trkpt lat="34.73025" lon="-119.92014"><ele>932.0</ele></trkpt>
    <trkpt lat="34.73046" lon="-119.92026"><ele>932.0</ele></trkpt>
    <trkpt lat="34.73075" lon="-119.92036"><ele>932.0</ele></trkpt>
    <trkpt lat="34.73113" lon="-119.92041"><ele>937.0</ele></trkpt>
    <trkpt lat="34.73148" lon="-119.92050"><ele>937.0</ele></trkpt>
    <trkpt lat="34.73164" lon="-119.92055"><ele>937.0</ele></trkpt>
    <trkpt lat="34.73183" lon="-119.92071"><ele>937.0</ele></trkpt>
    <trkpt lat="34.73196" lon="-119.92088"><ele>937.0</ele></trkpt>
    <trkpt lat="34.73222" lon="-119.92104"><ele>937.0</ele></trkpt>
    <trkpt lat="34.73266" lon="-119.92123"><ele>935.0</ele></trkpt>
    <trkpt lat="34.73292" lon="-119.92132"><ele>935.0</ele></trkpt>
    <trkpt lat="34.73300" lon="-119.92137"><ele>935.0</ele></trkpt>
    <trkpt lat="34.73311" lon="-119.92150"><ele>935.0</ele></trkpt>
    <trkpt lat="34.73326" lon="-119.92173"><ele>935.0</ele></trkpt>
    <trkpt lat="34.73340" lon="-119.92184"><ele>935.0</ele></trkpt>
    <trkpt lat="34.73355" lon="-119.92205"><ele>935.0</ele></trkpt>
    <trkpt lat="34.73371" lon="-119.92229"><ele>929.0</ele></trkpt>
    <trkpt lat="34.73407" lon="-119.92280"><ele>929.0</ele></trkpt>
    <trkpt lat="34.73432" lon="-119.92303"><ele>929.0</ele></trkpt>
    <trkpt lat="34.73462" lon="-119.92330"><ele>929.0</ele></trkpt>
    <trkpt lat="34.73491" lon="-119.92351"><ele>929.0</ele></trkpt>
    <trkpt lat="34.73511" lon="-119.92360"><ele>929.0</ele></trkpt>
    <trkpt lat="34.73535" lon="-119.92372"><ele>929.0</ele></trkpt>
    <trkpt lat="34.73547" lon="-119.92386"><ele>923.0</ele></trkpt>
    <trkpt lat="34.73569" lon="-119.92409"><ele>923.0</ele></trkpt>
    <trkpt lat="34.73587" lon="-119.92423"><ele>923.0</ele></trkpt>
    <trkpt lat="34.73589" lon="-119.92424"><ele>923.0</ele></trkpt>
    <trkpt lat="34.73602" lon="-119.92431"><ele>923.0</ele></trkpt>
    <trkpt lat="34.73611" lon="-119.92439"><ele>923.0</ele></trkpt>
    <trkpt lat="34.73619" lon="-119.92449"><ele>923.0</ele></trkpt>
    <trkpt lat="34.73632" lon="-119.92454"><ele>920.0</ele></trkpt>
    <trkpt lat="34.73651" lon="-119.92458"><ele>920.0</ele></trkpt>
    <trkpt lat="34.73658" lon="-119.92460"><ele>920.0</ele></trkpt>
    <trkpt lat="34.73678" lon="-119.92461"><ele>920.0</ele></trkpt>
    <trkpt lat="34.73695" lon="-119.92463"><ele>920.0</ele></trkpt>
    <trkpt lat="34.73720" lon="-119.92478"><ele>920.0</ele></trkpt>
    <trkpt lat="34.73750" lon="-119.92504"><ele>919.0</ele></trkpt>
    <trkpt lat="34.73770" lon="-119.92523"><ele>919.0</ele></trkpt>
    <trkpt lat="34.73781" lon="-119.92538"><ele>919.0</ele></trkpt>
    <trkpt lat="34.73794" lon="-119.92553"><ele>919.0</ele></trkpt>
    <trkpt lat="34.73806" lon="-119.92557"><ele>919.0</ele></trkpt>
    <trkpt lat="34.73825" lon="-119.92564"><ele>919.0</ele></trkpt>
    <trkpt lat="34.73835" lon="-119.92567"><ele>919.0</ele></trkpt>
    <trkpt lat="34.73845" lon="-119.92578"><ele>913.0</ele></trkpt>
    <trkpt lat="34.73858" lon="-119.92581"><ele>913.0</ele></trkpt>
    <trkpt lat="34.73867" lon="-119.92582"><ele>913.0</ele></trkpt>
    <trkpt lat="34.73876" lon="-119.92587"><ele>913.0</ele></trkpt>
    <trkpt lat="34.73893" lon="-119.92599"><ele>913.0</ele></trkpt>
    <trkpt lat="34.73904" lon="-119.92606"><ele>913.0</ele></trkpt>
    <trkpt lat="34.73923" lon="-119.92616"><ele>913.0</ele></trkpt>
    <trkpt lat="34.73933" lon="-119.92623"><ele>902.0</ele></trkpt>
    <trkpt lat="34.73951" lon="-119.92636"><ele>902.0</ele></trkpt>
    <trkpt lat="34.73962" lon="-119.92646"><ele>902.0</ele></trkpt>
    <trkpt lat="34.73972" lon="-119.92666"><ele>902.0</ele></trkpt>
    <trkpt lat="34.73980" lon="-119.92671"><ele>902.0</ele></trkpt>
    <trkpt lat="34.73986" lon="-119.92673"><ele>902.0</ele></trkpt>
    <trkpt lat="34.74000" lon="-119.92677"><ele>902.0</ele></trkpt>
    <trkpt lat="34.74021" lon="-119.92675"><ele>898.0</ele></trkpt>
    <trkpt lat="34.74029" lon="-119.92674"><ele>898.0</ele></trkpt>
    <trkpt lat="34.74046" lon="-119.92669"><ele>898.0</ele></trkpt>
    <trkpt lat="34.74057" lon="-119.92670"><ele>898.0</ele></trkpt>
    <trkpt lat="34.74066" lon="-119.92675"><ele>898.0</ele></trkpt>
    <trkpt lat="34.74087" lon="-119.92695"><ele>898.0</ele></trkpt>
    <trkpt lat="34.74096" lon="-119.92701"><ele>901.0</ele></trkpt>
    <trkpt lat="34.74111" lon="-119.92707"><ele>901.0</ele></trkpt>
    <trkpt lat="34.74120" lon="-119.92710"><ele>901.0</ele></trkpt>
    <trkpt lat="34.74129" lon="-119.92707"><ele>901.0</ele></trkpt>
    <trkpt lat="34.74140" lon="-119.92702"><ele>901.0</ele></trkpt>
    <trkpt lat="34.74155" lon="-119.92692"><ele>901.0</ele></trkpt>
    <trkpt lat="34.74170" lon="-119.92678"><ele>901.0</ele></trkpt>
    <trkpt lat="34.74186" lon="-119.92672"><ele>897.0</ele></trkpt>
    <trkpt lat="34.74204" lon="-119.92668"><ele>897.0</ele></trkpt>
    <trkpt lat="34.74216" lon="-119.92660"><ele>897.0</ele></trkpt>
    <trkpt lat="34.74221" lon="-119.92647"><ele>897.0</ele></trkpt>
    <trkpt lat="34.74229" lon="-119.92622"><ele>897.0</ele></trkpt>
    <trkpt lat="34.74236" lon="-119.92615"><ele>897.0</ele></trkpt>
    <trkpt lat="34.74253" lon="-119.92613"><ele>897.0</ele></trkpt>
    <trkpt lat="34.74272" lon="-119.92608"><ele>893.0</ele></trkpt>
    <trkpt lat="34.74289" lon="-119.92601"><ele>893.0</ele></trkpt>
    <trkpt lat="34.74305" lon="-119.92593"><ele>893.0</ele></trkpt>
    <trkpt lat="34.74308" lon="-119.92586"><ele>893.0</ele></trkpt>
    <trkpt lat="34.74314" lon="-119.92577"><ele>893.0</ele></trkpt>
    <trkpt lat="34.74323" lon="-119.92569"><ele>893.0</ele></trkpt>
    <trkpt lat="34.74327" lon="-119.92557"><ele>893.0</ele></trkpt>
    <trkpt lat="34.74323" lon="-119.92528"><ele>886.0</ele></trkpt>
    <trkpt lat="34.74327" lon="-119.92520"><ele>886.0</ele></trkpt>
    <trkpt lat="34.74338" lon="-119.92499"><ele>886.0</ele></trkpt>
    <trkpt lat="34.74347" lon="-119.92485"><ele>886.0</ele></trkpt>
    <trkpt lat="34.74355" lon="-119.92480"><ele>886.0</ele></trkpt>
    <trkpt lat="34.74363" lon="-119.92483"><ele>886.0</ele></trkpt>
    <trkpt lat="34.74373" lon="-119.92497"><ele>890.0</ele></trkpt>
    <trkpt lat="34.74379" lon="-119.92509"><ele>890.0</ele></trkpt>
    <trkpt lat="34.74392" lon="-119.92533"><ele>890.0</ele></trkpt>
    <trkpt lat="34.74398" lon="-119.92544"><ele>890.0</ele></trkpt>
    <trkpt lat="34.74419" lon="-119.92570"><ele>890.0</ele></trkpt>
    <trkpt lat="34.74427" lon="-119.92570"><ele>890.0</ele></trkpt>
    <trkpt lat="34.74440" lon="-119.92562"><ele>890.0</ele></trkpt>
    <trkpt lat="34.74450" lon="-119.92556"><ele>895.0</ele></trkpt>
    <trkpt lat="34.74461" lon="-119.92553"><ele>895.0</ele></trkpt>
    <trkpt lat="34.74477" lon="-119.92559"><ele>895.0</ele></trkpt>
    <trkpt lat="34.74507" lon="-119.92564"><ele>895.0</ele></trkpt>
    <trkpt lat="34.74531" lon="-119.92570"><ele>895.0</ele></trkpt>
    <trkpt lat="34.74546" lon="-119.92566"><ele>895.0</ele></trkpt>
    <trkpt lat="34.74558" lon="-119.92563"><ele>895.0</ele></trkpt>
    <trkpt lat="34.74568" lon="-119.92556"><ele>884.0</ele></trkpt>
    <trkpt lat="34.74577" lon="-119.92547"><ele>884.0</ele></trkpt>
    <trkpt lat="34.74582" lon="-119.92531"><ele>884.0</ele></trkpt>
    <trkpt lat="34.74592" lon="-119.92505"><ele>884.0</ele></trkpt>
    <trkpt lat="34.74599" lon="-119.92493"><ele>884.0</ele></trkpt>
    <trkpt lat="34.74614" lon="-119.92486"><ele>884.0</ele></trkpt>
    <trkpt lat="34.74628" lon="-119.92486"><ele>884.0</ele></trkpt>
    <trkpt lat="34.74638" lon="-119.92481"><ele>877.0</ele></trkpt>
    <trkpt lat="34.74650" lon="-119.92471"><ele>877.0</ele></trkpt>
    <trkpt lat="34.74654" lon="-119.92460"><ele>877.0</ele></trkpt>
    <trkpt lat="34.74664" lon="-119.92438"><ele>877.0</ele></trkpt>
    <trkpt lat="34.74683" lon="-119.92422"><ele>877.0</ele></trkpt>
    <trkpt lat="34.74691" lon="-119.92416"><ele>877.0</ele></trkpt>
    <trkpt lat="34.74702" lon="-119.92406"><ele>872.0</ele></trkpt>
    <trkpt lat="34.74715" lon="-119.92406"><ele>872.0</ele></trkpt>
    <trkpt lat="34.74734" lon="-119.92406"><ele>872.0</ele></trkpt>
    <trkpt lat="34.74743" lon="-119.92403"><ele>872.0</ele></trkpt>
    <trkpt lat="34.74755" lon="-119.92391"><ele>872.0</ele></trkpt>
    <trkpt lat="34.74762" lon="-119.92387"><ele>872.0</ele></trkpt>
    <trkpt lat="34.74770" lon="-119.92380"><ele>872.0</ele></trkpt>
    <trkpt lat="34.74780" lon="-119.92383"><ele>870.0</ele></trkpt>
    <trkpt lat="34.74786" lon="-119.92386"><ele>870.0</ele></trkpt>
    <trkpt lat="34.74793" lon="-119.92403"><ele>870.0</ele></trkpt>
    <trkpt lat="34.74795" lon="-119.92423"><ele>870.0</ele></trkpt>
    <trkpt lat="34.74796" lon="-119.92443"><ele>870.0</ele></trkpt>
    <trkpt lat="34.74800" lon="-119.92469"><ele>870.0</ele></trkpt>
    <trkpt lat="34.74803" lon="-119.92486"><ele>870.0</ele></trkpt>
    <trkpt lat="34.74803" lon="-119.92499"><ele>845.0</ele></trkpt>
    <trkpt lat="34.74809" lon="-119.92516"><ele>845.0</ele></trkpt>
    <trkpt lat="34.74815" lon="-119.92523"><ele>845.0</ele></trkpt>
    <trkpt lat="34.74825" lon="-119.92529"><ele>845.0</ele></trkpt>
    <trkpt lat="34.74849" lon="-119.92528"><ele>845.0</ele></trkpt>
    <trkpt lat="34.74857" lon="-119.92531"><ele>845.0</ele></trkpt>
    <trkpt lat="34.74871" lon="-119.92547"><ele>845.0</ele></trkpt>
    <trkpt lat="34.74876" lon="-119.92565"><ele>841.0</ele></trkpt>
    <trkpt lat="34.74877" lon="-119.92600"><ele>841.0</ele></trkpt>
    <trkpt lat="34.74877" lon="-119.92641"><ele>841.0</ele></trkpt>
    <trkpt lat="34.74874" lon="-119.92666"><ele>841.0</ele></trkpt>
    <trkpt lat="34.74875" lon="-119.92702"><ele>841.0</ele></trkpt>
    <trkpt lat="34.74879" lon="-119.92725"><ele>841.0</ele></trkpt>
    <trkpt lat="34.74885" lon="-119.92756"><ele>826.0</ele></trkpt>
    <trkpt lat="34.74894" lon="-119.92781"><ele>826.0</ele></trkpt>
    <trkpt lat="34.74902" lon="-119.92804"><ele>826.0</ele></trkpt>
    <trkpt lat="34.74911" lon="-119.92818"><ele>826.0</ele></trkpt>
    <trkpt lat="34.74918" lon="-119.92828"><ele>826.0</ele></trkpt>
    <trkpt lat="34.74941" lon="-119.92859"><ele>826.0</ele></trkpt>
    <trkpt lat="34.74945" lon="-119.92870"><ele>826.0</ele></trkpt>
    <trkpt lat="34.74953" lon="-119.92908"><ele>819.0</ele></trkpt>
    <trkpt lat="34.74964" lon="-119.92932"><ele>819.0</ele></trkpt>
    <trkpt lat="34.74982" lon="-119.92953"><ele>819.0</ele></trkpt>
    <trkpt lat="34.74986" lon="-119.92966"><ele>819.0</ele></trkpt>
    <trkpt lat="34.74989" lon="-119.92992"><ele>819.0</ele></trkpt>
    <trkpt lat="34.74998" lon="-119.93011"><ele>819.0</ele></trkpt>
    <trkpt lat="34.75005" lon="-119.93024"><ele>819.0</ele></trkpt>
    <trkpt lat="34.75009" lon="-119.93031"><ele>812.0</ele></trkpt>
    <trkpt lat="34.75016" lon="-119.93044"><ele>812.0</ele></trkpt>
    <trkpt lat="34.75021" lon="-119.93051"><ele>812.0</ele></trkpt>
    <trkpt lat="34.75029" lon="-119.93061"><ele>812.0</ele></trkpt>
    <trkpt lat="34.75038" lon="-119.93067"><ele>812.0</ele></trkpt>
    <trkpt lat="34.75047" lon="-119.93075"><ele>812.0</ele></trkpt>
    <trkpt lat="34.75054" lon="-119.93081"><ele>812.0</ele></trkpt>
    <trkpt lat="34.75066" lon="-119.93092"><ele>810.0</ele></trkpt>
    <trkpt lat="34.75079" lon="-119.93102"><ele>810.0</ele></trkpt>
    <trkpt lat="34.75103" lon="-119.93127"><ele>810.0</ele></trkpt>
    <trkpt lat="34.75108" lon="-119.93134"><ele>810.0</ele></trkpt>
    <trkpt lat="34.75111" lon="-119.93142"><ele>810.0</ele></trkpt>
    <trkpt lat="34.75117" lon="-119.93161"><ele>810.0</ele></trkpt>
    <trkpt lat="34.75122" lon="-119.93171"><ele>795.0</ele></trkpt>
    <trkpt lat="34.75125" lon="-119.93176"><ele>795.0</ele></trkpt>
    <trkpt lat="34.75130" lon="-119.93179"><ele>795.0</ele></trkpt>
    <trkpt lat="34.75140" lon="-119.93186"><ele>795.0</ele></trkpt>
    <trkpt lat="34.75162" lon="-119.93194"><ele>795.0</ele></trkpt>
    <trkpt lat="34.75178" lon="-119.93200"><ele>795.0</ele></trkpt>
    <trkpt lat="34.75191" lon="-119.93204"><ele>795.0</ele></trkpt>
    <trkpt lat="34.75198" lon="-119.93205"><ele>789.0</ele></trkpt>
    <trkpt lat="34.75206" lon="-119.93202"><ele>789.0</ele></trkpt>
    <trkpt lat="34.75213" lon="-119.93200"><ele>789.0</ele></trkpt>
    <trkpt lat="34.75217" lon="-119.93197"><ele>789.0</ele></trkpt>
    <trkpt lat="34.75220" lon="-119.93192"><ele>789.0</ele></trkpt>
    <trkpt lat="34.75224" lon="-119.93187"><ele>789.0</ele></trkpt>
    <trkpt lat="34.75230" lon="-119.93180"><ele>789.0</ele></trkpt>
    <trkpt lat="34.75234" lon="-119.93172"><ele>789.0</ele></trkpt>
    <trkpt lat="34.75239" lon="-119.93165"><ele>789.0</ele></trkpt>
    <trkpt lat="34.75244" lon="-119.93159"><ele>789.0</ele></trkpt>
    <trkpt lat="34.75247" lon="-119.93155"><ele>789.0</ele></trkpt>
    <trkpt lat="34.75254" lon="-119.93152"><ele>789.0</ele></trkpt>
    <trkpt lat="34.75260" lon="-119.93153"><ele>789.0</ele></trkpt>
    <trkpt lat="34.75263" lon="-119.93157"><ele>789.0</ele></trkpt>
    <trkpt lat="34.75267" lon="-119.93160"><ele>786.0</ele></trkpt>
    <trkpt lat="34.75271" lon="-119.93167"><ele>786.0</ele></trkpt>
    <trkpt lat="34.75276" lon="-119.93178"><ele>786.0</ele></trkpt>
    <trkpt lat="34.75282" lon="-119.93188"><ele>786.0</ele></trkpt>
    <trkpt lat="34.75288" lon="-119.93203"><ele>786.0</ele></trkpt>
    <trkpt lat="34.75294" lon="-119.93216"><ele>786.0</ele></trkpt>
    <trkpt lat="34.75299" lon="-119.93231"><ele>781.0</ele></trkpt>
    <trkpt lat="34.75303" lon="-119.93244"><ele>781.0</ele></trkpt>
    <trkpt lat="34.75310" lon="-119.93265"><ele>781.0</ele></trkpt>
    <trkpt lat="34.75314" lon="-119.93283"><ele>781.0</ele></trkpt>
    <trkpt lat="34.75319" lon="-119.93309"><ele>781.0</ele></trkpt>
    <trkpt lat="34.75320" lon="-119.93328"><ele>781.0</ele></trkpt>
    <trkpt lat="34.75321" lon="-119.93344"><ele>781.0</ele></trkpt>
    <trkpt lat="34.75319" lon="-119.93378"><ele>769.0</ele></trkpt>
    <trkpt lat="34.75318" lon="-119.93396"><ele>769.0</ele></trkpt>
    <trkpt lat="34.75315" lon="-119.93412"><ele>769.0</ele></trkpt>
    <trkpt lat="34.75312" lon="-119.93424"><ele>769.0</ele></trkpt>
    <trkpt lat="34.75310" lon="-119.93438"><ele>769.0</ele></trkpt>
    <trkpt lat="34.75309" lon="-119.93457"><ele>769.0</ele></trkpt>
    <trkpt lat="34.75310" lon="-119.93475"><ele>769.0</ele></trkpt>
    <trkpt lat="34.75310" lon="-119.93484"><ele>765.0</ele></trkpt>
    <trkpt lat="34.75310" lon="-119.93502"><ele>765.0</ele></trkpt>
    <trkpt lat="34.75311" lon="-119.93518"><ele>765.0</ele></trkpt>
    <trkpt lat="34.75314" lon="-119.93546"><ele>765.0</ele></trkpt>
    <trkpt lat="34.75313" lon="-119.93560"><ele>765.0</ele></trkpt>
    <trkpt lat="34.75313" lon="-119.93584"><ele>765.0</ele></trkpt>
    <trkpt lat="34.75313" lon="-119.93601"><ele>765.0</ele></trkpt>
    <trkpt lat="34.75314" lon="-119.93618"><ele>762.0</ele></trkpt>
    <trkpt lat="34.75314" lon="-119.93637"><ele>762.0</ele></trkpt>
    <trkpt lat="34.75314" lon="-119.93649"><ele>762.0</ele></trkpt>
    <trkpt lat="34.75317" lon="-119.93669"><ele>762.0</ele></trkpt>
    <trkpt lat="34.75322" lon="-119.93680"><ele>762.0</ele></trkpt>
    <trkpt lat="34.75327" lon="-119.93692"><ele>762.0</ele></trkpt>
    <trkpt lat="34.75333" lon="-119.93706"><ele>759.0</ele></trkpt>
    <trkpt lat="34.75340" lon="-119.93724"><ele>759.0</ele></trkpt>
    <trkpt lat="34.75343" lon="-119.93743"><ele>759.0</ele></trkpt>
    <trkpt lat="34.75346" lon="-119.93762"><ele>759.0</ele></trkpt>
    <trkpt lat="34.75347" lon="-119.93781"><ele>759.0</ele></trkpt>
    <trkpt lat="34.75348" lon="-119.93800"><ele>759.0</ele></trkpt>
    <trkpt lat="34.75350" lon="-119.93819"><ele>759.0</ele></trkpt>
    <trkpt lat="34.75353" lon="-119.93837"><ele>756.0</ele></trkpt>
    <trkpt lat="34.75356" lon="-119.93857"><ele>756.0</ele></trkpt>
    <trkpt lat="34.75364" lon="-119.93881"><ele>756.0</ele></trkpt>
    <trkpt lat="34.75367" lon="-119.93896"><ele>756.0</ele></trkpt>
    <trkpt lat="34.75374" lon="-119.93935"><ele>756.0</ele></trkpt>
    <trkpt lat="34.75377" lon="-119.93960"><ele>756.0</ele></trkpt>
    <trkpt lat="34.75380" lon="-119.93974"><ele>756.0</ele></trkpt>
    <trkpt lat="34.75383" lon="-119.93991"><ele>750.0</ele></trkpt>
    <trkpt lat="34.75386" lon="-119.94007"><ele>750.0</ele></trkpt>
    <trkpt lat="34.75390" lon="-119.94029"><ele>750.0</ele></trkpt>
    <trkpt lat="34.75393" lon="-119.94044"><ele>750.0</ele></trkpt>
    <trkpt lat="34.75394" lon="-119.94057"><ele>750.0</ele></trkpt>
    <trkpt lat="34.75396" lon="-119.94071"><ele>750.0</ele></trkpt>
    <trkpt lat="34.75396" lon="-119.94083"><ele>750.0</ele></trkpt>
    <trkpt lat="34.75397" lon="-119.94096"><ele>747.0</ele></trkpt>
    <trkpt lat="34.75398" lon="-119.94111"><ele>747.0</ele></trkpt>
    <trkpt lat="34.75397" lon="-119.94135"><ele>747.0</ele></trkpt>
    <trkpt lat="34.75397" lon="-119.94150"><ele>747.0</ele></trkpt>
    <trkpt lat="34.75397" lon="-119.94163"><ele>747.0</ele></trkpt>
    <trkpt lat="34.75396" lon="-119.94171"><ele>747.0</ele></trkpt>
    <trkpt lat="34.75395" lon="-119.94180"><ele>744.0</ele></trkpt>
    <trkpt lat="34.75394" lon="-119.94190"><ele>744.0</ele></trkpt>
    <trkpt lat="34.75393" lon="-119.94199"><ele>744.0</ele></trkpt>
    <trkpt lat="34.75392" lon="-119.94208"><ele>744.0</ele></trkpt>
    <trkpt lat="34.75392" lon="-119.94217"><ele>744.0</ele></trkpt>
    <trkpt lat="34.75390" lon="-119.94226"><ele>744.0</ele></trkpt>
    <trkpt lat="34.75388" lon="-119.94238"><ele>744.0</ele></trkpt>
    <trkpt lat="34.75388" lon="-119.94247"><ele>743.0</ele></trkpt>
    <trkpt lat="34.75387" lon="-119.94254"><ele>743.0</ele></trkpt>
    <trkpt lat="34.75391" lon="-119.94276"><ele>743.0</ele></trkpt>
    <trkpt lat="34.75393" lon="-119.94304"><ele>743.0</ele></trkpt>
    <trkpt lat="34.75394" lon="-119.94314"><ele>743.0</ele></trkpt>
    <trkpt lat="34.75395" lon="-119.94333"><ele>743.0</ele></trkpt>
    <trkpt lat="34.75398" lon="-119.94358"><ele>743.0</ele></trkpt>
    <trkpt lat="34.75399" lon="-119.94377"><ele>737.0</ele></trkpt>
    <trkpt lat="34.75402" lon="-119.94391"><ele>737.0</ele></trkpt>
    <trkpt lat="34.75407" lon="-119.94413"><ele>737.0</ele></trkpt>
    <trkpt lat="34.75412" lon="-119.94429"><ele>737.0</ele></trkpt>
    <trkpt lat="34.75416" lon="-119.94437"><ele>737.0</ele></trkpt>
    <trkpt lat="34.75422" lon="-119.94449"><ele>737.0</ele></trkpt>
    <trkpt lat="34.75428" lon="-119.94461"><ele>737.0</ele></trkpt>
    <trkpt lat="34.75433" lon="-119.94472"><ele>737.0</ele></trkpt>
    <trkpt lat="34.75435" lon="-119.94486"><ele>737.0</ele></trkpt>
    <trkpt lat="34.75436" lon="-119.94501"><ele>737.0</ele></trkpt>
    <trkpt lat="34.75437" lon="-119.94514"><ele>737.0</ele></trkpt>
    <trkpt lat="34.75438" lon="-119.94524"><ele>737.0</ele></trkpt>
    <trkpt lat="34.75440" lon="-119.94536"><ele>737.0</ele></trkpt>
    <trkpt lat="34.75443" lon="-119.94550"><ele>740.0</ele></trkpt>
    <trkpt lat="34.75452" lon="-119.94567"><ele>740.0</ele></trkpt>
    <trkpt lat="34.75463" lon="-119.94580"><ele>740.0</ele></trkpt>
    <trkpt lat="34.75470" lon="-119.94588"><ele>740.0</ele></trkpt>
    <trkpt lat="34.75474" lon="-119.94596"><ele>740.0</ele></trkpt>
    <trkpt lat="34.75475" lon="-119.94603"><ele>740.0</ele></trkpt>
    <trkpt lat="34.75476" lon="-119.94612"><ele>740.0</ele></trkpt>
    <trkpt lat="34.75479" lon="-119.94622"><ele>735.0</ele></trkpt>
    <trkpt lat="34.75484" lon="-119.94634"><ele>735.0</ele></trkpt>
    <trkpt lat="34.75489" lon="-119.94643"><ele>735.0</ele></trkpt>
    <trkpt lat="34.75493" lon="-119.94652"><ele>735.0</ele></trkpt>
    <trkpt lat="34.75499" lon="-119.94662"><ele>735.0</ele></trkpt>
    <trkpt lat="34.75504" lon="-119.94672"><ele>735.0</ele></trkpt>
    <trkpt lat="34.75508" lon="-119.94681"><ele>735.0</ele></trkpt>
    <trkpt lat="34.75511" lon="-119.94692"><ele>732.0</ele></trkpt>
    <trkpt lat="34.75514" lon="-119.94705"><ele>732.0</ele></trkpt>
    <trkpt lat="34.75514" lon="-119.94715"><ele>732.0</ele></trkpt>
    <trkpt lat="34.75516" lon="-119.94731"><ele>732.0</ele></trkpt>
    <trkpt lat="34.75517" lon="-119.94749"><ele>732.0</ele></trkpt>
    <trkpt lat="34.75518" lon="-119.94765"><ele>732.0</ele></trkpt>
    <trkpt lat="34.75520" lon="-119.94778"><ele>732.0</ele></trkpt>
    <trkpt lat="34.75523" lon="-119.94787"><ele>723.0</ele></trkpt>
    <trkpt lat="34.75525" lon="-119.94795"><ele>723.0</ele></trkpt>
    <trkpt lat="34.75528" lon="-119.94808"><ele>723.0</ele></trkpt>
    <trkpt lat="34.75533" lon="-119.94822"><ele>723.0</ele></trkpt>
    <trkpt lat="34.75538" lon="-119.94829"><ele>723.0</ele></trkpt>
    <trkpt lat="34.75544" lon="-119.94836"><ele>723.0</ele></trkpt>
    <trkpt lat="34.75549" lon="-119.94842"><ele>717.0</ele></trkpt>
    <trkpt lat="34.75558" lon="-119.94847"><ele>717.0</ele></trkpt>
    <trkpt lat="34.75568" lon="-119.94849"><ele>717.0</ele></trkpt>
    <trkpt lat="34.75574" lon="-119.94851"><ele>717.0</ele></trkpt>
    <trkpt lat="34.75578" lon="-119.94855"><ele>717.0</ele></trkpt>
    <trkpt lat="34.75580" lon="-119.94860"><ele>717.0</ele></trkpt>
    <trkpt lat="34.75584" lon="-119.94867"><ele>717.0</ele></trkpt>
    <trkpt lat="34.75593" lon="-119.94874"><ele>713.0</ele></trkpt>
    <trkpt lat="34.75599" lon="-119.94878"><ele>713.0</ele></trkpt>
    <trkpt lat="34.75608" lon="-119.94880"><ele>713.0</ele></trkpt>
    <trkpt lat="34.75616" lon="-119.94884"><ele>713.0</ele></trkpt>
    <trkpt lat="34.75623" lon="-119.94887"><ele>713.0</ele></trkpt>
    <trkpt lat="34.75627" lon="-119.94891"><ele>713.0</ele></trkpt>
    <trkpt lat="34.75631" lon="-119.94897"><ele>713.0</ele></trkpt>
    <trkpt lat="34.75635" lon="-119.94904"><ele>702.0</ele></trkpt>
    <trkpt lat="34.75643" lon="-119.94913"><ele>702.0</ele></trkpt>
    <trkpt lat="34.75652" lon="-119.94918"><ele>702.0</ele></trkpt>
    <trkpt lat="34.75662" lon="-119.94923"><ele>702.0</ele></trkpt>
    <trkpt lat="34.75673" lon="-119.94927"><ele>702.0</ele></trkpt>
    <trkpt lat="34.75695" lon="-119.94941"><ele>702.0</ele></trkpt>
    <trkpt lat="34.75701" lon="-119.94948"><ele>702.0</ele></trkpt>
    <trkpt lat="34.75708" lon="-119.94957"><ele>698.0</ele></trkpt>
    <trkpt lat="34.75710" lon="-119.94967"><ele>698.0</ele></trkpt>
    <trkpt lat="34.75712" lon="-119.94976"><ele>698.0</ele></trkpt>
    <trkpt lat="34.75713" lon="-119.94987"><ele>698.0</ele></trkpt>
    <trkpt lat="34.75713" lon="-119.94994"><ele>698.0</ele></trkpt>
    <trkpt lat="34.75712" lon="-119.95001"><ele>698.0</ele></trkpt>
    <trkpt lat="34.75714" lon="-119.95009"><ele>686.0</ele></trkpt>
    <trkpt lat="34.75718" lon="-119.95015"><ele>686.0</ele></trkpt>
    <trkpt lat="34.75725" lon="-119.95023"><ele>686.0</ele></trkpt>
    <trkpt lat="34.75735" lon="-119.95031"><ele>686.0</ele></trkpt>
    <trkpt lat="34.75743" lon="-119.95037"><ele>686.0</ele></trkpt>
    <trkpt lat="34.75754" lon="-119.95041"><ele>686.0</ele></trkpt>
    <trkpt lat="34.75764" lon="-119.95041"><ele>686.0</ele></trkpt>
    <trkpt lat="34.75772" lon="-119.95041"><ele>693.0</ele></trkpt>
    <trkpt lat="34.75778" lon="-119.95042"><ele>693.0</ele></trkpt>
    <trkpt lat="34.75784" lon="-119.95048"><ele>693.0</ele></trkpt>
    <trkpt lat="34.75788" lon="-119.95056"><ele>693.0</ele></trkpt>
    <trkpt lat="34.75789" lon="-119.95065"><ele>693.0</ele></trkpt>
    <trkpt lat="34.75787" lon="-119.95074"><ele>693.0</ele></trkpt>
    <trkpt lat="34.75786" lon="-119.95087"><ele>693.0</ele></trkpt>
    <trkpt lat="34.75785" lon="-119.95100"><ele>678.0</ele></trkpt>
    <trkpt lat="34.75787" lon="-119.95113"><ele>678.0</ele></trkpt>
    <trkpt lat="34.75789" lon="-119.95126"><ele>678.0</ele></trkpt>
    <trkpt lat="34.75793" lon="-119.95137"><ele>678.0</ele></trkpt>
    <trkpt lat="34.75800" lon="-119.95148"><ele>678.0</ele></trkpt>
    <trkpt lat="34.75805" lon="-119.95156"><ele>678.0</ele></trkpt>
    <trkpt lat="34.75811" lon="-119.95169"><ele>678.0</ele></trkpt>
    <trkpt lat="34.75814" lon="-119.95180"><ele>670.0</ele></trkpt>
    <trkpt lat="34.75814" lon="-119.95193"><ele>670.0</ele></trkpt>
    <trkpt lat="34.75813" lon="-119.95205"><ele>670.0</ele></trkpt>
    <trkpt lat="34.75814" lon="-119.95219"><ele>670.0</ele></trkpt>
    <trkpt lat="34.75817" lon="-119.95230"><ele>670.0</ele></trkpt>
    <trkpt lat="34.75822" lon="-119.95240"><ele>670.0</ele></trkpt>
    <trkpt lat="34.75832" lon="-119.95252"><ele>662.0</ele></trkpt>
    <trkpt lat="34.75845" lon="-119.95262"><ele>662.0</ele></trkpt>
    <trkpt lat="34.75851" lon="-119.95268"><ele>662.0</ele></trkpt>
    <trkpt lat="34.75853" lon="-119.95277"><ele>662.0</ele></trkpt>
    <trkpt lat="34.75854" lon="-119.95282"><ele>662.0</ele></trkpt>
    <trkpt lat="34.75854" lon="-119.95291"><ele>662.0</ele></trkpt>
    <trkpt lat="34.75851" lon="-119.95300"><ele>662.0</ele></trkpt>
    <trkpt lat="34.75849" lon="-119.95306"><ele>651.0</ele></trkpt>
    <trkpt lat="34.75844" lon="-119.95315"><ele>651.0</ele></trkpt>
    <trkpt lat="34.75839" lon="-119.95325"><ele>651.0</ele></trkpt>
    <trkpt lat="34.75834" lon="-119.95336"><ele>651.0</ele></trkpt>
    <trkpt lat="34.75828" lon="-119.95354"><ele>651.0</ele></trkpt>
    <trkpt lat="34.75825" lon="-119.95366"><ele>651.0</ele></trkpt>
    <trkpt lat="34.75825" lon="-119.95381"><ele>651.0</ele></trkpt>
    <trkpt lat="34.75827" lon="-119.95402"><ele>636.0</ele></trkpt>
    <trkpt lat="34.75830" lon="-119.95414"><ele>636.0</ele></trkpt>
    <trkpt lat="34.75832" lon="-119.95422"><ele>636.0</ele></trkpt>
    <trkpt lat="34.75836" lon="-119.95430"><ele>636.0</ele></trkpt>
    <trkpt lat="34.75837" lon="-119.95436"><ele>636.0</ele></trkpt>
    <trkpt lat="34.75845" lon="-119.95448"><ele>636.0</ele></trkpt>
    <trkpt lat="34.75850" lon="-119.95456"><ele>636.0</ele></trkpt>
    <trkpt lat="34.75858" lon="-119.95465"><ele>631.0</ele></trkpt>
    <trkpt lat="34.75868" lon="-119.95473"><ele>631.0</ele></trkpt>
    <trkpt lat="34.75884" lon="-119.95481"><ele>631.0</ele></trkpt>
    <trkpt lat="34.75903" lon="-119.95486"><ele>631.0</ele></trkpt>
    <trkpt lat="34.75918" lon="-119.95481"><ele>631.0</ele></trkpt>
    <trkpt lat="34.75928" lon="-119.95475"><ele>631.0</ele></trkpt>
    <trkpt lat="34.75940" lon="-119.95465"><ele>628.0</ele></trkpt>
    <trkpt lat="34.75952" lon="-119.95456"><ele>628.0</ele></trkpt>
    <trkpt lat="34.75962" lon="-119.95446"><ele>628.0</ele></trkpt>
    <trkpt lat="34.75968" lon="-119.95434"><ele>628.0</ele></trkpt>
    <trkpt lat="34.75975" lon="-119.95420"><ele>628.0</ele></trkpt>
    <trkpt lat="34.75982" lon="-119.95406"><ele>628.0</ele></trkpt>
    <trkpt lat="34.75990" lon="-119.95394"><ele>628.0</ele></trkpt>
    <trkpt lat="34.75995" lon="-119.95387"><ele>625.0</ele></trkpt>
    <trkpt lat="34.76007" lon="-119.95383"><ele>625.0</ele></trkpt>
    <trkpt lat="34.76015" lon="-119.95382"><ele>625.0</ele></trkpt>
    <trkpt lat="34.76031" lon="-119.95386"><ele>625.0</ele></trkpt>
    <trkpt lat="34.76042" lon="-119.95389"><ele>625.0</ele></trkpt>
    <trkpt lat="34.76049" lon="-119.95392"><ele>625.0</ele></trkpt>
    <trkpt lat="34.76061" lon="-119.95396"><ele>625.0</ele></trkpt>
    <trkpt lat="34.76073" lon="-119.95397"><ele>616.0</ele></trkpt>
    <trkpt lat="34.76084" lon="-119.95400"><ele>616.0</ele></trkpt>
    <trkpt lat="34.76098" lon="-119.95400"><ele>616.0</ele></trkpt>
    <trkpt lat="34.76109" lon="-119.95401"><ele>616.0</ele></trkpt>
    <trkpt lat="34.76120" lon="-119.95400"><ele>616.0</ele></trkpt>
    <trkpt lat="34.76130" lon="-119.95399"><ele>616.0</ele></trkpt>
    <trkpt lat="34.76145" lon="-119.95396"><ele>616.0</ele></trkpt>
    <trkpt lat="34.76169" lon="-119.95387"><ele>614.0</ele></trkpt>
    <trkpt lat="34.76193" lon="-119.95377"><ele>614.0</ele></trkpt>
    <trkpt lat="34.76217" lon="-119.95364"><ele>614.0</ele></trkpt>
    <trkpt lat="34.76240" lon="-119.95353"><ele>614.0</ele></trkpt>
    <trkpt lat="34.76258" lon="-119.95342"><ele>614.0</ele></trkpt>
    <trkpt lat="34.76274" lon="-119.95331"><ele>614.0</ele></trkpt>
    <trkpt lat="34.76297" lon="-119.95310"><ele>616.0</ele></trkpt>
    <trkpt lat="34.76316" lon="-119.95291"><ele>616.0</ele></trkpt>
    <trkpt lat="34.76328" lon="-119.95275"><ele>616.0</ele></trkpt>
    <trkpt lat="34.76336" lon="-119.95263"><ele>616.0</ele></trkpt>
    <trkpt lat="34.76345" lon="-119.95251"><ele>616.0</ele></trkpt>
    <trkpt lat="34.76351" lon="-119.95241"><ele>616.0</ele></trkpt>
    <trkpt lat="34.76353" lon="-119.95232"><ele>616.0</ele></trkpt>
    <trkpt lat="34.76354" lon="-119.95224"><ele>613.0</ele></trkpt>
    <trkpt lat="34.76353" lon="-119.95217"><ele>613.0</ele></trkpt>
    <trkpt lat="34.76346" lon="-119.95193"><ele>613.0</ele></trkpt>
    <trkpt lat="34.76346" lon="-119.95184"><ele>613.0</ele></trkpt>
    <trkpt lat="34.76348" lon="-119.95171"><ele>613.0</ele></trkpt>
    <trkpt lat="34.76351" lon="-119.95159"><ele>613.0</ele></trkpt>
    <trkpt lat="34.76358" lon="-119.95147"><ele>613.0</ele></trkpt>
    <trkpt lat="34.76368" lon="-119.95136"><ele>615.0</ele></trkpt>
    <trkpt lat="34.76374" lon="-119.95128"><ele>615.0</ele></trkpt>
    <trkpt lat="34.76378" lon="-119.95120"><ele>615.0</ele></trkpt>
    <trkpt lat="34.76383" lon="-119.95107"><ele>615.0</ele></trkpt>
    <trkpt lat="34.76385" lon="-119.95096"><ele>615.0</ele></trkpt>
    <trkpt lat="34.76386" lon="-119.95088"><ele>615.0</ele></trkpt>
    <trkpt lat="34.76384" lon="-119.95068"><ele>615.0</ele></trkpt>
    <trkpt lat="34.76382" lon="-119.95057"><ele>608.0</ele></trkpt>
    <trkpt lat="34.76381" lon="-119.95042"><ele>608.0</ele></trkpt>
    <trkpt lat="34.76378" lon="-119.95029"><ele>608.0</ele></trkpt>
    <trkpt lat="34.76377" lon="-119.95015"><ele>608.0</ele></trkpt>
    <trkpt lat="34.76376" lon="-119.95004"><ele>608.0</ele></trkpt>
    <trkpt lat="34.76380" lon="-119.94996"><ele>608.0</ele></trkpt>
    <trkpt lat="34.76383" lon="-119.94989"><ele>604.0</ele></trkpt>
    <trkpt lat="34.76386" lon="-119.94984"><ele>604.0</ele></trkpt>
    <trkpt lat="34.76391" lon="-119.94980"><ele>604.0</ele></trkpt>
    <trkpt lat="34.76399" lon="-119.94977"><ele>604.0</ele></trkpt>
    <trkpt lat="34.76411" lon="-119.94974"><ele>604.0</ele></trkpt>
    <trkpt lat="34.76423" lon="-119.94973"><ele>604.0</ele></trkpt>
    <trkpt lat="34.76432" lon="-119.94972"><ele>604.0</ele></trkpt>
    <trkpt lat="34.76441" lon="-119.94970"><ele>609.0</ele></trkpt>
    <trkpt lat="34.76449" lon="-119.94967"><ele>609.0</ele></trkpt>
    <trkpt lat="34.76459" lon="-119.94962"><ele>609.0</ele></trkpt>
    <trkpt lat="34.76465" lon="-119.94953"><ele>609.0</ele></trkpt>
    <trkpt lat="34.76468" lon="-119.94945"><ele>609.0</ele></trkpt>
    <trkpt lat="34.76473" lon="-119.94931"><ele>609.0</ele></trkpt>
    <trkpt lat="34.76477" lon="-119.94909"><ele>609.0</ele></trkpt>
    <trkpt lat="34.76480" lon="-119.94889"><ele>593.0</ele></trkpt>
    <trkpt lat="34.76486" lon="-119.94863"><ele>593.0</ele></trkpt>
    <trkpt lat="34.76491" lon="-119.94856"><ele>593.0</ele></trkpt>
    <trkpt lat="34.76498" lon="-119.94850"><ele>593.0</ele></trkpt>
    <trkpt lat="34.76504" lon="-119.94844"><ele>593.0</ele></trkpt>
    <trkpt lat="34.76510" lon="-119.94844"><ele>593.0</ele></trkpt>
    <trkpt lat="34.76516" lon="-119.94839"><ele>593.0</ele></trkpt>
    <trkpt lat="34.76522" lon="-119.94836"><ele>591.0</ele></trkpt>
    <trkpt lat="34.76529" lon="-119.94830"><ele>591.0</ele></trkpt>
    <trkpt lat="34.76535" lon="-119.94825"><ele>591.0</ele></trkpt>
    <trkpt lat="34.76546" lon="-119.94820"><ele>591.0</ele></trkpt>
    <trkpt lat="34.76556" lon="-119.94816"><ele>591.0</ele></trkpt>
    <trkpt lat="34.76565" lon="-119.94814"><ele>591.0</ele></trkpt>
    <trkpt lat="34.76574" lon="-119.94813"><ele>591.0</ele></trkpt>
    <trkpt lat="34.76580" lon="-119.94815"><ele>591.0</ele></trkpt>
    <trkpt lat="34.76588" lon="-119.94820"><ele>591.0</ele></trkpt>
    <trkpt lat="34.76596" lon="-119.94826"><ele>591.0</ele></trkpt>
    <trkpt lat="34.76609" lon="-119.94837"><ele>591.0</ele></trkpt>
    <trkpt lat="34.76627" lon="-119.94854"><ele>591.0</ele></trkpt>
    <trkpt lat="34.76640" lon="-119.94863"><ele>591.0</ele></trkpt>
    <trkpt lat="34.76652" lon="-119.94870"><ele>595.0</ele></trkpt>
    <trkpt lat="34.76662" lon="-119.94875"><ele>595.0</ele></trkpt>
    <trkpt lat="34.76671" lon="-119.94879"><ele>595.0</ele></trkpt>
    <trkpt lat="34.76684" lon="-119.94879"><ele>595.0</ele></trkpt>
    <trkpt lat="34.76695" lon="-119.94875"><ele>595.0</ele></trkpt>
    <trkpt lat="34.76706" lon="-119.94866"><ele>595.0</ele></trkpt>
    <trkpt lat="34.76716" lon="-119.94857"><ele>595.0</ele></trkpt>
    <trkpt lat="34.76723" lon="-119.94839"><ele>583.0</ele></trkpt>
    <trkpt lat="34.76724" lon="-119.94824"><ele>583.0</ele></trkpt>
    <trkpt lat="34.76724" lon="-119.94810"><ele>583.0</ele></trkpt>
    <trkpt lat="34.76724" lon="-119.94795"><ele>583.0</ele></trkpt>
    <trkpt lat="34.76721" lon="-119.94780"><ele>583.0</ele></trkpt>
    <trkpt lat="34.76721" lon="-119.94771"><ele>583.0</ele></trkpt>
    <trkpt lat="34.76724" lon="-119.94762"><ele>583.0</ele></trkpt>
    <trkpt lat="34.76731" lon="-119.94755"><ele>580.0</ele></trkpt>
    <trkpt lat="34.76741" lon="-119.94753"><ele>580.0</ele></trkpt>
    <trkpt lat="34.76753" lon="-119.94756"><ele>580.0</ele></trkpt>
    <trkpt lat="34.76768" lon="-119.94756"><ele>580.0</ele></trkpt>
    <trkpt lat="34.76781" lon="-119.94755"><ele>580.0</ele></trkpt>
    <trkpt lat="34.76798" lon="-119.94749"><ele>580.0</ele></trkpt>
    <trkpt lat="34.76813" lon="-119.94741"><ele>592.0</ele></trkpt>
    <trkpt lat="34.76823" lon="-119.94735"><ele>592.0</ele></trkpt>
    <trkpt lat="34.76832" lon="-119.94725"><ele>592.0</ele></trkpt>
    <trkpt lat="34.76837" lon="-119.94714"><ele>592.0</ele></trkpt>
    <trkpt lat="34.76840" lon="-119.94702"><ele>592.0</ele></trkpt>
    <trkpt lat="34.76843" lon="-119.94685"><ele>592.0</ele></trkpt>
    <trkpt lat="34.76840" lon="-119.94673"><ele>592.0</ele></trkpt>
    <trkpt lat="34.76839" lon="-119.94660"><ele>574.0</ele></trkpt>
    <trkpt lat="34.76836" lon="-119.94651"><ele>574.0</ele></trkpt>
    <trkpt lat="34.76834" lon="-119.94641"><ele>574.0</ele></trkpt>
    <trkpt lat="34.76836" lon="-119.94629"><ele>574.0</ele></trkpt>
    <trkpt lat="34.76840" lon="-119.94622"><ele>574.0</ele></trkpt>
    <trkpt lat="34.76852" lon="-119.94613"><ele>574.0</ele></trkpt>
    <trkpt lat="34.76864" lon="-119.94610"><ele>574.0</ele></trkpt>
    <trkpt lat="34.76878" lon="-119.94602"><ele>573.0</ele></trkpt>
    <trkpt lat="34.76890" lon="-119.94594"><ele>573.0</ele></trkpt>
    <trkpt lat="34.76910" lon="-119.94568"><ele>573.0</ele></trkpt>
    <trkpt lat="34.76920" lon="-119.94554"><ele>573.0</ele></trkpt>
    <trkpt lat="34.76928" lon="-119.94544"><ele>573.0</ele></trkpt>
    <trkpt lat="34.76938" lon="-119.94530"><ele>573.0</ele></trkpt>
    <trkpt lat="34.76946" lon="-119.94522"><ele>573.0</ele></trkpt>
    <trkpt lat="34.76959" lon="-119.94509"><ele>568.0</ele></trkpt>
    <trkpt lat="34.76970" lon="-119.94504"><ele>568.0</ele></trkpt>
    <trkpt lat="34.76979" lon="-119.94505"><ele>568.0</ele></trkpt>
    <trkpt lat="34.76987" lon="-119.94508"><ele>568.0</ele></trkpt>
    <trkpt lat="34.76996" lon="-119.94512"><ele>568.0</ele></trkpt>
    <trkpt lat="34.77006" lon="-119.94513"><ele>568.0</ele></trkpt>
    <trkpt lat="34.77016" lon="-119.94512"><ele>572.0</ele></trkpt>
    <trkpt lat="34.77026" lon="-119.94511"><ele>572.0</ele></trkpt>
    <trkpt lat="34.77033" lon="-119.94513"><ele>572.0</ele></trkpt>
    <trkpt lat="34.77038" lon="-119.94512"><ele>572.0</ele></trkpt>
    <trkpt lat="34.77045" lon="-119.94505"><ele>572.0</ele></trkpt>
    <trkpt lat="34.77056" lon="-119.94496"><ele>572.0</ele></trkpt>
    <trkpt lat="34.77065" lon="-119.94491"><ele>572.0</ele></trkpt>
    <trkpt lat="34.77085" lon="-119.94487"><ele>563.0</ele></trkpt>
    <trkpt lat="34.77098" lon="-119.94484"><ele>563.0</ele></trkpt>
    <trkpt lat="34.77111" lon="-119.94479"><ele>563.0</ele></trkpt>
    <trkpt lat="34.77130" lon="-119.94471"><ele>563.0</ele></trkpt>
    <trkpt lat="34.77139" lon="-119.94464"><ele>563.0</ele></trkpt>
    <trkpt lat="34.77147" lon="-119.94457"><ele>563.0</ele></trkpt>
    <trkpt lat="34.77152" lon="-119.94448"><ele>563.0</ele></trkpt>
    <trkpt lat="34.77160" lon="-119.94438"><ele>550.0</ele></trkpt>
    <trkpt lat="34.77171" lon="-119.94413"><ele>550.0</ele></trkpt>
    <trkpt lat="34.77172" lon="-119.94409"><ele>550.0</ele></trkpt>
    <trkpt lat="34.77174" lon="-119.94395"><ele>550.0</ele></trkpt>
    <trkpt lat="34.77178" lon="-119.94379"><ele>550.0</ele></trkpt>
    <trkpt lat="34.77181" lon="-119.94368"><ele>550.0</ele></trkpt>
    <trkpt lat="34.77183" lon="-119.94353"><ele>550.0</ele></trkpt>
    <trkpt lat="34.77184" lon="-119.94345"><ele>557.0</ele></trkpt>
    <trkpt lat="34.77186" lon="-119.94332"><ele>557.0</ele></trkpt>
    <trkpt lat="34.77189" lon="-119.94320"><ele>557.0</ele></trkpt>
    <trkpt lat="34.77194" lon="-119.94309"><ele>557.0</ele></trkpt>
    <trkpt lat="34.77200" lon="-119.94298"><ele>557.0</ele></trkpt>
    <trkpt lat="34.77205" lon="-119.94287"><ele>557.0</ele></trkpt>
    <trkpt lat="34.77208" lon="-119.94275"><ele>563.0</ele></trkpt>
    <trkpt lat="34.77211" lon="-119.94255"><ele>563.0</ele></trkpt>
    <trkpt lat="34.77211" lon="-119.94214"><ele>563.0</ele></trkpt>
    <trkpt lat="34.77209" lon="-119.94199"><ele>563.0</ele></trkpt>
    <trkpt lat="34.77200" lon="-119.94153"><ele>563.0</ele></trkpt>
    <trkpt lat="34.77197" lon="-119.94142"><ele>563.0</ele></trkpt>
    <trkpt lat="34.77194" lon="-119.94128"><ele>563.0</ele></trkpt>
    <trkpt lat="34.77182" lon="-119.94096"><ele>560.0</ele></trkpt>
    <trkpt lat="34.77176" lon="-119.94083"><ele>560.0</ele></trkpt>
    <trkpt lat="34.77170" lon="-119.94069"><ele>560.0</ele></trkpt>
    <trkpt lat="34.77147" lon="-119.94022"><ele>560.0</ele></trkpt>
    <trkpt lat="34.77140" lon="-119.94008"><ele>560.0</ele></trkpt>
    <trkpt lat="34.77132" lon="-119.93995"><ele>560.0</ele></trkpt>
    <trkpt lat="34.77122" lon="-119.93982"><ele>560.0</ele></trkpt>
    <trkpt lat="34.77111" lon="-119.93968"><ele>566.0</ele></trkpt>
    <trkpt lat="34.77108" lon="-119.93963"><ele>566.0</ele></trkpt>
    <trkpt lat="34.77096" lon="-119.93940"><ele>566.0</ele></trkpt>
    <trkpt lat="34.77089" lon="-119.93919"><ele>566.0</ele></trkpt>
    <trkpt lat="34.77082" lon="-119.93903"><ele>566.0</ele></trkpt>
    <trkpt lat="34.77075" lon="-119.93884"><ele>566.0</ele></trkpt>
    <trkpt lat="34.77068" lon="-119.93868"><ele>566.0</ele></trkpt>
    <trkpt lat="34.77059" lon="-119.93846"><ele>569.0</ele></trkpt>
    <trkpt lat="34.77052" lon="-119.93831"><ele>569.0</ele></trkpt>
    <trkpt lat="34.77047" lon="-119.93818"><ele>569.0</ele></trkpt>
    <trkpt lat="34.77044" lon="-119.93808"><ele>569.0</ele></trkpt>
    <trkpt lat="34.77042" lon="-119.93796"><ele>569.0</ele></trkpt>
    <trkpt lat="34.77041" lon="-119.93791"><ele>569.0</ele></trkpt>
    <trkpt lat="34.77040" lon="-119.93784"><ele>566.0</ele></trkpt>
    <trkpt lat="34.77037" lon="-119.93765"><ele>566.0</ele></trkpt>
    <trkpt lat="34.77035" lon="-119.93756"><ele>566.0</ele></trkpt>
    <trkpt lat="34.77028" lon="-119.93740"><ele>566.0</ele></trkpt>
    <trkpt lat="34.77022" lon="-119.93726"><ele>566.0</ele></trkpt>
    <trkpt lat="34.77013" lon="-119.93712"><ele>566.0</ele></trkpt>
    <trkpt lat="34.77005" lon="-119.93695"><ele>566.0</ele></trkpt>
    <trkpt lat="34.76999" lon="-119.93681"><ele>564.0</ele></trkpt>
    <trkpt lat="34.76991" lon="-119.93667"><ele>564.0</ele></trkpt>
    <trkpt lat="34.76984" lon="-119.93656"><ele>564.0</ele></trkpt>
    <trkpt lat="34.76958" lon="-119.93616"><ele>564.0</ele></trkpt>
  </trkseg></trk>
</gpx>
