<?xml version="1.0" encoding="UTF-8"?>
<gpx version="1.1" creator="dirt-bikes build-area-routes (MVUM geometry + SRTM elevation)" xmlns="http://www.topografix.com/GPX/1/1">
  <trk><name>Trabuco Canyon Road</name><trkseg>
    <trkpt lat="33.67181" lon="-117.55225"><ele>406.0</ele></trkpt>
    <trkpt lat="33.67171" lon="-117.55163"><ele>403.0</ele></trkpt>
    <trkpt lat="33.67189" lon="-117.55124"><ele>408.0</ele></trkpt>
    <trkpt lat="33.67225" lon="-117.55068"><ele>410.0</ele></trkpt>
    <trkpt lat="33.67256" lon="-117.54967"><ele>405.0</ele></trkpt>
    <trkpt lat="33.67282" lon="-117.54889"><ele>415.0</ele></trkpt>
    <trkpt lat="33.67293" lon="-117.54880"><ele>418.0</ele></trkpt>
    <trkpt lat="33.67311" lon="-117.54863"><ele>421.0</ele></trkpt>
    <trkpt lat="33.67394" lon="-117.54862"><ele>420.0</ele></trkpt>
    <trkpt lat="33.67456" lon="-117.54770"><ele>435.0</ele></trkpt>
    <trkpt lat="33.67449" lon="-117.54707"><ele>438.0</ele></trkpt>
    <trkpt lat="33.67467" lon="-117.54655"><ele>438.0</ele></trkpt>
    <trkpt lat="33.67466" lon="-117.54568"><ele>440.0</ele></trkpt>
    <trkpt lat="33.67419" lon="-117.54502"><ele>432.0</ele></trkpt>
    <trkpt lat="33.67413" lon="-117.54452"><ele>429.0</ele></trkpt>
    <trkpt lat="33.67389" lon="-117.54382"><ele>435.0</ele></trkpt>
    <trkpt lat="33.67372" lon="-117.54327"><ele>438.0</ele></trkpt>
    <trkpt lat="33.67384" lon="-117.54262"><ele>438.0</ele></trkpt>
    <trkpt lat="33.67351" lon="-117.54192"><ele>443.0</ele></trkpt>
    <trkpt lat="33.67333" lon="-117.54128"><ele>444.0</ele></trkpt>
    <trkpt lat="33.67361" lon="-117.54041"><ele>453.0</ele></trkpt>
    <trkpt lat="33.67395" lon="-117.53971"><ele>451.0</ele></trkpt>
    <trkpt lat="33.67402" lon="-117.53911"><ele>452.0</ele></trkpt>
    <trkpt lat="33.67389" lon="-117.53842"><ele>462.0</ele></trkpt>
    <trkpt lat="33.67377" lon="-117.53813"><ele>469.0</ele></trkpt>
    <trkpt lat="33.67361" lon="-117.53761"><ele>480.0</ele></trkpt>
    <trkpt lat="33.67369" lon="-117.53716"><ele>484.0</ele></trkpt>
    <trkpt lat="33.67405" lon="-117.53664"><ele>471.0</ele></trkpt>
    <trkpt lat="33.67420" lon="-117.53605"><ele>469.0</ele></trkpt>
    <trkpt lat="33.67407" lon="-117.53518"><ele>477.0</ele></trkpt>
    <trkpt lat="33.67382" lon="-117.53484"><ele>489.0</ele></trkpt>
    <trkpt lat="33.67392" lon="-117.53429"><ele>481.0</ele></trkpt>
    <trkpt lat="33.67399" lon="-117.53335"><ele>481.0</ele></trkpt>
    <trkpt lat="33.67383" lon="-117.53275"><ele>486.0</ele></trkpt>
    <trkpt lat="33.67398" lon="-117.53205"><ele>485.0</ele></trkpt>
    <trkpt lat="33.67416" lon="-117.53143"><ele>482.0</ele></trkpt>
    <trkpt lat="33.67404" lon="-117.53098"><ele>488.0</ele></trkpt>
    <trkpt lat="33.67389" lon="-117.53083"><ele>494.0</ele></trkpt>
    <trkpt lat="33.67377" lon="-117.53023"><ele>500.0</ele></trkpt>
    <trkpt lat="33.67382" lon="-117.52935"><ele>498.0</ele></trkpt>
    <trkpt lat="33.67400" lon="-117.52760"><ele>493.0</ele></trkpt>
    <trkpt lat="33.67368" lon="-117.52659"><ele>517.0</ele></trkpt>
    <trkpt lat="33.67403" lon="-117.52550"><ele>515.0</ele></trkpt>
    <trkpt lat="33.67437" lon="-117.52477"><ele>516.0</ele></trkpt>
    <trkpt lat="33.67439" lon="-117.52434"><ele>519.0</ele></trkpt>
    <trkpt lat="33.67468" lon="-117.52333"><ele>517.0</ele></trkpt>
    <trkpt lat="33.67506" lon="-117.52182"><ele>516.0</ele></trkpt>
    <trkpt lat="33.67530" lon="-117.52080"><ele>520.0</ele></trkpt>
    <trkpt lat="33.67515" lon="-117.52005"><ele>527.0</ele></trkpt>
    <trkpt lat="33.67523" lon="-117.51939"><ele>531.0</ele></trkpt>
    <trkpt lat="33.67554" lon="-117.51857"><ele>535.0</ele></trkpt>
    <trkpt lat="33.67616" lon="-117.51759"><ele>536.0</ele></trkpt>
    <trkpt lat="33.67694" lon="-117.51708"><ele>541.0</ele></trkpt>
    <trkpt lat="33.67713" lon="-117.51695"><ele>543.0</ele></trkpt>
    <trkpt lat="33.67750" lon="-117.51697"><ele>545.0</ele></trkpt>
    <trkpt lat="33.67802" lon="-117.51694"><ele>547.0</ele></trkpt>
    <trkpt lat="33.67828" lon="-117.51666"><ele>547.0</ele></trkpt>
    <trkpt lat="33.67866" lon="-117.51632"><ele>554.0</ele></trkpt>
    <trkpt lat="33.67892" lon="-117.51578"><ele>566.0</ele></trkpt>
    <trkpt lat="33.67895" lon="-117.51521"><ele>568.0</ele></trkpt>
    <trkpt lat="33.67887" lon="-117.51473"><ele>563.0</ele></trkpt>
    <trkpt lat="33.67878" lon="-117.51435"><ele>558.0</ele></trkpt>
    <trkpt lat="33.67885" lon="-117.51399"><ele>560.0</ele></trkpt>
    <trkpt lat="33.67919" lon="-117.51342"><ele>562.0</ele></trkpt>
    <trkpt lat="33.67968" lon="-117.51283"><ele>571.0</ele></trkpt>
    <trkpt lat="33.68009" lon="-117.51223"><ele>570.0</ele></trkpt>
    <trkpt lat="33.68044" lon="-117.51185"><ele>584.0</ele></trkpt>
    <trkpt lat="33.68064" lon="-117.51122"><ele>584.0</ele></trkpt>
    <trkpt lat="33.68068" lon="-117.51056"><ele>577.0</ele></trkpt>
    <trkpt lat="33.68105" lon="-117.50996"><ele>582.0</ele></trkpt>
    <trkpt lat="33.68132" lon="-117.50984"><ele>593.0</ele></trkpt>
    <trkpt lat="33.68142" lon="-117.50959"><ele>593.0</ele></trkpt>
    <trkpt lat="33.68154" lon="-117.50920"><ele>591.0</ele></trkpt>
    <trkpt lat="33.68162" lon="-117.50857"><ele>593.0</ele></trkpt>
    <trkpt lat="33.68160" lon="-117.50816"><ele>593.0</ele></trkpt>
    <trkpt lat="33.68180" lon="-117.50764"><ele>595.0</ele></trkpt>
    <trkpt lat="33.68181" lon="-117.50745"><ele>594.0</ele></trkpt>
    <trkpt lat="33.68191" lon="-117.50722"><ele>598.0</ele></trkpt>
    <trkpt lat="33.68217" lon="-117.50713"><ele>606.0</ele></trkpt>
    <trkpt lat="33.68228" lon="-117.50690"><ele>605.0</ele></trkpt>
    <trkpt lat="33.68230" lon="-117.50656"><ele>601.0</ele></trkpt>
    <trkpt lat="33.68253" lon="-117.50578"><ele>606.0</ele></trkpt>
    <trkpt lat="33.68249" lon="-117.50512"><ele>606.0</ele></trkpt>
    <trkpt lat="33.68248" lon="-117.50463"><ele>608.0</ele></trkpt>
    <trkpt lat="33.68257" lon="-117.50430"><ele>613.0</ele></trkpt>
    <trkpt lat="33.68269" lon="-117.50406"><ele>620.0</ele></trkpt>
  </trkseg></trk>
</gpx>
