<?xml version="1.0" encoding="UTF-8"?>
<gpx version="1.1" creator="dirt-bikes build-area-routes (MVUM geometry + SRTM elevation)" xmlns="http://www.topografix.com/GPX/1/1">
  <trk><name>Van Dusen Canyon Road</name><trkseg>
    <trkpt lat="34.27193" lon="-116.85442"><ele>2088.0</ele></trkpt>
    <trkpt lat="34.27226" lon="-116.85443"><ele>2088.0</ele></trkpt>
    <trkpt lat="34.27251" lon="-116.85445"><ele>2088.0</ele></trkpt>
    <trkpt lat="34.27262" lon="-116.85446"><ele>2090.0</ele></trkpt>
    <trkpt lat="34.27273" lon="-116.85447"><ele>2090.0</ele></trkpt>
    <trkpt lat="34.27275" lon="-116.85448"><ele>2090.0</ele></trkpt>
    <trkpt lat="34.27290" lon="-116.85450"><ele>2090.0</ele></trkpt>
    <trkpt lat="34.27308" lon="-116.85454"><ele>2095.0</ele></trkpt>
    <trkpt lat="34.27318" lon="-116.85458"><ele>2095.0</ele></trkpt>
    <trkpt lat="34.27320" lon="-116.85458"><ele>2095.0</ele></trkpt>
    <trkpt lat="34.27326" lon="-116.85459"><ele>2095.0</ele></trkpt>
    <trkpt lat="34.27328" lon="-116.85459"><ele>2095.0</ele></trkpt>
    <trkpt lat="34.27341" lon="-116.85458"><ele>2098.0</ele></trkpt>
    <trkpt lat="34.27362" lon="-116.85454"><ele>2098.0</ele></trkpt>
    <trkpt lat="34.27376" lon="-116.85451"><ele>2098.0</ele></trkpt>
    <trkpt lat="34.27385" lon="-116.85449"><ele>2098.0</ele></trkpt>
    <trkpt lat="34.27405" lon="-116.85443"><ele>2101.0</ele></trkpt>
    <trkpt lat="34.27421" lon="-116.85438"><ele>2101.0</ele></trkpt>
    <trkpt lat="34.27433" lon="-116.85433"><ele>2101.0</ele></trkpt>
    <trkpt lat="34.27436" lon="-116.85432"><ele>2101.0</ele></trkpt>
    <trkpt lat="34.27446" lon="-116.85429"><ele>2101.0</ele></trkpt>
    <trkpt lat="34.27456" lon="-116.85429"><ele>2106.0</ele></trkpt>
    <trkpt lat="34.27474" lon="-116.85433"><ele>2106.0</ele></trkpt>
    <trkpt lat="34.27488" lon="-116.85437"><ele>2106.0</ele></trkpt>
    <trkpt lat="34.27489" lon="-116.85437"><ele>2106.0</ele></trkpt>
    <trkpt lat="34.27499" lon="-116.85437"><ele>2110.0</ele></trkpt>
    <trkpt lat="34.27500" lon="-116.85437"><ele>2110.0</ele></trkpt>
    <trkpt lat="34.27508" lon="-116.85435"><ele>2110.0</ele></trkpt>
    <trkpt lat="34.27517" lon="-116.85432"><ele>2110.0</ele></trkpt>
    <trkpt lat="34.27529" lon="-116.85430"><ele>2110.0</ele></trkpt>
    <trkpt lat="34.27544" lon="-116.85429"><ele>2111.0</ele></trkpt>
    <trkpt lat="34.27553" lon="-116.85427"><ele>2111.0</ele></trkpt>
    <trkpt lat="34.27559" lon="-116.85424"><ele>2111.0</ele></trkpt>
    <trkpt lat="34.27568" lon="-116.85416"><ele>2111.0</ele></trkpt>
    <trkpt lat="34.27579" lon="-116.85407"><ele>2111.0</ele></trkpt>
    <trkpt lat="34.27586" lon="-116.85403"><ele>2111.0</ele></trkpt>
    <trkpt lat="34.27594" lon="-116.85402"><ele>2111.0</ele></trkpt>
    <trkpt lat="34.27605" lon="-116.85403"><ele>2111.0</ele></trkpt>
    <trkpt lat="34.27613" lon="-116.85405"><ele>2111.0</ele></trkpt>
    <trkpt lat="34.27617" lon="-116.85406"><ele>2113.0</ele></trkpt>
    <trkpt lat="34.27627" lon="-116.85408"><ele>2113.0</ele></trkpt>
    <trkpt lat="34.27637" lon="-116.85410"><ele>2113.0</ele></trkpt>
    <trkpt lat="34.27651" lon="-116.85415"><ele>2113.0</ele></trkpt>
    <trkpt lat="34.27657" lon="-116.85419"><ele>2117.0</ele></trkpt>
    <trkpt lat="34.27661" lon="-116.85425"><ele>2117.0</ele></trkpt>
    <trkpt lat="34.27662" lon="-116.85425"><ele>2117.0</ele></trkpt>
    <trkpt lat="34.27662" lon="-116.85426"><ele>2117.0</ele></trkpt>
    <trkpt lat="34.27666" lon="-116.85434"><ele>2117.0</ele></trkpt>
    <trkpt lat="34.27667" lon="-116.85437"><ele>2120.0</ele></trkpt>
    <trkpt lat="34.27670" lon="-116.85445"><ele>2120.0</ele></trkpt>
    <trkpt lat="34.27674" lon="-116.85454"><ele>2120.0</ele></trkpt>
    <trkpt lat="34.27681" lon="-116.85465"><ele>2120.0</ele></trkpt>
    <trkpt lat="34.27685" lon="-116.85471"><ele>2125.0</ele></trkpt>
    <trkpt lat="34.27695" lon="-116.85483"><ele>2125.0</ele></trkpt>
    <trkpt lat="34.27715" lon="-116.85506"><ele>2125.0</ele></trkpt>
    <trkpt lat="34.27727" lon="-116.85517"><ele>2125.0</ele></trkpt>
    <trkpt lat="34.27737" lon="-116.85524"><ele>2125.0</ele></trkpt>
    <trkpt lat="34.27746" lon="-116.85529"><ele>2128.0</ele></trkpt>
    <trkpt lat="34.27755" lon="-116.85532"><ele>2128.0</ele></trkpt>
    <trkpt lat="34.27764" lon="-116.85533"><ele>2128.0</ele></trkpt>
    <trkpt lat="34.27775" lon="-116.85532"><ele>2128.0</ele></trkpt>
    <trkpt lat="34.27788" lon="-116.85530"><ele>2128.0</ele></trkpt>
    <trkpt lat="34.27804" lon="-116.85525"><ele>2128.0</ele></trkpt>
    <trkpt lat="34.27817" lon="-116.85521"><ele>2128.0</ele></trkpt>
    <trkpt lat="34.27827" lon="-116.85519"><ele>2128.0</ele></trkpt>
    <trkpt lat="34.27836" lon="-116.85519"><ele>2130.0</ele></trkpt>
    <trkpt lat="34.27844" lon="-116.85522"><ele>2130.0</ele></trkpt>
    <trkpt lat="34.27857" lon="-116.85528"><ele>2130.0</ele></trkpt>
    <trkpt lat="34.27871" lon="-116.85534"><ele>2130.0</ele></trkpt>
    <trkpt lat="34.27876" lon="-116.85537"><ele>2130.0</ele></trkpt>
    <trkpt lat="34.27877" lon="-116.85538"><ele>2133.0</ele></trkpt>
    <trkpt lat="34.27887" lon="-116.85546"><ele>2133.0</ele></trkpt>
    <trkpt lat="34.27897" lon="-116.85554"><ele>2133.0</ele></trkpt>
    <trkpt lat="34.27906" lon="-116.85562"><ele>2133.0</ele></trkpt>
    <trkpt lat="34.27913" lon="-116.85570"><ele>2140.0</ele></trkpt>
    <trkpt lat="34.27919" lon="-116.85579"><ele>2140.0</ele></trkpt>
    <trkpt lat="34.27927" lon="-116.85592"><ele>2140.0</ele></trkpt>
    <trkpt lat="34.27932" lon="-116.85598"><ele>2140.0</ele></trkpt>
    <trkpt lat="34.27941" lon="-116.85606"><ele>2140.0</ele></trkpt>
    <trkpt lat="34.27948" lon="-116.85616"><ele>2147.0</ele></trkpt>
    <trkpt lat="34.27959" lon="-116.85629"><ele>2147.0</ele></trkpt>
    <trkpt lat="34.27966" lon="-116.85638"><ele>2147.0</ele></trkpt>
    <trkpt lat="34.27974" lon="-116.85649"><ele>2147.0</ele></trkpt>
    <trkpt lat="34.27983" lon="-116.85660"><ele>2150.0</ele></trkpt>
    <trkpt lat="34.27989" lon="-116.85667"><ele>2150.0</ele></trkpt>
    <trkpt lat="34.27997" lon="-116.85675"><ele>2150.0</ele></trkpt>
    <trkpt lat="34.28006" lon="-116.85682"><ele>2150.0</ele></trkpt>
    <trkpt lat="34.28016" lon="-116.85689"><ele>2150.0</ele></trkpt>
    <trkpt lat="34.28028" lon="-116.85695"><ele>2152.0</ele></trkpt>
    <trkpt lat="34.28038" lon="-116.85702"><ele>2152.0</ele></trkpt>
    <trkpt lat="34.28046" lon="-116.85708"><ele>2152.0</ele></trkpt>
    <trkpt lat="34.28046" lon="-116.85709"><ele>2152.0</ele></trkpt>
    <trkpt lat="34.28051" lon="-116.85716"><ele>2153.0</ele></trkpt>
    <trkpt lat="34.28056" lon="-116.85725"><ele>2153.0</ele></trkpt>
    <trkpt lat="34.28060" lon="-116.85733"><ele>2153.0</ele></trkpt>
    <trkpt lat="34.28063" lon="-116.85741"><ele>2153.0</ele></trkpt>
    <trkpt lat="34.28065" lon="-116.85752"><ele>2153.0</ele></trkpt>
    <trkpt lat="34.28068" lon="-116.85765"><ele>2159.0</ele></trkpt>
    <trkpt lat="34.28072" lon="-116.85784"><ele>2159.0</ele></trkpt>
    <trkpt lat="34.28077" lon="-116.85809"><ele>2159.0</ele></trkpt>
    <trkpt lat="34.28083" lon="-116.85830"><ele>2159.0</ele></trkpt>
    <trkpt lat="34.28087" lon="-116.85846"><ele>2167.0</ele></trkpt>
    <trkpt lat="34.28092" lon="-116.85860"><ele>2167.0</ele></trkpt>
    <trkpt lat="34.28100" lon="-116.85875"><ele>2167.0</ele></trkpt>
    <trkpt lat="34.28106" lon="-116.85889"><ele>2167.0</ele></trkpt>
    <trkpt lat="34.28109" lon="-116.85900"><ele>2167.0</ele></trkpt>
    <trkpt lat="34.28115" lon="-116.85916"><ele>2168.0</ele></trkpt>
    <trkpt lat="34.28121" lon="-116.85928"><ele>2168.0</ele></trkpt>
    <trkpt lat="34.28127" lon="-116.85940"><ele>2168.0</ele></trkpt>
    <trkpt lat="34.28129" lon="-116.85943"><ele>2168.0</ele></trkpt>
    <trkpt lat="34.28134" lon="-116.85952"><ele>2171.0</ele></trkpt>
    <trkpt lat="34.28142" lon="-116.85964"><ele>2171.0</ele></trkpt>
    <trkpt lat="34.28147" lon="-116.85974"><ele>2171.0</ele></trkpt>
    <trkpt lat="34.28148" lon="-116.85979"><ele>2171.0</ele></trkpt>
    <trkpt lat="34.28152" lon="-116.85987"><ele>2171.0</ele></trkpt>
    <trkpt lat="34.28157" lon="-116.85999"><ele>2175.0</ele></trkpt>
    <trkpt lat="34.28161" lon="-116.86008"><ele>2175.0</ele></trkpt>
    <trkpt lat="34.28166" lon="-116.86020"><ele>2175.0</ele></trkpt>
    <trkpt lat="34.28172" lon="-116.86031"><ele>2175.0</ele></trkpt>
    <trkpt lat="34.28178" lon="-116.86039"><ele>2182.0</ele></trkpt>
    <trkpt lat="34.28185" lon="-116.86050"><ele>2182.0</ele></trkpt>
    <trkpt lat="34.28190" lon="-116.86055"><ele>2182.0</ele></trkpt>
    <trkpt lat="34.28198" lon="-116.86065"><ele>2182.0</ele></trkpt>
    <trkpt lat="34.28207" lon="-116.86077"><ele>2181.0</ele></trkpt>
    <trkpt lat="34.28213" lon="-116.86088"><ele>2181.0</ele></trkpt>
    <trkpt lat="34.28218" lon="-116.86099"><ele>2181.0</ele></trkpt>
    <trkpt lat="34.28225" lon="-116.86113"><ele>2181.0</ele></trkpt>
    <trkpt lat="34.28229" lon="-116.86123"><ele>2181.0</ele></trkpt>
    <trkpt lat="34.28234" lon="-116.86133"><ele>2177.0</ele></trkpt>
    <trkpt lat="34.28238" lon="-116.86144"><ele>2177.0</ele></trkpt>
    <trkpt lat="34.28243" lon="-116.86153"><ele>2177.0</ele></trkpt>
    <trkpt lat="34.28248" lon="-116.86162"><ele>2177.0</ele></trkpt>
    <trkpt lat="34.28252" lon="-116.86171"><ele>2179.0</ele></trkpt>
    <trkpt lat="34.28256" lon="-116.86178"><ele>2179.0</ele></trkpt>
    <trkpt lat="34.28261" lon="-116.86185"><ele>2179.0</ele></trkpt>
    <trkpt lat="34.28263" lon="-116.86187"><ele>2179.0</ele></trkpt>
    <trkpt lat="34.28267" lon="-116.86191"><ele>2179.0</ele></trkpt>
    <trkpt lat="34.28274" lon="-116.86200"><ele>2183.0</ele></trkpt>
    <trkpt lat="34.28281" lon="-116.86208"><ele>2183.0</ele></trkpt>
    <trkpt lat="34.28286" lon="-116.86216"><ele>2183.0</ele></trkpt>
    <trkpt lat="34.28287" lon="-116.86217"><ele>2183.0</ele></trkpt>
    <trkpt lat="34.28293" lon="-116.86229"><ele>2183.0</ele></trkpt>
    <trkpt lat="34.28302" lon="-116.86251"><ele>2183.0</ele></trkpt>
    <trkpt lat="34.28313" lon="-116.86277"><ele>2183.0</ele></trkpt>
    <trkpt lat="34.28322" lon="-116.86301"><ele>2183.0</ele></trkpt>
    <trkpt lat="34.28329" lon="-116.86314"><ele>2183.0</ele></trkpt>
    <trkpt lat="34.28334" lon="-116.86323"><ele>2182.0</ele></trkpt>
    <trkpt lat="34.28338" lon="-116.86331"><ele>2182.0</ele></trkpt>
    <trkpt lat="34.28345" lon="-116.86339"><ele>2182.0</ele></trkpt>
    <trkpt lat="34.28352" lon="-116.86348"><ele>2182.0</ele></trkpt>
    <trkpt lat="34.28358" lon="-116.86354"><ele>2183.0</ele></trkpt>
    <trkpt lat="34.28370" lon="-116.86365"><ele>2183.0</ele></trkpt>
    <trkpt lat="34.28388" lon="-116.86381"><ele>2183.0</ele></trkpt>
    <trkpt lat="34.28399" lon="-116.86391"><ele>2183.0</ele></trkpt>
    <trkpt lat="34.28406" lon="-116.86400"><ele>2183.0</ele></trkpt>
    <trkpt lat="34.28411" lon="-116.86409"><ele>2178.0</ele></trkpt>
    <trkpt lat="34.28414" lon="-116.86417"><ele>2178.0</ele></trkpt>
    <trkpt lat="34.28417" lon="-116.86428"><ele>2178.0</ele></trkpt>
    <trkpt lat="34.28421" lon="-116.86450"><ele>2178.0</ele></trkpt>
    <trkpt lat="34.28429" lon="-116.86484"><ele>2186.0</ele></trkpt>
    <trkpt lat="34.28438" lon="-116.86521"><ele>2186.0</ele></trkpt>
    <trkpt lat="34.28448" lon="-116.86560"><ele>2186.0</ele></trkpt>
    <trkpt lat="34.28453" lon="-116.86582"><ele>2186.0</ele></trkpt>
    <trkpt lat="34.28457" lon="-116.86598"><ele>2186.0</ele></trkpt>
    <trkpt lat="34.28460" lon="-116.86618"><ele>2190.0</ele></trkpt>
    <trkpt lat="34.28463" lon="-116.86645"><ele>2190.0</ele></trkpt>
    <trkpt lat="34.28466" lon="-116.86684"><ele>2190.0</ele></trkpt>
    <trkpt lat="34.28469" lon="-116.86723"><ele>2190.0</ele></trkpt>
    <trkpt lat="34.28472" lon="-116.86752"><ele>2190.0</ele></trkpt>
    <trkpt lat="34.28473" lon="-116.86774"><ele>2190.0</ele></trkpt>
    <trkpt lat="34.28473" lon="-116.86822"><ele>2190.0</ele></trkpt>
    <trkpt lat="34.28472" lon="-116.86837"><ele>2190.0</ele></trkpt>
    <trkpt lat="34.28469" lon="-116.86853"><ele>2190.0</ele></trkpt>
    <trkpt lat="34.28468" lon="-116.86867"><ele>2190.0</ele></trkpt>
    <trkpt lat="34.28468" lon="-116.86871"><ele>2190.0</ele></trkpt>
    <trkpt lat="34.28468" lon="-116.86890"><ele>2190.0</ele></trkpt>
    <trkpt lat="34.28469" lon="-116.86941"><ele>2190.0</ele></trkpt>
    <trkpt lat="34.28470" lon="-116.86961"><ele>2194.0</ele></trkpt>
    <trkpt lat="34.28471" lon="-116.86973"><ele>2194.0</ele></trkpt>
    <trkpt lat="34.28474" lon="-116.86991"><ele>2194.0</ele></trkpt>
    <trkpt lat="34.28480" lon="-116.87021"><ele>2194.0</ele></trkpt>
    <trkpt lat="34.28485" lon="-116.87048"><ele>2190.0</ele></trkpt>
    <trkpt lat="34.28491" lon="-116.87088"><ele>2190.0</ele></trkpt>
    <trkpt lat="34.28493" lon="-116.87107"><ele>2190.0</ele></trkpt>
    <trkpt lat="34.28495" lon="-116.87118"><ele>2190.0</ele></trkpt>
    <trkpt lat="34.28499" lon="-116.87128"><ele>2190.0</ele></trkpt>
    <trkpt lat="34.28506" lon="-116.87141"><ele>2188.0</ele></trkpt>
    <trkpt lat="34.28517" lon="-116.87158"><ele>2188.0</ele></trkpt>
    <trkpt lat="34.28528" lon="-116.87173"><ele>2188.0</ele></trkpt>
    <trkpt lat="34.28536" lon="-116.87184"><ele>2188.0</ele></trkpt>
    <trkpt lat="34.28547" lon="-116.87194"><ele>2189.0</ele></trkpt>
    <trkpt lat="34.28559" lon="-116.87204"><ele>2189.0</ele></trkpt>
    <trkpt lat="34.28574" lon="-116.87215"><ele>2189.0</ele></trkpt>
    <trkpt lat="34.28586" lon="-116.87222"><ele>2189.0</ele></trkpt>
    <trkpt lat="34.28605" lon="-116.87234"><ele>2189.0</ele></trkpt>
    <trkpt lat="34.28628" lon="-116.87247"><ele>2193.0</ele></trkpt>
    <trkpt lat="34.28651" lon="-116.87261"><ele>2193.0</ele></trkpt>
    <trkpt lat="34.28662" lon="-116.87270"><ele>2193.0</ele></trkpt>
    <trkpt lat="34.28671" lon="-116.87281"><ele>2193.0</ele></trkpt>
    <trkpt lat="34.28681" lon="-116.87296"><ele>2201.0</ele></trkpt>
    <trkpt lat="34.28690" lon="-116.87315"><ele>2201.0</ele></trkpt>
    <trkpt lat="34.28696" lon="-116.87330"><ele>2201.0</ele></trkpt>
    <trkpt lat="34.28702" lon="-116.87343"><ele>2201.0</ele></trkpt>
    <trkpt lat="34.28704" lon="-116.87350"><ele>2201.0</ele></trkpt>
    <trkpt lat="34.28705" lon="-116.87353"><ele>2201.0</ele></trkpt>
    <trkpt lat="34.28707" lon="-116.87365"><ele>2201.0</ele></trkpt>
    <trkpt lat="34.28708" lon="-116.87383"><ele>2201.0</ele></trkpt>
    <trkpt lat="34.28707" lon="-116.87401"><ele>2201.0</ele></trkpt>
    <trkpt lat="34.28707" lon="-116.87404"><ele>2203.0</ele></trkpt>
    <trkpt lat="34.28706" lon="-116.87408"><ele>2203.0</ele></trkpt>
    <trkpt lat="34.28706" lon="-116.87414"><ele>2203.0</ele></trkpt>
    <trkpt lat="34.28705" lon="-116.87424"><ele>2203.0</ele></trkpt>
    <trkpt lat="34.28702" lon="-116.87438"><ele>2203.0</ele></trkpt>
    <trkpt lat="34.28700" lon="-116.87443"><ele>2203.0</ele></trkpt>
    <trkpt lat="34.28698" lon="-116.87448"><ele>2203.0</ele></trkpt>
    <trkpt lat="34.28695" lon="-116.87454"><ele>2203.0</ele></trkpt>
    <trkpt lat="34.28689" lon="-116.87465"><ele>2203.0</ele></trkpt>
    <trkpt lat="34.28679" lon="-116.87485"><ele>2201.0</ele></trkpt>
    <trkpt lat="34.28672" lon="-116.87500"><ele>2201.0</ele></trkpt>
    <trkpt lat="34.28668" lon="-116.87510"><ele>2201.0</ele></trkpt>
    <trkpt lat="34.28665" lon="-116.87520"><ele>2201.0</ele></trkpt>
    <trkpt lat="34.28663" lon="-116.87530"><ele>2201.0</ele></trkpt>
    <trkpt lat="34.28663" lon="-116.87540"><ele>2201.0</ele></trkpt>
    <trkpt lat="34.28662" lon="-116.87550"><ele>2201.0</ele></trkpt>
    <trkpt lat="34.28662" lon="-116.87553"><ele>2201.0</ele></trkpt>
    <trkpt lat="34.28663" lon="-116.87586"><ele>2201.0</ele></trkpt>
    <trkpt lat="34.28663" lon="-116.87605"><ele>2202.0</ele></trkpt>
    <trkpt lat="34.28661" lon="-116.87630"><ele>2202.0</ele></trkpt>
    <trkpt lat="34.28661" lon="-116.87655"><ele>2202.0</ele></trkpt>
    <trkpt lat="34.28660" lon="-116.87676"><ele>2202.0</ele></trkpt>
    <trkpt lat="34.28660" lon="-116.87694"><ele>2211.0</ele></trkpt>
    <trkpt lat="34.28659" lon="-116.87715"><ele>2211.0</ele></trkpt>
    <trkpt lat="34.28658" lon="-116.87737"><ele>2211.0</ele></trkpt>
    <trkpt lat="34.28658" lon="-116.87746"><ele>2211.0</ele></trkpt>
    <trkpt lat="34.28659" lon="-116.87764"><ele>2211.0</ele></trkpt>
    <trkpt lat="34.28660" lon="-116.87776"><ele>2211.0</ele></trkpt>
    <trkpt lat="34.28661" lon="-116.87783"><ele>2211.0</ele></trkpt>
    <trkpt lat="34.28664" lon="-116.87793"><ele>2211.0</ele></trkpt>
    <trkpt lat="34.28664" lon="-116.87794"><ele>2211.0</ele></trkpt>
    <trkpt lat="34.28671" lon="-116.87808"><ele>2211.0</ele></trkpt>
    <trkpt lat="34.28679" lon="-116.87825"><ele>2211.0</ele></trkpt>
    <trkpt lat="34.28690" lon="-116.87848"><ele>2211.0</ele></trkpt>
    <trkpt lat="34.28704" lon="-116.87878"><ele>2211.0</ele></trkpt>
    <trkpt lat="34.28713" lon="-116.87899"><ele>2211.0</ele></trkpt>
    <trkpt lat="34.28722" lon="-116.87915"><ele>2212.0</ele></trkpt>
    <trkpt lat="34.28731" lon="-116.87935"><ele>2212.0</ele></trkpt>
    <trkpt lat="34.28741" lon="-116.87955"><ele>2212.0</ele></trkpt>
    <trkpt lat="34.28746" lon="-116.87966"><ele>2212.0</ele></trkpt>
    <trkpt lat="34.28748" lon="-116.87972"><ele>2213.0</ele></trkpt>
    <trkpt lat="34.28751" lon="-116.87979"><ele>2213.0</ele></trkpt>
    <trkpt lat="34.28755" lon="-116.87995"><ele>2213.0</ele></trkpt>
    <trkpt lat="34.28759" lon="-116.88009"><ele>2213.0</ele></trkpt>
    <trkpt lat="34.28763" lon="-116.88025"><ele>2213.0</ele></trkpt>
    <trkpt lat="34.28768" lon="-116.88041"><ele>2220.0</ele></trkpt>
    <trkpt lat="34.28771" lon="-116.88047"><ele>2220.0</ele></trkpt>
    <trkpt lat="34.28776" lon="-116.88059"><ele>2220.0</ele></trkpt>
    <trkpt lat="34.28784" lon="-116.88074"><ele>2220.0</ele></trkpt>
    <trkpt lat="34.28793" lon="-116.88097"><ele>2223.0</ele></trkpt>
    <trkpt lat="34.28799" lon="-116.88116"><ele>2223.0</ele></trkpt>
    <trkpt lat="34.28803" lon="-116.88136"><ele>2223.0</ele></trkpt>
    <trkpt lat="34.28807" lon="-116.88153"><ele>2223.0</ele></trkpt>
    <trkpt lat="34.28812" lon="-116.88165"><ele>2223.0</ele></trkpt>
    <trkpt lat="34.28816" lon="-116.88175"><ele>2221.0</ele></trkpt>
    <trkpt lat="34.28819" lon="-116.88178"><ele>2221.0</ele></trkpt>
    <trkpt lat="34.28824" lon="-116.88186"><ele>2221.0</ele></trkpt>
    <trkpt lat="34.28827" lon="-116.88190"><ele>2221.0</ele></trkpt>
    <trkpt lat="34.28833" lon="-116.88199"><ele>2220.0</ele></trkpt>
    <trkpt lat="34.28846" lon="-116.88216"><ele>2220.0</ele></trkpt>
    <trkpt lat="34.28852" lon="-116.88228"><ele>2220.0</ele></trkpt>
    <trkpt lat="34.28859" lon="-116.88242"><ele>2220.0</ele></trkpt>
    <trkpt lat="34.28863" lon="-116.88260"><ele>2220.0</ele></trkpt>
    <trkpt lat="34.28870" lon="-116.88286"><ele>2220.0</ele></trkpt>
    <trkpt lat="34.28875" lon="-116.88302"><ele>2220.0</ele></trkpt>
    <trkpt lat="34.28880" lon="-116.88326"><ele>2220.0</ele></trkpt>
    <trkpt lat="34.28881" lon="-116.88327"><ele>2220.0</ele></trkpt>
    <trkpt lat="34.28884" lon="-116.88343"><ele>2223.0</ele></trkpt>
    <trkpt lat="34.28887" lon="-116.88355"><ele>2223.0</ele></trkpt>
    <trkpt lat="34.28891" lon="-116.88368"><ele>2223.0</ele></trkpt>
    <trkpt lat="34.28892" lon="-116.88370"><ele>2223.0</ele></trkpt>
    <trkpt lat="34.28894" lon="-116.88375"><ele>2223.0</ele></trkpt>
    <trkpt lat="34.28895" lon="-116.88378"><ele>2223.0</ele></trkpt>
    <trkpt lat="34.28901" lon="-116.88388"><ele>2223.0</ele></trkpt>
    <trkpt lat="34.28908" lon="-116.88398"><ele>2223.0</ele></trkpt>
    <trkpt lat="34.28908" lon="-116.88399"><ele>2223.0</ele></trkpt>
    <trkpt lat="34.28914" lon="-116.88404"><ele>2222.0</ele></trkpt>
    <trkpt lat="34.28916" lon="-116.88405"><ele>2222.0</ele></trkpt>
    <trkpt lat="34.28929" lon="-116.88415"><ele>2222.0</ele></trkpt>
    <trkpt lat="34.28943" lon="-116.88421"><ele>2222.0</ele></trkpt>
    <trkpt lat="34.28944" lon="-116.88422"><ele>2226.0</ele></trkpt>
    <trkpt lat="34.28954" lon="-116.88426"><ele>2226.0</ele></trkpt>
    <trkpt lat="34.28958" lon="-116.88427"><ele>2226.0</ele></trkpt>
    <trkpt lat="34.28960" lon="-116.88428"><ele>2226.0</ele></trkpt>
    <trkpt lat="34.28979" lon="-116.88431"><ele>2226.0</ele></trkpt>
    <trkpt lat="34.28999" lon="-116.88433"><ele>2229.0</ele></trkpt>
    <trkpt lat="34.29020" lon="-116.88438"><ele>2229.0</ele></trkpt>
    <trkpt lat="34.29046" lon="-116.88447"><ele>2229.0</ele></trkpt>
    <trkpt lat="34.29054" lon="-116.88452"><ele>2229.0</ele></trkpt>
    <trkpt lat="34.29058" lon="-116.88455"><ele>2233.0</ele></trkpt>
    <trkpt lat="34.29066" lon="-116.88465"><ele>2233.0</ele></trkpt>
    <trkpt lat="34.29072" lon="-116.88476"><ele>2233.0</ele></trkpt>
    <trkpt lat="34.29077" lon="-116.88488"><ele>2233.0</ele></trkpt>
    <trkpt lat="34.29082" lon="-116.88503"><ele>2233.0</ele></trkpt>
    <trkpt lat="34.29085" lon="-116.88518"><ele>2235.0</ele></trkpt>
    <trkpt lat="34.29091" lon="-116.88537"><ele>2235.0</ele></trkpt>
    <trkpt lat="34.29094" lon="-116.88562"><ele>2235.0</ele></trkpt>
    <trkpt lat="34.29099" lon="-116.88593"><ele>2235.0</ele></trkpt>
    <trkpt lat="34.29104" lon="-116.88608"><ele>2234.0</ele></trkpt>
    <trkpt lat="34.29111" lon="-116.88621"><ele>2234.0</ele></trkpt>
    <trkpt lat="34.29122" lon="-116.88637"><ele>2234.0</ele></trkpt>
    <trkpt lat="34.29132" lon="-116.88653"><ele>2234.0</ele></trkpt>
    <trkpt lat="34.29137" lon="-116.88659"><ele>2234.0</ele></trkpt>
    <trkpt lat="34.29148" lon="-116.88674"><ele>2231.0</ele></trkpt>
    <trkpt lat="34.29158" lon="-116.88690"><ele>2231.0</ele></trkpt>
    <trkpt lat="34.29166" lon="-116.88704"><ele>2231.0</ele></trkpt>
    <trkpt lat="34.29176" lon="-116.88722"><ele>2231.0</ele></trkpt>
    <trkpt lat="34.29189" lon="-116.88743"><ele>2236.0</ele></trkpt>
    <trkpt lat="34.29209" lon="-116.88771"><ele>2236.0</ele></trkpt>
    <trkpt lat="34.29223" lon="-116.88796"><ele>2236.0</ele></trkpt>
    <trkpt lat="34.29234" lon="-116.88815"><ele>2236.0</ele></trkpt>
    <trkpt lat="34.29242" lon="-116.88826"><ele>2236.0</ele></trkpt>
    <trkpt lat="34.29250" lon="-116.88835"><ele>2238.0</ele></trkpt>
    <trkpt lat="34.29259" lon="-116.88840"><ele>2238.0</ele></trkpt>
    <trkpt lat="34.29267" lon="-116.88845"><ele>2238.0</ele></trkpt>
    <trkpt lat="34.29281" lon="-116.88849"><ele>2238.0</ele></trkpt>
    <trkpt lat="34.29295" lon="-116.88853"><ele>2235.0</ele></trkpt>
    <trkpt lat="34.29317" lon="-116.88857"><ele>2235.0</ele></trkpt>
    <trkpt lat="34.29328" lon="-116.88861"><ele>2235.0</ele></trkpt>
    <trkpt lat="34.29337" lon="-116.88866"><ele>2235.0</ele></trkpt>
    <trkpt lat="34.29346" lon="-116.88871"><ele>2235.0</ele></trkpt>
    <trkpt lat="34.29354" lon="-116.88878"><ele>2236.0</ele></trkpt>
    <trkpt lat="34.29364" lon="-116.88886"><ele>2236.0</ele></trkpt>
    <trkpt lat="34.29371" lon="-116.88893"><ele>2236.0</ele></trkpt>
    <trkpt lat="34.29380" lon="-116.88901"><ele>2236.0</ele></trkpt>
    <trkpt lat="34.29385" lon="-116.88906"><ele>2236.0</ele></trkpt>
    <trkpt lat="34.29387" lon="-116.88909"><ele>2236.0</ele></trkpt>
    <trkpt lat="34.29388" lon="-116.88910"><ele>2236.0</ele></trkpt>
    <trkpt lat="34.29390" lon="-116.88913"><ele>2236.0</ele></trkpt>
    <trkpt lat="34.29392" lon="-116.88916"><ele>2236.0</ele></trkpt>
    <trkpt lat="34.29396" lon="-116.88923"><ele>2237.0</ele></trkpt>
    <trkpt lat="34.29398" lon="-116.88928"><ele>2237.0</ele></trkpt>
    <trkpt lat="34.29401" lon="-116.88937"><ele>2237.0</ele></trkpt>
    <trkpt lat="34.29404" lon="-116.88951"><ele>2237.0</ele></trkpt>
    <trkpt lat="34.29407" lon="-116.88963"><ele>2241.0</ele></trkpt>
    <trkpt lat="34.29409" lon="-116.88975"><ele>2241.0</ele></trkpt>
    <trkpt lat="34.29409" lon="-116.88979"><ele>2241.0</ele></trkpt>
    <trkpt lat="34.29409" lon="-116.88979"><ele>2241.0</ele></trkpt>
    <trkpt lat="34.29412" lon="-116.88991"><ele>2244.0</ele></trkpt>
    <trkpt lat="34.29415" lon="-116.89002"><ele>2244.0</ele></trkpt>
    <trkpt lat="34.29419" lon="-116.89013"><ele>2244.0</ele></trkpt>
    <trkpt lat="34.29421" lon="-116.89019"><ele>2244.0</ele></trkpt>
    <trkpt lat="34.29421" lon="-116.89019"><ele>2244.0</ele></trkpt>
    <trkpt lat="34.29425" lon="-116.89032"><ele>2247.0</ele></trkpt>
    <trkpt lat="34.29433" lon="-116.89046"><ele>2247.0</ele></trkpt>
    <trkpt lat="34.29434" lon="-116.89049"><ele>2247.0</ele></trkpt>
    <trkpt lat="34.29442" lon="-116.89060"><ele>2247.0</ele></trkpt>
    <trkpt lat="34.29450" lon="-116.89070"><ele>2247.0</ele></trkpt>
    <trkpt lat="34.29455" lon="-116.89077"><ele>2247.0</ele></trkpt>
    <trkpt lat="34.29466" lon="-116.89086"><ele>2247.0</ele></trkpt>
    <trkpt lat="34.29473" lon="-116.89093"><ele>2247.0</ele></trkpt>
    <trkpt lat="34.29485" lon="-116.89104"><ele>2247.0</ele></trkpt>
    <trkpt lat="34.29492" lon="-116.89114"><ele>2248.0</ele></trkpt>
    <trkpt lat="34.29502" lon="-116.89125"><ele>2248.0</ele></trkpt>
    <trkpt lat="34.29512" lon="-116.89139"><ele>2248.0</ele></trkpt>
    <trkpt lat="34.29530" lon="-116.89158"><ele>2248.0</ele></trkpt>
    <trkpt lat="34.29546" lon="-116.89178"><ele>2247.0</ele></trkpt>
    <trkpt lat="34.29559" lon="-116.89193"><ele>2247.0</ele></trkpt>
    <trkpt lat="34.29572" lon="-116.89207"><ele>2247.0</ele></trkpt>
    <trkpt lat="34.29585" lon="-116.89220"><ele>2247.0</ele></trkpt>
    <trkpt lat="34.29600" lon="-116.89232"><ele>2247.0</ele></trkpt>
    <trkpt lat="34.29617" lon="-116.89245"><ele>2247.0</ele></trkpt>
    <trkpt lat="34.29637" lon="-116.89259"><ele>2247.0</ele></trkpt>
    <trkpt lat="34.29650" lon="-116.89267"><ele>2247.0</ele></trkpt>
    <trkpt lat="34.29665" lon="-116.89274"><ele>2247.0</ele></trkpt>
    <trkpt lat="34.29685" lon="-116.89281"><ele>2246.0</ele></trkpt>
    <trkpt lat="34.29697" lon="-116.89286"><ele>2246.0</ele></trkpt>
    <trkpt lat="34.29719" lon="-116.89292"><ele>2246.0</ele></trkpt>
    <trkpt lat="34.29740" lon="-116.89298"><ele>2246.0</ele></trkpt>
    <trkpt lat="34.29758" lon="-116.89300"><ele>2246.0</ele></trkpt>
    <trkpt lat="34.29773" lon="-116.89303"><ele>2245.0</ele></trkpt>
    <trkpt lat="34.29785" lon="-116.89307"><ele>2245.0</ele></trkpt>
    <trkpt lat="34.29799" lon="-116.89313"><ele>2245.0</ele></trkpt>
    <trkpt lat="34.29820" lon="-116.89320"><ele>2245.0</ele></trkpt>
    <trkpt lat="34.29835" lon="-116.89325"><ele>2247.0</ele></trkpt>
    <trkpt lat="34.29841" lon="-116.89326"><ele>2247.0</ele></trkpt>
    <trkpt lat="34.29866" lon="-116.89334"><ele>2247.0</ele></trkpt>
    <trkpt lat="34.29889" lon="-116.89341"><ele>2247.0</ele></trkpt>
    <trkpt lat="34.29909" lon="-116.89347"><ele>2247.0</ele></trkpt>
    <trkpt lat="34.29922" lon="-116.89353"><ele>2251.0</ele></trkpt>
    <trkpt lat="34.29933" lon="-116.89358"><ele>2251.0</ele></trkpt>
    <trkpt lat="34.29951" lon="-116.89363"><ele>2251.0</ele></trkpt>
    <trkpt lat="34.29962" lon="-116.89365"><ele>2251.0</ele></trkpt>
    <trkpt lat="34.29975" lon="-116.89370"><ele>2252.0</ele></trkpt>
    <trkpt lat="34.29987" lon="-116.89374"><ele>2252.0</ele></trkpt>
    <trkpt lat="34.29995" lon="-116.89377"><ele>2252.0</ele></trkpt>
    <trkpt lat="34.30032" lon="-116.89388"><ele>2252.0</ele></trkpt>
    <trkpt lat="34.30068" lon="-116.89401"><ele>2252.0</ele></trkpt>
    <trkpt lat="34.30090" lon="-116.89406"><ele>2251.0</ele></trkpt>
    <trkpt lat="34.30101" lon="-116.89405"><ele>2251.0</ele></trkpt>
  </trkseg></trk>
</gpx>
