<?xml version="1.0" encoding="UTF-8"?>
<gpx version="1.1" creator="dirt-bikes build-area-routes (MVUM geometry + SRTM elevation)" xmlns="http://www.topografix.com/GPX/1/1">
  <trk><name>West Dry Canyon Road</name><trkseg>
    <trkpt lat="34.78548" lon="-119.57178"><ele>995.0</ele></trkpt>
    <trkpt lat="34.78553" lon="-119.57150"><ele>995.0</ele></trkpt>
    <trkpt lat="34.78568" lon="-119.57122"><ele>995.0</ele></trkpt>
    <trkpt lat="34.78593" lon="-119.57087"><ele>995.0</ele></trkpt>
    <trkpt lat="34.78626" lon="-119.57051"><ele>990.0</ele></trkpt>
    <trkpt lat="34.78649" lon="-119.57026"><ele>990.0</ele></trkpt>
    <trkpt lat="34.78662" lon="-119.57000"><ele>990.0</ele></trkpt>
    <trkpt lat="34.78677" lon="-119.56970"><ele>990.0</ele></trkpt>
    <trkpt lat="34.78683" lon="-119.56959"><ele>990.0</ele></trkpt>
    <trkpt lat="34.78676" lon="-119.56924"><ele>990.0</ele></trkpt>
    <trkpt lat="34.78658" lon="-119.56853"><ele>990.0</ele></trkpt>
    <trkpt lat="34.78638" lon="-119.56807"><ele>990.0</ele></trkpt>
    <trkpt lat="34.78619" lon="-119.56766"><ele>1010.0</ele></trkpt>
    <trkpt lat="34.78604" lon="-119.56733"><ele>1010.0</ele></trkpt>
    <trkpt lat="34.78584" lon="-119.56705"><ele>1010.0</ele></trkpt>
    <trkpt lat="34.78565" lon="-119.56679"><ele>1010.0</ele></trkpt>
    <trkpt lat="34.78559" lon="-119.56668"><ele>1010.0</ele></trkpt>
    <trkpt lat="34.78557" lon="-119.56651"><ele>1010.0</ele></trkpt>
    <trkpt lat="34.78548" lon="-119.56625"><ele>1010.0</ele></trkpt>
    <trkpt lat="34.78537" lon="-119.56602"><ele>1016.0</ele></trkpt>
    <trkpt lat="34.78527" lon="-119.56586"><ele>1016.0</ele></trkpt>
    <trkpt lat="34.78519" lon="-119.56567"><ele>1016.0</ele></trkpt>
    <trkpt lat="34.78516" lon="-119.56539"><ele>1016.0</ele></trkpt>
    <trkpt lat="34.78522" lon="-119.56500"><ele>1016.0</ele></trkpt>
    <trkpt lat="34.78525" lon="-119.56473"><ele>1016.0</ele></trkpt>
    <trkpt lat="34.78526" lon="-119.56450"><ele>1016.0</ele></trkpt>
    <trkpt lat="34.78517" lon="-119.56428"><ele>1023.0</ele></trkpt>
    <trkpt lat="34.78508" lon="-119.56407"><ele>1023.0</ele></trkpt>
    <trkpt lat="34.78496" lon="-119.56392"><ele>1023.0</ele></trkpt>
    <trkpt lat="34.78478" lon="-119.56367"><ele>1023.0</ele></trkpt>
    <trkpt lat="34.78468" lon="-119.56346"><ele>1023.0</ele></trkpt>
    <trkpt lat="34.78456" lon="-119.56316"><ele>1023.0</ele></trkpt>
    <trkpt lat="34.78440" lon="-119.56286"><ele>1023.0</ele></trkpt>
    <trkpt lat="34.78423" lon="-119.56255"><ele>1034.0</ele></trkpt>
    <trkpt lat="34.78394" lon="-119.56196"><ele>1034.0</ele></trkpt>
    <trkpt lat="34.78381" lon="-119.56169"><ele>1034.0</ele></trkpt>
    <trkpt lat="34.78366" lon="-119.56127"><ele>1034.0</ele></trkpt>
    <trkpt lat="34.78363" lon="-119.56108"><ele>1034.0</ele></trkpt>
    <trkpt lat="34.78363" lon="-119.56085"><ele>1034.0</ele></trkpt>
    <trkpt lat="34.78361" lon="-119.56067"><ele>1034.0</ele></trkpt>
    <trkpt lat="34.78354" lon="-119.56035"><ele>1034.0</ele></trkpt>
    <trkpt lat="34.78348" lon="-119.56002"><ele>1039.0</ele></trkpt>
    <trkpt lat="34.78349" lon="-119.55954"><ele>1039.0</ele></trkpt>
    <trkpt lat="34.78349" lon="-119.55911"><ele>1039.0</ele></trkpt>
    <trkpt lat="34.78347" lon="-119.55876"><ele>1039.0</ele></trkpt>
    <trkpt lat="34.78339" lon="-119.55842"><ele>1039.0</ele></trkpt>
    <trkpt lat="34.78331" lon="-119.55809"><ele>1039.0</ele></trkpt>
    <trkpt lat="34.78314" lon="-119.55767"><ele>1039.0</ele></trkpt>
    <trkpt lat="34.78295" lon="-119.55729"><ele>1054.0</ele></trkpt>
    <trkpt lat="34.78284" lon="-119.55697"><ele>1054.0</ele></trkpt>
    <trkpt lat="34.78275" lon="-119.55669"><ele>1054.0</ele></trkpt>
    <trkpt lat="34.78265" lon="-119.55645"><ele>1054.0</ele></trkpt>
    <trkpt lat="34.78257" lon="-119.55617"><ele>1054.0</ele></trkpt>
    <trkpt lat="34.78256" lon="-119.55593"><ele>1054.0</ele></trkpt>
    <trkpt lat="34.78255" lon="-119.55567"><ele>1054.0</ele></trkpt>
    <trkpt lat="34.78248" lon="-119.55548"><ele>1060.0</ele></trkpt>
    <trkpt lat="34.78230" lon="-119.55512"><ele>1060.0</ele></trkpt>
    <trkpt lat="34.78203" lon="-119.55466"><ele>1060.0</ele></trkpt>
    <trkpt lat="34.78162" lon="-119.55408"><ele>1060.0</ele></trkpt>
    <trkpt lat="34.78134" lon="-119.55379"><ele>1060.0</ele></trkpt>
    <trkpt lat="34.78102" lon="-119.55348"><ele>1060.0</ele></trkpt>
    <trkpt lat="34.78085" lon="-119.55326"><ele>1060.0</ele></trkpt>
    <trkpt lat="34.78069" lon="-119.55295"><ele>1060.0</ele></trkpt>
    <trkpt lat="34.78054" lon="-119.55261"><ele>1081.0</ele></trkpt>
    <trkpt lat="34.78036" lon="-119.55225"><ele>1081.0</ele></trkpt>
    <trkpt lat="34.78010" lon="-119.55193"><ele>1081.0</ele></trkpt>
    <trkpt lat="34.77973" lon="-119.55164"><ele>1081.0</ele></trkpt>
    <trkpt lat="34.77931" lon="-119.55133"><ele>1081.0</ele></trkpt>
    <trkpt lat="34.77886" lon="-119.55109"><ele>1081.0</ele></trkpt>
    <trkpt lat="34.77848" lon="-119.55089"><ele>1081.0</ele></trkpt>
    <trkpt lat="34.77802" lon="-119.55059"><ele>1086.0</ele></trkpt>
    <trkpt lat="34.77748" lon="-119.55023"><ele>1086.0</ele></trkpt>
    <trkpt lat="34.77710" lon="-119.54998"><ele>1086.0</ele></trkpt>
    <trkpt lat="34.77654" lon="-119.54965"><ele>1086.0</ele></trkpt>
    <trkpt lat="34.77621" lon="-119.54944"><ele>1086.0</ele></trkpt>
    <trkpt lat="34.77587" lon="-119.54918"><ele>1086.0</ele></trkpt>
    <trkpt lat="34.77563" lon="-119.54901"><ele>1086.0</ele></trkpt>
    <trkpt lat="34.77549" lon="-119.54882"><ele>1099.0</ele></trkpt>
    <trkpt lat="34.77530" lon="-119.54843"><ele>1099.0</ele></trkpt>
    <trkpt lat="34.77513" lon="-119.54806"><ele>1099.0</ele></trkpt>
    <trkpt lat="34.77490" lon="-119.54753"><ele>1099.0</ele></trkpt>
    <trkpt lat="34.77461" lon="-119.54707"><ele>1099.0</ele></trkpt>
    <trkpt lat="34.77430" lon="-119.54650"><ele>1099.0</ele></trkpt>
    <trkpt lat="34.77403" lon="-119.54603"><ele>1099.0</ele></trkpt>
    <trkpt lat="34.77385" lon="-119.54567"><ele>1124.0</ele></trkpt>
    <trkpt lat="34.77363" lon="-119.54520"><ele>1124.0</ele></trkpt>
    <trkpt lat="34.77349" lon="-119.54483"><ele>1124.0</ele></trkpt>
    <trkpt lat="34.77340" lon="-119.54451"><ele>1124.0</ele></trkpt>
    <trkpt lat="34.77329" lon="-119.54412"><ele>1124.0</ele></trkpt>
    <trkpt lat="34.77323" lon="-119.54379"><ele>1124.0</ele></trkpt>
    <trkpt lat="34.77316" lon="-119.54357"><ele>1124.0</ele></trkpt>
    <trkpt lat="34.77309" lon="-119.54343"><ele>1124.0</ele></trkpt>
    <trkpt lat="34.77303" lon="-119.54334"><ele>1125.0</ele></trkpt>
    <trkpt lat="34.77282" lon="-119.54313"><ele>1125.0</ele></trkpt>
    <trkpt lat="34.77259" lon="-119.54297"><ele>1125.0</ele></trkpt>
    <trkpt lat="34.77235" lon="-119.54273"><ele>1125.0</ele></trkpt>
    <trkpt lat="34.77219" lon="-119.54252"><ele>1125.0</ele></trkpt>
    <trkpt lat="34.77202" lon="-119.54233"><ele>1125.0</ele></trkpt>
    <trkpt lat="34.77192" lon="-119.54223"><ele>1125.0</ele></trkpt>
    <trkpt lat="34.77179" lon="-119.54217"><ele>1125.0</ele></trkpt>
    <trkpt lat="34.77160" lon="-119.54206"><ele>1125.0</ele></trkpt>
    <trkpt lat="34.77146" lon="-119.54196"><ele>1125.0</ele></trkpt>
    <trkpt lat="34.77135" lon="-119.54179"><ele>1125.0</ele></trkpt>
    <trkpt lat="34.77115" lon="-119.54153"><ele>1125.0</ele></trkpt>
    <trkpt lat="34.77100" lon="-119.54136"><ele>1125.0</ele></trkpt>
    <trkpt lat="34.77080" lon="-119.54120"><ele>1125.0</ele></trkpt>
    <trkpt lat="34.77067" lon="-119.54107"><ele>1134.0</ele></trkpt>
    <trkpt lat="34.77056" lon="-119.54088"><ele>1134.0</ele></trkpt>
    <trkpt lat="34.77041" lon="-119.54060"><ele>1134.0</ele></trkpt>
    <trkpt lat="34.77029" lon="-119.54038"><ele>1134.0</ele></trkpt>
    <trkpt lat="34.77009" lon="-119.54010"><ele>1134.0</ele></trkpt>
    <trkpt lat="34.76984" lon="-119.53980"><ele>1134.0</ele></trkpt>
    <trkpt lat="34.76964" lon="-119.53957"><ele>1134.0</ele></trkpt>
    <trkpt lat="34.76942" lon="-119.53934"><ele>1144.0</ele></trkpt>
    <trkpt lat="34.76920" lon="-119.53912"><ele>1144.0</ele></trkpt>
    <trkpt lat="34.76892" lon="-119.53894"><ele>1144.0</ele></trkpt>
    <trkpt lat="34.76862" lon="-119.53879"><ele>1144.0</ele></trkpt>
    <trkpt lat="34.76834" lon="-119.53867"><ele>1144.0</ele></trkpt>
    <trkpt lat="34.76816" lon="-119.53863"><ele>1144.0</ele></trkpt>
    <trkpt lat="34.76799" lon="-119.53855"><ele>1144.0</ele></trkpt>
    <trkpt lat="34.76779" lon="-119.53834"><ele>1144.0</ele></trkpt>
    <trkpt lat="34.76752" lon="-119.53806"><ele>1152.0</ele></trkpt>
    <trkpt lat="34.76733" lon="-119.53782"><ele>1152.0</ele></trkpt>
    <trkpt lat="34.76721" lon="-119.53764"><ele>1152.0</ele></trkpt>
    <trkpt lat="34.76720" lon="-119.53750"><ele>1152.0</ele></trkpt>
    <trkpt lat="34.76720" lon="-119.53724"><ele>1152.0</ele></trkpt>
    <trkpt lat="34.76713" lon="-119.53695"><ele>1152.0</ele></trkpt>
    <trkpt lat="34.76702" lon="-119.53679"><ele>1152.0</ele></trkpt>
    <trkpt lat="34.76685" lon="-119.53660"><ele>1163.0</ele></trkpt>
    <trkpt lat="34.76668" lon="-119.53646"><ele>1163.0</ele></trkpt>
    <trkpt lat="34.76650" lon="-119.53635"><ele>1163.0</ele></trkpt>
    <trkpt lat="34.76632" lon="-119.53627"><ele>1163.0</ele></trkpt>
    <trkpt lat="34.76616" lon="-119.53618"><ele>1163.0</ele></trkpt>
    <trkpt lat="34.76610" lon="-119.53605"><ele>1163.0</ele></trkpt>
    <trkpt lat="34.76599" lon="-119.53578"><ele>1163.0</ele></trkpt>
    <trkpt lat="34.76590" lon="-119.53558"><ele>1171.0</ele></trkpt>
    <trkpt lat="34.76579" lon="-119.53542"><ele>1171.0</ele></trkpt>
    <trkpt lat="34.76565" lon="-119.53532"><ele>1171.0</ele></trkpt>
    <trkpt lat="34.76541" lon="-119.53517"><ele>1171.0</ele></trkpt>
    <trkpt lat="34.76521" lon="-119.53499"><ele>1171.0</ele></trkpt>
    <trkpt lat="34.76508" lon="-119.53480"><ele>1171.0</ele></trkpt>
    <trkpt lat="34.76502" lon="-119.53467"><ele>1171.0</ele></trkpt>
    <trkpt lat="34.76498" lon="-119.53437"><ele>1171.0</ele></trkpt>
    <trkpt lat="34.76492" lon="-119.53411"><ele>1179.0</ele></trkpt>
    <trkpt lat="34.76486" lon="-119.53392"><ele>1179.0</ele></trkpt>
    <trkpt lat="34.76478" lon="-119.53379"><ele>1179.0</ele></trkpt>
    <trkpt lat="34.76461" lon="-119.53351"><ele>1179.0</ele></trkpt>
    <trkpt lat="34.76441" lon="-119.53318"><ele>1179.0</ele></trkpt>
    <trkpt lat="34.76421" lon="-119.53280"><ele>1179.0</ele></trkpt>
    <trkpt lat="34.76401" lon="-119.53230"><ele>1179.0</ele></trkpt>
    <trkpt lat="34.76382" lon="-119.53182"><ele>1201.0</ele></trkpt>
    <trkpt lat="34.76366" lon="-119.53143"><ele>1201.0</ele></trkpt>
    <trkpt lat="34.76351" lon="-119.53108"><ele>1201.0</ele></trkpt>
    <trkpt lat="34.76342" lon="-119.53079"><ele>1201.0</ele></trkpt>
    <trkpt lat="34.76335" lon="-119.53040"><ele>1201.0</ele></trkpt>
    <trkpt lat="34.76328" lon="-119.53011"><ele>1201.0</ele></trkpt>
    <trkpt lat="34.76318" lon="-119.52981"><ele>1201.0</ele></trkpt>
    <trkpt lat="34.76308" lon="-119.52960"><ele>1212.0</ele></trkpt>
    <trkpt lat="34.76300" lon="-119.52939"><ele>1212.0</ele></trkpt>
    <trkpt lat="34.76294" lon="-119.52921"><ele>1212.0</ele></trkpt>
    <trkpt lat="34.76283" lon="-119.52899"><ele>1212.0</ele></trkpt>
    <trkpt lat="34.76278" lon="-119.52884"><ele>1212.0</ele></trkpt>
    <trkpt lat="34.76270" lon="-119.52873"><ele>1212.0</ele></trkpt>
    <trkpt lat="34.76260" lon="-119.52853"><ele>1212.0</ele></trkpt>
    <trkpt lat="34.76251" lon="-119.52838"><ele>1217.0</ele></trkpt>
    <trkpt lat="34.76241" lon="-119.52826"><ele>1217.0</ele></trkpt>
    <trkpt lat="34.76229" lon="-119.52811"><ele>1217.0</ele></trkpt>
    <trkpt lat="34.76217" lon="-119.52796"><ele>1217.0</ele></trkpt>
    <trkpt lat="34.76211" lon="-119.52785"><ele>1217.0</ele></trkpt>
    <trkpt lat="34.76208" lon="-119.52772"><ele>1217.0</ele></trkpt>
    <trkpt lat="34.76207" lon="-119.52757"><ele>1217.0</ele></trkpt>
    <trkpt lat="34.76196" lon="-119.52710"><ele>1217.0</ele></trkpt>
    <trkpt lat="34.76187" lon="-119.52663"><ele>1229.0</ele></trkpt>
    <trkpt lat="34.76179" lon="-119.52620"><ele>1229.0</ele></trkpt>
    <trkpt lat="34.76175" lon="-119.52571"><ele>1229.0</ele></trkpt>
    <trkpt lat="34.76171" lon="-119.52531"><ele>1229.0</ele></trkpt>
    <trkpt lat="34.76173" lon="-119.52500"><ele>1229.0</ele></trkpt>
    <trkpt lat="34.76177" lon="-119.52484"><ele>1229.0</ele></trkpt>
    <trkpt lat="34.76186" lon="-119.52468"><ele>1229.0</ele></trkpt>
    <trkpt lat="34.76200" lon="-119.52446"><ele>1234.0</ele></trkpt>
    <trkpt lat="34.76213" lon="-119.52427"><ele>1234.0</ele></trkpt>
    <trkpt lat="34.76220" lon="-119.52414"><ele>1234.0</ele></trkpt>
    <trkpt lat="34.76223" lon="-119.52400"><ele>1234.0</ele></trkpt>
    <trkpt lat="34.76220" lon="-119.52383"><ele>1234.0</ele></trkpt>
    <trkpt lat="34.76214" lon="-119.52352"><ele>1234.0</ele></trkpt>
    <trkpt lat="34.76204" lon="-119.52326"><ele>1234.0</ele></trkpt>
    <trkpt lat="34.76195" lon="-119.52309"><ele>1243.0</ele></trkpt>
    <trkpt lat="34.76182" lon="-119.52293"><ele>1243.0</ele></trkpt>
    <trkpt lat="34.76172" lon="-119.52286"><ele>1243.0</ele></trkpt>
    <trkpt lat="34.76160" lon="-119.52278"><ele>1243.0</ele></trkpt>
    <trkpt lat="34.76139" lon="-119.52268"><ele>1243.0</ele></trkpt>
    <trkpt lat="34.76121" lon="-119.52262"><ele>1243.0</ele></trkpt>
    <trkpt lat="34.76099" lon="-119.52253"><ele>1243.0</ele></trkpt>
    <trkpt lat="34.76083" lon="-119.52240"><ele>1243.0</ele></trkpt>
    <trkpt lat="34.76071" lon="-119.52225"><ele>1254.0</ele></trkpt>
    <trkpt lat="34.76066" lon="-119.52211"><ele>1254.0</ele></trkpt>
    <trkpt lat="34.76063" lon="-119.52194"><ele>1254.0</ele></trkpt>
    <trkpt lat="34.76058" lon="-119.52184"><ele>1254.0</ele></trkpt>
    <trkpt lat="34.76052" lon="-119.52169"><ele>1254.0</ele></trkpt>
    <trkpt lat="34.76047" lon="-119.52149"><ele>1254.0</ele></trkpt>
    <trkpt lat="34.76049" lon="-119.52111"><ele>1254.0</ele></trkpt>
    <trkpt lat="34.76052" lon="-119.52082"><ele>1264.0</ele></trkpt>
    <trkpt lat="34.76049" lon="-119.52070"><ele>1264.0</ele></trkpt>
    <trkpt lat="34.76043" lon="-119.52037"><ele>1264.0</ele></trkpt>
    <trkpt lat="34.76040" lon="-119.52005"><ele>1264.0</ele></trkpt>
    <trkpt lat="34.76042" lon="-119.51963"><ele>1264.0</ele></trkpt>
    <trkpt lat="34.76048" lon="-119.51941"><ele>1264.0</ele></trkpt>
    <trkpt lat="34.76056" lon="-119.51924"><ele>1264.0</ele></trkpt>
    <trkpt lat="34.76069" lon="-119.51910"><ele>1274.0</ele></trkpt>
    <trkpt lat="34.76082" lon="-119.51895"><ele>1274.0</ele></trkpt>
    <trkpt lat="34.76085" lon="-119.51889"><ele>1274.0</ele></trkpt>
    <trkpt lat="34.76089" lon="-119.51879"><ele>1274.0</ele></trkpt>
    <trkpt lat="34.76088" lon="-119.51868"><ele>1274.0</ele></trkpt>
    <trkpt lat="34.76083" lon="-119.51846"><ele>1274.0</ele></trkpt>
    <trkpt lat="34.76070" lon="-119.51819"><ele>1274.0</ele></trkpt>
    <trkpt lat="34.76043" lon="-119.51772"><ele>1288.0</ele></trkpt>
    <trkpt lat="34.76025" lon="-119.51737"><ele>1288.0</ele></trkpt>
    <trkpt lat="34.76016" lon="-119.51708"><ele>1288.0</ele></trkpt>
    <trkpt lat="34.76010" lon="-119.51670"><ele>1288.0</ele></trkpt>
    <trkpt lat="34.76005" lon="-119.51649"><ele>1288.0</ele></trkpt>
    <trkpt lat="34.75994" lon="-119.51630"><ele>1288.0</ele></trkpt>
    <trkpt lat="34.75980" lon="-119.51604"><ele>1288.0</ele></trkpt>
    <trkpt lat="34.75961" lon="-119.51563"><ele>1288.0</ele></trkpt>
    <trkpt lat="34.75950" lon="-119.51525"><ele>1306.0</ele></trkpt>
    <trkpt lat="34.75945" lon="-119.51483"><ele>1306.0</ele></trkpt>
    <trkpt lat="34.75945" lon="-119.51440"><ele>1306.0</ele></trkpt>
    <trkpt lat="34.75952" lon="-119.51396"><ele>1306.0</ele></trkpt>
    <trkpt lat="34.75957" lon="-119.51356"><ele>1306.0</ele></trkpt>
    <trkpt lat="34.75956" lon="-119.51318"><ele>1306.0</ele></trkpt>
    <trkpt lat="34.75950" lon="-119.51288"><ele>1306.0</ele></trkpt>
    <trkpt lat="34.75943" lon="-119.51266"><ele>1322.0</ele></trkpt>
    <trkpt lat="34.75938" lon="-119.51246"><ele>1322.0</ele></trkpt>
    <trkpt lat="34.75939" lon="-119.51220"><ele>1322.0</ele></trkpt>
    <trkpt lat="34.75936" lon="-119.51189"><ele>1322.0</ele></trkpt>
    <trkpt lat="34.75932" lon="-119.51164"><ele>1322.0</ele></trkpt>
    <trkpt lat="34.75925" lon="-119.51139"><ele>1322.0</ele></trkpt>
    <trkpt lat="34.75915" lon="-119.51108"><ele>1322.0</ele></trkpt>
    <trkpt lat="34.75908" lon="-119.51081"><ele>1335.0</ele></trkpt>
    <trkpt lat="34.75907" lon="-119.51056"><ele>1335.0</ele></trkpt>
    <trkpt lat="34.75909" lon="-119.51030"><ele>1335.0</ele></trkpt>
    <trkpt lat="34.75912" lon="-119.51011"><ele>1335.0</ele></trkpt>
    <trkpt lat="34.75915" lon="-119.50991"><ele>1335.0</ele></trkpt>
    <trkpt lat="34.75907" lon="-119.50977"><ele>1335.0</ele></trkpt>
    <trkpt lat="34.75892" lon="-119.50969"><ele>1335.0</ele></trkpt>
    <trkpt lat="34.75870" lon="-119.50960"><ele>1335.0</ele></trkpt>
    <trkpt lat="34.75853" lon="-119.50949"><ele>1350.0</ele></trkpt>
    <trkpt lat="34.75839" lon="-119.50934"><ele>1350.0</ele></trkpt>
    <trkpt lat="34.75830" lon="-119.50912"><ele>1350.0</ele></trkpt>
    <trkpt lat="34.75827" lon="-119.50889"><ele>1350.0</ele></trkpt>
    <trkpt lat="34.75829" lon="-119.50864"><ele>1350.0</ele></trkpt>
    <trkpt lat="34.75828" lon="-119.50840"><ele>1350.0</ele></trkpt>
    <trkpt lat="34.75829" lon="-119.50815"><ele>1350.0</ele></trkpt>
    <trkpt lat="34.75828" lon="-119.50791"><ele>1369.0</ele></trkpt>
    <trkpt lat="34.75825" lon="-119.50778"><ele>1369.0</ele></trkpt>
    <trkpt lat="34.75820" lon="-119.50771"><ele>1369.0</ele></trkpt>
    <trkpt lat="34.75799" lon="-119.50751"><ele>1369.0</ele></trkpt>
    <trkpt lat="34.75760" lon="-119.50719"><ele>1369.0</ele></trkpt>
    <trkpt lat="34.75729" lon="-119.50692"><ele>1369.0</ele></trkpt>
    <trkpt lat="34.75710" lon="-119.50669"><ele>1369.0</ele></trkpt>
    <trkpt lat="34.75702" lon="-119.50641"><ele>1394.0</ele></trkpt>
    <trkpt lat="34.75700" lon="-119.50614"><ele>1394.0</ele></trkpt>
    <trkpt lat="34.75701" lon="-119.50577"><ele>1394.0</ele></trkpt>
    <trkpt lat="34.75693" lon="-119.50549"><ele>1394.0</ele></trkpt>
    <trkpt lat="34.75683" lon="-119.50524"><ele>1394.0</ele></trkpt>
    <trkpt lat="34.75670" lon="-119.50491"><ele>1394.0</ele></trkpt>
    <trkpt lat="34.75652" lon="-119.50458"><ele>1394.0</ele></trkpt>
    <trkpt lat="34.75634" lon="-119.50423"><ele>1418.0</ele></trkpt>
    <trkpt lat="34.75624" lon="-119.50398"><ele>1418.0</ele></trkpt>
    <trkpt lat="34.75604" lon="-119.50357"><ele>1418.0</ele></trkpt>
    <trkpt lat="34.75590" lon="-119.50323"><ele>1418.0</ele></trkpt>
    <trkpt lat="34.75576" lon="-119.50276"><ele>1418.0</ele></trkpt>
    <trkpt lat="34.75570" lon="-119.50240"><ele>1418.0</ele></trkpt>
    <trkpt lat="34.75564" lon="-119.50214"><ele>1418.0</ele></trkpt>
    <trkpt lat="34.75559" lon="-119.50193"><ele>1418.0</ele></trkpt>
    <trkpt lat="34.75551" lon="-119.50177"><ele>1448.0</ele></trkpt>
    <trkpt lat="34.75539" lon="-119.50155"><ele>1448.0</ele></trkpt>
    <trkpt lat="34.75531" lon="-119.50138"><ele>1448.0</ele></trkpt>
    <trkpt lat="34.75530" lon="-119.50126"><ele>1448.0</ele></trkpt>
    <trkpt lat="34.75533" lon="-119.50118"><ele>1448.0</ele></trkpt>
    <trkpt lat="34.75542" lon="-119.50113"><ele>1448.0</ele></trkpt>
    <trkpt lat="34.75554" lon="-119.50114"><ele>1448.0</ele></trkpt>
    <trkpt lat="34.75564" lon="-119.50120"><ele>1442.0</ele></trkpt>
    <trkpt lat="34.75576" lon="-119.50127"><ele>1442.0</ele></trkpt>
    <trkpt lat="34.75582" lon="-119.50128"><ele>1442.0</ele></trkpt>
    <trkpt lat="34.75586" lon="-119.50124"><ele>1442.0</ele></trkpt>
    <trkpt lat="34.75586" lon="-119.50111"><ele>1442.0</ele></trkpt>
    <trkpt lat="34.75585" lon="-119.50098"><ele>1442.0</ele></trkpt>
    <trkpt lat="34.75582" lon="-119.50084"><ele>1442.0</ele></trkpt>
    <trkpt lat="34.75581" lon="-119.50070"><ele>1459.0</ele></trkpt>
    <trkpt lat="34.75582" lon="-119.50062"><ele>1459.0</ele></trkpt>
    <trkpt lat="34.75582" lon="-119.50054"><ele>1459.0</ele></trkpt>
    <trkpt lat="34.75582" lon="-119.50048"><ele>1459.0</ele></trkpt>
    <trkpt lat="34.75579" lon="-119.50045"><ele>1459.0</ele></trkpt>
    <trkpt lat="34.75571" lon="-119.50049"><ele>1459.0</ele></trkpt>
    <trkpt lat="34.75563" lon="-119.50058"><ele>1459.0</ele></trkpt>
    <trkpt lat="34.75556" lon="-119.50061"><ele>1459.0</ele></trkpt>
    <trkpt lat="34.75549" lon="-119.50064"><ele>1462.0</ele></trkpt>
    <trkpt lat="34.75541" lon="-119.50061"><ele>1462.0</ele></trkpt>
    <trkpt lat="34.75533" lon="-119.50058"><ele>1462.0</ele></trkpt>
    <trkpt lat="34.75527" lon="-119.50051"><ele>1462.0</ele></trkpt>
    <trkpt lat="34.75522" lon="-119.50040"><ele>1462.0</ele></trkpt>
    <trkpt lat="34.75518" lon="-119.50032"><ele>1462.0</ele></trkpt>
    <trkpt lat="34.75512" lon="-119.50028"><ele>1462.0</ele></trkpt>
    <trkpt lat="34.75503" lon="-119.50026"><ele>1476.0</ele></trkpt>
    <trkpt lat="34.75497" lon="-119.50025"><ele>1476.0</ele></trkpt>
    <trkpt lat="34.75493" lon="-119.50024"><ele>1476.0</ele></trkpt>
    <trkpt lat="34.75480" lon="-119.50007"><ele>1476.0</ele></trkpt>
    <trkpt lat="34.75466" lon="-119.49991"><ele>1476.0</ele></trkpt>
    <trkpt lat="34.75448" lon="-119.49978"><ele>1476.0</ele></trkpt>
    <trkpt lat="34.75438" lon="-119.49972"><ele>1476.0</ele></trkpt>
    <trkpt lat="34.75423" lon="-119.49969"><ele>1481.0</ele></trkpt>
    <trkpt lat="34.75415" lon="-119.49970"><ele>1481.0</ele></trkpt>
    <trkpt lat="34.75411" lon="-119.49972"><ele>1481.0</ele></trkpt>
    <trkpt lat="34.75408" lon="-119.49972"><ele>1481.0</ele></trkpt>
    <trkpt lat="34.75404" lon="-119.49973"><ele>1481.0</ele></trkpt>
    <trkpt lat="34.75401" lon="-119.49966"><ele>1481.0</ele></trkpt>
    <trkpt lat="34.75397" lon="-119.49957"><ele>1481.0</ele></trkpt>
    <trkpt lat="34.75391" lon="-119.49944"><ele>1479.0</ele></trkpt>
    <trkpt lat="34.75383" lon="-119.49931"><ele>1479.0</ele></trkpt>
    <trkpt lat="34.75377" lon="-119.49920"><ele>1479.0</ele></trkpt>
    <trkpt lat="34.75373" lon="-119.49912"><ele>1479.0</ele></trkpt>
    <trkpt lat="34.75371" lon="-119.49906"><ele>1479.0</ele></trkpt>
    <trkpt lat="34.75373" lon="-119.49889"><ele>1479.0</ele></trkpt>
    <trkpt lat="34.75373" lon="-119.49877"><ele>1479.0</ele></trkpt>
    <trkpt lat="34.75371" lon="-119.49867"><ele>1479.0</ele></trkpt>
    <trkpt lat="34.75363" lon="-119.49858"><ele>1472.0</ele></trkpt>
    <trkpt lat="34.75351" lon="-119.49852"><ele>1472.0</ele></trkpt>
    <trkpt lat="34.75345" lon="-119.49850"><ele>1472.0</ele></trkpt>
    <trkpt lat="34.75338" lon="-119.49844"><ele>1472.0</ele></trkpt>
    <trkpt lat="34.75333" lon="-119.49831"><ele>1472.0</ele></trkpt>
    <trkpt lat="34.75328" lon="-119.49811"><ele>1472.0</ele></trkpt>
    <trkpt lat="34.75324" lon="-119.49788"><ele>1472.0</ele></trkpt>
    <trkpt lat="34.75323" lon="-119.49772"><ele>1467.0</ele></trkpt>
    <trkpt lat="34.75324" lon="-119.49747"><ele>1467.0</ele></trkpt>
    <trkpt lat="34.75326" lon="-119.49731"><ele>1467.0</ele></trkpt>
    <trkpt lat="34.75326" lon="-119.49726"><ele>1467.0</ele></trkpt>
    <trkpt lat="34.75326" lon="-119.49724"><ele>1467.0</ele></trkpt>
    <trkpt lat="34.75320" lon="-119.49719"><ele>1467.0</ele></trkpt>
    <trkpt lat="34.75316" lon="-119.49715"><ele>1467.0</ele></trkpt>
    <trkpt lat="34.75315" lon="-119.49705"><ele>1465.0</ele></trkpt>
    <trkpt lat="34.75312" lon="-119.49690"><ele>1465.0</ele></trkpt>
    <trkpt lat="34.75304" lon="-119.49683"><ele>1465.0</ele></trkpt>
    <trkpt lat="34.75292" lon="-119.49669"><ele>1465.0</ele></trkpt>
    <trkpt lat="34.75280" lon="-119.49654"><ele>1465.0</ele></trkpt>
    <trkpt lat="34.75269" lon="-119.49638"><ele>1465.0</ele></trkpt>
    <trkpt lat="34.75249" lon="-119.49621"><ele>1465.0</ele></trkpt>
    <trkpt lat="34.75239" lon="-119.49615"><ele>1455.0</ele></trkpt>
    <trkpt lat="34.75236" lon="-119.49611"><ele>1455.0</ele></trkpt>
    <trkpt lat="34.75234" lon="-119.49603"><ele>1455.0</ele></trkpt>
    <trkpt lat="34.75234" lon="-119.49593"><ele>1455.0</ele></trkpt>
    <trkpt lat="34.75234" lon="-119.49585"><ele>1455.0</ele></trkpt>
    <trkpt lat="34.75232" lon="-119.49580"><ele>1455.0</ele></trkpt>
    <trkpt lat="34.75223" lon="-119.49579"><ele>1455.0</ele></trkpt>
    <trkpt lat="34.75211" lon="-119.49582"><ele>1455.0</ele></trkpt>
    <trkpt lat="34.75204" lon="-119.49583"><ele>1454.0</ele></trkpt>
    <trkpt lat="34.75197" lon="-119.49591"><ele>1454.0</ele></trkpt>
    <trkpt lat="34.75192" lon="-119.49595"><ele>1454.0</ele></trkpt>
    <trkpt lat="34.75186" lon="-119.49606"><ele>1454.0</ele></trkpt>
    <trkpt lat="34.75179" lon="-119.49612"><ele>1454.0</ele></trkpt>
    <trkpt lat="34.75170" lon="-119.49616"><ele>1454.0</ele></trkpt>
    <trkpt lat="34.75164" lon="-119.49611"><ele>1454.0</ele></trkpt>
    <trkpt lat="34.75163" lon="-119.49605"><ele>1447.0</ele></trkpt>
    <trkpt lat="34.75161" lon="-119.49596"><ele>1447.0</ele></trkpt>
    <trkpt lat="34.75152" lon="-119.49591"><ele>1447.0</ele></trkpt>
    <trkpt lat="34.75141" lon="-119.49590"><ele>1447.0</ele></trkpt>
    <trkpt lat="34.75129" lon="-119.49597"><ele>1447.0</ele></trkpt>
    <trkpt lat="34.75117" lon="-119.49613"><ele>1447.0</ele></trkpt>
    <trkpt lat="34.75112" lon="-119.49620"><ele>1447.0</ele></trkpt>
    <trkpt lat="34.75105" lon="-119.49628"><ele>1437.0</ele></trkpt>
    <trkpt lat="34.75093" lon="-119.49633"><ele>1437.0</ele></trkpt>
    <trkpt lat="34.75081" lon="-119.49637"><ele>1437.0</ele></trkpt>
    <trkpt lat="34.75071" lon="-119.49643"><ele>1437.0</ele></trkpt>
    <trkpt lat="34.75063" lon="-119.49648"><ele>1437.0</ele></trkpt>
    <trkpt lat="34.75058" lon="-119.49651"><ele>1437.0</ele></trkpt>
    <trkpt lat="34.75048" lon="-119.49651"><ele>1437.0</ele></trkpt>
    <trkpt lat="34.75043" lon="-119.49650"><ele>1437.0</ele></trkpt>
    <trkpt lat="34.75038" lon="-119.49649"><ele>1433.0</ele></trkpt>
    <trkpt lat="34.75031" lon="-119.49656"><ele>1433.0</ele></trkpt>
    <trkpt lat="34.75030" lon="-119.49658"><ele>1433.0</ele></trkpt>
    <trkpt lat="34.75028" lon="-119.49672"><ele>1433.0</ele></trkpt>
    <trkpt lat="34.75022" lon="-119.49690"><ele>1433.0</ele></trkpt>
    <trkpt lat="34.75016" lon="-119.49700"><ele>1433.0</ele></trkpt>
    <trkpt lat="34.75008" lon="-119.49705"><ele>1433.0</ele></trkpt>
    <trkpt lat="34.74998" lon="-119.49711"><ele>1424.0</ele></trkpt>
    <trkpt lat="34.74984" lon="-119.49719"><ele>1424.0</ele></trkpt>
    <trkpt lat="34.74976" lon="-119.49724"><ele>1424.0</ele></trkpt>
    <trkpt lat="34.74958" lon="-119.49743"><ele>1424.0</ele></trkpt>
    <trkpt lat="34.74947" lon="-119.49751"><ele>1424.0</ele></trkpt>
    <trkpt lat="34.74933" lon="-119.49757"><ele>1424.0</ele></trkpt>
    <trkpt lat="34.74921" lon="-119.49756"><ele>1424.0</ele></trkpt>
    <trkpt lat="34.74928" lon="-119.49740"><ele>1429.0</ele></trkpt>
    <trkpt lat="34.74940" lon="-119.49712"><ele>1429.0</ele></trkpt>
    <trkpt lat="34.74944" lon="-119.49699"><ele>1429.0</ele></trkpt>
    <trkpt lat="34.74946" lon="-119.49683"><ele>1429.0</ele></trkpt>
    <trkpt lat="34.74946" lon="-119.49671"><ele>1429.0</ele></trkpt>
    <trkpt lat="34.74951" lon="-119.49651"><ele>1429.0</ele></trkpt>
    <trkpt lat="34.74955" lon="-119.49638"><ele>1429.0</ele></trkpt>
    <trkpt lat="34.74962" lon="-119.49631"><ele>1439.0</ele></trkpt>
    <trkpt lat="34.74982" lon="-119.49606"><ele>1439.0</ele></trkpt>
    <trkpt lat="34.74985" lon="-119.49595"><ele>1439.0</ele></trkpt>
    <trkpt lat="34.74985" lon="-119.49585"><ele>1439.0</ele></trkpt>
    <trkpt lat="34.74979" lon="-119.49567"><ele>1439.0</ele></trkpt>
    <trkpt lat="34.74972" lon="-119.49556"><ele>1439.0</ele></trkpt>
    <trkpt lat="34.74962" lon="-119.49547"><ele>1439.0</ele></trkpt>
    <trkpt lat="34.74963" lon="-119.49534"><ele>1439.0</ele></trkpt>
    <trkpt lat="34.74968" lon="-119.49525"><ele>1450.0</ele></trkpt>
    <trkpt lat="34.74975" lon="-119.49517"><ele>1450.0</ele></trkpt>
    <trkpt lat="34.74977" lon="-119.49506"><ele>1450.0</ele></trkpt>
    <trkpt lat="34.74976" lon="-119.49481"><ele>1450.0</ele></trkpt>
    <trkpt lat="34.74981" lon="-119.49472"><ele>1450.0</ele></trkpt>
    <trkpt lat="34.74990" lon="-119.49467"><ele>1450.0</ele></trkpt>
    <trkpt lat="34.74998" lon="-119.49464"><ele>1450.0</ele></trkpt>
    <trkpt lat="34.75025" lon="-119.49460"><ele>1460.0</ele></trkpt>
    <trkpt lat="34.75041" lon="-119.49455"><ele>1460.0</ele></trkpt>
    <trkpt lat="34.75065" lon="-119.49446"><ele>1460.0</ele></trkpt>
    <trkpt lat="34.75075" lon="-119.49438"><ele>1460.0</ele></trkpt>
    <trkpt lat="34.75085" lon="-119.49421"><ele>1460.0</ele></trkpt>
    <trkpt lat="34.75099" lon="-119.49381"><ele>1460.0</ele></trkpt>
    <trkpt lat="34.75101" lon="-119.49365"><ele>1460.0</ele></trkpt>
    <trkpt lat="34.75105" lon="-119.49359"><ele>1468.0</ele></trkpt>
    <trkpt lat="34.75115" lon="-119.49349"><ele>1468.0</ele></trkpt>
    <trkpt lat="34.75119" lon="-119.49340"><ele>1468.0</ele></trkpt>
    <trkpt lat="34.75120" lon="-119.49334"><ele>1468.0</ele></trkpt>
    <trkpt lat="34.75119" lon="-119.49322"><ele>1468.0</ele></trkpt>
    <trkpt lat="34.75118" lon="-119.49306"><ele>1468.0</ele></trkpt>
    <trkpt lat="34.75117" lon="-119.49287"><ele>1468.0</ele></trkpt>
    <trkpt lat="34.75121" lon="-119.49256"><ele>1468.0</ele></trkpt>
    <trkpt lat="34.75123" lon="-119.49250"><ele>1483.0</ele></trkpt>
    <trkpt lat="34.75126" lon="-119.49248"><ele>1483.0</ele></trkpt>
    <trkpt lat="34.75128" lon="-119.49248"><ele>1483.0</ele></trkpt>
    <trkpt lat="34.75130" lon="-119.49250"><ele>1483.0</ele></trkpt>
    <trkpt lat="34.75138" lon="-119.49254"><ele>1483.0</ele></trkpt>
    <trkpt lat="34.75148" lon="-119.49258"><ele>1483.0</ele></trkpt>
    <trkpt lat="34.75152" lon="-119.49257"><ele>1483.0</ele></trkpt>
    <trkpt lat="34.75155" lon="-119.49251"><ele>1491.0</ele></trkpt>
    <trkpt lat="34.75155" lon="-119.49244"><ele>1491.0</ele></trkpt>
    <trkpt lat="34.75153" lon="-119.49239"><ele>1491.0</ele></trkpt>
    <trkpt lat="34.75136" lon="-119.49212"><ele>1491.0</ele></trkpt>
    <trkpt lat="34.75132" lon="-119.49202"><ele>1491.0</ele></trkpt>
    <trkpt lat="34.75132" lon="-119.49196"><ele>1491.0</ele></trkpt>
    <trkpt lat="34.75133" lon="-119.49189"><ele>1491.0</ele></trkpt>
    <trkpt lat="34.75141" lon="-119.49170"><ele>1521.0</ele></trkpt>
    <trkpt lat="34.75150" lon="-119.49142"><ele>1521.0</ele></trkpt>
    <trkpt lat="34.75156" lon="-119.49114"><ele>1521.0</ele></trkpt>
    <trkpt lat="34.75161" lon="-119.49091"><ele>1521.0</ele></trkpt>
    <trkpt lat="34.75158" lon="-119.49081"><ele>1521.0</ele></trkpt>
    <trkpt lat="34.75153" lon="-119.49076"><ele>1521.0</ele></trkpt>
    <trkpt lat="34.75148" lon="-119.49070"><ele>1521.0</ele></trkpt>
    <trkpt lat="34.75136" lon="-119.49072"><ele>1507.0</ele></trkpt>
    <trkpt lat="34.75130" lon="-119.49071"><ele>1507.0</ele></trkpt>
    <trkpt lat="34.75111" lon="-119.49073"><ele>1507.0</ele></trkpt>
    <trkpt lat="34.75107" lon="-119.49070"><ele>1507.0</ele></trkpt>
    <trkpt lat="34.75103" lon="-119.49067"><ele>1507.0</ele></trkpt>
    <trkpt lat="34.75100" lon="-119.49061"><ele>1507.0</ele></trkpt>
    <trkpt lat="34.75098" lon="-119.49051"><ele>1507.0</ele></trkpt>
    <trkpt lat="34.75099" lon="-119.49050"><ele>1507.0</ele></trkpt>
    <trkpt lat="34.75103" lon="-119.49048"><ele>1511.0</ele></trkpt>
    <trkpt lat="34.75106" lon="-119.49044"><ele>1511.0</ele></trkpt>
    <trkpt lat="34.75111" lon="-119.49051"><ele>1511.0</ele></trkpt>
    <trkpt lat="34.75115" lon="-119.49057"><ele>1511.0</ele></trkpt>
    <trkpt lat="34.75120" lon="-119.49057"><ele>1511.0</ele></trkpt>
    <trkpt lat="34.75124" lon="-119.49055"><ele>1511.0</ele></trkpt>
    <trkpt lat="34.75134" lon="-119.49051"><ele>1511.0</ele></trkpt>
    <trkpt lat="34.75146" lon="-119.49046"><ele>1529.0</ele></trkpt>
    <trkpt lat="34.75155" lon="-119.49049"><ele>1529.0</ele></trkpt>
    <trkpt lat="34.75165" lon="-119.49055"><ele>1529.0</ele></trkpt>
    <trkpt lat="34.75176" lon="-119.49067"><ele>1529.0</ele></trkpt>
    <trkpt lat="34.75180" lon="-119.49082"><ele>1529.0</ele></trkpt>
    <trkpt lat="34.75185" lon="-119.49095"><ele>1529.0</ele></trkpt>
    <trkpt lat="34.75191" lon="-119.49115"><ele>1529.0</ele></trkpt>
    <trkpt lat="34.75194" lon="-119.49125"><ele>1520.0</ele></trkpt>
    <trkpt lat="34.75200" lon="-119.49127"><ele>1520.0</ele></trkpt>
    <trkpt lat="34.75205" lon="-119.49125"><ele>1520.0</ele></trkpt>
    <trkpt lat="34.75209" lon="-119.49122"><ele>1520.0</ele></trkpt>
    <trkpt lat="34.75211" lon="-119.49112"><ele>1520.0</ele></trkpt>
    <trkpt lat="34.75212" lon="-119.49094"><ele>1520.0</ele></trkpt>
    <trkpt lat="34.75210" lon="-119.49082"><ele>1520.0</ele></trkpt>
    <trkpt lat="34.75208" lon="-119.49058"><ele>1520.0</ele></trkpt>
    <trkpt lat="34.75203" lon="-119.49040"><ele>1542.0</ele></trkpt>
    <trkpt lat="34.75198" lon="-119.49026"><ele>1542.0</ele></trkpt>
    <trkpt lat="34.75191" lon="-119.49019"><ele>1542.0</ele></trkpt>
    <trkpt lat="34.75183" lon="-119.49012"><ele>1542.0</ele></trkpt>
    <trkpt lat="34.75176" lon="-119.49002"><ele>1542.0</ele></trkpt>
    <trkpt lat="34.75174" lon="-119.48993"><ele>1542.0</ele></trkpt>
    <trkpt lat="34.75176" lon="-119.48985"><ele>1542.0</ele></trkpt>
    <trkpt lat="34.75177" lon="-119.48970"><ele>1570.0</ele></trkpt>
    <trkpt lat="34.75189" lon="-119.48915"><ele>1570.0</ele></trkpt>
    <trkpt lat="34.75192" lon="-119.48904"><ele>1570.0</ele></trkpt>
    <trkpt lat="34.75197" lon="-119.48890"><ele>1570.0</ele></trkpt>
    <trkpt lat="34.75192" lon="-119.48884"><ele>1570.0</ele></trkpt>
    <trkpt lat="34.75191" lon="-119.48882"><ele>1570.0</ele></trkpt>
    <trkpt lat="34.75185" lon="-119.48883"><ele>1570.0</ele></trkpt>
    <trkpt lat="34.75171" lon="-119.48882"><ele>1569.0</ele></trkpt>
    <trkpt lat="34.75165" lon="-119.48880"><ele>1569.0</ele></trkpt>
    <trkpt lat="34.75163" lon="-119.48876"><ele>1569.0</ele></trkpt>
    <trkpt lat="34.75163" lon="-119.48871"><ele>1569.0</ele></trkpt>
    <trkpt lat="34.75162" lon="-119.48867"><ele>1569.0</ele></trkpt>
    <trkpt lat="34.75156" lon="-119.48845"><ele>1569.0</ele></trkpt>
    <trkpt lat="34.75151" lon="-119.48816"><ele>1569.0</ele></trkpt>
    <trkpt lat="34.75148" lon="-119.48810"><ele>1572.0</ele></trkpt>
    <trkpt lat="34.75137" lon="-119.48803"><ele>1572.0</ele></trkpt>
    <trkpt lat="34.75131" lon="-119.48795"><ele>1572.0</ele></trkpt>
    <trkpt lat="34.75139" lon="-119.48781"><ele>1572.0</ele></trkpt>
    <trkpt lat="34.75144" lon="-119.48775"><ele>1572.0</ele></trkpt>
    <trkpt lat="34.75157" lon="-119.48768"><ele>1572.0</ele></trkpt>
    <trkpt lat="34.75166" lon="-119.48767"><ele>1572.0</ele></trkpt>
    <trkpt lat="34.75177" lon="-119.48767"><ele>1572.0</ele></trkpt>
    <trkpt lat="34.75191" lon="-119.48761"><ele>1594.0</ele></trkpt>
    <trkpt lat="34.75193" lon="-119.48757"><ele>1594.0</ele></trkpt>
    <trkpt lat="34.75195" lon="-119.48749"><ele>1594.0</ele></trkpt>
    <trkpt lat="34.75196" lon="-119.48730"><ele>1594.0</ele></trkpt>
    <trkpt lat="34.75199" lon="-119.48712"><ele>1594.0</ele></trkpt>
    <trkpt lat="34.75202" lon="-119.48699"><ele>1594.0</ele></trkpt>
    <trkpt lat="34.75196" lon="-119.48676"><ele>1594.0</ele></trkpt>
    <trkpt lat="34.75192" lon="-119.48663"><ele>1594.0</ele></trkpt>
    <trkpt lat="34.75190" lon="-119.48643"><ele>1594.0</ele></trkpt>
    <trkpt lat="34.75188" lon="-119.48626"><ele>1594.0</ele></trkpt>
    <trkpt lat="34.75184" lon="-119.48619"><ele>1594.0</ele></trkpt>
    <trkpt lat="34.75183" lon="-119.48613"><ele>1594.0</ele></trkpt>
    <trkpt lat="34.75186" lon="-119.48612"><ele>1594.0</ele></trkpt>
    <trkpt lat="34.75188" lon="-119.48611"><ele>1594.0</ele></trkpt>
    <trkpt lat="34.75195" lon="-119.48608"><ele>1606.0</ele></trkpt>
    <trkpt lat="34.75210" lon="-119.48608"><ele>1606.0</ele></trkpt>
    <trkpt lat="34.75218" lon="-119.48603"><ele>1606.0</ele></trkpt>
    <trkpt lat="34.75222" lon="-119.48601"><ele>1606.0</ele></trkpt>
    <trkpt lat="34.75225" lon="-119.48594"><ele>1606.0</ele></trkpt>
    <trkpt lat="34.75237" lon="-119.48574"><ele>1606.0</ele></trkpt>
    <trkpt lat="34.75245" lon="-119.48569"><ele>1606.0</ele></trkpt>
    <trkpt lat="34.75253" lon="-119.48564"><ele>1606.0</ele></trkpt>
    <trkpt lat="34.75273" lon="-119.48555"><ele>1622.0</ele></trkpt>
    <trkpt lat="34.75276" lon="-119.48551"><ele>1622.0</ele></trkpt>
    <trkpt lat="34.75275" lon="-119.48545"><ele>1622.0</ele></trkpt>
    <trkpt lat="34.75278" lon="-119.48538"><ele>1622.0</ele></trkpt>
    <trkpt lat="34.75277" lon="-119.48528"><ele>1622.0</ele></trkpt>
    <trkpt lat="34.75276" lon="-119.48516"><ele>1622.0</ele></trkpt>
    <trkpt lat="34.75271" lon="-119.48509"><ele>1622.0</ele></trkpt>
    <trkpt lat="34.75264" lon="-119.48500"><ele>1624.0</ele></trkpt>
    <trkpt lat="34.75256" lon="-119.48494"><ele>1624.0</ele></trkpt>
    <trkpt lat="34.75247" lon="-119.48481"><ele>1624.0</ele></trkpt>
    <trkpt lat="34.75246" lon="-119.48476"><ele>1624.0</ele></trkpt>
    <trkpt lat="34.75247" lon="-119.48470"><ele>1624.0</ele></trkpt>
    <trkpt lat="34.75249" lon="-119.48461"><ele>1624.0</ele></trkpt>
    <trkpt lat="34.75252" lon="-119.48451"><ele>1624.0</ele></trkpt>
    <trkpt lat="34.75256" lon="-119.48430"><ele>1637.0</ele></trkpt>
    <trkpt lat="34.75256" lon="-119.48414"><ele>1637.0</ele></trkpt>
    <trkpt lat="34.75258" lon="-119.48402"><ele>1637.0</ele></trkpt>
    <trkpt lat="34.75262" lon="-119.48394"><ele>1637.0</ele></trkpt>
    <trkpt lat="34.75269" lon="-119.48391"><ele>1637.0</ele></trkpt>
    <trkpt lat="34.75275" lon="-119.48394"><ele>1637.0</ele></trkpt>
    <trkpt lat="34.75280" lon="-119.48400"><ele>1637.0</ele></trkpt>
    <trkpt lat="34.75289" lon="-119.48412"><ele>1645.0</ele></trkpt>
    <trkpt lat="34.75304" lon="-119.48426"><ele>1645.0</ele></trkpt>
    <trkpt lat="34.75325" lon="-119.48439"><ele>1645.0</ele></trkpt>
    <trkpt lat="34.75338" lon="-119.48452"><ele>1645.0</ele></trkpt>
    <trkpt lat="34.75352" lon="-119.48460"><ele>1645.0</ele></trkpt>
    <trkpt lat="34.75356" lon="-119.48457"><ele>1645.0</ele></trkpt>
    <trkpt lat="34.75358" lon="-119.48453"><ele>1645.0</ele></trkpt>
    <trkpt lat="34.75355" lon="-119.48447"><ele>1645.0</ele></trkpt>
    <trkpt lat="34.75352" lon="-119.48439"><ele>1652.0</ele></trkpt>
    <trkpt lat="34.75350" lon="-119.48428"><ele>1652.0</ele></trkpt>
    <trkpt lat="34.75348" lon="-119.48416"><ele>1652.0</ele></trkpt>
    <trkpt lat="34.75351" lon="-119.48404"><ele>1652.0</ele></trkpt>
    <trkpt lat="34.75350" lon="-119.48395"><ele>1652.0</ele></trkpt>
    <trkpt lat="34.75348" lon="-119.48385"><ele>1652.0</ele></trkpt>
    <trkpt lat="34.75346" lon="-119.48377"><ele>1652.0</ele></trkpt>
    <trkpt lat="34.75343" lon="-119.48369"><ele>1672.0</ele></trkpt>
    <trkpt lat="34.75335" lon="-119.48352"><ele>1672.0</ele></trkpt>
    <trkpt lat="34.75330" lon="-119.48332"><ele>1672.0</ele></trkpt>
    <trkpt lat="34.75328" lon="-119.48309"><ele>1672.0</ele></trkpt>
    <trkpt lat="34.75327" lon="-119.48290"><ele>1672.0</ele></trkpt>
    <trkpt lat="34.75326" lon="-119.48284"><ele>1672.0</ele></trkpt>
    <trkpt lat="34.75325" lon="-119.48269"><ele>1672.0</ele></trkpt>
    <trkpt lat="34.75327" lon="-119.48251"><ele>1688.0</ele></trkpt>
    <trkpt lat="34.75326" lon="-119.48223"><ele>1688.0</ele></trkpt>
    <trkpt lat="34.75325" lon="-119.48209"><ele>1688.0</ele></trkpt>
    <trkpt lat="34.75321" lon="-119.48196"><ele>1688.0</ele></trkpt>
    <trkpt lat="34.75312" lon="-119.48176"><ele>1688.0</ele></trkpt>
    <trkpt lat="34.75307" lon="-119.48155"><ele>1688.0</ele></trkpt>
    <trkpt lat="34.75308" lon="-119.48142"><ele>1688.0</ele></trkpt>
    <trkpt lat="34.75314" lon="-119.48127"><ele>1701.0</ele></trkpt>
    <trkpt lat="34.75325" lon="-119.48105"><ele>1701.0</ele></trkpt>
    <trkpt lat="34.75325" lon="-119.48091"><ele>1701.0</ele></trkpt>
    <trkpt lat="34.75322" lon="-119.48074"><ele>1701.0</ele></trkpt>
    <trkpt lat="34.75323" lon="-119.48057"><ele>1701.0</ele></trkpt>
    <trkpt lat="34.75325" lon="-119.48052"><ele>1701.0</ele></trkpt>
    <trkpt lat="34.75334" lon="-119.48036"><ele>1701.0</ele></trkpt>
    <trkpt lat="34.75345" lon="-119.48022"><ele>1701.0</ele></trkpt>
    <trkpt lat="34.75355" lon="-119.48002"><ele>1719.0</ele></trkpt>
    <trkpt lat="34.75360" lon="-119.47988"><ele>1719.0</ele></trkpt>
    <trkpt lat="34.75368" lon="-119.47959"><ele>1719.0</ele></trkpt>
    <trkpt lat="34.75371" lon="-119.47925"><ele>1719.0</ele></trkpt>
    <trkpt lat="34.75371" lon="-119.47899"><ele>1719.0</ele></trkpt>
    <trkpt lat="34.75370" lon="-119.47877"><ele>1719.0</ele></trkpt>
    <trkpt lat="34.75365" lon="-119.47856"><ele>1719.0</ele></trkpt>
    <trkpt lat="34.75360" lon="-119.47832"><ele>1730.0</ele></trkpt>
    <trkpt lat="34.75356" lon="-119.47817"><ele>1730.0</ele></trkpt>
    <trkpt lat="34.75351" lon="-119.47801"><ele>1730.0</ele></trkpt>
    <trkpt lat="34.75347" lon="-119.47796"><ele>1730.0</ele></trkpt>
    <trkpt lat="34.75340" lon="-119.47782"><ele>1730.0</ele></trkpt>
    <trkpt lat="34.75330" lon="-119.47761"><ele>1730.0</ele></trkpt>
    <trkpt lat="34.75319" lon="-119.47739"><ele>1730.0</ele></trkpt>
    <trkpt lat="34.75313" lon="-119.47715"><ele>1734.0</ele></trkpt>
    <trkpt lat="34.75306" lon="-119.47683"><ele>1734.0</ele></trkpt>
    <trkpt lat="34.75302" lon="-119.47665"><ele>1734.0</ele></trkpt>
    <trkpt lat="34.75296" lon="-119.47651"><ele>1734.0</ele></trkpt>
    <trkpt lat="34.75290" lon="-119.47634"><ele>1734.0</ele></trkpt>
    <trkpt lat="34.75286" lon="-119.47619"><ele>1734.0</ele></trkpt>
    <trkpt lat="34.75286" lon="-119.47611"><ele>1734.0</ele></trkpt>
    <trkpt lat="34.75287" lon="-119.47600"><ele>1734.0</ele></trkpt>
    <trkpt lat="34.75290" lon="-119.47585"><ele>1741.0</ele></trkpt>
    <trkpt lat="34.75293" lon="-119.47574"><ele>1741.0</ele></trkpt>
    <trkpt lat="34.75300" lon="-119.47549"><ele>1741.0</ele></trkpt>
    <trkpt lat="34.75307" lon="-119.47530"><ele>1741.0</ele></trkpt>
    <trkpt lat="34.75312" lon="-119.47504"><ele>1741.0</ele></trkpt>
    <trkpt lat="34.75312" lon="-119.47473"><ele>1741.0</ele></trkpt>
    <trkpt lat="34.75313" lon="-119.47453"><ele>1741.0</ele></trkpt>
    <trkpt lat="34.75311" lon="-119.47432"><ele>1739.0</ele></trkpt>
    <trkpt lat="34.75312" lon="-119.47414"><ele>1739.0</ele></trkpt>
    <trkpt lat="34.75314" lon="-119.47405"><ele>1739.0</ele></trkpt>
    <trkpt lat="34.75318" lon="-119.47388"><ele>1739.0</ele></trkpt>
    <trkpt lat="34.75323" lon="-119.47384"><ele>1739.0</ele></trkpt>
    <trkpt lat="34.75328" lon="-119.47389"><ele>1739.0</ele></trkpt>
    <trkpt lat="34.75330" lon="-119.47395"><ele>1739.0</ele></trkpt>
    <trkpt lat="34.75331" lon="-119.47404"><ele>1751.0</ele></trkpt>
    <trkpt lat="34.75331" lon="-119.47420"><ele>1751.0</ele></trkpt>
    <trkpt lat="34.75332" lon="-119.47437"><ele>1751.0</ele></trkpt>
    <trkpt lat="34.75337" lon="-119.47465"><ele>1751.0</ele></trkpt>
    <trkpt lat="34.75340" lon="-119.47492"><ele>1751.0</ele></trkpt>
    <trkpt lat="34.75348" lon="-119.47531"><ele>1751.0</ele></trkpt>
    <trkpt lat="34.75351" lon="-119.47558"><ele>1751.0</ele></trkpt>
    <trkpt lat="34.75356" lon="-119.47584"><ele>1761.0</ele></trkpt>
    <trkpt lat="34.75362" lon="-119.47611"><ele>1761.0</ele></trkpt>
    <trkpt lat="34.75366" lon="-119.47627"><ele>1761.0</ele></trkpt>
    <trkpt lat="34.75370" lon="-119.47635"><ele>1761.0</ele></trkpt>
    <trkpt lat="34.75378" lon="-119.47647"><ele>1761.0</ele></trkpt>
    <trkpt lat="34.75386" lon="-119.47660"><ele>1761.0</ele></trkpt>
    <trkpt lat="34.75394" lon="-119.47675"><ele>1761.0</ele></trkpt>
    <trkpt lat="34.75402" lon="-119.47692"><ele>1761.0</ele></trkpt>
    <trkpt lat="34.75408" lon="-119.47706"><ele>1769.0</ele></trkpt>
    <trkpt lat="34.75412" lon="-119.47712"><ele>1769.0</ele></trkpt>
    <trkpt lat="34.75418" lon="-119.47717"><ele>1769.0</ele></trkpt>
    <trkpt lat="34.75424" lon="-119.47717"><ele>1769.0</ele></trkpt>
    <trkpt lat="34.75425" lon="-119.47710"><ele>1769.0</ele></trkpt>
    <trkpt lat="34.75424" lon="-119.47704"><ele>1769.0</ele></trkpt>
    <trkpt lat="34.75423" lon="-119.47696"><ele>1769.0</ele></trkpt>
    <trkpt lat="34.75420" lon="-119.47690"><ele>1769.0</ele></trkpt>
    <trkpt lat="34.75413" lon="-119.47675"><ele>1769.0</ele></trkpt>
    <trkpt lat="34.75403" lon="-119.47657"><ele>1769.0</ele></trkpt>
    <trkpt lat="34.75402" lon="-119.47644"><ele>1769.0</ele></trkpt>
  </trkseg></trk>
</gpx>
