<?xml version="1.0" encoding="UTF-8"?>
<gpx version="1.1" creator="dirt-bikes build-area-routes (MVUM geometry + SRTM elevation)" xmlns="http://www.topografix.com/GPX/1/1">
  <trk><name>Wrangler Trail</name><trkseg>
    <trkpt lat="32.69324" lon="-116.55448"><ele>1049.0</ele></trkpt>
    <trkpt lat="32.69346" lon="-116.55458"><ele>1049.0</ele></trkpt>
    <trkpt lat="32.69356" lon="-116.55458"><ele>1049.0</ele></trkpt>
    <trkpt lat="32.69371" lon="-116.55454"><ele>1052.0</ele></trkpt>
    <trkpt lat="32.69379" lon="-116.55470"><ele>1052.0</ele></trkpt>
    <trkpt lat="32.69392" lon="-116.55481"><ele>1052.0</ele></trkpt>
    <trkpt lat="32.69394" lon="-116.55498"><ele>1052.0</ele></trkpt>
    <trkpt lat="32.69404" lon="-116.55506"><ele>1052.0</ele></trkpt>
    <trkpt lat="32.69410" lon="-116.55519"><ele>1055.0</ele></trkpt>
    <trkpt lat="32.69420" lon="-116.55529"><ele>1055.0</ele></trkpt>
    <trkpt lat="32.69422" lon="-116.55552"><ele>1055.0</ele></trkpt>
    <trkpt lat="32.69427" lon="-116.55556"><ele>1055.0</ele></trkpt>
    <trkpt lat="32.69442" lon="-116.55560"><ele>1059.0</ele></trkpt>
    <trkpt lat="32.69451" lon="-116.55567"><ele>1059.0</ele></trkpt>
    <trkpt lat="32.69463" lon="-116.55569"><ele>1059.0</ele></trkpt>
    <trkpt lat="32.69480" lon="-116.55572"><ele>1059.0</ele></trkpt>
    <trkpt lat="32.69491" lon="-116.55566"><ele>1059.0</ele></trkpt>
    <trkpt lat="32.69508" lon="-116.55570"><ele>1065.0</ele></trkpt>
    <trkpt lat="32.69519" lon="-116.55570"><ele>1065.0</ele></trkpt>
    <trkpt lat="32.69527" lon="-116.55589"><ele>1065.0</ele></trkpt>
    <trkpt lat="32.69538" lon="-116.55595"><ele>1065.0</ele></trkpt>
    <trkpt lat="32.69551" lon="-116.55596"><ele>1065.0</ele></trkpt>
    <trkpt lat="32.69572" lon="-116.55619"><ele>1071.0</ele></trkpt>
    <trkpt lat="32.69578" lon="-116.55616"><ele>1071.0</ele></trkpt>
    <trkpt lat="32.69583" lon="-116.55612"><ele>1071.0</ele></trkpt>
    <trkpt lat="32.69594" lon="-116.55597"><ele>1071.0</ele></trkpt>
    <trkpt lat="32.69592" lon="-116.55584"><ele>1074.0</ele></trkpt>
    <trkpt lat="32.69596" lon="-116.55577"><ele>1074.0</ele></trkpt>
    <trkpt lat="32.69606" lon="-116.55577"><ele>1074.0</ele></trkpt>
    <trkpt lat="32.69615" lon="-116.55566"><ele>1074.0</ele></trkpt>
    <trkpt lat="32.69626" lon="-116.55570"><ele>1074.0</ele></trkpt>
    <trkpt lat="32.69631" lon="-116.55569"><ele>1073.0</ele></trkpt>
    <trkpt lat="32.69634" lon="-116.55559"><ele>1073.0</ele></trkpt>
    <trkpt lat="32.69650" lon="-116.55541"><ele>1073.0</ele></trkpt>
    <trkpt lat="32.69666" lon="-116.55541"><ele>1073.0</ele></trkpt>
    <trkpt lat="32.69678" lon="-116.55539"><ele>1073.0</ele></trkpt>
    <trkpt lat="32.69686" lon="-116.55542"><ele>1074.0</ele></trkpt>
    <trkpt lat="32.69688" lon="-116.55549"><ele>1074.0</ele></trkpt>
    <trkpt lat="32.69684" lon="-116.55568"><ele>1074.0</ele></trkpt>
    <trkpt lat="32.69673" lon="-116.55576"><ele>1074.0</ele></trkpt>
    <trkpt lat="32.69662" lon="-116.55583"><ele>1080.0</ele></trkpt>
    <trkpt lat="32.69663" lon="-116.55592"><ele>1080.0</ele></trkpt>
    <trkpt lat="32.69667" lon="-116.55598"><ele>1080.0</ele></trkpt>
    <trkpt lat="32.69667" lon="-116.55625"><ele>1080.0</ele></trkpt>
    <trkpt lat="32.69667" lon="-116.55637"><ele>1080.0</ele></trkpt>
    <trkpt lat="32.69674" lon="-116.55643"><ele>1081.0</ele></trkpt>
    <trkpt lat="32.69688" lon="-116.55639"><ele>1081.0</ele></trkpt>
    <trkpt lat="32.69733" lon="-116.55663"><ele>1081.0</ele></trkpt>
    <trkpt lat="32.69735" lon="-116.55673"><ele>1081.0</ele></trkpt>
    <trkpt lat="32.69750" lon="-116.55698"><ele>1081.0</ele></trkpt>
    <trkpt lat="32.69751" lon="-116.55721"><ele>1082.0</ele></trkpt>
    <trkpt lat="32.69756" lon="-116.55726"><ele>1082.0</ele></trkpt>
    <trkpt lat="32.69786" lon="-116.55730"><ele>1082.0</ele></trkpt>
    <trkpt lat="32.69798" lon="-116.55720"><ele>1082.0</ele></trkpt>
    <trkpt lat="32.69807" lon="-116.55715"><ele>1089.0</ele></trkpt>
    <trkpt lat="32.69816" lon="-116.55707"><ele>1089.0</ele></trkpt>
    <trkpt lat="32.69826" lon="-116.55707"><ele>1089.0</ele></trkpt>
    <trkpt lat="32.69835" lon="-116.55711"><ele>1089.0</ele></trkpt>
    <trkpt lat="32.69843" lon="-116.55718"><ele>1089.0</ele></trkpt>
    <trkpt lat="32.69860" lon="-116.55715"><ele>1091.0</ele></trkpt>
    <trkpt lat="32.69863" lon="-116.55718"><ele>1091.0</ele></trkpt>
    <trkpt lat="32.69875" lon="-116.55713"><ele>1091.0</ele></trkpt>
    <trkpt lat="32.69881" lon="-116.55716"><ele>1091.0</ele></trkpt>
    <trkpt lat="32.69884" lon="-116.55722"><ele>1091.0</ele></trkpt>
    <trkpt lat="32.69898" lon="-116.55750"><ele>1094.0</ele></trkpt>
    <trkpt lat="32.69901" lon="-116.55760"><ele>1094.0</ele></trkpt>
    <trkpt lat="32.69905" lon="-116.55761"><ele>1094.0</ele></trkpt>
    <trkpt lat="32.69907" lon="-116.55779"><ele>1094.0</ele></trkpt>
    <trkpt lat="32.69914" lon="-116.55786"><ele>1096.0</ele></trkpt>
    <trkpt lat="32.69915" lon="-116.55786"><ele>1096.0</ele></trkpt>
    <trkpt lat="32.69926" lon="-116.55787"><ele>1096.0</ele></trkpt>
    <trkpt lat="32.69933" lon="-116.55801"><ele>1096.0</ele></trkpt>
    <trkpt lat="32.69940" lon="-116.55815"><ele>1096.0</ele></trkpt>
    <trkpt lat="32.69941" lon="-116.55827"><ele>1102.0</ele></trkpt>
    <trkpt lat="32.69949" lon="-116.55832"><ele>1102.0</ele></trkpt>
    <trkpt lat="32.69951" lon="-116.55839"><ele>1102.0</ele></trkpt>
    <trkpt lat="32.69951" lon="-116.55853"><ele>1102.0</ele></trkpt>
    <trkpt lat="32.69960" lon="-116.55857"><ele>1102.0</ele></trkpt>
    <trkpt lat="32.69972" lon="-116.55855"><ele>1108.0</ele></trkpt>
    <trkpt lat="32.69981" lon="-116.55862"><ele>1108.0</ele></trkpt>
    <trkpt lat="32.69995" lon="-116.55863"><ele>1108.0</ele></trkpt>
    <trkpt lat="32.70004" lon="-116.55855"><ele>1108.0</ele></trkpt>
    <trkpt lat="32.70009" lon="-116.55842"><ele>1114.0</ele></trkpt>
    <trkpt lat="32.70006" lon="-116.55831"><ele>1114.0</ele></trkpt>
    <trkpt lat="32.70007" lon="-116.55819"><ele>1114.0</ele></trkpt>
    <trkpt lat="32.69997" lon="-116.55805"><ele>1114.0</ele></trkpt>
    <trkpt lat="32.69984" lon="-116.55799"><ele>1114.0</ele></trkpt>
    <trkpt lat="32.69979" lon="-116.55791"><ele>1108.0</ele></trkpt>
    <trkpt lat="32.69982" lon="-116.55777"><ele>1108.0</ele></trkpt>
    <trkpt lat="32.69993" lon="-116.55765"><ele>1108.0</ele></trkpt>
    <trkpt lat="32.70005" lon="-116.55762"><ele>1108.0</ele></trkpt>
    <trkpt lat="32.70014" lon="-116.55765"><ele>1108.0</ele></trkpt>
    <trkpt lat="32.70017" lon="-116.55775"><ele>1112.0</ele></trkpt>
    <trkpt lat="32.70019" lon="-116.55785"><ele>1112.0</ele></trkpt>
    <trkpt lat="32.70026" lon="-116.55789"><ele>1112.0</ele></trkpt>
    <trkpt lat="32.70038" lon="-116.55791"><ele>1112.0</ele></trkpt>
    <trkpt lat="32.70044" lon="-116.55800"><ele>1118.0</ele></trkpt>
    <trkpt lat="32.70048" lon="-116.55809"><ele>1118.0</ele></trkpt>
    <trkpt lat="32.70048" lon="-116.55821"><ele>1118.0</ele></trkpt>
    <trkpt lat="32.70051" lon="-116.55836"><ele>1118.0</ele></trkpt>
    <trkpt lat="32.70053" lon="-116.55849"><ele>1118.0</ele></trkpt>
    <trkpt lat="32.70059" lon="-116.55848"><ele>1123.0</ele></trkpt>
    <trkpt lat="32.70067" lon="-116.55838"><ele>1123.0</ele></trkpt>
    <trkpt lat="32.70076" lon="-116.55832"><ele>1123.0</ele></trkpt>
    <trkpt lat="32.70081" lon="-116.55831"><ele>1123.0</ele></trkpt>
    <trkpt lat="32.70093" lon="-116.55822"><ele>1123.0</ele></trkpt>
    <trkpt lat="32.70104" lon="-116.55809"><ele>1125.0</ele></trkpt>
    <trkpt lat="32.70115" lon="-116.55806"><ele>1125.0</ele></trkpt>
    <trkpt lat="32.70120" lon="-116.55805"><ele>1125.0</ele></trkpt>
    <trkpt lat="32.70149" lon="-116.55792"><ele>1125.0</ele></trkpt>
    <trkpt lat="32.70171" lon="-116.55773"><ele>1125.0</ele></trkpt>
    <trkpt lat="32.70185" lon="-116.55770"><ele>1134.0</ele></trkpt>
    <trkpt lat="32.70216" lon="-116.55772"><ele>1134.0</ele></trkpt>
    <trkpt lat="32.70222" lon="-116.55768"><ele>1134.0</ele></trkpt>
    <trkpt lat="32.70231" lon="-116.55768"><ele>1134.0</ele></trkpt>
    <trkpt lat="32.70237" lon="-116.55758"><ele>1139.0</ele></trkpt>
    <trkpt lat="32.70259" lon="-116.55749"><ele>1139.0</ele></trkpt>
    <trkpt lat="32.70277" lon="-116.55748"><ele>1139.0</ele></trkpt>
    <trkpt lat="32.70285" lon="-116.55739"><ele>1139.0</ele></trkpt>
    <trkpt lat="32.70303" lon="-116.55735"><ele>1139.0</ele></trkpt>
    <trkpt lat="32.70309" lon="-116.55738"><ele>1144.0</ele></trkpt>
    <trkpt lat="32.70318" lon="-116.55729"><ele>1144.0</ele></trkpt>
    <trkpt lat="32.70324" lon="-116.55730"><ele>1144.0</ele></trkpt>
    <trkpt lat="32.70327" lon="-116.55736"><ele>1144.0</ele></trkpt>
    <trkpt lat="32.70347" lon="-116.55740"><ele>1144.0</ele></trkpt>
    <trkpt lat="32.70375" lon="-116.55745"><ele>1153.0</ele></trkpt>
    <trkpt lat="32.70390" lon="-116.55745"><ele>1153.0</ele></trkpt>
    <trkpt lat="32.70403" lon="-116.55750"><ele>1153.0</ele></trkpt>
    <trkpt lat="32.70430" lon="-116.55750"><ele>1153.0</ele></trkpt>
    <trkpt lat="32.70446" lon="-116.55773"><ele>1163.0</ele></trkpt>
    <trkpt lat="32.70468" lon="-116.55776"><ele>1163.0</ele></trkpt>
    <trkpt lat="32.70469" lon="-116.55783"><ele>1163.0</ele></trkpt>
    <trkpt lat="32.70466" lon="-116.55795"><ele>1163.0</ele></trkpt>
    <trkpt lat="32.70459" lon="-116.55805"><ele>1163.0</ele></trkpt>
    <trkpt lat="32.70469" lon="-116.55815"><ele>1172.0</ele></trkpt>
    <trkpt lat="32.70487" lon="-116.55824"><ele>1172.0</ele></trkpt>
    <trkpt lat="32.70525" lon="-116.55823"><ele>1172.0</ele></trkpt>
    <trkpt lat="32.70535" lon="-116.55813"><ele>1172.0</ele></trkpt>
    <trkpt lat="32.70546" lon="-116.55812"><ele>1172.0</ele></trkpt>
    <trkpt lat="32.70553" lon="-116.55822"><ele>1174.0</ele></trkpt>
    <trkpt lat="32.70554" lon="-116.55831"><ele>1174.0</ele></trkpt>
    <trkpt lat="32.70569" lon="-116.55850"><ele>1174.0</ele></trkpt>
    <trkpt lat="32.70559" lon="-116.55860"><ele>1174.0</ele></trkpt>
    <trkpt lat="32.70558" lon="-116.55871"><ele>1183.0</ele></trkpt>
    <trkpt lat="32.70570" lon="-116.55874"><ele>1183.0</ele></trkpt>
    <trkpt lat="32.70588" lon="-116.55875"><ele>1183.0</ele></trkpt>
    <trkpt lat="32.70602" lon="-116.55867"><ele>1183.0</ele></trkpt>
    <trkpt lat="32.70618" lon="-116.55872"><ele>1183.0</ele></trkpt>
    <trkpt lat="32.70619" lon="-116.55884"><ele>1187.0</ele></trkpt>
    <trkpt lat="32.70631" lon="-116.55891"><ele>1187.0</ele></trkpt>
    <trkpt lat="32.70645" lon="-116.55891"><ele>1187.0</ele></trkpt>
    <trkpt lat="32.70662" lon="-116.55890"><ele>1187.0</ele></trkpt>
    <trkpt lat="32.70679" lon="-116.55901"><ele>1187.0</ele></trkpt>
    <trkpt lat="32.70691" lon="-116.55904"><ele>1189.0</ele></trkpt>
    <trkpt lat="32.70714" lon="-116.55917"><ele>1189.0</ele></trkpt>
    <trkpt lat="32.70735" lon="-116.55931"><ele>1189.0</ele></trkpt>
    <trkpt lat="32.70752" lon="-116.55947"><ele>1189.0</ele></trkpt>
    <trkpt lat="32.70753" lon="-116.55956"><ele>1197.0</ele></trkpt>
    <trkpt lat="32.70748" lon="-116.55964"><ele>1197.0</ele></trkpt>
    <trkpt lat="32.70752" lon="-116.55974"><ele>1197.0</ele></trkpt>
    <trkpt lat="32.70762" lon="-116.55974"><ele>1197.0</ele></trkpt>
    <trkpt lat="32.70769" lon="-116.55979"><ele>1197.0</ele></trkpt>
    <trkpt lat="32.70782" lon="-116.55983"><ele>1203.0</ele></trkpt>
    <trkpt lat="32.70783" lon="-116.55991"><ele>1203.0</ele></trkpt>
    <trkpt lat="32.70783" lon="-116.55998"><ele>1203.0</ele></trkpt>
    <trkpt lat="32.70787" lon="-116.56001"><ele>1203.0</ele></trkpt>
    <trkpt lat="32.70818" lon="-116.56002"><ele>1203.0</ele></trkpt>
    <trkpt lat="32.70821" lon="-116.56006"><ele>1206.0</ele></trkpt>
    <trkpt lat="32.70831" lon="-116.56003"><ele>1206.0</ele></trkpt>
    <trkpt lat="32.70837" lon="-116.55996"><ele>1206.0</ele></trkpt>
    <trkpt lat="32.70851" lon="-116.55993"><ele>1206.0</ele></trkpt>
    <trkpt lat="32.70851" lon="-116.55980"><ele>1200.0</ele></trkpt>
    <trkpt lat="32.70836" lon="-116.55957"><ele>1200.0</ele></trkpt>
    <trkpt lat="32.70832" lon="-116.55942"><ele>1200.0</ele></trkpt>
    <trkpt lat="32.70841" lon="-116.55923"><ele>1200.0</ele></trkpt>
    <trkpt lat="32.70860" lon="-116.55918"><ele>1200.0</ele></trkpt>
    <trkpt lat="32.70860" lon="-116.55918"><ele>1200.0</ele></trkpt>
    <trkpt lat="32.70862" lon="-116.55918"><ele>1200.0</ele></trkpt>
    <trkpt lat="32.70872" lon="-116.55915"><ele>1200.0</ele></trkpt>
    <trkpt lat="32.70876" lon="-116.55911"><ele>1200.0</ele></trkpt>
    <trkpt lat="32.70881" lon="-116.55909"><ele>1200.0</ele></trkpt>
    <trkpt lat="32.70886" lon="-116.55903"><ele>1201.0</ele></trkpt>
    <trkpt lat="32.70894" lon="-116.55903"><ele>1201.0</ele></trkpt>
    <trkpt lat="32.70919" lon="-116.55931"><ele>1201.0</ele></trkpt>
    <trkpt lat="32.70931" lon="-116.55928"><ele>1201.0</ele></trkpt>
    <trkpt lat="32.70942" lon="-116.55933"><ele>1196.0</ele></trkpt>
    <trkpt lat="32.70952" lon="-116.55948"><ele>1196.0</ele></trkpt>
    <trkpt lat="32.70958" lon="-116.55964"><ele>1196.0</ele></trkpt>
    <trkpt lat="32.70959" lon="-116.55982"><ele>1196.0</ele></trkpt>
    <trkpt lat="32.70970" lon="-116.55992"><ele>1196.0</ele></trkpt>
    <trkpt lat="32.70972" lon="-116.55998"><ele>1193.0</ele></trkpt>
    <trkpt lat="32.70972" lon="-116.56007"><ele>1193.0</ele></trkpt>
    <trkpt lat="32.70980" lon="-116.56018"><ele>1193.0</ele></trkpt>
    <trkpt lat="32.70977" lon="-116.56034"><ele>1193.0</ele></trkpt>
    <trkpt lat="32.70988" lon="-116.56057"><ele>1193.0</ele></trkpt>
    <trkpt lat="32.70996" lon="-116.56077"><ele>1188.0</ele></trkpt>
    <trkpt lat="32.71004" lon="-116.56082"><ele>1188.0</ele></trkpt>
    <trkpt lat="32.71013" lon="-116.56075"><ele>1188.0</ele></trkpt>
    <trkpt lat="32.71017" lon="-116.56063"><ele>1188.0</ele></trkpt>
    <trkpt lat="32.71034" lon="-116.56046"><ele>1180.0</ele></trkpt>
    <trkpt lat="32.71036" lon="-116.56022"><ele>1180.0</ele></trkpt>
    <trkpt lat="32.71045" lon="-116.56017"><ele>1180.0</ele></trkpt>
    <trkpt lat="32.71050" lon="-116.55995"><ele>1180.0</ele></trkpt>
    <trkpt lat="32.71056" lon="-116.55988"><ele>1180.0</ele></trkpt>
    <trkpt lat="32.71058" lon="-116.55968"><ele>1174.0</ele></trkpt>
    <trkpt lat="32.71062" lon="-116.55960"><ele>1174.0</ele></trkpt>
    <trkpt lat="32.71068" lon="-116.55954"><ele>1174.0</ele></trkpt>
    <trkpt lat="32.71068" lon="-116.55947"><ele>1174.0</ele></trkpt>
    <trkpt lat="32.71061" lon="-116.55938"><ele>1174.0</ele></trkpt>
    <trkpt lat="32.71051" lon="-116.55933"><ele>1175.0</ele></trkpt>
    <trkpt lat="32.71049" lon="-116.55911"><ele>1175.0</ele></trkpt>
    <trkpt lat="32.71057" lon="-116.55910"><ele>1175.0</ele></trkpt>
    <trkpt lat="32.71072" lon="-116.55913"><ele>1175.0</ele></trkpt>
    <trkpt lat="32.71080" lon="-116.55918"><ele>1168.0</ele></trkpt>
    <trkpt lat="32.71088" lon="-116.55919"><ele>1168.0</ele></trkpt>
    <trkpt lat="32.71092" lon="-116.55913"><ele>1168.0</ele></trkpt>
    <trkpt lat="32.71093" lon="-116.55900"><ele>1168.0</ele></trkpt>
    <trkpt lat="32.71101" lon="-116.55892"><ele>1168.0</ele></trkpt>
    <trkpt lat="32.71109" lon="-116.55889"><ele>1163.0</ele></trkpt>
    <trkpt lat="32.71110" lon="-116.55878"><ele>1163.0</ele></trkpt>
    <trkpt lat="32.71130" lon="-116.55862"><ele>1163.0</ele></trkpt>
    <trkpt lat="32.71154" lon="-116.55859"><ele>1163.0</ele></trkpt>
    <trkpt lat="32.71161" lon="-116.55887"><ele>1163.0</ele></trkpt>
    <trkpt lat="32.71170" lon="-116.55891"><ele>1162.0</ele></trkpt>
    <trkpt lat="32.71186" lon="-116.55885"><ele>1162.0</ele></trkpt>
    <trkpt lat="32.71194" lon="-116.55901"><ele>1162.0</ele></trkpt>
    <trkpt lat="32.71208" lon="-116.55902"><ele>1162.0</ele></trkpt>
    <trkpt lat="32.71210" lon="-116.55902"><ele>1160.0</ele></trkpt>
    <trkpt lat="32.71223" lon="-116.55902"><ele>1160.0</ele></trkpt>
    <trkpt lat="32.71237" lon="-116.55894"><ele>1160.0</ele></trkpt>
    <trkpt lat="32.71255" lon="-116.55883"><ele>1160.0</ele></trkpt>
    <trkpt lat="32.71268" lon="-116.55880"><ele>1160.0</ele></trkpt>
    <trkpt lat="32.71275" lon="-116.55869"><ele>1160.0</ele></trkpt>
    <trkpt lat="32.71287" lon="-116.55864"><ele>1160.0</ele></trkpt>
    <trkpt lat="32.71295" lon="-116.55868"><ele>1160.0</ele></trkpt>
    <trkpt lat="32.71303" lon="-116.55879"><ele>1160.0</ele></trkpt>
    <trkpt lat="32.71318" lon="-116.55888"><ele>1160.0</ele></trkpt>
    <trkpt lat="32.71332" lon="-116.55886"><ele>1158.0</ele></trkpt>
    <trkpt lat="32.71333" lon="-116.55888"><ele>1158.0</ele></trkpt>
    <trkpt lat="32.71332" lon="-116.55899"><ele>1158.0</ele></trkpt>
    <trkpt lat="32.71334" lon="-116.55915"><ele>1158.0</ele></trkpt>
    <trkpt lat="32.71344" lon="-116.55921"><ele>1155.0</ele></trkpt>
    <trkpt lat="32.71352" lon="-116.55933"><ele>1155.0</ele></trkpt>
    <trkpt lat="32.71362" lon="-116.55936"><ele>1155.0</ele></trkpt>
    <trkpt lat="32.71369" lon="-116.55948"><ele>1155.0</ele></trkpt>
    <trkpt lat="32.71389" lon="-116.55959"><ele>1155.0</ele></trkpt>
    <trkpt lat="32.71396" lon="-116.55967"><ele>1152.0</ele></trkpt>
    <trkpt lat="32.71408" lon="-116.55968"><ele>1152.0</ele></trkpt>
    <trkpt lat="32.71419" lon="-116.55977"><ele>1152.0</ele></trkpt>
    <trkpt lat="32.71440" lon="-116.55968"><ele>1152.0</ele></trkpt>
    <trkpt lat="32.71452" lon="-116.55969"><ele>1152.0</ele></trkpt>
    <trkpt lat="32.71460" lon="-116.55967"><ele>1155.0</ele></trkpt>
    <trkpt lat="32.71466" lon="-116.55969"><ele>1155.0</ele></trkpt>
    <trkpt lat="32.71472" lon="-116.55978"><ele>1155.0</ele></trkpt>
    <trkpt lat="32.71480" lon="-116.55979"><ele>1155.0</ele></trkpt>
    <trkpt lat="32.71485" lon="-116.55971"><ele>1157.0</ele></trkpt>
    <trkpt lat="32.71486" lon="-116.55970"><ele>1157.0</ele></trkpt>
    <trkpt lat="32.71487" lon="-116.55967"><ele>1157.0</ele></trkpt>
    <trkpt lat="32.71507" lon="-116.55957"><ele>1157.0</ele></trkpt>
    <trkpt lat="32.71530" lon="-116.55955"><ele>1157.0</ele></trkpt>
    <trkpt lat="32.71543" lon="-116.55947"><ele>1165.0</ele></trkpt>
    <trkpt lat="32.71560" lon="-116.55944"><ele>1165.0</ele></trkpt>
    <trkpt lat="32.71571" lon="-116.55934"><ele>1165.0</ele></trkpt>
    <trkpt lat="32.71582" lon="-116.55931"><ele>1165.0</ele></trkpt>
    <trkpt lat="32.71599" lon="-116.55925"><ele>1165.0</ele></trkpt>
    <trkpt lat="32.71621" lon="-116.55921"><ele>1170.0</ele></trkpt>
    <trkpt lat="32.71640" lon="-116.55912"><ele>1170.0</ele></trkpt>
    <trkpt lat="32.71657" lon="-116.55916"><ele>1170.0</ele></trkpt>
    <trkpt lat="32.71663" lon="-116.55922"><ele>1170.0</ele></trkpt>
    <trkpt lat="32.71671" lon="-116.55946"><ele>1167.0</ele></trkpt>
    <trkpt lat="32.71677" lon="-116.55954"><ele>1167.0</ele></trkpt>
    <trkpt lat="32.71692" lon="-116.55989"><ele>1167.0</ele></trkpt>
    <trkpt lat="32.71715" lon="-116.55991"><ele>1167.0</ele></trkpt>
    <trkpt lat="32.71724" lon="-116.56003"><ele>1167.0</ele></trkpt>
    <trkpt lat="32.71725" lon="-116.56010"><ele>1167.0</ele></trkpt>
    <trkpt lat="32.71731" lon="-116.56014"><ele>1167.0</ele></trkpt>
    <trkpt lat="32.71736" lon="-116.56020"><ele>1167.0</ele></trkpt>
    <trkpt lat="32.71735" lon="-116.56034"><ele>1167.0</ele></trkpt>
    <trkpt lat="32.71737" lon="-116.56042"><ele>1167.0</ele></trkpt>
    <trkpt lat="32.71739" lon="-116.56054"><ele>1164.0</ele></trkpt>
    <trkpt lat="32.71746" lon="-116.56058"><ele>1164.0</ele></trkpt>
    <trkpt lat="32.71746" lon="-116.56066"><ele>1164.0</ele></trkpt>
    <trkpt lat="32.71743" lon="-116.56070"><ele>1164.0</ele></trkpt>
    <trkpt lat="32.71740" lon="-116.56079"><ele>1160.0</ele></trkpt>
    <trkpt lat="32.71739" lon="-116.56094"><ele>1160.0</ele></trkpt>
    <trkpt lat="32.71730" lon="-116.56098"><ele>1160.0</ele></trkpt>
    <trkpt lat="32.71725" lon="-116.56095"><ele>1160.0</ele></trkpt>
    <trkpt lat="32.71720" lon="-116.56093"><ele>1160.0</ele></trkpt>
    <trkpt lat="32.71708" lon="-116.56098"><ele>1154.0</ele></trkpt>
    <trkpt lat="32.71707" lon="-116.56115"><ele>1154.0</ele></trkpt>
    <trkpt lat="32.71694" lon="-116.56135"><ele>1154.0</ele></trkpt>
    <trkpt lat="32.71689" lon="-116.56137"><ele>1154.0</ele></trkpt>
    <trkpt lat="32.71697" lon="-116.56147"><ele>1154.0</ele></trkpt>
    <trkpt lat="32.71703" lon="-116.56143"><ele>1154.0</ele></trkpt>
    <trkpt lat="32.71707" lon="-116.56138"><ele>1154.0</ele></trkpt>
    <trkpt lat="32.71712" lon="-116.56137"><ele>1154.0</ele></trkpt>
    <trkpt lat="32.71713" lon="-116.56142"><ele>1154.0</ele></trkpt>
    <trkpt lat="32.71709" lon="-116.56151"><ele>1151.0</ele></trkpt>
    <trkpt lat="32.71707" lon="-116.56154"><ele>1151.0</ele></trkpt>
    <trkpt lat="32.71707" lon="-116.56168"><ele>1151.0</ele></trkpt>
    <trkpt lat="32.71711" lon="-116.56197"><ele>1151.0</ele></trkpt>
    <trkpt lat="32.71715" lon="-116.56218"><ele>1151.0</ele></trkpt>
    <trkpt lat="32.71723" lon="-116.56220"><ele>1144.0</ele></trkpt>
    <trkpt lat="32.71728" lon="-116.56226"><ele>1144.0</ele></trkpt>
    <trkpt lat="32.71737" lon="-116.56232"><ele>1144.0</ele></trkpt>
    <trkpt lat="32.71745" lon="-116.56234"><ele>1144.0</ele></trkpt>
    <trkpt lat="32.71752" lon="-116.56233"><ele>1144.0</ele></trkpt>
    <trkpt lat="32.71754" lon="-116.56241"><ele>1141.0</ele></trkpt>
    <trkpt lat="32.71753" lon="-116.56258"><ele>1141.0</ele></trkpt>
    <trkpt lat="32.71755" lon="-116.56263"><ele>1141.0</ele></trkpt>
    <trkpt lat="32.71759" lon="-116.56263"><ele>1141.0</ele></trkpt>
    <trkpt lat="32.71763" lon="-116.56256"><ele>1143.0</ele></trkpt>
    <trkpt lat="32.71769" lon="-116.56252"><ele>1143.0</ele></trkpt>
    <trkpt lat="32.71778" lon="-116.56252"><ele>1143.0</ele></trkpt>
    <trkpt lat="32.71786" lon="-116.56253"><ele>1143.0</ele></trkpt>
    <trkpt lat="32.71799" lon="-116.56264"><ele>1143.0</ele></trkpt>
    <trkpt lat="32.71805" lon="-116.56275"><ele>1138.0</ele></trkpt>
    <trkpt lat="32.71807" lon="-116.56285"><ele>1138.0</ele></trkpt>
    <trkpt lat="32.71822" lon="-116.56290"><ele>1138.0</ele></trkpt>
    <trkpt lat="32.71836" lon="-116.56292"><ele>1138.0</ele></trkpt>
    <trkpt lat="32.71840" lon="-116.56299"><ele>1138.0</ele></trkpt>
    <trkpt lat="32.71834" lon="-116.56301"><ele>1136.0</ele></trkpt>
    <trkpt lat="32.71825" lon="-116.56300"><ele>1136.0</ele></trkpt>
    <trkpt lat="32.71821" lon="-116.56303"><ele>1136.0</ele></trkpt>
    <trkpt lat="32.71821" lon="-116.56321"><ele>1136.0</ele></trkpt>
    <trkpt lat="32.71828" lon="-116.56330"><ele>1136.0</ele></trkpt>
    <trkpt lat="32.71828" lon="-116.56338"><ele>1129.0</ele></trkpt>
    <trkpt lat="32.71820" lon="-116.56341"><ele>1129.0</ele></trkpt>
    <trkpt lat="32.71817" lon="-116.56348"><ele>1129.0</ele></trkpt>
    <trkpt lat="32.71818" lon="-116.56355"><ele>1129.0</ele></trkpt>
    <trkpt lat="32.71814" lon="-116.56363"><ele>1122.0</ele></trkpt>
    <trkpt lat="32.71807" lon="-116.56364"><ele>1122.0</ele></trkpt>
    <trkpt lat="32.71796" lon="-116.56385"><ele>1122.0</ele></trkpt>
    <trkpt lat="32.71797" lon="-116.56388"><ele>1122.0</ele></trkpt>
    <trkpt lat="32.71797" lon="-116.56397"><ele>1122.0</ele></trkpt>
    <trkpt lat="32.71802" lon="-116.56399"><ele>1121.0</ele></trkpt>
    <trkpt lat="32.71813" lon="-116.56400"><ele>1121.0</ele></trkpt>
    <trkpt lat="32.71819" lon="-116.56397"><ele>1121.0</ele></trkpt>
    <trkpt lat="32.71834" lon="-116.56376"><ele>1121.0</ele></trkpt>
    <trkpt lat="32.71847" lon="-116.56342"><ele>1121.0</ele></trkpt>
    <trkpt lat="32.71866" lon="-116.56332"><ele>1126.0</ele></trkpt>
    <trkpt lat="32.71875" lon="-116.56325"><ele>1126.0</ele></trkpt>
    <trkpt lat="32.71892" lon="-116.56323"><ele>1126.0</ele></trkpt>
    <trkpt lat="32.71896" lon="-116.56328"><ele>1126.0</ele></trkpt>
    <trkpt lat="32.71893" lon="-116.56341"><ele>1116.0</ele></trkpt>
    <trkpt lat="32.71894" lon="-116.56350"><ele>1116.0</ele></trkpt>
    <trkpt lat="32.71902" lon="-116.56353"><ele>1116.0</ele></trkpt>
    <trkpt lat="32.71912" lon="-116.56349"><ele>1116.0</ele></trkpt>
    <trkpt lat="32.71923" lon="-116.56335"><ele>1116.0</ele></trkpt>
    <trkpt lat="32.71933" lon="-116.56328"><ele>1117.0</ele></trkpt>
    <trkpt lat="32.71941" lon="-116.56331"><ele>1117.0</ele></trkpt>
    <trkpt lat="32.71942" lon="-116.56332"><ele>1117.0</ele></trkpt>
    <trkpt lat="32.71952" lon="-116.56327"><ele>1117.0</ele></trkpt>
    <trkpt lat="32.71960" lon="-116.56332"><ele>1117.0</ele></trkpt>
    <trkpt lat="32.71967" lon="-116.56329"><ele>1117.0</ele></trkpt>
    <trkpt lat="32.71972" lon="-116.56319"><ele>1117.0</ele></trkpt>
    <trkpt lat="32.71983" lon="-116.56299"><ele>1117.0</ele></trkpt>
    <trkpt lat="32.71983" lon="-116.56299"><ele>1117.0</ele></trkpt>
    <trkpt lat="32.71983" lon="-116.56291"><ele>1121.0</ele></trkpt>
    <trkpt lat="32.71988" lon="-116.56286"><ele>1121.0</ele></trkpt>
    <trkpt lat="32.71990" lon="-116.56276"><ele>1121.0</ele></trkpt>
    <trkpt lat="32.71984" lon="-116.56265"><ele>1121.0</ele></trkpt>
    <trkpt lat="32.71986" lon="-116.56242"><ele>1121.0</ele></trkpt>
    <trkpt lat="32.71995" lon="-116.56219"><ele>1129.0</ele></trkpt>
    <trkpt lat="32.72007" lon="-116.56222"><ele>1129.0</ele></trkpt>
    <trkpt lat="32.72013" lon="-116.56208"><ele>1129.0</ele></trkpt>
    <trkpt lat="32.72014" lon="-116.56199"><ele>1129.0</ele></trkpt>
    <trkpt lat="32.72013" lon="-116.56191"><ele>1129.0</ele></trkpt>
    <trkpt lat="32.72016" lon="-116.56183"><ele>1135.0</ele></trkpt>
    <trkpt lat="32.72014" lon="-116.56168"><ele>1135.0</ele></trkpt>
    <trkpt lat="32.72019" lon="-116.56148"><ele>1135.0</ele></trkpt>
    <trkpt lat="32.72024" lon="-116.56140"><ele>1135.0</ele></trkpt>
    <trkpt lat="32.72025" lon="-116.56132"><ele>1142.0</ele></trkpt>
    <trkpt lat="32.72030" lon="-116.56123"><ele>1142.0</ele></trkpt>
    <trkpt lat="32.72029" lon="-116.56113"><ele>1142.0</ele></trkpt>
    <trkpt lat="32.72033" lon="-116.56111"><ele>1142.0</ele></trkpt>
    <trkpt lat="32.72037" lon="-116.56108"><ele>1142.0</ele></trkpt>
    <trkpt lat="32.72039" lon="-116.56106"><ele>1145.0</ele></trkpt>
    <trkpt lat="32.72047" lon="-116.56102"><ele>1145.0</ele></trkpt>
    <trkpt lat="32.72048" lon="-116.56087"><ele>1145.0</ele></trkpt>
    <trkpt lat="32.72054" lon="-116.56083"><ele>1145.0</ele></trkpt>
    <trkpt lat="32.72070" lon="-116.56089"><ele>1145.0</ele></trkpt>
    <trkpt lat="32.72076" lon="-116.56085"><ele>1145.0</ele></trkpt>
    <trkpt lat="32.72083" lon="-116.56066"><ele>1145.0</ele></trkpt>
    <trkpt lat="32.72085" lon="-116.56036"><ele>1145.0</ele></trkpt>
    <trkpt lat="32.72087" lon="-116.56025"><ele>1145.0</ele></trkpt>
    <trkpt lat="32.72091" lon="-116.56027"><ele>1150.0</ele></trkpt>
    <trkpt lat="32.72105" lon="-116.56021"><ele>1150.0</ele></trkpt>
    <trkpt lat="32.72111" lon="-116.56008"><ele>1150.0</ele></trkpt>
    <trkpt lat="32.72107" lon="-116.55995"><ele>1150.0</ele></trkpt>
    <trkpt lat="32.72110" lon="-116.55989"><ele>1150.0</ele></trkpt>
    <trkpt lat="32.72121" lon="-116.55985"><ele>1151.0</ele></trkpt>
    <trkpt lat="32.72131" lon="-116.55990"><ele>1151.0</ele></trkpt>
    <trkpt lat="32.72136" lon="-116.56003"><ele>1151.0</ele></trkpt>
    <trkpt lat="32.72149" lon="-116.56004"><ele>1151.0</ele></trkpt>
    <trkpt lat="32.72163" lon="-116.56006"><ele>1151.0</ele></trkpt>
    <trkpt lat="32.72176" lon="-116.56016"><ele>1150.0</ele></trkpt>
    <trkpt lat="32.72180" lon="-116.56020"><ele>1150.0</ele></trkpt>
    <trkpt lat="32.72195" lon="-116.56032"><ele>1150.0</ele></trkpt>
    <trkpt lat="32.72210" lon="-116.56031"><ele>1150.0</ele></trkpt>
    <trkpt lat="32.72226" lon="-116.56036"><ele>1153.0</ele></trkpt>
    <trkpt lat="32.72247" lon="-116.56027"><ele>1153.0</ele></trkpt>
    <trkpt lat="32.72256" lon="-116.56017"><ele>1153.0</ele></trkpt>
    <trkpt lat="32.72275" lon="-116.56005"><ele>1153.0</ele></trkpt>
    <trkpt lat="32.72293" lon="-116.55981"><ele>1153.0</ele></trkpt>
    <trkpt lat="32.72306" lon="-116.55957"><ele>1160.0</ele></trkpt>
    <trkpt lat="32.72316" lon="-116.55949"><ele>1160.0</ele></trkpt>
    <trkpt lat="32.72326" lon="-116.55952"><ele>1160.0</ele></trkpt>
    <trkpt lat="32.72340" lon="-116.55952"><ele>1160.0</ele></trkpt>
    <trkpt lat="32.72355" lon="-116.55940"><ele>1160.0</ele></trkpt>
    <trkpt lat="32.72370" lon="-116.55939"><ele>1163.0</ele></trkpt>
    <trkpt lat="32.72390" lon="-116.55944"><ele>1163.0</ele></trkpt>
    <trkpt lat="32.72403" lon="-116.55943"><ele>1163.0</ele></trkpt>
    <trkpt lat="32.72407" lon="-116.55933"><ele>1163.0</ele></trkpt>
    <trkpt lat="32.72414" lon="-116.55920"><ele>1166.0</ele></trkpt>
    <trkpt lat="32.72427" lon="-116.55917"><ele>1166.0</ele></trkpt>
    <trkpt lat="32.72458" lon="-116.55915"><ele>1166.0</ele></trkpt>
  </trkseg></trk>
</gpx>
