<?xml version="1.0" encoding="UTF-8"?>
<gpx version="1.1" creator="dirt-bikes build-area-routes (MVUM geometry + SRTM elevation)" xmlns="http://www.topografix.com/GPX/1/1">
  <trk><name>Zaca Ridge OHV Road</name><trkseg>
    <trkpt lat="34.73627" lon="-119.99606"><ele>1059.0</ele></trkpt>
    <trkpt lat="34.73631" lon="-119.99638"><ele>1059.0</ele></trkpt>
    <trkpt lat="34.73632" lon="-119.99663"><ele>1059.0</ele></trkpt>
    <trkpt lat="34.73635" lon="-119.99673"><ele>1059.0</ele></trkpt>
    <trkpt lat="34.73646" lon="-119.99686"><ele>1057.0</ele></trkpt>
    <trkpt lat="34.73650" lon="-119.99688"><ele>1057.0</ele></trkpt>
    <trkpt lat="34.73658" lon="-119.99691"><ele>1057.0</ele></trkpt>
    <trkpt lat="34.73666" lon="-119.99692"><ele>1057.0</ele></trkpt>
    <trkpt lat="34.73682" lon="-119.99684"><ele>1057.0</ele></trkpt>
    <trkpt lat="34.73695" lon="-119.99671"><ele>1057.0</ele></trkpt>
    <trkpt lat="34.73712" lon="-119.99641"><ele>1057.0</ele></trkpt>
    <trkpt lat="34.73719" lon="-119.99626"><ele>1057.0</ele></trkpt>
    <trkpt lat="34.73735" lon="-119.99598"><ele>1079.0</ele></trkpt>
    <trkpt lat="34.73745" lon="-119.99587"><ele>1079.0</ele></trkpt>
    <trkpt lat="34.73750" lon="-119.99585"><ele>1079.0</ele></trkpt>
    <trkpt lat="34.73771" lon="-119.99584"><ele>1079.0</ele></trkpt>
    <trkpt lat="34.73777" lon="-119.99581"><ele>1079.0</ele></trkpt>
    <trkpt lat="34.73796" lon="-119.99572"><ele>1079.0</ele></trkpt>
    <trkpt lat="34.73810" lon="-119.99561"><ele>1079.0</ele></trkpt>
    <trkpt lat="34.73819" lon="-119.99552"><ele>1093.0</ele></trkpt>
    <trkpt lat="34.73834" lon="-119.99545"><ele>1093.0</ele></trkpt>
    <trkpt lat="34.73851" lon="-119.99546"><ele>1093.0</ele></trkpt>
    <trkpt lat="34.73863" lon="-119.99548"><ele>1093.0</ele></trkpt>
    <trkpt lat="34.73879" lon="-119.99555"><ele>1093.0</ele></trkpt>
    <trkpt lat="34.73887" lon="-119.99560"><ele>1093.0</ele></trkpt>
    <trkpt lat="34.73920" lon="-119.99588"><ele>1093.0</ele></trkpt>
    <trkpt lat="34.73952" lon="-119.99611"><ele>1086.0</ele></trkpt>
    <trkpt lat="34.73958" lon="-119.99613"><ele>1086.0</ele></trkpt>
    <trkpt lat="34.73974" lon="-119.99617"><ele>1086.0</ele></trkpt>
    <trkpt lat="34.73981" lon="-119.99615"><ele>1086.0</ele></trkpt>
    <trkpt lat="34.74008" lon="-119.99608"><ele>1086.0</ele></trkpt>
    <trkpt lat="34.74014" lon="-119.99604"><ele>1086.0</ele></trkpt>
    <trkpt lat="34.74019" lon="-119.99601"><ele>1086.0</ele></trkpt>
    <trkpt lat="34.74023" lon="-119.99596"><ele>1109.0</ele></trkpt>
    <trkpt lat="34.74034" lon="-119.99575"><ele>1109.0</ele></trkpt>
    <trkpt lat="34.74039" lon="-119.99566"><ele>1109.0</ele></trkpt>
    <trkpt lat="34.74056" lon="-119.99551"><ele>1109.0</ele></trkpt>
    <trkpt lat="34.74083" lon="-119.99535"><ele>1109.0</ele></trkpt>
    <trkpt lat="34.74088" lon="-119.99525"><ele>1109.0</ele></trkpt>
    <trkpt lat="34.74095" lon="-119.99505"><ele>1109.0</ele></trkpt>
    <trkpt lat="34.74100" lon="-119.99484"><ele>1109.0</ele></trkpt>
    <trkpt lat="34.74102" lon="-119.99465"><ele>1137.0</ele></trkpt>
    <trkpt lat="34.74105" lon="-119.99435"><ele>1137.0</ele></trkpt>
    <trkpt lat="34.74105" lon="-119.99415"><ele>1137.0</ele></trkpt>
    <trkpt lat="34.74108" lon="-119.99407"><ele>1137.0</ele></trkpt>
    <trkpt lat="34.74119" lon="-119.99397"><ele>1137.0</ele></trkpt>
    <trkpt lat="34.74126" lon="-119.99395"><ele>1137.0</ele></trkpt>
    <trkpt lat="34.74133" lon="-119.99399"><ele>1137.0</ele></trkpt>
    <trkpt lat="34.74148" lon="-119.99413"><ele>1112.0</ele></trkpt>
    <trkpt lat="34.74160" lon="-119.99429"><ele>1112.0</ele></trkpt>
    <trkpt lat="34.74191" lon="-119.99459"><ele>1112.0</ele></trkpt>
    <trkpt lat="34.74199" lon="-119.99463"><ele>1112.0</ele></trkpt>
    <trkpt lat="34.74218" lon="-119.99468"><ele>1112.0</ele></trkpt>
    <trkpt lat="34.74231" lon="-119.99469"><ele>1112.0</ele></trkpt>
    <trkpt lat="34.74255" lon="-119.99469"><ele>1112.0</ele></trkpt>
    <trkpt lat="34.74293" lon="-119.99466"><ele>1112.0</ele></trkpt>
    <trkpt lat="34.74309" lon="-119.99464"><ele>1112.0</ele></trkpt>
    <trkpt lat="34.74335" lon="-119.99465"><ele>1112.0</ele></trkpt>
    <trkpt lat="34.74343" lon="-119.99467"><ele>1112.0</ele></trkpt>
    <trkpt lat="34.74369" lon="-119.99477"><ele>1112.0</ele></trkpt>
    <trkpt lat="34.74398" lon="-119.99490"><ele>1112.0</ele></trkpt>
    <trkpt lat="34.74419" lon="-119.99500"><ele>1112.0</ele></trkpt>
    <trkpt lat="34.74444" lon="-119.99503"><ele>1112.0</ele></trkpt>
    <trkpt lat="34.74458" lon="-119.99502"><ele>1112.0</ele></trkpt>
    <trkpt lat="34.74482" lon="-119.99494"><ele>1112.0</ele></trkpt>
    <trkpt lat="34.74508" lon="-119.99483"><ele>1112.0</ele></trkpt>
    <trkpt lat="34.74530" lon="-119.99467"><ele>1112.0</ele></trkpt>
    <trkpt lat="34.74543" lon="-119.99453"><ele>1112.0</ele></trkpt>
    <trkpt lat="34.74553" lon="-119.99423"><ele>1112.0</ele></trkpt>
    <trkpt lat="34.74555" lon="-119.99395"><ele>1112.0</ele></trkpt>
    <trkpt lat="34.74557" lon="-119.99355"><ele>1139.0</ele></trkpt>
    <trkpt lat="34.74559" lon="-119.99328"><ele>1139.0</ele></trkpt>
    <trkpt lat="34.74561" lon="-119.99285"><ele>1139.0</ele></trkpt>
    <trkpt lat="34.74560" lon="-119.99264"><ele>1139.0</ele></trkpt>
    <trkpt lat="34.74554" lon="-119.99237"><ele>1139.0</ele></trkpt>
    <trkpt lat="34.74546" lon="-119.99208"><ele>1139.0</ele></trkpt>
    <trkpt lat="34.74539" lon="-119.99187"><ele>1139.0</ele></trkpt>
    <trkpt lat="34.74520" lon="-119.99153"><ele>1174.0</ele></trkpt>
    <trkpt lat="34.74513" lon="-119.99131"><ele>1174.0</ele></trkpt>
    <trkpt lat="34.74504" lon="-119.99097"><ele>1174.0</ele></trkpt>
    <trkpt lat="34.74494" lon="-119.99069"><ele>1174.0</ele></trkpt>
    <trkpt lat="34.74484" lon="-119.99036"><ele>1174.0</ele></trkpt>
    <trkpt lat="34.74479" lon="-119.99015"><ele>1174.0</ele></trkpt>
    <trkpt lat="34.74476" lon="-119.98993"><ele>1174.0</ele></trkpt>
    <trkpt lat="34.74467" lon="-119.98951"><ele>1185.0</ele></trkpt>
    <trkpt lat="34.74468" lon="-119.98934"><ele>1185.0</ele></trkpt>
    <trkpt lat="34.74466" lon="-119.98915"><ele>1185.0</ele></trkpt>
    <trkpt lat="34.74467" lon="-119.98893"><ele>1185.0</ele></trkpt>
    <trkpt lat="34.74475" lon="-119.98867"><ele>1185.0</ele></trkpt>
    <trkpt lat="34.74489" lon="-119.98852"><ele>1185.0</ele></trkpt>
    <trkpt lat="34.74502" lon="-119.98846"><ele>1185.0</ele></trkpt>
    <trkpt lat="34.74509" lon="-119.98844"><ele>1185.0</ele></trkpt>
    <trkpt lat="34.74529" lon="-119.98838"><ele>1169.0</ele></trkpt>
    <trkpt lat="34.74535" lon="-119.98838"><ele>1169.0</ele></trkpt>
    <trkpt lat="34.74556" lon="-119.98844"><ele>1169.0</ele></trkpt>
    <trkpt lat="34.74567" lon="-119.98848"><ele>1169.0</ele></trkpt>
    <trkpt lat="34.74591" lon="-119.98850"><ele>1169.0</ele></trkpt>
    <trkpt lat="34.74600" lon="-119.98850"><ele>1169.0</ele></trkpt>
    <trkpt lat="34.74640" lon="-119.98858"><ele>1169.0</ele></trkpt>
    <trkpt lat="34.74651" lon="-119.98860"><ele>1155.0</ele></trkpt>
    <trkpt lat="34.74688" lon="-119.98873"><ele>1155.0</ele></trkpt>
    <trkpt lat="34.74703" lon="-119.98872"><ele>1155.0</ele></trkpt>
    <trkpt lat="34.74715" lon="-119.98867"><ele>1155.0</ele></trkpt>
    <trkpt lat="34.74723" lon="-119.98860"><ele>1155.0</ele></trkpt>
    <trkpt lat="34.74730" lon="-119.98846"><ele>1155.0</ele></trkpt>
    <trkpt lat="34.74729" lon="-119.98835"><ele>1155.0</ele></trkpt>
    <trkpt lat="34.74727" lon="-119.98824"><ele>1177.0</ele></trkpt>
    <trkpt lat="34.74720" lon="-119.98809"><ele>1177.0</ele></trkpt>
    <trkpt lat="34.74703" lon="-119.98774"><ele>1177.0</ele></trkpt>
    <trkpt lat="34.74701" lon="-119.98761"><ele>1177.0</ele></trkpt>
    <trkpt lat="34.74699" lon="-119.98740"><ele>1177.0</ele></trkpt>
    <trkpt lat="34.74702" lon="-119.98709"><ele>1177.0</ele></trkpt>
    <trkpt lat="34.74706" lon="-119.98689"><ele>1177.0</ele></trkpt>
    <trkpt lat="34.74710" lon="-119.98649"><ele>1203.0</ele></trkpt>
    <trkpt lat="34.74709" lon="-119.98620"><ele>1203.0</ele></trkpt>
    <trkpt lat="34.74707" lon="-119.98587"><ele>1203.0</ele></trkpt>
    <trkpt lat="34.74706" lon="-119.98535"><ele>1203.0</ele></trkpt>
    <trkpt lat="34.74710" lon="-119.98502"><ele>1203.0</ele></trkpt>
    <trkpt lat="34.74715" lon="-119.98474"><ele>1203.0</ele></trkpt>
    <trkpt lat="34.74722" lon="-119.98456"><ele>1203.0</ele></trkpt>
    <trkpt lat="34.74733" lon="-119.98438"><ele>1203.0</ele></trkpt>
    <trkpt lat="34.74737" lon="-119.98429"><ele>1204.0</ele></trkpt>
    <trkpt lat="34.74749" lon="-119.98416"><ele>1204.0</ele></trkpt>
    <trkpt lat="34.74764" lon="-119.98400"><ele>1204.0</ele></trkpt>
    <trkpt lat="34.74772" lon="-119.98396"><ele>1204.0</ele></trkpt>
    <trkpt lat="34.74792" lon="-119.98387"><ele>1204.0</ele></trkpt>
    <trkpt lat="34.74799" lon="-119.98385"><ele>1204.0</ele></trkpt>
    <trkpt lat="34.74811" lon="-119.98386"><ele>1204.0</ele></trkpt>
    <trkpt lat="34.74820" lon="-119.98390"><ele>1194.0</ele></trkpt>
    <trkpt lat="34.74841" lon="-119.98406"><ele>1194.0</ele></trkpt>
    <trkpt lat="34.74848" lon="-119.98413"><ele>1194.0</ele></trkpt>
    <trkpt lat="34.74874" lon="-119.98443"><ele>1194.0</ele></trkpt>
    <trkpt lat="34.74889" lon="-119.98465"><ele>1194.0</ele></trkpt>
    <trkpt lat="34.74913" lon="-119.98488"><ele>1194.0</ele></trkpt>
    <trkpt lat="34.74924" lon="-119.98499"><ele>1194.0</ele></trkpt>
    <trkpt lat="34.74947" lon="-119.98526"><ele>1184.0</ele></trkpt>
    <trkpt lat="34.74956" lon="-119.98540"><ele>1184.0</ele></trkpt>
    <trkpt lat="34.74976" lon="-119.98565"><ele>1184.0</ele></trkpt>
    <trkpt lat="34.74983" lon="-119.98574"><ele>1184.0</ele></trkpt>
    <trkpt lat="34.74998" lon="-119.98588"><ele>1184.0</ele></trkpt>
    <trkpt lat="34.75014" lon="-119.98593"><ele>1184.0</ele></trkpt>
    <trkpt lat="34.75022" lon="-119.98596"><ele>1184.0</ele></trkpt>
    <trkpt lat="34.75027" lon="-119.98598"><ele>1191.0</ele></trkpt>
    <trkpt lat="34.75033" lon="-119.98598"><ele>1191.0</ele></trkpt>
    <trkpt lat="34.75038" lon="-119.98599"><ele>1191.0</ele></trkpt>
    <trkpt lat="34.75046" lon="-119.98600"><ele>1191.0</ele></trkpt>
    <trkpt lat="34.75054" lon="-119.98600"><ele>1191.0</ele></trkpt>
    <trkpt lat="34.75061" lon="-119.98601"><ele>1191.0</ele></trkpt>
    <trkpt lat="34.75069" lon="-119.98604"><ele>1191.0</ele></trkpt>
    <trkpt lat="34.75073" lon="-119.98607"><ele>1191.0</ele></trkpt>
    <trkpt lat="34.75081" lon="-119.98607"><ele>1191.0</ele></trkpt>
    <trkpt lat="34.75088" lon="-119.98607"><ele>1191.0</ele></trkpt>
    <trkpt lat="34.75093" lon="-119.98604"><ele>1191.0</ele></trkpt>
    <trkpt lat="34.75100" lon="-119.98599"><ele>1191.0</ele></trkpt>
    <trkpt lat="34.75104" lon="-119.98594"><ele>1191.0</ele></trkpt>
    <trkpt lat="34.75108" lon="-119.98588"><ele>1191.0</ele></trkpt>
    <trkpt lat="34.75113" lon="-119.98579"><ele>1191.0</ele></trkpt>
    <trkpt lat="34.75115" lon="-119.98571"><ele>1198.0</ele></trkpt>
    <trkpt lat="34.75117" lon="-119.98561"><ele>1198.0</ele></trkpt>
    <trkpt lat="34.75119" lon="-119.98551"><ele>1198.0</ele></trkpt>
    <trkpt lat="34.75121" lon="-119.98540"><ele>1198.0</ele></trkpt>
    <trkpt lat="34.75123" lon="-119.98527"><ele>1198.0</ele></trkpt>
    <trkpt lat="34.75128" lon="-119.98514"><ele>1198.0</ele></trkpt>
    <trkpt lat="34.75133" lon="-119.98503"><ele>1198.0</ele></trkpt>
    <trkpt lat="34.75139" lon="-119.98490"><ele>1211.0</ele></trkpt>
    <trkpt lat="34.75142" lon="-119.98478"><ele>1211.0</ele></trkpt>
    <trkpt lat="34.75146" lon="-119.98463"><ele>1211.0</ele></trkpt>
    <trkpt lat="34.75149" lon="-119.98444"><ele>1211.0</ele></trkpt>
    <trkpt lat="34.75148" lon="-119.98430"><ele>1211.0</ele></trkpt>
    <trkpt lat="34.75152" lon="-119.98416"><ele>1211.0</ele></trkpt>
    <trkpt lat="34.75155" lon="-119.98405"><ele>1211.0</ele></trkpt>
    <trkpt lat="34.75156" lon="-119.98394"><ele>1220.0</ele></trkpt>
    <trkpt lat="34.75164" lon="-119.98376"><ele>1220.0</ele></trkpt>
    <trkpt lat="34.75169" lon="-119.98367"><ele>1220.0</ele></trkpt>
    <trkpt lat="34.75176" lon="-119.98356"><ele>1220.0</ele></trkpt>
    <trkpt lat="34.75183" lon="-119.98341"><ele>1220.0</ele></trkpt>
    <trkpt lat="34.75191" lon="-119.98326"><ele>1220.0</ele></trkpt>
    <trkpt lat="34.75197" lon="-119.98313"><ele>1220.0</ele></trkpt>
    <trkpt lat="34.75203" lon="-119.98303"><ele>1220.0</ele></trkpt>
    <trkpt lat="34.75213" lon="-119.98291"><ele>1223.0</ele></trkpt>
    <trkpt lat="34.75218" lon="-119.98286"><ele>1223.0</ele></trkpt>
    <trkpt lat="34.75226" lon="-119.98278"><ele>1223.0</ele></trkpt>
    <trkpt lat="34.75237" lon="-119.98270"><ele>1223.0</ele></trkpt>
    <trkpt lat="34.75247" lon="-119.98261"><ele>1223.0</ele></trkpt>
    <trkpt lat="34.75253" lon="-119.98253"><ele>1223.0</ele></trkpt>
    <trkpt lat="34.75258" lon="-119.98249"><ele>1223.0</ele></trkpt>
    <trkpt lat="34.75263" lon="-119.98247"><ele>1235.0</ele></trkpt>
    <trkpt lat="34.75267" lon="-119.98245"><ele>1235.0</ele></trkpt>
    <trkpt lat="34.75279" lon="-119.98251"><ele>1235.0</ele></trkpt>
    <trkpt lat="34.75284" lon="-119.98257"><ele>1235.0</ele></trkpt>
    <trkpt lat="34.75288" lon="-119.98266"><ele>1235.0</ele></trkpt>
    <trkpt lat="34.75290" lon="-119.98278"><ele>1235.0</ele></trkpt>
    <trkpt lat="34.75292" lon="-119.98288"><ele>1235.0</ele></trkpt>
    <trkpt lat="34.75293" lon="-119.98302"><ele>1236.0</ele></trkpt>
    <trkpt lat="34.75292" lon="-119.98313"><ele>1236.0</ele></trkpt>
    <trkpt lat="34.75293" lon="-119.98328"><ele>1236.0</ele></trkpt>
    <trkpt lat="34.75296" lon="-119.98344"><ele>1236.0</ele></trkpt>
    <trkpt lat="34.75300" lon="-119.98360"><ele>1236.0</ele></trkpt>
    <trkpt lat="34.75304" lon="-119.98375"><ele>1236.0</ele></trkpt>
    <trkpt lat="34.75310" lon="-119.98393"><ele>1236.0</ele></trkpt>
    <trkpt lat="34.75314" lon="-119.98405"><ele>1236.0</ele></trkpt>
    <trkpt lat="34.75319" lon="-119.98422"><ele>1223.0</ele></trkpt>
    <trkpt lat="34.75324" lon="-119.98432"><ele>1223.0</ele></trkpt>
    <trkpt lat="34.75332" lon="-119.98442"><ele>1223.0</ele></trkpt>
    <trkpt lat="34.75343" lon="-119.98451"><ele>1223.0</ele></trkpt>
    <trkpt lat="34.75351" lon="-119.98457"><ele>1223.0</ele></trkpt>
    <trkpt lat="34.75361" lon="-119.98463"><ele>1223.0</ele></trkpt>
    <trkpt lat="34.75370" lon="-119.98468"><ele>1223.0</ele></trkpt>
    <trkpt lat="34.75381" lon="-119.98471"><ele>1212.0</ele></trkpt>
    <trkpt lat="34.75392" lon="-119.98471"><ele>1212.0</ele></trkpt>
    <trkpt lat="34.75405" lon="-119.98468"><ele>1212.0</ele></trkpt>
    <trkpt lat="34.75419" lon="-119.98463"><ele>1212.0</ele></trkpt>
    <trkpt lat="34.75428" lon="-119.98457"><ele>1212.0</ele></trkpt>
    <trkpt lat="34.75434" lon="-119.98451"><ele>1212.0</ele></trkpt>
    <trkpt lat="34.75442" lon="-119.98440"><ele>1212.0</ele></trkpt>
    <trkpt lat="34.75450" lon="-119.98430"><ele>1213.0</ele></trkpt>
    <trkpt lat="34.75456" lon="-119.98421"><ele>1213.0</ele></trkpt>
    <trkpt lat="34.75462" lon="-119.98410"><ele>1213.0</ele></trkpt>
    <trkpt lat="34.75469" lon="-119.98399"><ele>1213.0</ele></trkpt>
    <trkpt lat="34.75476" lon="-119.98385"><ele>1213.0</ele></trkpt>
    <trkpt lat="34.75486" lon="-119.98366"><ele>1213.0</ele></trkpt>
    <trkpt lat="34.75491" lon="-119.98358"><ele>1213.0</ele></trkpt>
    <trkpt lat="34.75496" lon="-119.98350"><ele>1208.0</ele></trkpt>
    <trkpt lat="34.75503" lon="-119.98344"><ele>1208.0</ele></trkpt>
    <trkpt lat="34.75513" lon="-119.98338"><ele>1208.0</ele></trkpt>
    <trkpt lat="34.75524" lon="-119.98336"><ele>1208.0</ele></trkpt>
    <trkpt lat="34.75535" lon="-119.98338"><ele>1208.0</ele></trkpt>
    <trkpt lat="34.75547" lon="-119.98342"><ele>1208.0</ele></trkpt>
    <trkpt lat="34.75553" lon="-119.98346"><ele>1208.0</ele></trkpt>
    <trkpt lat="34.75556" lon="-119.98348"><ele>1208.0</ele></trkpt>
    <trkpt lat="34.75556" lon="-119.98348"><ele>1191.0</ele></trkpt>
    <trkpt lat="34.75563" lon="-119.98353"><ele>1191.0</ele></trkpt>
    <trkpt lat="34.75572" lon="-119.98363"><ele>1191.0</ele></trkpt>
    <trkpt lat="34.75573" lon="-119.98364"><ele>1191.0</ele></trkpt>
    <trkpt lat="34.75576" lon="-119.98376"><ele>1191.0</ele></trkpt>
    <trkpt lat="34.75575" lon="-119.98384"><ele>1191.0</ele></trkpt>
    <trkpt lat="34.75576" lon="-119.98389"><ele>1191.0</ele></trkpt>
    <trkpt lat="34.75579" lon="-119.98398"><ele>1188.0</ele></trkpt>
    <trkpt lat="34.75580" lon="-119.98410"><ele>1188.0</ele></trkpt>
    <trkpt lat="34.75581" lon="-119.98422"><ele>1188.0</ele></trkpt>
    <trkpt lat="34.75585" lon="-119.98438"><ele>1188.0</ele></trkpt>
    <trkpt lat="34.75593" lon="-119.98452"><ele>1188.0</ele></trkpt>
    <trkpt lat="34.75601" lon="-119.98462"><ele>1188.0</ele></trkpt>
    <trkpt lat="34.75611" lon="-119.98471"><ele>1188.0</ele></trkpt>
    <trkpt lat="34.75622" lon="-119.98485"><ele>1193.0</ele></trkpt>
    <trkpt lat="34.75635" lon="-119.98508"><ele>1193.0</ele></trkpt>
    <trkpt lat="34.75641" lon="-119.98518"><ele>1193.0</ele></trkpt>
    <trkpt lat="34.75646" lon="-119.98529"><ele>1193.0</ele></trkpt>
    <trkpt lat="34.75650" lon="-119.98543"><ele>1193.0</ele></trkpt>
    <trkpt lat="34.75653" lon="-119.98553"><ele>1193.0</ele></trkpt>
    <trkpt lat="34.75658" lon="-119.98566"><ele>1193.0</ele></trkpt>
    <trkpt lat="34.75670" lon="-119.98582"><ele>1204.0</ele></trkpt>
    <trkpt lat="34.75680" lon="-119.98594"><ele>1204.0</ele></trkpt>
    <trkpt lat="34.75688" lon="-119.98606"><ele>1204.0</ele></trkpt>
    <trkpt lat="34.75696" lon="-119.98628"><ele>1204.0</ele></trkpt>
    <trkpt lat="34.75696" lon="-119.98643"><ele>1204.0</ele></trkpt>
    <trkpt lat="34.75697" lon="-119.98658"><ele>1204.0</ele></trkpt>
    <trkpt lat="34.75711" lon="-119.98687"><ele>1204.0</ele></trkpt>
    <trkpt lat="34.75742" lon="-119.98737"><ele>1204.0</ele></trkpt>
    <trkpt lat="34.75761" lon="-119.98773"><ele>1215.0</ele></trkpt>
    <trkpt lat="34.75804" lon="-119.98849"><ele>1215.0</ele></trkpt>
    <trkpt lat="34.75833" lon="-119.98901"><ele>1215.0</ele></trkpt>
    <trkpt lat="34.75850" lon="-119.98934"><ele>1215.0</ele></trkpt>
    <trkpt lat="34.75862" lon="-119.98952"><ele>1215.0</ele></trkpt>
    <trkpt lat="34.75872" lon="-119.98967"><ele>1215.0</ele></trkpt>
    <trkpt lat="34.75883" lon="-119.98982"><ele>1215.0</ele></trkpt>
    <trkpt lat="34.75896" lon="-119.98998"><ele>1212.0</ele></trkpt>
    <trkpt lat="34.75907" lon="-119.99013"><ele>1212.0</ele></trkpt>
    <trkpt lat="34.75918" lon="-119.99021"><ele>1212.0</ele></trkpt>
    <trkpt lat="34.75929" lon="-119.99031"><ele>1212.0</ele></trkpt>
    <trkpt lat="34.75935" lon="-119.99034"><ele>1212.0</ele></trkpt>
    <trkpt lat="34.75945" lon="-119.99037"><ele>1212.0</ele></trkpt>
    <trkpt lat="34.75958" lon="-119.99036"><ele>1212.0</ele></trkpt>
    <trkpt lat="34.75988" lon="-119.99036"><ele>1195.0</ele></trkpt>
    <trkpt lat="34.76009" lon="-119.99038"><ele>1195.0</ele></trkpt>
    <trkpt lat="34.76016" lon="-119.99040"><ele>1195.0</ele></trkpt>
    <trkpt lat="34.76025" lon="-119.99043"><ele>1195.0</ele></trkpt>
    <trkpt lat="34.76030" lon="-119.99046"><ele>1195.0</ele></trkpt>
    <trkpt lat="34.76038" lon="-119.99050"><ele>1195.0</ele></trkpt>
    <trkpt lat="34.76048" lon="-119.99060"><ele>1195.0</ele></trkpt>
    <trkpt lat="34.76054" lon="-119.99074"><ele>1195.0</ele></trkpt>
    <trkpt lat="34.76059" lon="-119.99088"><ele>1186.0</ele></trkpt>
    <trkpt lat="34.76063" lon="-119.99106"><ele>1186.0</ele></trkpt>
    <trkpt lat="34.76066" lon="-119.99119"><ele>1186.0</ele></trkpt>
    <trkpt lat="34.76067" lon="-119.99139"><ele>1186.0</ele></trkpt>
    <trkpt lat="34.76072" lon="-119.99155"><ele>1186.0</ele></trkpt>
    <trkpt lat="34.76080" lon="-119.99176"><ele>1186.0</ele></trkpt>
    <trkpt lat="34.76089" lon="-119.99197"><ele>1186.0</ele></trkpt>
    <trkpt lat="34.76094" lon="-119.99214"><ele>1183.0</ele></trkpt>
    <trkpt lat="34.76095" lon="-119.99227"><ele>1183.0</ele></trkpt>
    <trkpt lat="34.76097" lon="-119.99252"><ele>1183.0</ele></trkpt>
    <trkpt lat="34.76096" lon="-119.99284"><ele>1183.0</ele></trkpt>
    <trkpt lat="34.76097" lon="-119.99305"><ele>1183.0</ele></trkpt>
    <trkpt lat="34.76099" lon="-119.99321"><ele>1183.0</ele></trkpt>
    <trkpt lat="34.76106" lon="-119.99345"><ele>1183.0</ele></trkpt>
    <trkpt lat="34.76110" lon="-119.99365"><ele>1183.0</ele></trkpt>
    <trkpt lat="34.76116" lon="-119.99381"><ele>1183.0</ele></trkpt>
    <trkpt lat="34.76123" lon="-119.99401"><ele>1183.0</ele></trkpt>
    <trkpt lat="34.76131" lon="-119.99420"><ele>1183.0</ele></trkpt>
    <trkpt lat="34.76137" lon="-119.99434"><ele>1183.0</ele></trkpt>
    <trkpt lat="34.76141" lon="-119.99449"><ele>1183.0</ele></trkpt>
    <trkpt lat="34.76148" lon="-119.99473"><ele>1183.0</ele></trkpt>
    <trkpt lat="34.76155" lon="-119.99489"><ele>1188.0</ele></trkpt>
    <trkpt lat="34.76166" lon="-119.99509"><ele>1188.0</ele></trkpt>
    <trkpt lat="34.76174" lon="-119.99520"><ele>1188.0</ele></trkpt>
    <trkpt lat="34.76185" lon="-119.99535"><ele>1188.0</ele></trkpt>
    <trkpt lat="34.76200" lon="-119.99549"><ele>1188.0</ele></trkpt>
    <trkpt lat="34.76211" lon="-119.99556"><ele>1188.0</ele></trkpt>
    <trkpt lat="34.76221" lon="-119.99563"><ele>1188.0</ele></trkpt>
    <trkpt lat="34.76233" lon="-119.99568"><ele>1188.0</ele></trkpt>
    <trkpt lat="34.76244" lon="-119.99577"><ele>1183.0</ele></trkpt>
    <trkpt lat="34.76254" lon="-119.99586"><ele>1183.0</ele></trkpt>
    <trkpt lat="34.76262" lon="-119.99596"><ele>1183.0</ele></trkpt>
    <trkpt lat="34.76280" lon="-119.99618"><ele>1183.0</ele></trkpt>
    <trkpt lat="34.76287" lon="-119.99629"><ele>1183.0</ele></trkpt>
    <trkpt lat="34.76291" lon="-119.99644"><ele>1183.0</ele></trkpt>
    <trkpt lat="34.76292" lon="-119.99661"><ele>1183.0</ele></trkpt>
    <trkpt lat="34.76293" lon="-119.99676"><ele>1187.0</ele></trkpt>
    <trkpt lat="34.76297" lon="-119.99696"><ele>1187.0</ele></trkpt>
    <trkpt lat="34.76302" lon="-119.99706"><ele>1187.0</ele></trkpt>
    <trkpt lat="34.76308" lon="-119.99720"><ele>1187.0</ele></trkpt>
    <trkpt lat="34.76316" lon="-119.99732"><ele>1187.0</ele></trkpt>
    <trkpt lat="34.76325" lon="-119.99747"><ele>1187.0</ele></trkpt>
    <trkpt lat="34.76339" lon="-119.99763"><ele>1187.0</ele></trkpt>
    <trkpt lat="34.76343" lon="-119.99769"><ele>1202.0</ele></trkpt>
    <trkpt lat="34.76345" lon="-119.99775"><ele>1202.0</ele></trkpt>
    <trkpt lat="34.76349" lon="-119.99782"><ele>1202.0</ele></trkpt>
    <trkpt lat="34.76353" lon="-119.99792"><ele>1202.0</ele></trkpt>
    <trkpt lat="34.76355" lon="-119.99802"><ele>1202.0</ele></trkpt>
    <trkpt lat="34.76356" lon="-119.99815"><ele>1202.0</ele></trkpt>
    <trkpt lat="34.76356" lon="-119.99831"><ele>1202.0</ele></trkpt>
    <trkpt lat="34.76357" lon="-119.99836"><ele>1216.0</ele></trkpt>
    <trkpt lat="34.76358" lon="-119.99848"><ele>1216.0</ele></trkpt>
    <trkpt lat="34.76358" lon="-119.99860"><ele>1216.0</ele></trkpt>
    <trkpt lat="34.76360" lon="-119.99870"><ele>1216.0</ele></trkpt>
    <trkpt lat="34.76363" lon="-119.99881"><ele>1216.0</ele></trkpt>
    <trkpt lat="34.76367" lon="-119.99890"><ele>1216.0</ele></trkpt>
    <trkpt lat="34.76373" lon="-119.99908"><ele>1216.0</ele></trkpt>
    <trkpt lat="34.76380" lon="-119.99919"><ele>1216.0</ele></trkpt>
    <trkpt lat="34.76386" lon="-119.99927"><ele>1224.0</ele></trkpt>
    <trkpt lat="34.76397" lon="-119.99940"><ele>1224.0</ele></trkpt>
    <trkpt lat="34.76404" lon="-119.99950"><ele>1224.0</ele></trkpt>
    <trkpt lat="34.76413" lon="-119.99958"><ele>1224.0</ele></trkpt>
    <trkpt lat="34.76424" lon="-119.99966"><ele>1224.0</ele></trkpt>
    <trkpt lat="34.76433" lon="-119.99973"><ele>1224.0</ele></trkpt>
    <trkpt lat="34.76440" lon="-119.99982"><ele>1224.0</ele></trkpt>
    <trkpt lat="34.76447" lon="-119.99993"><ele>1237.0</ele></trkpt>
    <trkpt lat="34.76452" lon="-120.00003"><ele>1237.0</ele></trkpt>
    <trkpt lat="34.76458" lon="-120.00018"><ele>1237.0</ele></trkpt>
    <trkpt lat="34.76463" lon="-120.00032"><ele>1237.0</ele></trkpt>
    <trkpt lat="34.76467" lon="-120.00043"><ele>1237.0</ele></trkpt>
    <trkpt lat="34.76468" lon="-120.00056"><ele>1237.0</ele></trkpt>
    <trkpt lat="34.76469" lon="-120.00071"><ele>1237.0</ele></trkpt>
    <trkpt lat="34.76472" lon="-120.00099"><ele>1248.0</ele></trkpt>
    <trkpt lat="34.76474" lon="-120.00118"><ele>1248.0</ele></trkpt>
    <trkpt lat="34.76474" lon="-120.00132"><ele>1248.0</ele></trkpt>
    <trkpt lat="34.76481" lon="-120.00154"><ele>1248.0</ele></trkpt>
    <trkpt lat="34.76487" lon="-120.00183"><ele>1248.0</ele></trkpt>
    <trkpt lat="34.76495" lon="-120.00208"><ele>1248.0</ele></trkpt>
    <trkpt lat="34.76547" lon="-120.00290"><ele>1248.0</ele></trkpt>
    <trkpt lat="34.76599" lon="-120.00348"><ele>1266.0</ele></trkpt>
    <trkpt lat="34.76632" lon="-120.00394"><ele>1266.0</ele></trkpt>
    <trkpt lat="34.76646" lon="-120.00427"><ele>1266.0</ele></trkpt>
    <trkpt lat="34.76657" lon="-120.00459"><ele>1266.0</ele></trkpt>
    <trkpt lat="34.76659" lon="-120.00481"><ele>1266.0</ele></trkpt>
    <trkpt lat="34.76665" lon="-120.00507"><ele>1266.0</ele></trkpt>
    <trkpt lat="34.76671" lon="-120.00520"><ele>1266.0</ele></trkpt>
    <trkpt lat="34.76683" lon="-120.00551"><ele>1266.0</ele></trkpt>
    <trkpt lat="34.76694" lon="-120.00606"><ele>1263.0</ele></trkpt>
    <trkpt lat="34.76707" lon="-120.00647"><ele>1263.0</ele></trkpt>
    <trkpt lat="34.76722" lon="-120.00713"><ele>1263.0</ele></trkpt>
    <trkpt lat="34.76735" lon="-120.00754"><ele>1263.0</ele></trkpt>
    <trkpt lat="34.76745" lon="-120.00770"><ele>1263.0</ele></trkpt>
    <trkpt lat="34.76758" lon="-120.00773"><ele>1263.0</ele></trkpt>
    <trkpt lat="34.76772" lon="-120.00772"><ele>1263.0</ele></trkpt>
    <trkpt lat="34.76786" lon="-120.00766"><ele>1268.0</ele></trkpt>
    <trkpt lat="34.76797" lon="-120.00758"><ele>1268.0</ele></trkpt>
    <trkpt lat="34.76808" lon="-120.00739"><ele>1268.0</ele></trkpt>
    <trkpt lat="34.76826" lon="-120.00720"><ele>1268.0</ele></trkpt>
    <trkpt lat="34.76842" lon="-120.00695"><ele>1268.0</ele></trkpt>
    <trkpt lat="34.76854" lon="-120.00677"><ele>1268.0</ele></trkpt>
    <trkpt lat="34.76867" lon="-120.00663"><ele>1268.0</ele></trkpt>
    <trkpt lat="34.76877" lon="-120.00657"><ele>1259.0</ele></trkpt>
    <trkpt lat="34.76894" lon="-120.00655"><ele>1259.0</ele></trkpt>
    <trkpt lat="34.76904" lon="-120.00659"><ele>1259.0</ele></trkpt>
    <trkpt lat="34.76910" lon="-120.00667"><ele>1259.0</ele></trkpt>
    <trkpt lat="34.76935" lon="-120.00692"><ele>1259.0</ele></trkpt>
    <trkpt lat="34.76960" lon="-120.00720"><ele>1259.0</ele></trkpt>
    <trkpt lat="34.77008" lon="-120.00761"><ele>1259.0</ele></trkpt>
    <trkpt lat="34.77037" lon="-120.00784"><ele>1259.0</ele></trkpt>
    <trkpt lat="34.77076" lon="-120.00804"><ele>1258.0</ele></trkpt>
    <trkpt lat="34.77105" lon="-120.00814"><ele>1258.0</ele></trkpt>
    <trkpt lat="34.77131" lon="-120.00814"><ele>1258.0</ele></trkpt>
    <trkpt lat="34.77156" lon="-120.00821"><ele>1258.0</ele></trkpt>
    <trkpt lat="34.77183" lon="-120.00827"><ele>1258.0</ele></trkpt>
    <trkpt lat="34.77207" lon="-120.00826"><ele>1258.0</ele></trkpt>
    <trkpt lat="34.77234" lon="-120.00824"><ele>1258.0</ele></trkpt>
    <trkpt lat="34.77261" lon="-120.00822"><ele>1276.0</ele></trkpt>
    <trkpt lat="34.77284" lon="-120.00823"><ele>1276.0</ele></trkpt>
    <trkpt lat="34.77307" lon="-120.00834"><ele>1276.0</ele></trkpt>
    <trkpt lat="34.77321" lon="-120.00857"><ele>1276.0</ele></trkpt>
    <trkpt lat="34.77343" lon="-120.00884"><ele>1276.0</ele></trkpt>
    <trkpt lat="34.77366" lon="-120.00912"><ele>1276.0</ele></trkpt>
    <trkpt lat="34.77386" lon="-120.00928"><ele>1276.0</ele></trkpt>
    <trkpt lat="34.77405" lon="-120.00946"><ele>1253.0</ele></trkpt>
    <trkpt lat="34.77428" lon="-120.00967"><ele>1253.0</ele></trkpt>
    <trkpt lat="34.77454" lon="-120.00993"><ele>1253.0</ele></trkpt>
    <trkpt lat="34.77455" lon="-120.00998"><ele>1253.0</ele></trkpt>
    <trkpt lat="34.77478" lon="-120.01015"><ele>1253.0</ele></trkpt>
    <trkpt lat="34.77482" lon="-120.01018"><ele>1253.0</ele></trkpt>
    <trkpt lat="34.77484" lon="-120.01021"><ele>1253.0</ele></trkpt>
    <trkpt lat="34.77489" lon="-120.01024"><ele>1238.0</ele></trkpt>
    <trkpt lat="34.77494" lon="-120.01029"><ele>1238.0</ele></trkpt>
    <trkpt lat="34.77500" lon="-120.01035"><ele>1238.0</ele></trkpt>
    <trkpt lat="34.77506" lon="-120.01040"><ele>1238.0</ele></trkpt>
    <trkpt lat="34.77515" lon="-120.01044"><ele>1238.0</ele></trkpt>
    <trkpt lat="34.77523" lon="-120.01046"><ele>1238.0</ele></trkpt>
    <trkpt lat="34.77535" lon="-120.01047"><ele>1238.0</ele></trkpt>
    <trkpt lat="34.77547" lon="-120.01046"><ele>1238.0</ele></trkpt>
    <trkpt lat="34.77555" lon="-120.01044"><ele>1240.0</ele></trkpt>
    <trkpt lat="34.77564" lon="-120.01043"><ele>1240.0</ele></trkpt>
    <trkpt lat="34.77577" lon="-120.01039"><ele>1240.0</ele></trkpt>
    <trkpt lat="34.77586" lon="-120.01036"><ele>1240.0</ele></trkpt>
    <trkpt lat="34.77594" lon="-120.01033"><ele>1240.0</ele></trkpt>
    <trkpt lat="34.77601" lon="-120.01029"><ele>1240.0</ele></trkpt>
    <trkpt lat="34.77609" lon="-120.01025"><ele>1240.0</ele></trkpt>
    <trkpt lat="34.77619" lon="-120.01022"><ele>1237.0</ele></trkpt>
    <trkpt lat="34.77626" lon="-120.01020"><ele>1237.0</ele></trkpt>
    <trkpt lat="34.77635" lon="-120.01017"><ele>1237.0</ele></trkpt>
    <trkpt lat="34.77642" lon="-120.01014"><ele>1237.0</ele></trkpt>
    <trkpt lat="34.77652" lon="-120.01011"><ele>1237.0</ele></trkpt>
    <trkpt lat="34.77661" lon="-120.01009"><ele>1237.0</ele></trkpt>
    <trkpt lat="34.77672" lon="-120.01007"><ele>1237.0</ele></trkpt>
    <trkpt lat="34.77682" lon="-120.01004"><ele>1225.0</ele></trkpt>
    <trkpt lat="34.77696" lon="-120.00998"><ele>1225.0</ele></trkpt>
    <trkpt lat="34.77706" lon="-120.00995"><ele>1225.0</ele></trkpt>
    <trkpt lat="34.77718" lon="-120.00993"><ele>1225.0</ele></trkpt>
    <trkpt lat="34.77727" lon="-120.00991"><ele>1225.0</ele></trkpt>
    <trkpt lat="34.77738" lon="-120.00988"><ele>1225.0</ele></trkpt>
    <trkpt lat="34.77750" lon="-120.00987"><ele>1225.0</ele></trkpt>
    <trkpt lat="34.77762" lon="-120.00984"><ele>1212.0</ele></trkpt>
    <trkpt lat="34.77773" lon="-120.00983"><ele>1212.0</ele></trkpt>
    <trkpt lat="34.77782" lon="-120.00985"><ele>1212.0</ele></trkpt>
    <trkpt lat="34.77796" lon="-120.00987"><ele>1212.0</ele></trkpt>
    <trkpt lat="34.77802" lon="-120.00989"><ele>1212.0</ele></trkpt>
    <trkpt lat="34.77809" lon="-120.00992"><ele>1212.0</ele></trkpt>
    <trkpt lat="34.77814" lon="-120.00997"><ele>1212.0</ele></trkpt>
    <trkpt lat="34.77822" lon="-120.01007"><ele>1212.0</ele></trkpt>
    <trkpt lat="34.77829" lon="-120.01015"><ele>1206.0</ele></trkpt>
    <trkpt lat="34.77835" lon="-120.01028"><ele>1206.0</ele></trkpt>
    <trkpt lat="34.77843" lon="-120.01040"><ele>1206.0</ele></trkpt>
    <trkpt lat="34.77849" lon="-120.01053"><ele>1206.0</ele></trkpt>
    <trkpt lat="34.77854" lon="-120.01061"><ele>1206.0</ele></trkpt>
    <trkpt lat="34.77861" lon="-120.01077"><ele>1206.0</ele></trkpt>
    <trkpt lat="34.77865" lon="-120.01086"><ele>1206.0</ele></trkpt>
    <trkpt lat="34.77874" lon="-120.01100"><ele>1194.0</ele></trkpt>
    <trkpt lat="34.77878" lon="-120.01108"><ele>1194.0</ele></trkpt>
    <trkpt lat="34.77887" lon="-120.01127"><ele>1194.0</ele></trkpt>
    <trkpt lat="34.77893" lon="-120.01139"><ele>1194.0</ele></trkpt>
    <trkpt lat="34.77901" lon="-120.01152"><ele>1194.0</ele></trkpt>
    <trkpt lat="34.77908" lon="-120.01165"><ele>1194.0</ele></trkpt>
    <trkpt lat="34.77916" lon="-120.01181"><ele>1194.0</ele></trkpt>
    <trkpt lat="34.77922" lon="-120.01195"><ele>1168.0</ele></trkpt>
    <trkpt lat="34.77927" lon="-120.01208"><ele>1168.0</ele></trkpt>
    <trkpt lat="34.77949" lon="-120.01263"><ele>1168.0</ele></trkpt>
    <trkpt lat="34.77949" lon="-120.01264"><ele>1168.0</ele></trkpt>
    <trkpt lat="34.77954" lon="-120.01293"><ele>1168.0</ele></trkpt>
    <trkpt lat="34.77962" lon="-120.01332"><ele>1168.0</ele></trkpt>
    <trkpt lat="34.77972" lon="-120.01363"><ele>1168.0</ele></trkpt>
    <trkpt lat="34.77982" lon="-120.01382"><ele>1168.0</ele></trkpt>
    <trkpt lat="34.77994" lon="-120.01391"><ele>1139.0</ele></trkpt>
    <trkpt lat="34.78010" lon="-120.01405"><ele>1139.0</ele></trkpt>
    <trkpt lat="34.78013" lon="-120.01406"><ele>1139.0</ele></trkpt>
    <trkpt lat="34.78018" lon="-120.01409"><ele>1139.0</ele></trkpt>
    <trkpt lat="34.78023" lon="-120.01412"><ele>1139.0</ele></trkpt>
    <trkpt lat="34.78028" lon="-120.01415"><ele>1139.0</ele></trkpt>
    <trkpt lat="34.78034" lon="-120.01419"><ele>1139.0</ele></trkpt>
    <trkpt lat="34.78037" lon="-120.01422"><ele>1130.0</ele></trkpt>
    <trkpt lat="34.78042" lon="-120.01427"><ele>1130.0</ele></trkpt>
    <trkpt lat="34.78046" lon="-120.01433"><ele>1130.0</ele></trkpt>
    <trkpt lat="34.78052" lon="-120.01438"><ele>1130.0</ele></trkpt>
    <trkpt lat="34.78056" lon="-120.01443"><ele>1130.0</ele></trkpt>
    <trkpt lat="34.78060" lon="-120.01451"><ele>1130.0</ele></trkpt>
    <trkpt lat="34.78067" lon="-120.01459"><ele>1130.0</ele></trkpt>
    <trkpt lat="34.78071" lon="-120.01466"><ele>1129.0</ele></trkpt>
    <trkpt lat="34.78073" lon="-120.01471"><ele>1129.0</ele></trkpt>
    <trkpt lat="34.78079" lon="-120.01479"><ele>1129.0</ele></trkpt>
    <trkpt lat="34.78083" lon="-120.01484"><ele>1129.0</ele></trkpt>
    <trkpt lat="34.78085" lon="-120.01493"><ele>1129.0</ele></trkpt>
    <trkpt lat="34.78086" lon="-120.01505"><ele>1129.0</ele></trkpt>
    <trkpt lat="34.78088" lon="-120.01513"><ele>1129.0</ele></trkpt>
    <trkpt lat="34.78088" lon="-120.01520"><ele>1118.0</ele></trkpt>
    <trkpt lat="34.78088" lon="-120.01529"><ele>1118.0</ele></trkpt>
    <trkpt lat="34.78090" lon="-120.01544"><ele>1118.0</ele></trkpt>
    <trkpt lat="34.78091" lon="-120.01556"><ele>1118.0</ele></trkpt>
    <trkpt lat="34.78093" lon="-120.01567"><ele>1118.0</ele></trkpt>
    <trkpt lat="34.78094" lon="-120.01578"><ele>1118.0</ele></trkpt>
    <trkpt lat="34.78096" lon="-120.01589"><ele>1118.0</ele></trkpt>
    <trkpt lat="34.78097" lon="-120.01599"><ele>1118.0</ele></trkpt>
    <trkpt lat="34.78101" lon="-120.01609"><ele>1108.0</ele></trkpt>
    <trkpt lat="34.78101" lon="-120.01617"><ele>1108.0</ele></trkpt>
    <trkpt lat="34.78106" lon="-120.01628"><ele>1108.0</ele></trkpt>
    <trkpt lat="34.78107" lon="-120.01634"><ele>1108.0</ele></trkpt>
    <trkpt lat="34.78110" lon="-120.01644"><ele>1108.0</ele></trkpt>
    <trkpt lat="34.78111" lon="-120.01656"><ele>1108.0</ele></trkpt>
    <trkpt lat="34.78115" lon="-120.01666"><ele>1108.0</ele></trkpt>
    <trkpt lat="34.78119" lon="-120.01676"><ele>1102.0</ele></trkpt>
    <trkpt lat="34.78121" lon="-120.01682"><ele>1102.0</ele></trkpt>
    <trkpt lat="34.78125" lon="-120.01691"><ele>1102.0</ele></trkpt>
    <trkpt lat="34.78130" lon="-120.01698"><ele>1102.0</ele></trkpt>
    <trkpt lat="34.78134" lon="-120.01705"><ele>1102.0</ele></trkpt>
    <trkpt lat="34.78140" lon="-120.01712"><ele>1102.0</ele></trkpt>
    <trkpt lat="34.78147" lon="-120.01716"><ele>1102.0</ele></trkpt>
    <trkpt lat="34.78155" lon="-120.01719"><ele>1110.0</ele></trkpt>
    <trkpt lat="34.78161" lon="-120.01720"><ele>1110.0</ele></trkpt>
    <trkpt lat="34.78167" lon="-120.01720"><ele>1110.0</ele></trkpt>
    <trkpt lat="34.78172" lon="-120.01715"><ele>1110.0</ele></trkpt>
    <trkpt lat="34.78177" lon="-120.01711"><ele>1110.0</ele></trkpt>
    <trkpt lat="34.78184" lon="-120.01708"><ele>1110.0</ele></trkpt>
    <trkpt lat="34.78188" lon="-120.01703"><ele>1110.0</ele></trkpt>
    <trkpt lat="34.78193" lon="-120.01695"><ele>1110.0</ele></trkpt>
    <trkpt lat="34.78197" lon="-120.01689"><ele>1110.0</ele></trkpt>
    <trkpt lat="34.78202" lon="-120.01680"><ele>1110.0</ele></trkpt>
    <trkpt lat="34.78205" lon="-120.01672"><ele>1110.0</ele></trkpt>
    <trkpt lat="34.78206" lon="-120.01663"><ele>1110.0</ele></trkpt>
    <trkpt lat="34.78213" lon="-120.01634"><ele>1110.0</ele></trkpt>
    <trkpt lat="34.78218" lon="-120.01599"><ele>1110.0</ele></trkpt>
    <trkpt lat="34.78222" lon="-120.01577"><ele>1110.0</ele></trkpt>
    <trkpt lat="34.78235" lon="-120.01561"><ele>1095.0</ele></trkpt>
    <trkpt lat="34.78248" lon="-120.01562"><ele>1095.0</ele></trkpt>
    <trkpt lat="34.78260" lon="-120.01570"><ele>1095.0</ele></trkpt>
    <trkpt lat="34.78268" lon="-120.01587"><ele>1095.0</ele></trkpt>
    <trkpt lat="34.78270" lon="-120.01601"><ele>1095.0</ele></trkpt>
    <trkpt lat="34.78277" lon="-120.01618"><ele>1095.0</ele></trkpt>
    <trkpt lat="34.78279" lon="-120.01645"><ele>1095.0</ele></trkpt>
    <trkpt lat="34.78281" lon="-120.01665"><ele>1085.0</ele></trkpt>
    <trkpt lat="34.78284" lon="-120.01688"><ele>1085.0</ele></trkpt>
    <trkpt lat="34.78286" lon="-120.01704"><ele>1085.0</ele></trkpt>
    <trkpt lat="34.78294" lon="-120.01721"><ele>1085.0</ele></trkpt>
    <trkpt lat="34.78309" lon="-120.01750"><ele>1085.0</ele></trkpt>
    <trkpt lat="34.78318" lon="-120.01769"><ele>1085.0</ele></trkpt>
    <trkpt lat="34.78322" lon="-120.01776"><ele>1085.0</ele></trkpt>
    <trkpt lat="34.78324" lon="-120.01782"><ele>1078.0</ele></trkpt>
    <trkpt lat="34.78330" lon="-120.01796"><ele>1078.0</ele></trkpt>
    <trkpt lat="34.78335" lon="-120.01810"><ele>1078.0</ele></trkpt>
    <trkpt lat="34.78341" lon="-120.01829"><ele>1078.0</ele></trkpt>
    <trkpt lat="34.78348" lon="-120.01843"><ele>1078.0</ele></trkpt>
    <trkpt lat="34.78352" lon="-120.01852"><ele>1078.0</ele></trkpt>
    <trkpt lat="34.78359" lon="-120.01881"><ele>1078.0</ele></trkpt>
    <trkpt lat="34.78364" lon="-120.01896"><ele>1091.0</ele></trkpt>
    <trkpt lat="34.78368" lon="-120.01917"><ele>1091.0</ele></trkpt>
    <trkpt lat="34.78372" lon="-120.01937"><ele>1091.0</ele></trkpt>
    <trkpt lat="34.78372" lon="-120.01958"><ele>1091.0</ele></trkpt>
    <trkpt lat="34.78371" lon="-120.01972"><ele>1091.0</ele></trkpt>
    <trkpt lat="34.78370" lon="-120.01999"><ele>1091.0</ele></trkpt>
    <trkpt lat="34.78368" lon="-120.02026"><ele>1091.0</ele></trkpt>
    <trkpt lat="34.78367" lon="-120.02044"><ele>1091.0</ele></trkpt>
    <trkpt lat="34.78367" lon="-120.02056"><ele>1099.0</ele></trkpt>
    <trkpt lat="34.78365" lon="-120.02070"><ele>1099.0</ele></trkpt>
    <trkpt lat="34.78367" lon="-120.02078"><ele>1099.0</ele></trkpt>
    <trkpt lat="34.78372" lon="-120.02105"><ele>1099.0</ele></trkpt>
    <trkpt lat="34.78388" lon="-120.02144"><ele>1099.0</ele></trkpt>
    <trkpt lat="34.78405" lon="-120.02177"><ele>1099.0</ele></trkpt>
    <trkpt lat="34.78413" lon="-120.02192"><ele>1099.0</ele></trkpt>
    <trkpt lat="34.78418" lon="-120.02205"><ele>1091.0</ele></trkpt>
    <trkpt lat="34.78423" lon="-120.02225"><ele>1091.0</ele></trkpt>
    <trkpt lat="34.78429" lon="-120.02237"><ele>1091.0</ele></trkpt>
    <trkpt lat="34.78437" lon="-120.02255"><ele>1091.0</ele></trkpt>
    <trkpt lat="34.78450" lon="-120.02285"><ele>1091.0</ele></trkpt>
    <trkpt lat="34.78465" lon="-120.02320"><ele>1091.0</ele></trkpt>
    <trkpt lat="34.78475" lon="-120.02350"><ele>1091.0</ele></trkpt>
    <trkpt lat="34.78480" lon="-120.02367"><ele>1075.0</ele></trkpt>
    <trkpt lat="34.78484" lon="-120.02390"><ele>1075.0</ele></trkpt>
    <trkpt lat="34.78489" lon="-120.02416"><ele>1075.0</ele></trkpt>
    <trkpt lat="34.78493" lon="-120.02430"><ele>1075.0</ele></trkpt>
    <trkpt lat="34.78497" lon="-120.02455"><ele>1075.0</ele></trkpt>
    <trkpt lat="34.78503" lon="-120.02489"><ele>1075.0</ele></trkpt>
    <trkpt lat="34.78516" lon="-120.02553"><ele>1075.0</ele></trkpt>
    <trkpt lat="34.78521" lon="-120.02580"><ele>1075.0</ele></trkpt>
    <trkpt lat="34.78525" lon="-120.02616"><ele>1049.0</ele></trkpt>
    <trkpt lat="34.78528" lon="-120.02641"><ele>1049.0</ele></trkpt>
    <trkpt lat="34.78532" lon="-120.02672"><ele>1049.0</ele></trkpt>
    <trkpt lat="34.78537" lon="-120.02715"><ele>1049.0</ele></trkpt>
    <trkpt lat="34.78540" lon="-120.02752"><ele>1049.0</ele></trkpt>
    <trkpt lat="34.78552" lon="-120.02789"><ele>1049.0</ele></trkpt>
    <trkpt lat="34.78562" lon="-120.02808"><ele>1049.0</ele></trkpt>
    <trkpt lat="34.78578" lon="-120.02838"><ele>1064.0</ele></trkpt>
    <trkpt lat="34.78593" lon="-120.02854"><ele>1064.0</ele></trkpt>
    <trkpt lat="34.78606" lon="-120.02865"><ele>1064.0</ele></trkpt>
    <trkpt lat="34.78632" lon="-120.02890"><ele>1064.0</ele></trkpt>
    <trkpt lat="34.78635" lon="-120.02911"><ele>1064.0</ele></trkpt>
    <trkpt lat="34.78650" lon="-120.02953"><ele>1064.0</ele></trkpt>
    <trkpt lat="34.78670" lon="-120.03003"><ele>1064.0</ele></trkpt>
    <trkpt lat="34.78688" lon="-120.03046"><ele>1065.0</ele></trkpt>
    <trkpt lat="34.78698" lon="-120.03062"><ele>1065.0</ele></trkpt>
    <trkpt lat="34.78712" lon="-120.03080"><ele>1065.0</ele></trkpt>
    <trkpt lat="34.78736" lon="-120.03110"><ele>1065.0</ele></trkpt>
    <trkpt lat="34.78787" lon="-120.03171"><ele>1065.0</ele></trkpt>
    <trkpt lat="34.78803" lon="-120.03195"><ele>1065.0</ele></trkpt>
    <trkpt lat="34.78824" lon="-120.03231"><ele>1065.0</ele></trkpt>
    <trkpt lat="34.78827" lon="-120.03259"><ele>1049.0</ele></trkpt>
    <trkpt lat="34.78831" lon="-120.03283"><ele>1049.0</ele></trkpt>
    <trkpt lat="34.78835" lon="-120.03319"><ele>1049.0</ele></trkpt>
    <trkpt lat="34.78845" lon="-120.03360"><ele>1049.0</ele></trkpt>
    <trkpt lat="34.78850" lon="-120.03394"><ele>1049.0</ele></trkpt>
    <trkpt lat="34.78858" lon="-120.03445"><ele>1049.0</ele></trkpt>
    <trkpt lat="34.78867" lon="-120.03480"><ele>1049.0</ele></trkpt>
    <trkpt lat="34.78877" lon="-120.03513"><ele>1049.0</ele></trkpt>
    <trkpt lat="34.78897" lon="-120.03548"><ele>1054.0</ele></trkpt>
    <trkpt lat="34.78908" lon="-120.03569"><ele>1054.0</ele></trkpt>
    <trkpt lat="34.78916" lon="-120.03588"><ele>1054.0</ele></trkpt>
    <trkpt lat="34.78932" lon="-120.03620"><ele>1054.0</ele></trkpt>
    <trkpt lat="34.78946" lon="-120.03646"><ele>1054.0</ele></trkpt>
    <trkpt lat="34.78955" lon="-120.03662"><ele>1054.0</ele></trkpt>
    <trkpt lat="34.78979" lon="-120.03694"><ele>1054.0</ele></trkpt>
    <trkpt lat="34.78996" lon="-120.03715"><ele>1070.0</ele></trkpt>
    <trkpt lat="34.79011" lon="-120.03723"><ele>1070.0</ele></trkpt>
    <trkpt lat="34.79026" lon="-120.03733"><ele>1070.0</ele></trkpt>
    <trkpt lat="34.79035" lon="-120.03741"><ele>1070.0</ele></trkpt>
    <trkpt lat="34.79059" lon="-120.03766"><ele>1070.0</ele></trkpt>
    <trkpt lat="34.79079" lon="-120.03786"><ele>1070.0</ele></trkpt>
    <trkpt lat="34.79090" lon="-120.03811"><ele>1070.0</ele></trkpt>
    <trkpt lat="34.79103" lon="-120.03839"><ele>1082.0</ele></trkpt>
    <trkpt lat="34.79111" lon="-120.03860"><ele>1082.0</ele></trkpt>
    <trkpt lat="34.79129" lon="-120.03893"><ele>1082.0</ele></trkpt>
    <trkpt lat="34.79143" lon="-120.03930"><ele>1082.0</ele></trkpt>
    <trkpt lat="34.79157" lon="-120.03972"><ele>1082.0</ele></trkpt>
    <trkpt lat="34.79169" lon="-120.03996"><ele>1082.0</ele></trkpt>
    <trkpt lat="34.79179" lon="-120.04014"><ele>1082.0</ele></trkpt>
    <trkpt lat="34.79203" lon="-120.04035"><ele>1072.0</ele></trkpt>
    <trkpt lat="34.79244" lon="-120.04072"><ele>1072.0</ele></trkpt>
    <trkpt lat="34.79301" lon="-120.04100"><ele>1072.0</ele></trkpt>
    <trkpt lat="34.79330" lon="-120.04121"><ele>1072.0</ele></trkpt>
    <trkpt lat="34.79345" lon="-120.04138"><ele>1072.0</ele></trkpt>
    <trkpt lat="34.79364" lon="-120.04169"><ele>1072.0</ele></trkpt>
    <trkpt lat="34.79375" lon="-120.04207"><ele>1072.0</ele></trkpt>
    <trkpt lat="34.79376" lon="-120.04230"><ele>1072.0</ele></trkpt>
    <trkpt lat="34.79367" lon="-120.04252"><ele>1062.0</ele></trkpt>
    <trkpt lat="34.79347" lon="-120.04274"><ele>1062.0</ele></trkpt>
    <trkpt lat="34.79335" lon="-120.04285"><ele>1062.0</ele></trkpt>
    <trkpt lat="34.79323" lon="-120.04298"><ele>1062.0</ele></trkpt>
    <trkpt lat="34.79313" lon="-120.04316"><ele>1062.0</ele></trkpt>
    <trkpt lat="34.79307" lon="-120.04345"><ele>1062.0</ele></trkpt>
    <trkpt lat="34.79318" lon="-120.04383"><ele>1062.0</ele></trkpt>
    <trkpt lat="34.79326" lon="-120.04403"><ele>1051.0</ele></trkpt>
    <trkpt lat="34.79331" lon="-120.04428"><ele>1051.0</ele></trkpt>
    <trkpt lat="34.79328" lon="-120.04455"><ele>1051.0</ele></trkpt>
    <trkpt lat="34.79325" lon="-120.04465"><ele>1051.0</ele></trkpt>
  </trkseg></trk>
</gpx>
