{"type":"FeatureCollection","metadata":{"source":"USFS Motor Vehicle Use Map (MVUM), EDW_MVUM_01","area":"palomar","bbox":"-116.95,33.25,-116.62,33.52","fetched":"2026-06-28","counts":{"plate":28}},"features":[{"type":"Feature","properties":{"id":"9S07","name":"PALOMAR DIVIDE","kind":"road","access":"plate","seasonal":false},"geometry":{"type":"LineString","coordinates":[[-116.7213,33.3213],[-116.7211,33.3209],[-116.7212,33.3208],[-116.7214,33.3207],[-116.7217,33.3207],[-116.7222,33.3205],[-116.7224,33.3204],[-116.7226,33.3204],[-116.7228,33.3207],[-116.7229,33.3207],[-116.7233,33.3208],[-116.7233,33.321],[-116.7232,33.3211],[-116.7233,33.3213],[-116.7234,33.3214],[-116.7237,33.3215],[-116.7241,33.3216],[-116.7243,33.3216],[-116.7244,33.3215],[-116.7245,33.3212],[-116.7245,33.3211],[-116.7248,33.321],[-116.7249,33.3208],[-116.7248,33.3206],[-116.725,33.3204],[-116.725,33.3203],[-116.7249,33.32],[-116.725,33.3198],[-116.7251,33.3197],[-116.7252,33.3197],[-116.7255,33.3198],[-116.7257,33.3198],[-116.726,33.3198],[-116.7263,33.32],[-116.7264,33.3203],[-116.7271,33.3207],[-116.7274,33.3207],[-116.7276,33.3206],[-116.7279,33.3206],[-116.7282,33.3207],[-116.7285,33.3207],[-116.7287,33.3208],[-116.7293,33.3205],[-116.7294,33.3203],[-116.7294,33.3202],[-116.7294,33.32],[-116.7295,33.3198],[-116.7296,33.3193],[-116.7297,33.3192],[-116.7299,33.3193],[-116.7301,33.3193],[-116.7305,33.319],[-116.7307,33.3188],[-116.7312,33.3185],[-116.7312,33.3181],[-116.7314,33.318],[-116.7315,33.3176],[-116.7315,33.3173],[-116.7317,33.3171],[-116.7319,33.3171],[-116.7323,33.3169],[-116.7325,33.3168],[-116.7328,33.3167],[-116.7329,33.3167],[-116.7328,33.3165],[-116.7329,33.3164],[-116.733,33.3162],[-116.7331,33.316],[-116.733,33.3157],[-116.7332,33.3155],[-116.7334,33.3155],[-116.7339,33.3159],[-116.7344,33.3164],[-116.7345,33.3165],[-116.7346,33.3165],[-116.7349,33.3165],[-116.7356,33.3165],[-116.7357,33.3166],[-116.7357,33.3168],[-116.7359,33.3168],[-116.7361,33.3167],[-116.7363,33.3166],[-116.7367,33.3166],[-116.7368,33.3166],[-116.7376,33.3166],[-116.7377,33.3167],[-116.738,33.3173],[-116.7381,33.3174],[-116.7383,33.3174],[-116.7383,33.3176],[-116.7386,33.318],[-116.7387,33.3181],[-116.739,33.3182],[-116.7392,33.3184],[-116.7391,33.3185],[-116.7391,33.3187],[-116.739,33.3187],[-116.739,33.3188],[-116.7392,33.319],[-116.7393,33.3193],[-116.7395,33.3196],[-116.74,33.3197],[-116.7404,33.3196],[-116.7407,33.3197],[-116.7408,33.3197],[-116.7411,33.3199],[-116.7413,33.32],[-116.7417,33.3201],[-116.7419,33.3202],[-116.7422,33.3204],[-116.7424,33.3204],[-116.7425,33.3205],[-116.7426,33.3207],[-116.7429,33.3207],[-116.7429,33.321],[-116.743,33.3211],[-116.7432,33.3211],[-116.7436,33.3211],[-116.7439,33.321],[-116.7441,33.321],[-116.7445,33.3207],[-116.7451,33.3207],[-116.7453,33.3208],[-116.7454,33.3209],[-116.7456,33.3211],[-116.7459,33.3211],[-116.7461,33.3212],[-116.7464,33.3212],[-116.7464,33.3214],[-116.7465,33.3216],[-116.7467,33.3217],[-116.7467,33.3219],[-116.7468,33.3219],[-116.747,33.3219],[-116.7471,33.322],[-116.7472,33.3221],[-116.7474,33.3222],[-116.7474,33.3225],[-116.7476,33.3226],[-116.7477,33.3229],[-116.7481,33.3232],[-116.7482,33.3233],[-116.7483,33.3234],[-116.7482,33.3235],[-116.7482,33.3237],[-116.7483,33.3239],[-116.7483,33.3241],[-116.7481,33.3241],[-116.7478,33.3243],[-116.7477,33.3245],[-116.7477,33.3246],[-116.7478,33.3248],[-116.7482,33.325],[-116.7483,33.325],[-116.7486,33.3253],[-116.7487,33.3255],[-116.7489,33.3255],[-116.7489,33.3257],[-116.7489,33.3259],[-116.7489,33.326],[-116.7489,33.3262],[-116.7488,33.3262],[-116.7488,33.3264],[-116.7491,33.3264],[-116.7495,33.3265],[-116.7496,33.3265],[-116.7505,33.3264],[-116.7509,33.3267],[-116.7511,33.3271],[-116.7512,33.3274],[-116.7514,33.3277],[-116.7518,33.3278],[-116.7526,33.3275],[-116.753,33.3277],[-116.753,33.3279],[-116.753,33.3281],[-116.7532,33.3283],[-116.7536,33.3284],[-116.7541,33.3288],[-116.7544,33.3289],[-116.7545,33.329],[-116.7546,33.3292],[-116.7546,33.3294],[-116.7545,33.3296],[-116.7545,33.3299],[-116.7545,33.3301],[-116.7546,33.3301],[-116.7548,33.3299],[-116.7551,33.3297],[-116.7554,33.3296],[-116.7556,33.3295],[-116.7559,33.3293],[-116.756,33.3289],[-116.7562,33.3287],[-116.7564,33.3284],[-116.7567,33.3283],[-116.7572,33.3283],[-116.7576,33.3282],[-116.758,33.3283],[-116.7585,33.3282],[-116.7591,33.3282],[-116.7599,33.3281],[-116.7607,33.328],[-116.7612,33.3278],[-116.7614,33.3276],[-116.7615,33.3275],[-116.7619,33.3275],[-116.7623,33.3276],[-116.7626,33.3278],[-116.7628,33.3278],[-116.7632,33.328],[-116.7636,33.3281],[-116.764,33.3283],[-116.7644,33.3285],[-116.7646,33.3284],[-116.7646,33.3282],[-116.7646,33.3279],[-116.7648,33.3278],[-116.7648,33.3276],[-116.7649,33.3276],[-116.7658,33.3277],[-116.7659,33.3276],[-116.766,33.3275],[-116.7661,33.3274],[-116.7662,33.3274],[-116.7663,33.3276],[-116.7661,33.328],[-116.7659,33.3283],[-116.7659,33.3289],[-116.766,33.3294],[-116.7664,33.3299],[-116.7665,33.33]]}},{"type":"Feature","properties":{"id":"9S07","name":"PALOMAR DIVIDE","kind":"road","access":"plate","seasonal":false},"geometry":{"type":"LineString","coordinates":[[-116.7091,33.3309],[-116.7094,33.33],[-116.7094,33.3292],[-116.7093,33.3286],[-116.7095,33.328],[-116.7105,33.328],[-116.7108,33.3281],[-116.7111,33.328],[-116.7115,33.3273],[-116.7119,33.3274],[-116.7121,33.3278],[-116.7124,33.3279],[-116.7127,33.3278],[-116.713,33.3277],[-116.713,33.3274],[-116.7135,33.3274],[-116.7137,33.3273],[-116.714,33.3273],[-116.7141,33.3274],[-116.7146,33.3273],[-116.7149,33.3272],[-116.7149,33.3271],[-116.7146,33.3269],[-116.7147,33.3266],[-116.7144,33.3264],[-116.7143,33.3262],[-116.7143,33.326],[-116.7137,33.3254],[-116.7138,33.3253],[-116.7143,33.3255],[-116.7147,33.3256],[-116.7153,33.3259],[-116.7163,33.3258],[-116.7169,33.3254],[-116.7171,33.3253],[-116.7173,33.3252],[-116.7174,33.3251],[-116.7179,33.3254],[-116.7181,33.3256],[-116.7183,33.3257],[-116.7187,33.3258],[-116.7188,33.3261],[-116.719,33.326],[-116.7191,33.3259],[-116.7192,33.3255],[-116.7191,33.3253],[-116.719,33.3251],[-116.7192,33.3248],[-116.7189,33.3241],[-116.719,33.3237],[-116.7192,33.3233],[-116.7194,33.3232],[-116.7196,33.3234],[-116.7196,33.3235],[-116.7202,33.3238],[-116.7208,33.3237],[-116.7209,33.3235],[-116.7209,33.3234],[-116.7214,33.3231],[-116.7215,33.3228],[-116.7214,33.3225],[-116.7215,33.3223],[-116.7213,33.3213]]}},{"type":"Feature","properties":{"id":"9S01C","name":"OAK GROVE CG-C","kind":"road","access":"plate","seasonal":false},"geometry":{"type":"LineString","coordinates":[[-116.79,33.3864],[-116.7899,33.3861],[-116.7895,33.3859],[-116.7893,33.3859],[-116.7892,33.386],[-116.7891,33.3861],[-116.7889,33.3862],[-116.7888,33.3862],[-116.7886,33.386],[-116.7886,33.3859],[-116.7887,33.3858],[-116.7889,33.3857],[-116.7891,33.3855],[-116.7893,33.3854],[-116.7894,33.3854],[-116.7896,33.3854],[-116.7898,33.3855],[-116.79,33.3856],[-116.79,33.3857],[-116.79,33.3859],[-116.7899,33.386]]}},{"type":"Feature","properties":{"id":"10S03","name":"CRESTLINE GROUP CAMP","kind":"road","access":"plate","seasonal":false},"geometry":{"type":"LineString","coordinates":[[-116.8652,33.313],[-116.8645,33.3132],[-116.8641,33.3133],[-116.8639,33.3134],[-116.8638,33.3134],[-116.8637,33.3134],[-116.8636,33.3132],[-116.8635,33.313],[-116.8634,33.3128],[-116.8633,33.3122]]}},{"type":"Feature","properties":{"id":"9S11","name":"FRY CREEK CG","kind":"road","access":"plate","seasonal":false},"geometry":{"type":"LineString","coordinates":[[-116.8797,33.3448],[-116.8804,33.3446],[-116.8806,33.3446],[-116.8807,33.3445],[-116.881,33.3444],[-116.881,33.3443],[-116.8811,33.3443],[-116.8814,33.3442],[-116.8815,33.3441],[-116.8817,33.3441],[-116.8819,33.344],[-116.8821,33.344],[-116.8823,33.344],[-116.8825,33.344],[-116.8827,33.344],[-116.8829,33.344],[-116.8831,33.3441],[-116.8832,33.3441],[-116.8834,33.3442],[-116.8836,33.3442],[-116.8839,33.3442],[-116.8842,33.3443],[-116.8844,33.3444],[-116.8846,33.3444],[-116.8848,33.3445],[-116.8849,33.3445],[-116.885,33.3445],[-116.8852,33.3444],[-116.8853,33.3444],[-116.8857,33.3444],[-116.8859,33.3443],[-116.8861,33.3443],[-116.8862,33.3444],[-116.8863,33.3445],[-116.8863,33.3446],[-116.8861,33.3448],[-116.8858,33.3449],[-116.8856,33.3448],[-116.8851,33.3447],[-116.8848,33.3445]]}},{"type":"Feature","properties":{"id":"9S05C","name":"INDIAN FLAT CG C","kind":"road","access":"plate","seasonal":false},"geometry":{"type":"LineString","coordinates":[[-116.6612,33.3496],[-116.6611,33.3498],[-116.6609,33.3499],[-116.6608,33.3498],[-116.6606,33.3499]]}},{"type":"Feature","properties":{"id":"9S07","name":"PALOMAR DIVIDE","kind":"road","access":"plate","seasonal":false},"geometry":{"type":"LineString","coordinates":[[-116.7665,33.33],[-116.7666,33.3301],[-116.767,33.3303],[-116.7672,33.3305],[-116.7673,33.3306],[-116.7676,33.3307],[-116.768,33.3306],[-116.7685,33.3307],[-116.7687,33.3309],[-116.7686,33.3312],[-116.7685,33.3315],[-116.7686,33.3318],[-116.7686,33.3319],[-116.7688,33.3322],[-116.7693,33.3324],[-116.7695,33.3325],[-116.7696,33.3329],[-116.7699,33.3332],[-116.7701,33.3332],[-116.7708,33.333],[-116.7708,33.3328],[-116.7712,33.3325],[-116.7713,33.3322],[-116.7711,33.3318],[-116.7711,33.3317],[-116.7713,33.3316],[-116.7713,33.3313],[-116.7715,33.3311],[-116.7716,33.3311],[-116.7717,33.3315],[-116.7716,33.3318],[-116.7718,33.3322],[-116.7718,33.3324],[-116.7715,33.3329],[-116.7715,33.3332],[-116.7714,33.3335],[-116.7715,33.3342],[-116.7721,33.3348],[-116.7723,33.3351],[-116.7725,33.3356],[-116.7729,33.3359],[-116.7734,33.3362],[-116.7736,33.3362],[-116.7738,33.3361],[-116.7745,33.3361],[-116.7746,33.3362],[-116.7747,33.3366],[-116.7749,33.3367],[-116.7751,33.3368],[-116.7759,33.3368],[-116.7764,33.3368],[-116.7769,33.3368],[-116.7773,33.337],[-116.7779,33.3371],[-116.7781,33.3371],[-116.7785,33.3371],[-116.7789,33.337],[-116.7795,33.3367],[-116.7799,33.3365],[-116.7808,33.3359],[-116.781,33.3359],[-116.7814,33.3359],[-116.7818,33.3359],[-116.7822,33.3357],[-116.7826,33.3357],[-116.7828,33.3358],[-116.7829,33.3362],[-116.783,33.3367],[-116.7833,33.3369],[-116.7834,33.3371],[-116.7834,33.3374],[-116.7837,33.3376],[-116.7841,33.3376],[-116.7844,33.3377],[-116.7848,33.3379],[-116.7853,33.3379],[-116.7858,33.3381],[-116.7862,33.3388],[-116.7868,33.3389],[-116.7871,33.3391],[-116.7875,33.3393],[-116.7882,33.3399],[-116.7883,33.3403],[-116.7883,33.3411],[-116.788,33.3415],[-116.7877,33.3417],[-116.7878,33.3421],[-116.7881,33.3424],[-116.7887,33.3426],[-116.789,33.3425],[-116.7892,33.3427],[-116.7907,33.3426],[-116.791,33.3425],[-116.7913,33.3423],[-116.7914,33.3423],[-116.7916,33.3424],[-116.7923,33.3425],[-116.7929,33.343],[-116.7931,33.3431],[-116.7935,33.3433],[-116.794,33.3438],[-116.7947,33.3439],[-116.7948,33.344],[-116.7947,33.3444],[-116.7948,33.3446],[-116.7946,33.3451],[-116.7947,33.3453],[-116.7948,33.3454],[-116.7954,33.3454],[-116.7957,33.3455],[-116.7959,33.3457],[-116.7961,33.3459],[-116.7964,33.3464],[-116.7965,33.347],[-116.7967,33.3475],[-116.7969,33.3477],[-116.7971,33.3476],[-116.7974,33.3474],[-116.7979,33.3473],[-116.7984,33.3468],[-116.7987,33.3466],[-116.7991,33.3465],[-116.799,33.3462],[-116.7992,33.3455],[-116.7996,33.3449],[-116.7997,33.3449],[-116.7999,33.345],[-116.8002,33.3456],[-116.8004,33.3461],[-116.8006,33.3465],[-116.8008,33.3468],[-116.8009,33.3471],[-116.8009,33.3473],[-116.801,33.3476],[-116.8012,33.348],[-116.8011,33.3482],[-116.8012,33.3483],[-116.8013,33.3483],[-116.8016,33.3484],[-116.8022,33.3493],[-116.8026,33.3495],[-116.8034,33.3497],[-116.8036,33.3502],[-116.8043,33.351],[-116.8044,33.3514],[-116.8043,33.3518],[-116.8045,33.3518],[-116.8048,33.3518],[-116.8051,33.3517],[-116.8058,33.3517],[-116.8061,33.3516],[-116.8065,33.3509],[-116.8068,33.3508],[-116.8074,33.3509],[-116.8075,33.3511],[-116.8077,33.3514],[-116.8078,33.352],[-116.8077,33.3522],[-116.8078,33.3525],[-116.8079,33.3527],[-116.8079,33.3529],[-116.8078,33.353],[-116.8082,33.3535],[-116.8083,33.3537],[-116.8086,33.3537],[-116.809,33.3537],[-116.8091,33.3537],[-116.8094,33.354],[-116.8095,33.354],[-116.8098,33.3539],[-116.8101,33.3546],[-116.8103,33.3546],[-116.8109,33.3551],[-116.8113,33.3551],[-116.8115,33.3549],[-116.8118,33.3549],[-116.8128,33.3551],[-116.813,33.3553],[-116.8132,33.3556],[-116.814,33.3559],[-116.8148,33.3559],[-116.8149,33.3563],[-116.8153,33.3563],[-116.8157,33.3569],[-116.8163,33.3572],[-116.8164,33.3574],[-116.8165,33.3585],[-116.8172,33.3592],[-116.8183,33.3595],[-116.8185,33.3595],[-116.8188,33.3594],[-116.8191,33.359],[-116.8196,33.3588],[-116.8197,33.3586],[-116.8198,33.3584],[-116.8202,33.3583],[-116.8207,33.3584],[-116.8211,33.3582],[-116.8213,33.3582],[-116.8215,33.3583],[-116.8217,33.3584],[-116.8221,33.3585],[-116.8222,33.3586],[-116.8223,33.3588],[-116.8222,33.359],[-116.8223,33.359],[-116.8227,33.359],[-116.8231,33.359],[-116.8235,33.3591],[-116.8237,33.3592],[-116.8239,33.3595],[-116.8239,33.3598],[-116.824,33.36],[-116.8242,33.36],[-116.8248,33.3601],[-116.8252,33.3602],[-116.8254,33.3603],[-116.8254,33.3604],[-116.8254,33.3606],[-116.8254,33.361],[-116.8262,33.3618],[-116.8266,33.3625],[-116.8267,33.3627],[-116.827,33.3629],[-116.8272,33.3629],[-116.8276,33.3628],[-116.8278,33.3625],[-116.8284,33.3621],[-116.8284,33.362],[-116.8288,33.3616],[-116.8289,33.3615],[-116.8291,33.3616],[-116.8292,33.3619],[-116.8292,33.3622],[-116.8295,33.3628],[-116.8298,33.363],[-116.83,33.3635],[-116.8301,33.3638],[-116.8307,33.3644],[-116.831,33.3645],[-116.8313,33.3649],[-116.8314,33.3653],[-116.8315,33.3656],[-116.8317,33.3659],[-116.8319,33.3658],[-116.8322,33.3655],[-116.8323,33.3652],[-116.8327,33.3648],[-116.8331,33.3646],[-116.8335,33.3645],[-116.8338,33.3646],[-116.8339,33.3646],[-116.8342,33.3646],[-116.8349,33.365],[-116.8353,33.3651],[-116.8359,33.3655],[-116.8362,33.3655],[-116.8368,33.3657],[-116.8374,33.3656],[-116.8376,33.3656],[-116.8383,33.3653],[-116.8384,33.365],[-116.8384,33.3649],[-116.8384,33.3643],[-116.8385,33.364],[-116.8386,33.3639],[-116.8387,33.364],[-116.8387,33.3641],[-116.8389,33.3642],[-116.839,33.3641],[-116.8393,33.3639],[-116.8396,33.3639],[-116.8397,33.3639],[-116.8398,33.364],[-116.8402,33.364],[-116.8405,33.364],[-116.8408,33.3637],[-116.841,33.3634],[-116.8411,33.3633],[-116.8414,33.3633],[-116.8415,33.3634],[-116.8418,33.3637],[-116.8419,33.3639],[-116.8422,33.3639],[-116.8422,33.3642],[-116.8422,33.3643],[-116.8423,33.3644]]}},{"type":"Feature","properties":{"id":"8S05","name":"HIGHPOINT","kind":"road","access":"plate","seasonal":false},"geometry":{"type":"LineString","coordinates":[[-116.8581,33.4335],[-116.8581,33.4334],[-116.8587,33.4327],[-116.8587,33.4326],[-116.8585,33.4324],[-116.8583,33.432],[-116.8581,33.4314],[-116.8574,33.4306],[-116.8574,33.4303],[-116.8576,33.4302],[-116.8581,33.4303],[-116.8584,33.4303],[-116.8594,33.4293],[-116.8597,33.4288],[-116.8598,33.4283],[-116.8599,33.4281],[-116.8598,33.4275],[-116.8598,33.427],[-116.8597,33.4265],[-116.8595,33.426],[-116.859,33.4254],[-116.8586,33.4254],[-116.8584,33.4252],[-116.8582,33.4248],[-116.8574,33.4244],[-116.8569,33.4245],[-116.8568,33.4245],[-116.8565,33.4243],[-116.8567,33.4234],[-116.857,33.4229],[-116.8574,33.4226],[-116.8576,33.4222],[-116.8577,33.4219],[-116.8576,33.4216],[-116.8573,33.4213],[-116.8568,33.4209],[-116.8565,33.4203],[-116.8562,33.4196],[-116.8557,33.4186],[-116.855,33.4171],[-116.8548,33.417],[-116.8545,33.4166],[-116.8541,33.4158],[-116.8539,33.415],[-116.8536,33.4145],[-116.8532,33.4142],[-116.8528,33.4137],[-116.8525,33.4135],[-116.8521,33.4131],[-116.8515,33.4128],[-116.8513,33.4128],[-116.8508,33.4127],[-116.8502,33.4122],[-116.8502,33.412],[-116.8505,33.4117],[-116.8504,33.4116],[-116.8501,33.4114],[-116.8498,33.4113],[-116.8495,33.4108],[-116.8485,33.4102],[-116.8482,33.4101],[-116.8481,33.4099],[-116.848,33.4098],[-116.8472,33.4098],[-116.8464,33.4093],[-116.846,33.4087],[-116.8454,33.4081],[-116.8452,33.4078],[-116.8446,33.4071],[-116.8446,33.4066],[-116.8448,33.4064],[-116.8451,33.4064],[-116.8453,33.4059],[-116.8456,33.4057],[-116.8458,33.4056],[-116.8457,33.4054],[-116.8458,33.4051],[-116.846,33.405],[-116.8463,33.4046],[-116.8463,33.4044],[-116.8466,33.4042],[-116.8469,33.404],[-116.847,33.4038],[-116.8471,33.4036],[-116.8476,33.4035],[-116.8482,33.403],[-116.8482,33.4029],[-116.8484,33.4024],[-116.8485,33.4025],[-116.8488,33.4025],[-116.849,33.4024],[-116.8491,33.4025],[-116.8488,33.4027],[-116.8487,33.4031],[-116.8488,33.4034],[-116.849,33.4036],[-116.849,33.4038],[-116.8491,33.404],[-116.8491,33.4041],[-116.8489,33.4042],[-116.8486,33.4041],[-116.8484,33.4042],[-116.8485,33.4044],[-116.8491,33.4049],[-116.8492,33.4052],[-116.8495,33.4055],[-116.8501,33.4055],[-116.8504,33.4052],[-116.8511,33.4046],[-116.8514,33.4047],[-116.8517,33.4047],[-116.852,33.4046],[-116.8521,33.4046],[-116.8525,33.4052],[-116.8526,33.4053],[-116.8528,33.4051],[-116.8529,33.4049],[-116.853,33.4048],[-116.8539,33.4048],[-116.8543,33.4051],[-116.8545,33.4051],[-116.8547,33.405],[-116.8547,33.4047],[-116.855,33.4045],[-116.8549,33.4042],[-116.8548,33.4039],[-116.8548,33.4038],[-116.8552,33.404],[-116.8556,33.4039],[-116.8559,33.4039],[-116.856,33.4039],[-116.8562,33.4039],[-116.8563,33.4036],[-116.8566,33.4035],[-116.8569,33.4034],[-116.857,33.4036],[-116.8573,33.4037],[-116.8576,33.4038],[-116.8577,33.4036],[-116.8576,33.4033],[-116.8579,33.4031],[-116.8578,33.4029],[-116.8574,33.403],[-116.8569,33.4029],[-116.8564,33.403],[-116.8562,33.4029],[-116.8556,33.4029],[-116.8555,33.4025],[-116.8552,33.4019],[-116.855,33.4017],[-116.8545,33.4016],[-116.8541,33.4013],[-116.8538,33.4011],[-116.8531,33.4013],[-116.853,33.4011],[-116.8531,33.4007],[-116.8529,33.4004],[-116.8529,33.4001],[-116.8524,33.3998],[-116.8522,33.3996],[-116.8521,33.3992],[-116.852,33.3989],[-116.8521,33.3988],[-116.8524,33.3989],[-116.8528,33.3988],[-116.8533,33.3987],[-116.8537,33.3985],[-116.8541,33.3985],[-116.8544,33.3985],[-116.8546,33.3984],[-116.8545,33.3983],[-116.8542,33.3983],[-116.8539,33.3982],[-116.8536,33.3978],[-116.8538,33.3977],[-116.854,33.3975],[-116.8543,33.3973],[-116.8544,33.3971],[-116.8545,33.3969],[-116.8548,33.397],[-116.8549,33.397],[-116.8548,33.3961],[-116.8542,33.3955],[-116.8538,33.3954],[-116.8534,33.395],[-116.8535,33.3947],[-116.8537,33.3945],[-116.8539,33.3943],[-116.8538,33.3941],[-116.8535,33.394],[-116.8533,33.394],[-116.853,33.3942],[-116.8523,33.3943],[-116.8521,33.3941],[-116.8518,33.394],[-116.851,33.3941],[-116.8502,33.3944],[-116.85,33.3942],[-116.85,33.394],[-116.8499,33.394],[-116.8493,33.3942],[-116.8489,33.3941],[-116.8485,33.3942],[-116.8484,33.3942],[-116.8479,33.3943],[-116.8473,33.3942],[-116.8471,33.3942],[-116.8468,33.3944],[-116.8464,33.3944],[-116.846,33.3945],[-116.8456,33.3945],[-116.8453,33.3944],[-116.845,33.3943],[-116.8446,33.3943],[-116.8442,33.3942],[-116.8442,33.394],[-116.844,33.3939],[-116.8438,33.3937],[-116.8436,33.3936],[-116.8434,33.3937],[-116.8432,33.3937],[-116.8428,33.3938],[-116.8428,33.394],[-116.8425,33.3945],[-116.8422,33.3944],[-116.8421,33.3946],[-116.8416,33.3947],[-116.8415,33.395],[-116.8419,33.3953],[-116.8418,33.3954],[-116.8416,33.3954],[-116.8413,33.3957],[-116.8407,33.3958],[-116.8403,33.3956],[-116.8402,33.3953],[-116.8399,33.3952],[-116.8396,33.3954],[-116.8393,33.3954],[-116.8387,33.3952],[-116.8388,33.395],[-116.839,33.3948],[-116.8391,33.3944],[-116.8395,33.3939],[-116.8396,33.3938],[-116.8399,33.3938],[-116.8401,33.3937],[-116.8401,33.3935],[-116.8399,33.3934],[-116.8391,33.3938],[-116.8383,33.3943],[-116.8374,33.3943],[-116.8368,33.3935],[-116.8365,33.3934],[-116.836,33.393],[-116.8358,33.3928],[-116.8358,33.3925],[-116.8355,33.3922],[-116.8354,33.3919],[-116.8349,33.3919],[-116.8347,33.3918],[-116.8346,33.3917],[-116.8341,33.3918],[-116.8338,33.3918],[-116.8336,33.3913],[-116.8333,33.3912],[-116.8333,33.391],[-116.8335,33.3906],[-116.8335,33.3904],[-116.8336,33.3902],[-116.8336,33.3899],[-116.8332,33.3896],[-116.8331,33.389],[-116.8329,33.3888],[-116.8327,33.3885],[-116.8325,33.3885],[-116.8324,33.3886],[-116.8318,33.3884],[-116.8313,33.3881],[-116.8314,33.3878],[-116.8312,33.3875],[-116.831,33.3874],[-116.831,33.3873],[-116.8309,33.3872],[-116.8306,33.3872],[-116.8306,33.3871],[-116.8305,33.387],[-116.8302,33.387],[-116.83,33.3871],[-116.8299,33.3871],[-116.8295,33.3869],[-116.8294,33.3869],[-116.8292,33.3871],[-116.8291,33.3871],[-116.8289,33.3869],[-116.8288,33.3866],[-116.8285,33.3864],[-116.8285,33.3861],[-116.8283,33.386],[-116.8284,33.3856],[-116.8284,33.3853],[-116.8281,33.3852],[-116.828,33.385],[-116.8279,33.3849],[-116.828,33.3848],[-116.828,33.3847],[-116.8278,33.3847],[-116.8275,33.3849],[-116.8272,33.3851],[-116.8266,33.3856],[-116.8265,33.3855],[-116.8265,33.3852],[-116.8267,33.3848],[-116.8269,33.3847],[-116.8269,33.3845],[-116.8279,33.3841],[-116.8279,33.3839],[-116.8277,33.3838],[-116.8277,33.3834],[-116.828,33.3831],[-116.8281,33.3829],[-116.8286,33.383],[-116.8288,33.3831],[-116.829,33.3832],[-116.8292,33.3832],[-116.8294,33.3828],[-116.8298,33.3824],[-116.8296,33.3822],[-116.8297,33.382],[-116.8302,33.3815],[-116.83,33.3811],[-116.8298,33.3809],[-116.8297,33.381],[-116.8295,33.381],[-116.8294,33.3809],[-116.8289,33.3808],[-116.8286,33.3803],[-116.8295,33.3805],[-116.8298,33.3803],[-116.8301,33.3803],[-116.8303,33.3802],[-116.8303,33.3799],[-116.8305,33.3798],[-116.8306,33.3794],[-116.8305,33.379],[-116.8304,33.3788],[-116.8304,33.3786],[-116.8303,33.3784],[-116.8301,33.3782],[-116.8298,33.3782],[-116.8294,33.3782],[-116.8292,33.378],[-116.8292,33.3777],[-116.8294,33.3776],[-116.8294,33.3774],[-116.8293,33.3772],[-116.8294,33.3769],[-116.8293,33.3768],[-116.8286,33.3768],[-116.8282,33.3766],[-116.8279,33.3767],[-116.8274,33.3765],[-116.8274,33.3763],[-116.8273,33.3761],[-116.8269,33.3763]]}},{"type":"Feature","properties":{"id":"9S12","name":"OBSERVATORY CG","kind":"road","access":"plate","seasonal":false},"geometry":{"type":"LineString","coordinates":[[-116.8786,33.3415],[-116.8788,33.3423],[-116.8785,33.3426],[-116.8782,33.3426],[-116.8781,33.3424],[-116.878,33.3421],[-116.8779,33.3418],[-116.8776,33.3418],[-116.8773,33.3419],[-116.8771,33.3421],[-116.8772,33.3424],[-116.8779,33.3433],[-116.878,33.3434],[-116.8786,33.3434],[-116.8788,33.3435],[-116.8791,33.3439],[-116.8794,33.3438],[-116.8794,33.3435],[-116.879,33.3429],[-116.8788,33.3423]]}},{"type":"Feature","properties":{"id":"9S05A","name":"INDIAN FLAT CG","kind":"road","access":"plate","seasonal":false},"geometry":{"type":"LineString","coordinates":[[-116.6555,33.3483],[-116.656,33.3482],[-116.6566,33.348],[-116.6569,33.3479],[-116.657,33.3479],[-116.6572,33.3478],[-116.6573,33.3478],[-116.6575,33.3478],[-116.6579,33.3479],[-116.6582,33.3479],[-116.6584,33.348],[-116.6586,33.3481],[-116.6587,33.3481],[-116.6589,33.3483],[-116.6591,33.3484],[-116.6592,33.3486],[-116.6593,33.3487],[-116.6597,33.3487],[-116.6598,33.3488],[-116.6599,33.3488],[-116.6602,33.3489],[-116.6604,33.3491],[-116.6605,33.3491],[-116.6605,33.3492],[-116.6607,33.3494],[-116.6609,33.3495],[-116.6611,33.3496],[-116.6612,33.3496],[-116.6613,33.3497],[-116.662,33.3498],[-116.662,33.3499],[-116.6621,33.35],[-116.6622,33.3501],[-116.6623,33.3502],[-116.6626,33.3503],[-116.6628,33.3503],[-116.6629,33.3503],[-116.6632,33.3502],[-116.6633,33.3501],[-116.6635,33.35],[-116.6635,33.3499],[-116.6635,33.3498],[-116.6633,33.3498],[-116.6631,33.3498],[-116.6629,33.3497],[-116.6626,33.3497],[-116.6624,33.3497],[-116.6622,33.3497],[-116.6621,33.3496],[-116.662,33.3497]]}},{"type":"Feature","properties":{"id":"9S02B","name":"OAK GROVE STATION B","kind":"road","access":"plate","seasonal":false},"geometry":{"type":"LineString","coordinates":[[-116.791,33.386],[-116.7912,33.3859],[-116.7909,33.3857],[-116.791,33.3855],[-116.7913,33.3855],[-116.7912,33.3852],[-116.7915,33.3852],[-116.7918,33.3855],[-116.7916,33.3857],[-116.7913,33.3855]]}},{"type":"Feature","properties":{"id":"9S02","name":"OAK GROVE STATION","kind":"road","access":"plate","seasonal":false},"geometry":{"type":"LineString","coordinates":[[-116.7917,33.3867],[-116.7921,33.3864],[-116.7928,33.3866],[-116.7934,33.3867],[-116.7939,33.3868],[-116.7941,33.387],[-116.794,33.3873],[-116.7935,33.3873],[-116.7932,33.3872],[-116.7931,33.3869],[-116.7929,33.3867]]}},{"type":"Feature","properties":{"id":"9S09","name":"OAK GROVE","kind":"road","access":"plate","seasonal":false},"geometry":{"type":"LineString","coordinates":[[-116.827,33.3762],[-116.8273,33.3756],[-116.8275,33.3755],[-116.8278,33.3757],[-116.828,33.3755],[-116.8283,33.3755],[-116.8285,33.3753],[-116.8286,33.3753],[-116.829,33.3757],[-116.8291,33.3756],[-116.8292,33.3752],[-116.8295,33.3751],[-116.8297,33.3753],[-116.83,33.3757],[-116.8302,33.3758],[-116.8303,33.3758],[-116.8307,33.3756],[-116.831,33.3756],[-116.8312,33.3755],[-116.8314,33.3755],[-116.8315,33.3757],[-116.832,33.3757],[-116.8322,33.3756],[-116.8323,33.3755],[-116.8325,33.3759],[-116.8326,33.3759],[-116.833,33.3757],[-116.8331,33.3754],[-116.8334,33.3751],[-116.8336,33.3752],[-116.8339,33.3751],[-116.8349,33.375],[-116.8354,33.3748],[-116.8356,33.3745],[-116.8353,33.374],[-116.835,33.3736],[-116.8347,33.3734],[-116.834,33.3729],[-116.8341,33.3727],[-116.834,33.3726],[-116.8338,33.3725],[-116.8335,33.3725],[-116.8334,33.3723],[-116.8332,33.3717],[-116.8326,33.3712],[-116.8322,33.3712],[-116.8314,33.3709],[-116.8312,33.3706],[-116.8306,33.3705],[-116.8305,33.3702],[-116.8303,33.3699],[-116.8297,33.3696],[-116.8293,33.3695],[-116.8288,33.3689],[-116.8288,33.3683],[-116.828,33.3683],[-116.8275,33.3679],[-116.8273,33.3675],[-116.8268,33.367],[-116.8267,33.3666],[-116.8267,33.3662],[-116.8268,33.3657],[-116.8267,33.3648],[-116.8266,33.3645],[-116.8265,33.3641],[-116.8267,33.3633],[-116.8264,33.3629],[-116.8265,33.3627]]}},{"type":"Feature","properties":{"id":"9S05B","name":"INDIAN FLAT CG B","kind":"road","access":"plate","seasonal":false},"geometry":{"type":"LineString","coordinates":[[-116.6605,33.3491],[-116.6601,33.3493],[-116.66,33.3493],[-116.6599,33.3493],[-116.6596,33.3495],[-116.6594,33.3497],[-116.659,33.3499],[-116.6588,33.3498],[-116.6589,33.3496],[-116.6591,33.3494],[-116.6594,33.3492],[-116.6597,33.3492],[-116.6598,33.349],[-116.6598,33.3488]]}},{"type":"Feature","properties":{"id":"9S01B","name":"OAK GROVE CG-B","kind":"road","access":"plate","seasonal":false},"geometry":{"type":"LineString","coordinates":[[-116.7909,33.3868],[-116.7908,33.387],[-116.7906,33.3871],[-116.7903,33.387],[-116.7901,33.387],[-116.7898,33.387],[-116.7896,33.387],[-116.7895,33.3871],[-116.7894,33.3873],[-116.7894,33.3876],[-116.7894,33.3879],[-116.7893,33.3881],[-116.7892,33.3881],[-116.7889,33.3882],[-116.7887,33.3881],[-116.7886,33.388],[-116.7887,33.3876],[-116.7887,33.3874],[-116.7888,33.3872],[-116.7888,33.387],[-116.789,33.3868],[-116.7893,33.3865],[-116.7895,33.3865],[-116.7898,33.3864],[-116.79,33.3864],[-116.7903,33.3864],[-116.7906,33.3865],[-116.7907,33.3865]]}},{"type":"Feature","properties":{"id":"9S05","name":"INDIAN FLATS","kind":"road","access":"plate","seasonal":false},"geometry":{"type":"LineString","coordinates":[[-116.6584,33.3548],[-116.6584,33.3549],[-116.6583,33.3551],[-116.6583,33.3552],[-116.6584,33.3554],[-116.6593,33.3558],[-116.6601,33.3559],[-116.6604,33.3561],[-116.661,33.3564],[-116.6619,33.3569],[-116.6621,33.3573],[-116.6628,33.3575],[-116.6646,33.3577],[-116.6649,33.3579],[-116.6655,33.3582],[-116.6659,33.3581],[-116.6661,33.3581],[-116.6666,33.358],[-116.6675,33.3577],[-116.6684,33.3575],[-116.669,33.3579],[-116.6698,33.3586],[-116.6701,33.3586],[-116.6714,33.3586],[-116.6717,33.3587],[-116.672,33.3591],[-116.6723,33.3601],[-116.6724,33.3607],[-116.6724,33.361],[-116.6721,33.3614],[-116.6724,33.3616],[-116.673,33.3621],[-116.6731,33.3626],[-116.6734,33.3628],[-116.6739,33.363],[-116.6743,33.3631],[-116.6747,33.3639],[-116.6746,33.3644],[-116.6739,33.3651],[-116.6739,33.3653],[-116.6745,33.3659],[-116.6749,33.3661],[-116.6754,33.3661],[-116.676,33.3664],[-116.6772,33.3666],[-116.6787,33.3666],[-116.6793,33.3664],[-116.6798,33.3667],[-116.6804,33.3669],[-116.6808,33.3669],[-116.6811,33.3674],[-116.6817,33.3675],[-116.6823,33.3674],[-116.6826,33.3674],[-116.6829,33.3675],[-116.6832,33.3676],[-116.6835,33.3674],[-116.6838,33.3675],[-116.6837,33.3678],[-116.6839,33.368],[-116.6844,33.3681],[-116.6845,33.3683],[-116.6849,33.3684],[-116.6849,33.3686],[-116.6842,33.369],[-116.6844,33.3699],[-116.6848,33.3701],[-116.6854,33.3701],[-116.6854,33.3702],[-116.6858,33.3704],[-116.6861,33.3702],[-116.6867,33.3701],[-116.687,33.3698],[-116.6874,33.3696],[-116.6875,33.3697],[-116.6874,33.3698],[-116.6872,33.3703],[-116.6868,33.3704],[-116.6865,33.3706],[-116.6864,33.371],[-116.6867,33.3712],[-116.687,33.3713],[-116.6872,33.3711],[-116.6874,33.3712],[-116.6878,33.371],[-116.6882,33.3714],[-116.6886,33.3716],[-116.6892,33.3712],[-116.6893,33.3709],[-116.69,33.3711],[-116.6904,33.3714],[-116.691,33.3719],[-116.691,33.3726],[-116.6907,33.3727],[-116.6906,33.3729],[-116.6907,33.373],[-116.6912,33.3731],[-116.6916,33.3733],[-116.6919,33.3731],[-116.692,33.3731],[-116.6921,33.3731],[-116.6924,33.3734],[-116.6923,33.374],[-116.6923,33.3746],[-116.6922,33.3748],[-116.6923,33.3751],[-116.6915,33.3755],[-116.6907,33.3758],[-116.6904,33.3757],[-116.6902,33.3757],[-116.6897,33.3762],[-116.6884,33.3764],[-116.6881,33.3766],[-116.6868,33.3769],[-116.6865,33.3771],[-116.6865,33.378]]}},{"type":"Feature","properties":{"id":"8S05","name":"HIGHPOINT","kind":"road","access":"plate","seasonal":false},"geometry":{"type":"LineString","coordinates":[[-116.857,33.4403],[-116.8571,33.4398],[-116.8577,33.439],[-116.8578,33.4386],[-116.858,33.4382],[-116.8586,33.438],[-116.8588,33.4378],[-116.859,33.4375],[-116.8589,33.4366],[-116.8587,33.4362],[-116.858,33.4349],[-116.8578,33.4341],[-116.8579,33.4338],[-116.8581,33.4335]]}},{"type":"Feature","properties":{"id":"11S05","name":"SAN LUIS REY PG","kind":"road","access":"plate","seasonal":false},"geometry":{"type":"LineString","coordinates":[[-116.7914,33.2522],[-116.7921,33.2525],[-116.7922,33.2527],[-116.7924,33.2531],[-116.7926,33.2536],[-116.7928,33.2538],[-116.7931,33.2538],[-116.7933,33.2539],[-116.7937,33.254],[-116.7941,33.2542]]}},{"type":"Feature","properties":{"id":"9S05","name":"INDIAN FLATS","kind":"road","access":"plate","seasonal":false},"geometry":{"type":"LineString","coordinates":[[-116.6555,33.348],[-116.6556,33.3481],[-116.6555,33.3483],[-116.6555,33.3484],[-116.6557,33.3486],[-116.6557,33.3489],[-116.6559,33.3491],[-116.6561,33.3495],[-116.656,33.3501],[-116.6563,33.3505],[-116.6568,33.3507],[-116.6569,33.3507],[-116.6573,33.3515],[-116.6573,33.352],[-116.6576,33.3522],[-116.6576,33.3525],[-116.6579,33.3529],[-116.6582,33.3536],[-116.658,33.354],[-116.6582,33.3546],[-116.6584,33.3548]]}},{"type":"Feature","properties":{"id":"9S07C","name":"DEER FLAT/KNOB HILL 2","kind":"road","access":"plate","seasonal":false},"geometry":{"type":"LineString","coordinates":[[-116.8284,33.362],[-116.828,33.3621],[-116.8278,33.3621],[-116.8276,33.3621],[-116.8275,33.362]]}},{"type":"Feature","properties":{"id":"9S07D","name":"DEER FLAT/KNOB HILL 1","kind":"road","access":"plate","seasonal":false},"geometry":{"type":"LineString","coordinates":[[-116.8254,33.3606],[-116.8256,33.3607],[-116.8258,33.3608],[-116.826,33.3609]]}},{"type":"Feature","properties":{"id":"9S09A","name":"HIGHPOINT","kind":"road","access":"plate","seasonal":false},"geometry":{"type":"LineString","coordinates":[[-116.8267,33.3666],[-116.8263,33.3663],[-116.8261,33.3661],[-116.8255,33.3658],[-116.8251,33.3656],[-116.8249,33.3653]]}},{"type":"Feature","properties":{"id":"9S01","name":"OAK GROVE CG","kind":"road","access":"plate","seasonal":false},"geometry":{"type":"LineString","coordinates":[[-116.7915,33.3865],[-116.7913,33.3866],[-116.7911,33.3866],[-116.7909,33.3865],[-116.7907,33.3865],[-116.7907,33.3867],[-116.7908,33.3868],[-116.7909,33.3868],[-116.791,33.3868],[-116.791,33.3866]]}},{"type":"Feature","properties":{"id":"9S07B","name":"PALOMAR STATION","kind":"road","access":"plate","seasonal":false},"geometry":{"type":"LineString","coordinates":[[-116.8722,33.3593],[-116.8722,33.3594],[-116.8722,33.3595],[-116.8722,33.3596],[-116.8724,33.3598],[-116.8725,33.36],[-116.8726,33.3602],[-116.8727,33.3604],[-116.8728,33.3605],[-116.8731,33.3607],[-116.8733,33.3609],[-116.8735,33.361]]}},{"type":"Feature","properties":{"id":"10S05","name":"HENSHAW SCENIC VISTA","kind":"road","access":"plate","seasonal":false},"geometry":{"type":"LineString","coordinates":[[-116.7602,33.2554],[-116.7599,33.2556],[-116.7596,33.2556],[-116.7595,33.2556],[-116.7594,33.2557],[-116.7595,33.2558],[-116.7596,33.2558],[-116.7597,33.2558],[-116.7598,33.2557],[-116.7599,33.2557],[-116.7599,33.2556]]}},{"type":"Feature","properties":{"id":"9S01A","name":"OAK GROVE CG-A","kind":"road","access":"plate","seasonal":false},"geometry":{"type":"LineString","coordinates":[[-116.791,33.3868],[-116.7911,33.3869],[-116.7914,33.3869],[-116.7915,33.387],[-116.7916,33.3872],[-116.7917,33.3873],[-116.792,33.3874],[-116.7921,33.3876],[-116.792,33.3877],[-116.7919,33.3879],[-116.7917,33.388],[-116.7915,33.3881],[-116.7913,33.3881],[-116.7911,33.3881],[-116.7908,33.3881],[-116.7905,33.3882],[-116.7902,33.3883],[-116.79,33.3882],[-116.7899,33.3881],[-116.7899,33.3879],[-116.7899,33.3878],[-116.7901,33.3876],[-116.7902,33.3875],[-116.7904,33.3874],[-116.7908,33.3874],[-116.791,33.3874],[-116.7911,33.3874],[-116.7913,33.3875],[-116.7915,33.3874],[-116.7916,33.3872]]}},{"type":"Feature","properties":{"id":"9S04","name":"PUERTA LA CRUZ","kind":"road","access":"plate","seasonal":false},"geometry":{"type":"LineString","coordinates":[[-116.7077,33.3621],[-116.708,33.3619],[-116.7082,33.3616],[-116.7083,33.3611],[-116.7085,33.3608],[-116.709,33.3607],[-116.7092,33.3607],[-116.7093,33.361],[-116.7094,33.3611],[-116.7095,33.3615],[-116.71,33.3617],[-116.7103,33.3616],[-116.7107,33.3611],[-116.7111,33.361],[-116.7113,33.3608],[-116.7116,33.3606],[-116.7117,33.3603],[-116.7114,33.3601],[-116.7115,33.3598],[-116.7118,33.3596],[-116.7125,33.3597],[-116.7129,33.3596],[-116.7134,33.3592],[-116.7137,33.3588],[-116.714,33.3587],[-116.7145,33.3586],[-116.7148,33.3583],[-116.7149,33.3581],[-116.715,33.3581],[-116.7154,33.3582],[-116.7158,33.3582],[-116.7161,33.3581],[-116.7163,33.3579],[-116.7163,33.3576],[-116.7168,33.3573],[-116.7169,33.357],[-116.717,33.3568],[-116.7173,33.3567],[-116.7174,33.3567],[-116.7176,33.3568],[-116.7177,33.3567],[-116.7179,33.3565],[-116.7181,33.3563],[-116.7182,33.3561],[-116.7181,33.3558],[-116.7181,33.3555],[-116.7183,33.3552],[-116.7185,33.3549],[-116.7185,33.3547],[-116.7184,33.3545],[-116.7185,33.3541],[-116.7185,33.3535],[-116.719,33.3526],[-116.719,33.3522],[-116.7194,33.3516],[-116.7191,33.3514],[-116.7191,33.3511],[-116.7192,33.3511]]}},{"type":"Feature","properties":{"id":"9S05","name":"INDIAN FLATS","kind":"road","access":"plate","seasonal":false},"geometry":{"type":"LineString","coordinates":[[-116.6603,33.2863],[-116.6605,33.2866],[-116.6604,33.2867],[-116.6599,33.2872],[-116.6591,33.2883],[-116.6586,33.2894],[-116.6585,33.2903],[-116.6581,33.2906],[-116.6582,33.2906],[-116.6584,33.2908],[-116.6584,33.2912],[-116.6582,33.2917],[-116.6582,33.2919],[-116.6585,33.2923],[-116.6587,33.2922],[-116.659,33.2919],[-116.6591,33.2919],[-116.6591,33.2921],[-116.6591,33.2924],[-116.6593,33.2926],[-116.6592,33.2927],[-116.6589,33.2928],[-116.6579,33.2936],[-116.6567,33.2941],[-116.6562,33.2941],[-116.6552,33.2947],[-116.6546,33.2952],[-116.6536,33.2956],[-116.6526,33.2963],[-116.6518,33.2971],[-116.6516,33.298],[-116.6512,33.2985],[-116.6508,33.2994],[-116.6503,33.2995],[-116.649,33.2995],[-116.6486,33.2997],[-116.6484,33.3001],[-116.6484,33.3011],[-116.6483,33.3014],[-116.6479,33.3021],[-116.6472,33.3028],[-116.6467,33.3034],[-116.6466,33.3036],[-116.6464,33.304],[-116.6468,33.3044],[-116.647,33.3049],[-116.6474,33.3051],[-116.6475,33.3053],[-116.6467,33.3059],[-116.6467,33.3062],[-116.6469,33.3065],[-116.6473,33.3066],[-116.6475,33.3064],[-116.6476,33.3066],[-116.6478,33.3069],[-116.6483,33.307],[-116.6484,33.3071],[-116.6482,33.3074],[-116.6476,33.3077],[-116.6465,33.3077],[-116.6458,33.308],[-116.6454,33.3085],[-116.6452,33.309],[-116.6453,33.3095],[-116.6453,33.3101],[-116.645,33.3102],[-116.6446,33.3102],[-116.6444,33.3101],[-116.6443,33.3101],[-116.6441,33.3103],[-116.6437,33.3103],[-116.6435,33.3105],[-116.6432,33.3106],[-116.6432,33.3108],[-116.643,33.311],[-116.6425,33.3112],[-116.642,33.3111],[-116.6417,33.3116],[-116.6415,33.3121],[-116.6417,33.3124],[-116.6415,33.3128],[-116.6411,33.3134],[-116.6406,33.3134],[-116.6404,33.3137],[-116.6401,33.3143],[-116.6404,33.3153],[-116.6405,33.3158],[-116.6404,33.3159],[-116.6399,33.316],[-116.6397,33.3158],[-116.6391,33.3159],[-116.6389,33.3156],[-116.6388,33.3156],[-116.6385,33.3159],[-116.6384,33.3164],[-116.6385,33.3167],[-116.6389,33.317],[-116.639,33.3177],[-116.6393,33.3177],[-116.6397,33.3178],[-116.6397,33.3181],[-116.6396,33.3183],[-116.6391,33.3182],[-116.6389,33.3185],[-116.6384,33.3187],[-116.6376,33.3187],[-116.6371,33.3188],[-116.6369,33.3193],[-116.6367,33.3193],[-116.6362,33.3196],[-116.6358,33.3196],[-116.6354,33.3196],[-116.6353,33.32],[-116.6353,33.3205],[-116.6348,33.3211],[-116.6348,33.3217],[-116.6344,33.3224],[-116.6338,33.3228],[-116.6337,33.3232],[-116.6338,33.3234],[-116.6338,33.3236],[-116.6334,33.324],[-116.6335,33.3247],[-116.6336,33.3248],[-116.6339,33.3255],[-116.6348,33.3257],[-116.6354,33.3257],[-116.6362,33.3262],[-116.6368,33.3262],[-116.6373,33.3264],[-116.6375,33.3266],[-116.6377,33.3267],[-116.6385,33.3273],[-116.6388,33.3279],[-116.6397,33.3287],[-116.6397,33.329],[-116.64,33.3294],[-116.6401,33.3296],[-116.6404,33.3298],[-116.6407,33.3301],[-116.6407,33.3303],[-116.6408,33.3306],[-116.6411,33.3312],[-116.6411,33.3319],[-116.641,33.3323],[-116.6408,33.3345],[-116.641,33.3348],[-116.6409,33.3353],[-116.641,33.3358],[-116.6412,33.336],[-116.6421,33.3366],[-116.6426,33.3372],[-116.6426,33.3381],[-116.6426,33.339],[-116.6433,33.3397],[-116.6436,33.3398],[-116.6437,33.34],[-116.6441,33.3402],[-116.6448,33.3403],[-116.6453,33.3405],[-116.6459,33.3407],[-116.6464,33.341],[-116.6465,33.3412],[-116.6469,33.3415],[-116.647,33.3417],[-116.647,33.3421],[-116.647,33.3425],[-116.6475,33.3438],[-116.6476,33.3439],[-116.6482,33.3441],[-116.6485,33.3443],[-116.6496,33.3448],[-116.6504,33.3449],[-116.6512,33.3452],[-116.6517,33.3456],[-116.652,33.3457],[-116.6522,33.3456],[-116.6526,33.3456],[-116.6529,33.3457],[-116.6538,33.3463],[-116.6541,33.3466],[-116.6542,33.3467],[-116.6546,33.347],[-116.6547,33.3473],[-116.6553,33.3477],[-116.6555,33.3479],[-116.6555,33.348]]}}]}