{"type":"FeatureCollection","metadata":{"source":"USFS Motor Vehicle Use Map (MVUM), EDW_MVUM_01","area":"santa-ana","bbox":"-117.55,33.55,-117.30,33.80","fetched":"2026-06-27","counts":{"plate":36,"green":26}},"features":[{"type":"Feature","properties":{"id":"5S04","name":"MAPLE SPRINGS","kind":"road","access":"plate","seasonal":false},"geometry":{"type":"LineString","coordinates":[[-117.5445,33.7465],[-117.5444,33.7466],[-117.5446,33.7469],[-117.5445,33.7471],[-117.5446,33.7473],[-117.5455,33.7476],[-117.5457,33.7479],[-117.5463,33.7481],[-117.5465,33.7484],[-117.5472,33.7487],[-117.5474,33.7489],[-117.5476,33.7491],[-117.5478,33.7493],[-117.5479,33.7493],[-117.548,33.7492],[-117.5479,33.7491],[-117.5478,33.749],[-117.5476,33.7487],[-117.5474,33.7483],[-117.5472,33.7482],[-117.5468,33.7477],[-117.5467,33.7475],[-117.5467,33.7471],[-117.5466,33.747],[-117.5465,33.7468],[-117.5466,33.7465],[-117.5465,33.7462],[-117.5468,33.7456],[-117.5468,33.745],[-117.5466,33.7449],[-117.5465,33.7449],[-117.5465,33.7447],[-117.5466,33.7446],[-117.5467,33.7445],[-117.5468,33.7443],[-117.5468,33.7441],[-117.5468,33.7437],[-117.5467,33.7435],[-117.5466,33.7433],[-117.5466,33.7431],[-117.5466,33.7429],[-117.5466,33.7428],[-117.5464,33.7427],[-117.5461,33.7427],[-117.546,33.7426],[-117.5461,33.7425],[-117.5462,33.7423],[-117.5463,33.7422],[-117.5463,33.742],[-117.5463,33.7419],[-117.5461,33.7417],[-117.5461,33.7416],[-117.5462,33.7414],[-117.5464,33.7412],[-117.5466,33.7411],[-117.5468,33.741],[-117.5467,33.7409],[-117.5466,33.7408],[-117.5465,33.7407],[-117.5468,33.7404],[-117.5469,33.7403],[-117.5469,33.7401],[-117.5467,33.7399],[-117.5463,33.7399],[-117.546,33.7398],[-117.5459,33.7398],[-117.5459,33.7397],[-117.5462,33.7395],[-117.5465,33.7391],[-117.5467,33.7388],[-117.5468,33.7387],[-117.5469,33.7385],[-117.5466,33.7385],[-117.5463,33.7385],[-117.5459,33.7384],[-117.5456,33.7382],[-117.5456,33.738],[-117.5456,33.7378],[-117.5456,33.7377],[-117.5455,33.7374],[-117.5456,33.7372],[-117.5458,33.7371],[-117.546,33.7368],[-117.546,33.7367],[-117.5458,33.7365],[-117.5457,33.7365],[-117.5458,33.7364],[-117.546,33.7365],[-117.5461,33.7365],[-117.5463,33.7367],[-117.5464,33.7369],[-117.5461,33.7371],[-117.5459,33.7374],[-117.5461,33.7376],[-117.5462,33.7378],[-117.5464,33.7379],[-117.5467,33.738],[-117.5471,33.7379],[-117.5475,33.7379],[-117.5479,33.738],[-117.548,33.7382],[-117.548,33.7383],[-117.5479,33.7384],[-117.5478,33.7386],[-117.5479,33.7388],[-117.5482,33.7389],[-117.5489,33.739],[-117.5488,33.7393],[-117.5488,33.7395],[-117.5489,33.7397],[-117.549,33.7402],[-117.5492,33.7409],[-117.5492,33.7411],[-117.5494,33.7412],[-117.5497,33.7413],[-117.5498,33.7411],[-117.5501,33.7407],[-117.5502,33.7406],[-117.5506,33.7406],[-117.5511,33.7406],[-117.5515,33.7405],[-117.5517,33.7406],[-117.5519,33.7407],[-117.5521,33.7406],[-117.5526,33.7407],[-117.5528,33.7408],[-117.5532,33.7408],[-117.5534,33.7406],[-117.5538,33.7408],[-117.5541,33.7409],[-117.5543,33.741],[-117.5543,33.7412],[-117.5547,33.7413],[-117.5548,33.7414],[-117.5554,33.742],[-117.5556,33.7421],[-117.5557,33.7421],[-117.5556,33.7419],[-117.5554,33.7415],[-117.5553,33.7412],[-117.5551,33.7409],[-117.555,33.7408],[-117.5546,33.7405],[-117.5542,33.7403],[-117.554,33.7402],[-117.5536,33.7399],[-117.5533,33.7397],[-117.5527,33.7396],[-117.5525,33.7395],[-117.5521,33.7394],[-117.552,33.7393],[-117.552,33.739],[-117.5519,33.7388],[-117.5517,33.7389],[-117.5515,33.739],[-117.5513,33.7389],[-117.5511,33.7386],[-117.5511,33.7384],[-117.5512,33.738],[-117.5514,33.7376],[-117.5514,33.7375],[-117.5513,33.7372],[-117.5512,33.7371],[-117.5511,33.7371],[-117.5509,33.7372],[-117.5507,33.7371],[-117.5505,33.737],[-117.5504,33.7368],[-117.5504,33.7365],[-117.5502,33.7364],[-117.5501,33.7362],[-117.5501,33.736],[-117.5502,33.7359],[-117.5504,33.7357],[-117.5502,33.7356],[-117.5501,33.7355],[-117.5501,33.7353],[-117.5499,33.7353],[-117.5498,33.7352],[-117.5496,33.7348],[-117.5497,33.7347],[-117.5497,33.7345],[-117.5498,33.7343],[-117.5499,33.7342],[-117.5499,33.734],[-117.5496,33.7339],[-117.5496,33.7338],[-117.5497,33.7336],[-117.5496,33.7335],[-117.5495,33.7334],[-117.5495,33.7333],[-117.5495,33.7331],[-117.5496,33.7329],[-117.5498,33.7328],[-117.5498,33.7325],[-117.5499,33.7323],[-117.5497,33.7321],[-117.5495,33.732],[-117.5493,33.7319],[-117.5489,33.7317],[-117.5487,33.7315],[-117.5486,33.7314],[-117.5486,33.7313],[-117.5486,33.7312],[-117.5486,33.731],[-117.5481,33.7307],[-117.5477,33.7305],[-117.5473,33.7303],[-117.5469,33.7302],[-117.5464,33.7301],[-117.5461,33.73],[-117.5458,33.7301],[-117.5456,33.7301],[-117.5454,33.73],[-117.5455,33.7299],[-117.5457,33.7298],[-117.5462,33.7297],[-117.5466,33.7297],[-117.5469,33.7298],[-117.5474,33.7298],[-117.5476,33.7297],[-117.548,33.7297],[-117.5482,33.7297],[-117.5488,33.7296],[-117.549,33.7297],[-117.5492,33.7299],[-117.5497,33.7301],[-117.5499,33.7302],[-117.5501,33.7303],[-117.5502,33.7303],[-117.5503,33.7302],[-117.5501,33.7301],[-117.5497,33.73],[-117.5494,33.7298],[-117.5492,33.7296],[-117.549,33.7294],[-117.5489,33.7294],[-117.5485,33.7293],[-117.5482,33.7291],[-117.5481,33.7291]]}},{"type":"Feature","properties":{"id":"4S03","name":"BEDFORD RIDGE","kind":"road","access":"plate","seasonal":false},"geometry":{"type":"LineString","coordinates":[[-117.5374,33.7948],[-117.5376,33.795],[-117.5377,33.795],[-117.5378,33.7949],[-117.5382,33.7947],[-117.5382,33.7942],[-117.5384,33.7939],[-117.5384,33.7937],[-117.5383,33.7936],[-117.5382,33.7934],[-117.5382,33.7932],[-117.5381,33.7931],[-117.538,33.7929],[-117.5379,33.7927],[-117.5377,33.7926],[-117.5375,33.7925],[-117.5375,33.7923],[-117.5376,33.7922],[-117.5377,33.7922],[-117.539,33.7924],[-117.5391,33.7923],[-117.5393,33.7922],[-117.5396,33.7919],[-117.54,33.7914],[-117.5403,33.7912],[-117.5405,33.791],[-117.5408,33.791],[-117.5411,33.7909],[-117.5412,33.7909],[-117.5413,33.7908],[-117.5414,33.7906],[-117.5416,33.7905],[-117.5417,33.7904],[-117.5419,33.7902],[-117.542,33.7899],[-117.5422,33.7898],[-117.5421,33.7895],[-117.5419,33.7892],[-117.5417,33.7891],[-117.5413,33.789],[-117.5409,33.789],[-117.5407,33.7889],[-117.5406,33.7886],[-117.5404,33.7885],[-117.5401,33.7883],[-117.54,33.7882],[-117.5401,33.788],[-117.5404,33.7879],[-117.5405,33.7877],[-117.5405,33.7876],[-117.5404,33.7874],[-117.5401,33.7872],[-117.5401,33.787],[-117.5401,33.7868],[-117.5407,33.7864],[-117.5409,33.7863],[-117.5411,33.7862],[-117.5413,33.7861],[-117.5415,33.7858],[-117.5415,33.7856],[-117.5414,33.7854],[-117.5412,33.7852],[-117.5412,33.7851],[-117.5412,33.7849],[-117.5416,33.7847],[-117.5418,33.7846],[-117.542,33.7844],[-117.5427,33.784],[-117.5431,33.7838],[-117.5432,33.7837],[-117.5432,33.7835],[-117.5429,33.7831],[-117.5429,33.7829],[-117.5429,33.7827],[-117.5429,33.7825],[-117.5427,33.7824],[-117.5423,33.7824],[-117.5421,33.7824],[-117.5417,33.7819],[-117.5415,33.7819],[-117.5412,33.782],[-117.5408,33.7821],[-117.5406,33.7821],[-117.5404,33.7819],[-117.54,33.7818],[-117.5398,33.7816],[-117.5394,33.7814],[-117.5393,33.7813],[-117.539,33.7812],[-117.5386,33.781],[-117.5382,33.781],[-117.5378,33.781],[-117.5377,33.7809],[-117.5374,33.7807],[-117.5372,33.7805],[-117.5371,33.7803],[-117.5368,33.7799],[-117.5366,33.7796],[-117.5365,33.7793],[-117.5364,33.7791],[-117.5364,33.7788],[-117.5364,33.7786],[-117.5363,33.7782],[-117.5362,33.778],[-117.536,33.7779],[-117.5359,33.7778],[-117.5358,33.7776],[-117.5358,33.7774],[-117.5359,33.7773],[-117.5361,33.7772],[-117.5362,33.7771],[-117.5363,33.7769],[-117.5364,33.7767],[-117.5366,33.7764],[-117.5367,33.7761],[-117.5368,33.7758],[-117.5369,33.7757],[-117.537,33.7756],[-117.5372,33.7755],[-117.5376,33.7755],[-117.5379,33.7754],[-117.5381,33.7753],[-117.5382,33.7751],[-117.5382,33.7749],[-117.5383,33.7745],[-117.5383,33.7742],[-117.5384,33.774],[-117.539,33.7737],[-117.5393,33.7736],[-117.5396,33.7736],[-117.5399,33.7736],[-117.5404,33.7735],[-117.5406,33.7734],[-117.541,33.7735],[-117.5413,33.7735],[-117.5416,33.7734],[-117.5418,33.7734],[-117.5422,33.7734],[-117.5425,33.7733],[-117.5425,33.7732],[-117.5426,33.7731],[-117.5428,33.773],[-117.5429,33.7729],[-117.5431,33.7728],[-117.5433,33.7727],[-117.5435,33.7727],[-117.5437,33.7726],[-117.5439,33.7725],[-117.5441,33.7724],[-117.5448,33.7719],[-117.545,33.7718],[-117.5452,33.7716],[-117.5454,33.7715],[-117.5462,33.7709],[-117.5465,33.7707],[-117.5466,33.7707],[-117.5469,33.7706],[-117.5471,33.7705],[-117.5472,33.7704],[-117.5473,33.7702],[-117.5473,33.77],[-117.5474,33.7698],[-117.5476,33.7695],[-117.5477,33.7693],[-117.548,33.7693],[-117.5481,33.7691],[-117.5482,33.769],[-117.5482,33.7689],[-117.5482,33.7688],[-117.5481,33.7687],[-117.548,33.7685],[-117.5481,33.7682],[-117.5481,33.7679],[-117.5483,33.7676],[-117.5485,33.7675],[-117.5488,33.7673],[-117.549,33.7672],[-117.549,33.7671],[-117.5489,33.7669],[-117.5487,33.7668],[-117.5487,33.7665],[-117.5487,33.7664],[-117.5488,33.7663],[-117.5489,33.7661],[-117.549,33.7656],[-117.5491,33.7654],[-117.5491,33.765],[-117.5493,33.7646],[-117.5494,33.7645],[-117.5495,33.7643],[-117.5495,33.7638],[-117.5497,33.7634],[-117.5498,33.7633],[-117.5499,33.7632],[-117.55,33.7631],[-117.5501,33.7629],[-117.5503,33.7627],[-117.5505,33.7626],[-117.5506,33.7623],[-117.5507,33.7622]]}},{"type":"Feature","properties":{"id":"6S07","name":"SOUTH MAIN DIVIDE","kind":"road","access":"plate","seasonal":false},"geometry":{"type":"LineString","coordinates":[[-117.3535,33.6148],[-117.3534,33.6144],[-117.3532,33.6142],[-117.3528,33.6135],[-117.3531,33.612],[-117.3533,33.611],[-117.3533,33.6104],[-117.353,33.6097],[-117.3525,33.6088],[-117.3525,33.6085],[-117.353,33.6076],[-117.353,33.6073],[-117.3523,33.6065],[-117.352,33.6062],[-117.3518,33.606],[-117.3512,33.6049],[-117.3514,33.6042],[-117.3513,33.6038],[-117.3512,33.6032],[-117.3512,33.6027],[-117.3509,33.6019],[-117.351,33.6015],[-117.3512,33.6013],[-117.3512,33.6009],[-117.351,33.6007],[-117.3505,33.6003],[-117.3501,33.6001],[-117.3495,33.5994],[-117.3491,33.5988],[-117.3487,33.5981],[-117.3483,33.5979],[-117.3479,33.5979],[-117.3475,33.598],[-117.3471,33.5979],[-117.3468,33.5977],[-117.3466,33.5973],[-117.3464,33.597],[-117.3459,33.597],[-117.3454,33.597],[-117.3451,33.5969],[-117.3447,33.5966],[-117.3443,33.5965],[-117.3441,33.5966],[-117.3437,33.5967],[-117.3433,33.5967],[-117.343,33.5966],[-117.3428,33.5963],[-117.3426,33.5961],[-117.3424,33.5959],[-117.3421,33.5959],[-117.3413,33.5963],[-117.3406,33.5967],[-117.3403,33.5968],[-117.34,33.5968],[-117.3397,33.5968],[-117.3391,33.5965],[-117.3386,33.5962],[-117.3382,33.5961],[-117.3379,33.5962],[-117.3378,33.5962],[-117.3375,33.5964],[-117.3371,33.5963],[-117.337,33.5961],[-117.3369,33.5958],[-117.3367,33.5952],[-117.3366,33.5948],[-117.3365,33.5946],[-117.3364,33.5945],[-117.3362,33.5944],[-117.3359,33.5943],[-117.3356,33.5945],[-117.3353,33.5947],[-117.335,33.5947],[-117.3346,33.5946],[-117.3341,33.5945],[-117.3337,33.5946],[-117.3336,33.5947],[-117.3334,33.5952],[-117.3334,33.5953],[-117.3331,33.5957],[-117.3328,33.5958],[-117.332,33.596],[-117.3314,33.5961],[-117.3308,33.5963],[-117.3305,33.5966],[-117.3302,33.5968],[-117.3296,33.597],[-117.3288,33.5972],[-117.3286,33.5973],[-117.3283,33.5973],[-117.3282,33.5973],[-117.3279,33.5973],[-117.3276,33.5971],[-117.3273,33.5968],[-117.3273,33.5963],[-117.3277,33.5959],[-117.3284,33.5958],[-117.3289,33.5961],[-117.3294,33.5964],[-117.33,33.5961],[-117.3305,33.5948],[-117.3305,33.5944],[-117.3304,33.5941],[-117.3306,33.5935],[-117.3307,33.5932],[-117.3307,33.593],[-117.3307,33.5927],[-117.3304,33.5914],[-117.3304,33.5907],[-117.3313,33.5896],[-117.3316,33.5892],[-117.3318,33.5889],[-117.3321,33.5889],[-117.3323,33.5888],[-117.3333,33.5892],[-117.3364,33.5893],[-117.3371,33.5895],[-117.338,33.5898]]}},{"type":"Feature","properties":{"id":"6S07","name":"SOUTH MAIN DIVIDE","kind":"road","access":"plate","seasonal":false},"geometry":{"type":"LineString","coordinates":[[-117.3541,33.6164],[-117.354,33.6163],[-117.3535,33.6148]]}},{"type":"Feature","properties":{"id":"6S11","name":"SAN JUAN STATION","kind":"road","access":"plate","seasonal":false},"geometry":{"type":"LineString","coordinates":[[-117.5137,33.5913],[-117.5137,33.5915],[-117.5137,33.5917],[-117.5137,33.5918],[-117.5137,33.5919],[-117.5135,33.5918],[-117.5133,33.5918]]}},{"type":"Feature","properties":{"id":"5S01","name":"INDIAN TRUCK TRAIL","kind":"road","access":"plate","seasonal":false},"geometry":{"type":"LineString","coordinates":[[-117.4588,33.7422],[-117.4588,33.7419],[-117.4591,33.7408],[-117.4593,33.7405],[-117.4593,33.7397],[-117.4588,33.7391],[-117.4586,33.7389],[-117.4583,33.7388],[-117.4582,33.7385],[-117.4585,33.738]]}},{"type":"Feature","properties":{"id":"6S07A","name":"MEMORIAL PG","kind":"road","access":"plate","seasonal":false},"geometry":{"type":"LineString","coordinates":[[-117.4086,33.6516],[-117.4091,33.6516],[-117.4098,33.6515],[-117.4101,33.6515],[-117.4106,33.6514]]}},{"type":"Feature","properties":{"id":"6S14","name":"HOLY JIM CANYON","kind":"road","access":"plate","seasonal":false},"geometry":{"type":"LineString","coordinates":[[-117.5171,33.6769],[-117.5172,33.6771],[-117.5173,33.6772],[-117.5174,33.6774],[-117.5175,33.6777],[-117.5175,33.6779],[-117.5174,33.6781],[-117.5173,33.6783],[-117.5172,33.6785],[-117.5171,33.6787],[-117.517,33.679],[-117.5169,33.6793],[-117.517,33.6796],[-117.5171,33.6798],[-117.5172,33.6801],[-117.5172,33.6803],[-117.5172,33.6807],[-117.5172,33.681],[-117.5171,33.6812],[-117.5171,33.6816],[-117.5169,33.682],[-117.5167,33.6824],[-117.5164,33.6827],[-117.5163,33.6828]]}},{"type":"Feature","properties":{"id":"6S05D","name":"BLUE JAY CG D","kind":"road","access":"plate","seasonal":false},"geometry":{"type":"LineString","coordinates":[[-117.4553,33.6514],[-117.4553,33.651],[-117.4556,33.6507],[-117.455,33.6508],[-117.4547,33.6512],[-117.4545,33.6512],[-117.4538,33.6518]]}},{"type":"Feature","properties":{"id":"6S07","name":"SOUTH MAIN DIVIDE","kind":"road","access":"plate","seasonal":false},"geometry":{"type":"LineString","coordinates":[[-117.338,33.5898],[-117.3381,33.5899],[-117.3389,33.5906],[-117.3396,33.5907],[-117.3396,33.5908],[-117.3399,33.5911],[-117.3402,33.5914],[-117.3404,33.5914],[-117.3406,33.5914],[-117.3409,33.5913],[-117.3411,33.5912],[-117.3424,33.591],[-117.3432,33.5909],[-117.3438,33.5907],[-117.344,33.5902],[-117.3436,33.5898],[-117.3429,33.5896],[-117.3423,33.5893],[-117.3421,33.589],[-117.342,33.5888],[-117.3419,33.5885],[-117.3419,33.5883],[-117.3419,33.588],[-117.3427,33.5871],[-117.3428,33.5868],[-117.3425,33.5862],[-117.3428,33.5856],[-117.3428,33.585],[-117.3422,33.5843],[-117.3419,33.5836],[-117.3423,33.5823],[-117.3424,33.582],[-117.3422,33.5817],[-117.3419,33.5812],[-117.3419,33.5809],[-117.3418,33.5807],[-117.3422,33.5798],[-117.3425,33.5786],[-117.3425,33.5782],[-117.3425,33.5776],[-117.3429,33.5768],[-117.3429,33.5767],[-117.3429,33.5763],[-117.3431,33.5762],[-117.3431,33.5761],[-117.3438,33.5764],[-117.3443,33.5764],[-117.3444,33.5762],[-117.3445,33.576],[-117.3444,33.575],[-117.3447,33.5747],[-117.3454,33.5747],[-117.3455,33.5746],[-117.3457,33.5745],[-117.3459,33.5738],[-117.3461,33.5737],[-117.3466,33.5737],[-117.3469,33.5736],[-117.3471,33.5736],[-117.3473,33.5733],[-117.3467,33.5726],[-117.3465,33.5723],[-117.3462,33.5718],[-117.3462,33.5713],[-117.3462,33.571],[-117.3464,33.5707],[-117.347,33.5702],[-117.348,33.57],[-117.3483,33.5698],[-117.3484,33.5692],[-117.3482,33.5685],[-117.3481,33.5683],[-117.348,33.568],[-117.348,33.5676],[-117.3479,33.5667],[-117.3481,33.5667],[-117.3494,33.5664],[-117.3496,33.5662],[-117.3498,33.566],[-117.3497,33.5656],[-117.3497,33.5655],[-117.3483,33.5636],[-117.3482,33.5636],[-117.3484,33.563],[-117.3488,33.5619],[-117.3503,33.5602],[-117.3507,33.5598],[-117.3509,33.5593],[-117.3508,33.559],[-117.3507,33.559],[-117.3502,33.5589],[-117.3498,33.559],[-117.3492,33.559],[-117.3489,33.5587],[-117.3487,33.5585],[-117.3485,33.5585],[-117.3476,33.5588],[-117.3473,33.5587],[-117.3473,33.5586],[-117.3471,33.5582],[-117.3469,33.5581],[-117.3467,33.5579],[-117.3462,33.5579],[-117.3459,33.5579],[-117.3445,33.5568],[-117.3444,33.5566],[-117.3444,33.5564],[-117.3446,33.5559],[-117.3455,33.5556],[-117.3457,33.5553],[-117.3457,33.5546],[-117.3458,33.5545],[-117.3458,33.5543],[-117.3462,33.554],[-117.3462,33.5539],[-117.3479,33.5528],[-117.348,33.5528],[-117.3482,33.5528],[-117.3484,33.5529],[-117.3486,33.5535],[-117.3489,33.5536],[-117.3491,33.5536],[-117.3497,33.5528],[-117.3501,33.5527],[-117.3503,33.5526],[-117.351,33.5524],[-117.3513,33.5521],[-117.3515,33.5518],[-117.3518,33.5518],[-117.3519,33.5518],[-117.3523,33.5521],[-117.3524,33.5521],[-117.3526,33.5521],[-117.3528,33.5519],[-117.3529,33.5511],[-117.3529,33.5509],[-117.353,33.5508],[-117.3533,33.5505],[-117.3534,33.5504],[-117.3543,33.55],[-117.3548,33.5499],[-117.3549,33.5497],[-117.355,33.5496],[-117.3551,33.5494],[-117.3551,33.5492],[-117.3552,33.5491],[-117.3553,33.549],[-117.3559,33.5485],[-117.356,33.5484],[-117.356,33.5479],[-117.3561,33.5478],[-117.3562,33.5475],[-117.3568,33.5473],[-117.3574,33.5473],[-117.3575,33.5473],[-117.3578,33.5472],[-117.3584,33.5473],[-117.3589,33.5475],[-117.3591,33.5476],[-117.3594,33.5477],[-117.3603,33.5479],[-117.3606,33.5486],[-117.3608,33.5486],[-117.361,33.5483],[-117.3613,33.5483],[-117.3615,33.5482],[-117.3617,33.5479],[-117.3621,33.5478],[-117.3621,33.5477],[-117.3625,33.5475],[-117.3634,33.5482],[-117.364,33.5485],[-117.3645,33.5491],[-117.365,33.5486],[-117.3654,33.5491],[-117.3656,33.5494],[-117.3661,33.5492],[-117.3668,33.5492],[-117.367,33.5494],[-117.3673,33.5494],[-117.3678,33.5491],[-117.3681,33.5491],[-117.3685,33.5494],[-117.3689,33.5496],[-117.3691,33.5496],[-117.3693,33.5494],[-117.3698,33.5493],[-117.37,33.5493],[-117.3702,33.5494],[-117.3704,33.5493],[-117.3706,33.5492],[-117.3711,33.549],[-117.3715,33.5491],[-117.3721,33.5492],[-117.3723,33.5492],[-117.3724,33.5491],[-117.3725,33.5489],[-117.3726,33.5487],[-117.3727,33.5487],[-117.3731,33.5487],[-117.3737,33.5486],[-117.3742,33.5487],[-117.3744,33.5489],[-117.3747,33.549],[-117.3748,33.549],[-117.3754,33.5489],[-117.3755,33.5491],[-117.3756,33.5492],[-117.3758,33.5492],[-117.3759,33.5492],[-117.3759,33.5491],[-117.3761,33.5491],[-117.3773,33.5489],[-117.3778,33.549],[-117.378,33.5491],[-117.3787,33.5489],[-117.3796,33.5492],[-117.38,33.5492],[-117.3803,33.5496],[-117.3806,33.5496],[-117.3809,33.5498],[-117.3811,33.5495],[-117.3814,33.5492],[-117.3817,33.5493],[-117.3819,33.5494],[-117.3821,33.5495],[-117.3822,33.5496],[-117.3823,33.5499],[-117.3825,33.5499],[-117.3826,33.5501],[-117.383,33.5503],[-117.3831,33.5504],[-117.3833,33.5506],[-117.3837,33.5508],[-117.3844,33.5509],[-117.3854,33.5509],[-117.3857,33.5508],[-117.3858,33.5509],[-117.386,33.551],[-117.3863,33.5509],[-117.3867,33.5509],[-117.387,33.5507],[-117.3871,33.5507],[-117.3872,33.551],[-117.3873,33.5511],[-117.3878,33.5512],[-117.3882,33.5511],[-117.3882,33.5512],[-117.3883,33.5512],[-117.3887,33.5512],[-117.3889,33.5512],[-117.389,33.5512],[-117.3892,33.5512],[-117.3893,33.5511],[-117.3894,33.5511],[-117.3894,33.5508],[-117.3895,33.5508],[-117.3895,33.5507],[-117.3897,33.5509],[-117.3898,33.551],[-117.3902,33.551],[-117.3905,33.5508],[-117.3906,33.5508],[-117.3909,33.5508],[-117.3914,33.5507],[-117.3915,33.5507],[-117.3916,33.5506],[-117.3918,33.5506],[-117.3922,33.5506],[-117.3925,33.5504],[-117.3928,33.55],[-117.393,33.5499],[-117.3932,33.5499],[-117.3936,33.5494],[-117.394,33.5491],[-117.3945,33.549],[-117.3945,33.5487],[-117.3948,33.5483],[-117.3949,33.5481],[-117.395,33.5479],[-117.3949,33.5475],[-117.3948,33.5474],[-117.3946,33.5471],[-117.3944,33.5467],[-117.3942,33.5466],[-117.3939,33.5464],[-117.3938,33.5463],[-117.3942,33.5461],[-117.3941,33.5458],[-117.3939,33.5457],[-117.3938,33.5456],[-117.3937,33.5455],[-117.3939,33.5454],[-117.3941,33.5446],[-117.3943,33.5445],[-117.3945,33.5445],[-117.3948,33.5444],[-117.3948,33.5442],[-117.395,33.5441],[-117.3951,33.5441],[-117.3952,33.5441],[-117.3955,33.5442],[-117.3957,33.5438],[-117.3958,33.5435],[-117.3957,33.5433],[-117.3955,33.5432],[-117.3956,33.5429],[-117.3956,33.5427],[-117.3953,33.5426],[-117.3952,33.5424],[-117.3952,33.5423],[-117.3951,33.5421],[-117.3954,33.5418],[-117.3954,33.5416],[-117.3953,33.5416],[-117.3951,33.5414],[-117.3948,33.5412],[-117.395,33.541],[-117.3951,33.5408],[-117.3952,33.5407],[-117.3951,33.5405],[-117.3948,33.5404],[-117.3947,33.5404],[-117.3948,33.5401],[-117.3947,33.5401],[-117.3946,33.5399],[-117.3948,33.5395],[-117.3947,33.5393],[-117.3946,33.5393],[-117.3946,33.5392],[-117.3949,33.5392],[-117.3949,33.5391],[-117.395,33.5391],[-117.3952,33.5388],[-117.3951,33.5386],[-117.395,33.5386],[-117.395,33.5384],[-117.3948,33.5382],[-117.3946,33.5379],[-117.3948,33.5378],[-117.3948,33.5375],[-117.3948,33.5374],[-117.3948,33.5373],[-117.3947,33.5371],[-117.3948,33.5371],[-117.395,33.537],[-117.3948,33.5366],[-117.3952,33.5364],[-117.3954,33.5363],[-117.3954,33.5362],[-117.3946,33.536],[-117.3946,33.5357],[-117.3945,33.5357],[-117.3944,33.5357],[-117.3943,33.5356],[-117.3944,33.5353],[-117.3941,33.535],[-117.3938,33.5352],[-117.3937,33.5351],[-117.3937,33.535],[-117.3937,33.5348],[-117.3937,33.5346],[-117.3941,33.5343],[-117.3941,33.5341],[-117.3937,33.5341],[-117.3937,33.534],[-117.3937,33.5339],[-117.3938,33.5338],[-117.3938,33.5336],[-117.3933,33.5335],[-117.3928,33.5329],[-117.3928,33.5328],[-117.3929,33.5326],[-117.393,33.5325],[-117.3931,33.5323],[-117.3927,33.5323],[-117.3925,33.5323],[-117.3923,33.5321],[-117.3919,33.532],[-117.3915,33.5318],[-117.3913,33.5319],[-117.3911,33.5319],[-117.3903,33.5318],[-117.3901,33.5316],[-117.3902,33.5315],[-117.3902,33.5314],[-117.3903,33.5311],[-117.3902,33.531],[-117.3894,33.531],[-117.3891,33.5307],[-117.3895,33.5302],[-117.3898,33.5296],[-117.39,33.5291],[-117.3899,33.529],[-117.3898,33.5288],[-117.39,33.5285],[-117.3902,33.5283],[-117.3901,33.5281],[-117.3901,33.5279],[-117.3901,33.5278],[-117.39,33.5277],[-117.3899,33.5277],[-117.3898,33.5279],[-117.3898,33.528],[-117.3897,33.5281],[-117.3896,33.5282],[-117.3892,33.5284],[-117.389,33.5285],[-117.3888,33.5285],[-117.3885,33.5287],[-117.3884,33.5288],[-117.3884,33.5289],[-117.388,33.5288],[-117.3878,33.5286],[-117.3879,33.5285],[-117.3879,33.5281],[-117.3882,33.5278],[-117.3884,33.5275],[-117.3884,33.5273],[-117.3884,33.5272],[-117.3882,33.527],[-117.388,33.5268],[-117.3879,33.5266],[-117.3878,33.5263],[-117.3878,33.5259],[-117.3879,33.5253],[-117.3877,33.5248],[-117.3876,33.5246],[-117.3873,33.5241],[-117.3869,33.5239],[-117.3868,33.5237],[-117.3869,33.5234],[-117.3867,33.5232],[-117.3866,33.5231],[-117.3862,33.5229],[-117.386,33.5229],[-117.3858,33.5231],[-117.3857,33.523],[-117.3856,33.5229],[-117.3856,33.5228],[-117.3856,33.5227],[-117.3855,33.5225],[-117.3854,33.5225],[-117.3849,33.5221],[-117.3843,33.5217],[-117.3836,33.5216],[-117.3834,33.5215],[-117.3828,33.5209],[-117.3818,33.5208],[-117.3816,33.5207],[-117.3815,33.5205],[-117.3812,33.5202],[-117.3808,33.5201],[-117.3804,33.52],[-117.3799,33.5198],[-117.3788,33.5196],[-117.3771,33.5191],[-117.3764,33.5189],[-117.3763,33.5189],[-117.3762,33.5188],[-117.3756,33.5186],[-117.3748,33.5183],[-117.3746,33.5181],[-117.3745,33.5178],[-117.3741,33.5172],[-117.3739,33.517],[-117.3736,33.5168],[-117.3731,33.5167],[-117.3728,33.5166],[-117.3726,33.5165],[-117.3716,33.5163],[-117.3705,33.516],[-117.37,33.5158],[-117.3694,33.5155],[-117.3693,33.5154],[-117.369,33.5152],[-117.3686,33.5148],[-117.3686,33.5147],[-117.3685,33.5142],[-117.3683,33.5137],[-117.3686,33.5135],[-117.3686,33.5132],[-117.3687,33.5129],[-117.3687,33.5127],[-117.3687,33.5126],[-117.3684,33.5123],[-117.3678,33.5116],[-117.3676,33.5113],[-117.3673,33.5108],[-117.3669,33.5107],[-117.3668,33.5106],[-117.3665,33.5104],[-117.3664,33.5103],[-117.3662,33.5102],[-117.3662,33.5101],[-117.365,33.5093],[-117.365,33.5092],[-117.3643,33.5087],[-117.3637,33.5083],[-117.3636,33.508],[-117.3634,33.5078],[-117.3633,33.5075],[-117.3632,33.5075],[-117.3632,33.5074],[-117.3635,33.5069],[-117.3631,33.507]]}},{"type":"Feature","properties":{"id":"6S02","name":"EL CARISO STATION","kind":"road","access":"plate","seasonal":false},"geometry":{"type":"LineString","coordinates":[[-117.4129,33.6512],[-117.413,33.6511],[-117.4129,33.651],[-117.4132,33.6509]]}},{"type":"Feature","properties":{"id":"6S10A","name":"HOT SPRINGS TH","kind":"road","access":"plate","seasonal":false},"geometry":{"type":"LineString","coordinates":[[-117.5112,33.6012],[-117.5113,33.6013],[-117.5114,33.6013],[-117.5115,33.6013],[-117.5118,33.6013],[-117.512,33.6014],[-117.5122,33.6015],[-117.5122,33.6017],[-117.5122,33.6018],[-117.512,33.602],[-117.5117,33.6021],[-117.5115,33.6021],[-117.5115,33.602],[-117.5114,33.602],[-117.5113,33.602],[-117.5112,33.6019],[-117.5111,33.6018],[-117.5111,33.6017],[-117.5111,33.6016],[-117.5111,33.6015],[-117.511,33.6014]]}},{"type":"Feature","properties":{"id":"5S04","name":"MAPLE SPRINGS","kind":"road","access":"plate","seasonal":false},"geometry":{"type":"LineString","coordinates":[[-117.584,33.7471],[-117.5839,33.7472],[-117.5836,33.7474],[-117.5825,33.7482],[-117.5825,33.7487],[-117.5822,33.749],[-117.582,33.7491],[-117.582,33.7492],[-117.5811,33.75],[-117.5806,33.7504],[-117.58,33.7508],[-117.5796,33.751],[-117.5792,33.7512],[-117.5788,33.7512],[-117.5784,33.7513],[-117.5779,33.7515],[-117.5778,33.7515],[-117.5774,33.7516],[-117.5768,33.7517],[-117.5764,33.7518],[-117.576,33.7521],[-117.5757,33.7522],[-117.5753,33.7523],[-117.5751,33.7522],[-117.5746,33.752],[-117.5741,33.7517],[-117.5738,33.7515],[-117.5736,33.7514],[-117.5732,33.7515],[-117.5729,33.7516],[-117.5726,33.7515],[-117.5718,33.7513],[-117.5716,33.7511],[-117.5712,33.7511],[-117.5709,33.7512],[-117.5709,33.7516],[-117.5705,33.7518],[-117.5701,33.752],[-117.5698,33.7521],[-117.5691,33.7524],[-117.5687,33.7524],[-117.5683,33.7525],[-117.568,33.7528],[-117.5669,33.754],[-117.5667,33.7541],[-117.5664,33.7541],[-117.5661,33.754],[-117.5657,33.7539],[-117.5655,33.7539],[-117.5652,33.754],[-117.5649,33.754],[-117.5648,33.7542],[-117.5644,33.7544],[-117.564,33.7545],[-117.5638,33.7545],[-117.5632,33.7543],[-117.5626,33.7542],[-117.5621,33.754],[-117.5618,33.754],[-117.5611,33.754],[-117.5606,33.7539],[-117.56,33.7538],[-117.5594,33.7536],[-117.5592,33.7536],[-117.558,33.7534],[-117.5575,33.7531],[-117.5561,33.752],[-117.5556,33.7519],[-117.5552,33.752],[-117.5546,33.7519],[-117.5542,33.7519],[-117.553,33.752],[-117.5527,33.7521],[-117.5519,33.7525],[-117.5517,33.7526],[-117.5505,33.7523],[-117.5502,33.7524],[-117.5494,33.7528],[-117.5492,33.7528],[-117.5489,33.7526],[-117.5484,33.7519],[-117.5482,33.7519],[-117.547,33.7519],[-117.5465,33.7518],[-117.5462,33.7517],[-117.5458,33.7513],[-117.5454,33.7504],[-117.5452,33.7502],[-117.545,33.75],[-117.5447,33.7497],[-117.5439,33.7485],[-117.5432,33.7478],[-117.5431,33.7476],[-117.5431,33.7472],[-117.5438,33.7461],[-117.544,33.7453],[-117.544,33.7452],[-117.5441,33.7452],[-117.5445,33.7457],[-117.5444,33.746],[-117.5445,33.7463],[-117.5445,33.7465]]}},{"type":"Feature","properties":{"id":"3S04D","name":"EL CARISO DUMP","kind":"road","access":"plate","seasonal":false},"geometry":{"type":"LineString","coordinates":[[-117.4091,33.6526],[-117.409,33.6532],[-117.4089,33.6537],[-117.4089,33.6539]]}},{"type":"Feature","properties":{"id":"6S07D","name":"FIREFIGHTER MEMORIAL","kind":"road","access":"plate","seasonal":false},"geometry":{"type":"LineString","coordinates":[[-117.4086,33.6516],[-117.4083,33.6518],[-117.408,33.6519],[-117.4076,33.6522]]}},{"type":"Feature","properties":{"id":"6S08","name":"UPPER SAN JUAN CG","kind":"road","access":"plate","seasonal":false},"geometry":{"type":"LineString","coordinates":[[-117.4334,33.6074],[-117.4321,33.6075],[-117.432,33.6068]]}},{"type":"Feature","properties":{"id":"6S15","name":"SAN JUAN LOOP TH","kind":"road","access":"plate","seasonal":false},"geometry":{"type":"LineString","coordinates":[[-117.4257,33.6163],[-117.4258,33.6167],[-117.4261,33.6168],[-117.4262,33.6169],[-117.4261,33.617],[-117.4259,33.617],[-117.4257,33.617],[-117.4258,33.6168],[-117.4258,33.6167]]}},{"type":"Feature","properties":{"id":"6S05E","name":"BLUE JAY CG E","kind":"road","access":"plate","seasonal":false},"geometry":{"type":"LineString","coordinates":[[-117.4544,33.6518],[-117.4544,33.6519],[-117.4545,33.6519],[-117.4546,33.6519],[-117.4547,33.652],[-117.4548,33.652],[-117.4549,33.6521],[-117.455,33.6521],[-117.455,33.6522],[-117.455,33.6523],[-117.4543,33.6527],[-117.4542,33.6526],[-117.4543,33.6523],[-117.4544,33.6519]]}},{"type":"Feature","properties":{"id":"6S05C","name":"LOS PINOS HOTSHOTS","kind":"road","access":"plate","seasonal":false},"geometry":{"type":"LineString","coordinates":[[-117.444,33.6467],[-117.444,33.6466],[-117.444,33.6463],[-117.444,33.6462],[-117.444,33.6461],[-117.4439,33.646],[-117.444,33.6458],[-117.4441,33.6455],[-117.4442,33.6454],[-117.4442,33.6453],[-117.4442,33.645],[-117.4443,33.6448],[-117.4445,33.6445],[-117.4447,33.6444],[-117.4448,33.6442],[-117.4449,33.644],[-117.4452,33.6437]]}},{"type":"Feature","properties":{"id":"6S01B","name":"EL CARISO CG TIE","kind":"road","access":"plate","seasonal":false},"geometry":{"type":"LineString","coordinates":[[-117.4123,33.6522],[-117.4122,33.6523],[-117.412,33.6523],[-117.4119,33.6523],[-117.411,33.6526],[-117.4108,33.6529]]}},{"type":"Feature","properties":{"id":"6S05B","name":"BLUE JAY CG","kind":"road","access":"plate","seasonal":false},"geometry":{"type":"LineString","coordinates":[[-117.4482,33.6523],[-117.4483,33.6523],[-117.4485,33.6524],[-117.4486,33.6525],[-117.4486,33.6526],[-117.4489,33.6528],[-117.4493,33.6529],[-117.4495,33.6529],[-117.4497,33.6528],[-117.4499,33.6527],[-117.45,33.6525],[-117.4501,33.6524],[-117.4502,33.6522],[-117.4504,33.6521],[-117.4506,33.6521],[-117.4508,33.652],[-117.4512,33.6518],[-117.4514,33.6516],[-117.4515,33.6515],[-117.4518,33.6514],[-117.4521,33.6513],[-117.4523,33.6513],[-117.4525,33.6514],[-117.4526,33.6516],[-117.4528,33.6517],[-117.453,33.6518],[-117.4537,33.6518],[-117.4538,33.6518],[-117.4544,33.6518],[-117.4545,33.6518],[-117.4547,33.6517],[-117.4549,33.6516],[-117.4551,33.6515],[-117.4553,33.6514],[-117.4555,33.6514],[-117.4556,33.6516],[-117.4557,33.6517],[-117.4557,33.6519],[-117.4556,33.6521],[-117.4553,33.6527],[-117.4551,33.653],[-117.4549,33.6532],[-117.4546,33.6535],[-117.4544,33.6536],[-117.4542,33.6536],[-117.4538,33.6534],[-117.4535,33.6533],[-117.4533,33.6533],[-117.4529,33.6531],[-117.4525,33.6531],[-117.4524,33.6531],[-117.4522,33.6531],[-117.452,33.6532],[-117.4519,33.6533],[-117.4517,33.6533],[-117.4515,33.6533],[-117.4514,33.6532],[-117.4514,33.653],[-117.4515,33.6529],[-117.4516,33.6528],[-117.4519,33.6527],[-117.452,33.6527],[-117.4522,33.6528],[-117.4524,33.6528],[-117.4525,33.6529],[-117.4524,33.653]]}},{"type":"Feature","properties":{"id":"6S13","name":"TRABUCO CANYON","kind":"road","access":"plate","seasonal":false},"geometry":{"type":"LineString","coordinates":[[-117.5477,33.6746],[-117.5471,33.6745],[-117.5465,33.6747],[-117.5457,33.6747],[-117.545,33.6742],[-117.5445,33.6741],[-117.5438,33.6739],[-117.5433,33.6737],[-117.5426,33.6738],[-117.5419,33.6735],[-117.5413,33.6733],[-117.5404,33.6736],[-117.5397,33.674],[-117.5391,33.674],[-117.5384,33.6739],[-117.5381,33.6738],[-117.5376,33.6736],[-117.5372,33.6737],[-117.5366,33.674],[-117.5361,33.6742],[-117.5352,33.6741],[-117.5348,33.6738],[-117.5343,33.6739],[-117.5333,33.674],[-117.5327,33.6738],[-117.532,33.674],[-117.5314,33.6742],[-117.531,33.674],[-117.5308,33.6739],[-117.5302,33.6738],[-117.5293,33.6738],[-117.5276,33.674],[-117.5266,33.6737],[-117.5255,33.674],[-117.5248,33.6744],[-117.5243,33.6744],[-117.5233,33.6747],[-117.5218,33.6751],[-117.5208,33.6753],[-117.52,33.6751],[-117.5194,33.6752],[-117.5186,33.6755],[-117.5176,33.6762],[-117.5171,33.6769],[-117.517,33.6771],[-117.517,33.6775],[-117.5169,33.678],[-117.5167,33.6783],[-117.5163,33.6787],[-117.5158,33.6789],[-117.5152,33.679],[-117.5147,33.6789],[-117.5144,33.6788],[-117.514,33.6788],[-117.5134,33.6792],[-117.5128,33.6797],[-117.5122,33.6801],[-117.5119,33.6804],[-117.5112,33.6806],[-117.5106,33.6807],[-117.51,33.6811],[-117.5098,33.6813],[-117.5096,33.6814],[-117.5092,33.6815],[-117.5086,33.6816],[-117.5082,33.6816],[-117.5076,33.6818],[-117.5075,33.6818],[-117.5072,33.6819],[-117.5071,33.6822],[-117.5069,33.6823],[-117.5066,33.6823],[-117.5058,33.6825],[-117.5051,33.6825],[-117.5046,33.6825],[-117.5043,33.6826],[-117.5041,33.6827]]}},{"type":"Feature","properties":{"id":"3S04","name":"NORTH MAIN DIVIDE","kind":"road","access":"plate","seasonal":false},"geometry":{"type":"LineString","coordinates":[[-117.6391,33.8211],[-117.6391,33.821],[-117.6389,33.8208],[-117.6386,33.8206],[-117.6384,33.8206],[-117.6383,33.8205],[-117.6382,33.82],[-117.6383,33.8198],[-117.638,33.8195],[-117.6378,33.8192],[-117.6377,33.8191],[-117.6374,33.819],[-117.6371,33.8188],[-117.6368,33.8186],[-117.6368,33.8183],[-117.6368,33.818],[-117.6368,33.8177],[-117.6368,33.8176],[-117.6366,33.8176],[-117.6364,33.8175],[-117.6362,33.8174],[-117.636,33.8172],[-117.6358,33.8171],[-117.6357,33.8171],[-117.6353,33.817],[-117.635,33.8169],[-117.6349,33.8168],[-117.6348,33.8166],[-117.6346,33.8165],[-117.6344,33.8164],[-117.6342,33.8164],[-117.6337,33.8164],[-117.6336,33.8163],[-117.6333,33.8163],[-117.633,33.8162],[-117.6329,33.8162],[-117.6327,33.8163],[-117.6325,33.8164],[-117.6323,33.8164],[-117.6321,33.8164],[-117.632,33.8163],[-117.6318,33.8162],[-117.6317,33.8161],[-117.6317,33.8159],[-117.6316,33.8158],[-117.6314,33.8156],[-117.6313,33.8155],[-117.6312,33.8153],[-117.6312,33.8151],[-117.6311,33.815],[-117.6309,33.8149],[-117.6305,33.8149],[-117.6301,33.8149],[-117.6299,33.8146],[-117.6297,33.8144],[-117.6296,33.8142],[-117.6297,33.8139],[-117.6297,33.8137],[-117.6298,33.8134],[-117.6296,33.8133],[-117.6295,33.8132],[-117.6293,33.8133],[-117.6292,33.8135],[-117.6291,33.8137],[-117.6291,33.8138],[-117.6291,33.8141],[-117.6291,33.8142],[-117.6289,33.8143],[-117.6287,33.8143],[-117.6285,33.8142],[-117.6284,33.8141],[-117.6282,33.8141],[-117.628,33.814],[-117.6276,33.8138],[-117.6274,33.8137],[-117.627,33.8137],[-117.6268,33.8138],[-117.6266,33.8138],[-117.6261,33.8139],[-117.6258,33.8141],[-117.6256,33.8142],[-117.6253,33.8143],[-117.625,33.8146],[-117.6248,33.8147],[-117.6246,33.8147],[-117.6244,33.8147],[-117.6243,33.8146],[-117.6243,33.8145],[-117.6244,33.8144],[-117.6244,33.8143],[-117.6245,33.8141],[-117.6245,33.814],[-117.6244,33.8138],[-117.6245,33.8137],[-117.6246,33.8136],[-117.6246,33.8134],[-117.6245,33.8131],[-117.6245,33.8128],[-117.6244,33.8126],[-117.6244,33.8123],[-117.6245,33.8121],[-117.6244,33.812],[-117.6242,33.8119],[-117.6239,33.8118],[-117.6237,33.8116],[-117.6236,33.8113],[-117.6235,33.8111],[-117.6235,33.8108],[-117.6235,33.8107],[-117.6236,33.8105],[-117.6238,33.8102],[-117.6239,33.8101],[-117.6239,33.81],[-117.6239,33.8099],[-117.624,33.8096],[-117.624,33.8094],[-117.6239,33.8092],[-117.6238,33.8089],[-117.6239,33.8085],[-117.624,33.8083],[-117.6243,33.8079],[-117.6244,33.8077],[-117.6245,33.8076],[-117.6249,33.8075],[-117.6253,33.8072],[-117.6256,33.8071],[-117.6256,33.8068],[-117.6256,33.8067],[-117.6252,33.8064],[-117.6252,33.8063],[-117.6251,33.8062],[-117.625,33.806],[-117.6249,33.8058],[-117.6249,33.8057],[-117.6248,33.8056],[-117.6249,33.805],[-117.6245,33.8039],[-117.6244,33.8037],[-117.6244,33.8035],[-117.6245,33.8033],[-117.6247,33.8031],[-117.6249,33.803],[-117.6251,33.8029],[-117.6251,33.8027],[-117.6253,33.8022],[-117.6254,33.8022],[-117.6254,33.8021],[-117.6253,33.8018],[-117.6251,33.8016],[-117.6248,33.8015],[-117.6246,33.8013],[-117.6245,33.8012],[-117.6244,33.8012],[-117.6241,33.8012],[-117.6236,33.8011],[-117.6233,33.801],[-117.6232,33.8009],[-117.623,33.8006],[-117.6229,33.8004],[-117.6228,33.8003],[-117.6227,33.8002],[-117.6227,33.8],[-117.6226,33.7999],[-117.6226,33.7997],[-117.6226,33.7996],[-117.6226,33.7992],[-117.6225,33.7989],[-117.6223,33.7987],[-117.622,33.7986],[-117.6218,33.7985],[-117.6218,33.7982],[-117.6215,33.7979],[-117.6211,33.7974],[-117.621,33.7973],[-117.6207,33.7973],[-117.6205,33.7974],[-117.6204,33.7975],[-117.6205,33.7977],[-117.6206,33.7978],[-117.6206,33.7979],[-117.6205,33.798],[-117.6204,33.7981],[-117.62,33.7981],[-117.6197,33.7981],[-117.6195,33.7982],[-117.6193,33.7981],[-117.6191,33.7981],[-117.6187,33.798],[-117.6184,33.798],[-117.6182,33.7979],[-117.618,33.7977],[-117.6179,33.7975],[-117.6176,33.7973],[-117.6174,33.7971],[-117.6172,33.7968],[-117.6169,33.7965],[-117.6168,33.7965],[-117.6164,33.7965],[-117.6158,33.7965],[-117.6156,33.7965],[-117.6153,33.7967],[-117.6151,33.7968],[-117.6148,33.7969],[-117.6143,33.7974],[-117.614,33.7977],[-117.6139,33.7978],[-117.6137,33.7979],[-117.6134,33.7979],[-117.6131,33.7979],[-117.6127,33.7978],[-117.6126,33.7978],[-117.6123,33.7979],[-117.612,33.7978],[-117.6117,33.7977],[-117.6114,33.7975],[-117.6109,33.7973],[-117.6106,33.7971],[-117.6104,33.797],[-117.6102,33.7968],[-117.6099,33.7965],[-117.6097,33.7964],[-117.6093,33.7965],[-117.609,33.7965],[-117.6088,33.7965],[-117.6085,33.7964],[-117.6083,33.7966],[-117.6081,33.7967],[-117.6079,33.7968],[-117.6078,33.7969],[-117.6078,33.797],[-117.6075,33.797],[-117.6073,33.7971],[-117.6073,33.7973],[-117.6073,33.7974],[-117.6071,33.7974],[-117.6071,33.7977],[-117.607,33.7979],[-117.6068,33.7979],[-117.6066,33.7981],[-117.6065,33.7981],[-117.6064,33.7983],[-117.6063,33.7988],[-117.6063,33.7989],[-117.6059,33.799],[-117.6056,33.7992],[-117.6053,33.7994],[-117.6049,33.7994],[-117.6044,33.7994],[-117.6041,33.7993],[-117.6038,33.7994],[-117.6036,33.7996],[-117.6034,33.7996],[-117.6033,33.7998],[-117.6032,33.8],[-117.603,33.8],[-117.6028,33.8],[-117.6025,33.8],[-117.6023,33.7999],[-117.6021,33.7998],[-117.6019,33.7997],[-117.6017,33.7995],[-117.6012,33.7992],[-117.6006,33.7981],[-117.6004,33.7978],[-117.6001,33.7976],[-117.5998,33.7975],[-117.5995,33.7974],[-117.5992,33.7973],[-117.5986,33.7972],[-117.5978,33.7972],[-117.5972,33.7972],[-117.5969,33.7973],[-117.5968,33.7972],[-117.5966,33.7971],[-117.5966,33.7968],[-117.5966,33.7966],[-117.5966,33.7964],[-117.5963,33.7964],[-117.5961,33.7963],[-117.596,33.7959],[-117.5958,33.7955],[-117.5958,33.7952],[-117.596,33.7951],[-117.5966,33.7951],[-117.5969,33.7951],[-117.597,33.795],[-117.5969,33.7949],[-117.5967,33.7948],[-117.5966,33.7946],[-117.5965,33.7944],[-117.5963,33.7943],[-117.5961,33.7942],[-117.5959,33.794],[-117.5954,33.7939],[-117.5952,33.7939],[-117.595,33.7937],[-117.5948,33.7935],[-117.5945,33.7932],[-117.5942,33.7931],[-117.5939,33.793],[-117.5937,33.7931],[-117.5934,33.7931],[-117.5931,33.7931],[-117.593,33.7931],[-117.5928,33.793],[-117.5926,33.7929],[-117.5924,33.7928],[-117.592,33.7926],[-117.5916,33.7925],[-117.5915,33.7925],[-117.5914,33.7922],[-117.5911,33.792],[-117.5909,33.7919],[-117.5906,33.7919],[-117.5903,33.7918],[-117.5902,33.7918],[-117.59,33.7917],[-117.5897,33.7915],[-117.5892,33.7913],[-117.5891,33.7912],[-117.5888,33.7909],[-117.5886,33.7906],[-117.5886,33.7904],[-117.5888,33.7903],[-117.5889,33.7902],[-117.5888,33.7902],[-117.5886,33.7901],[-117.5884,33.7903],[-117.5882,33.7904],[-117.5879,33.7906],[-117.5878,33.7908],[-117.5877,33.7909],[-117.5875,33.791],[-117.5873,33.7909],[-117.5872,33.7907],[-117.5871,33.7905],[-117.5872,33.7903],[-117.5874,33.79],[-117.5876,33.7895],[-117.5876,33.7893],[-117.5876,33.789],[-117.5874,33.7889],[-117.5871,33.7887],[-117.5867,33.7886],[-117.5865,33.7886],[-117.5864,33.7884],[-117.5863,33.7882],[-117.586,33.7878],[-117.5858,33.7876],[-117.5857,33.7876],[-117.5855,33.7877],[-117.5853,33.788],[-117.5851,33.7881],[-117.5848,33.788],[-117.5846,33.7878],[-117.5845,33.7878],[-117.5844,33.7876],[-117.5845,33.7872],[-117.5845,33.787],[-117.5843,33.7868],[-117.5841,33.7866],[-117.584,33.7865],[-117.5838,33.7865],[-117.5836,33.7867],[-117.5833,33.7871],[-117.5831,33.7872],[-117.5827,33.7875],[-117.5825,33.7877],[-117.5822,33.7877],[-117.582,33.7877],[-117.5819,33.7876],[-117.5818,33.7876],[-117.5814,33.7874],[-117.5811,33.7873],[-117.5809,33.7872],[-117.5802,33.787],[-117.58,33.7869],[-117.5798,33.7869],[-117.5796,33.7869],[-117.5795,33.7868],[-117.5794,33.7866],[-117.5793,33.7863],[-117.5792,33.7861],[-117.5792,33.786],[-117.5789,33.7858],[-117.5788,33.7856],[-117.5787,33.7855],[-117.5787,33.7853],[-117.5788,33.7851],[-117.5789,33.785],[-117.5788,33.7849],[-117.5787,33.7849],[-117.5785,33.7849],[-117.5783,33.7849],[-117.5781,33.7848],[-117.578,33.7848],[-117.5776,33.7845],[-117.5775,33.7845],[-117.5774,33.7845],[-117.5773,33.7845],[-117.5772,33.7844],[-117.5769,33.7843],[-117.5768,33.7841],[-117.5766,33.7841],[-117.5765,33.7838],[-117.5765,33.7834],[-117.5767,33.7832],[-117.5768,33.7829],[-117.5772,33.7825],[-117.5774,33.7824],[-117.5774,33.7821],[-117.5773,33.7818],[-117.5774,33.7815],[-117.5774,33.7811],[-117.5775,33.781],[-117.5776,33.7808],[-117.5776,33.7806],[-117.5776,33.7804],[-117.5775,33.7802],[-117.5774,33.7799],[-117.5773,33.7797],[-117.5774,33.7794],[-117.5774,33.7793],[-117.5774,33.779],[-117.5775,33.7788],[-117.5777,33.7786],[-117.578,33.7784],[-117.578,33.7783],[-117.5781,33.7782],[-117.5783,33.7779],[-117.5785,33.7776],[-117.5785,33.7774],[-117.5786,33.7774],[-117.5788,33.7773],[-117.5789,33.7771],[-117.5792,33.7771],[-117.5795,33.7771],[-117.58,33.7771],[-117.5801,33.7771],[-117.5802,33.777],[-117.5802,33.7769],[-117.58,33.7767],[-117.58,33.7765],[-117.58,33.7764],[-117.5801,33.7762],[-117.5802,33.7761],[-117.5801,33.7759],[-117.58,33.7758],[-117.5798,33.7757],[-117.5797,33.7757],[-117.5797,33.7756],[-117.5797,33.7754],[-117.5799,33.7751],[-117.5799,33.7744],[-117.5799,33.7742],[-117.58,33.774],[-117.58,33.7738],[-117.5801,33.7735],[-117.5801,33.7732],[-117.5801,33.7731],[-117.5802,33.7729],[-117.5803,33.7728],[-117.5803,33.7726],[-117.5803,33.7722],[-117.5803,33.7719],[-117.5804,33.7716],[-117.5807,33.7714],[-117.5809,33.7712],[-117.5812,33.771],[-117.5814,33.771],[-117.5818,33.7708],[-117.582,33.7707],[-117.5823,33.7705],[-117.5823,33.7704],[-117.5825,33.7703],[-117.5829,33.7697],[-117.5829,33.7695],[-117.5828,33.7694],[-117.5828,33.7692],[-117.5828,33.7691],[-117.5828,33.769],[-117.5826,33.7688],[-117.5826,33.7686],[-117.5826,33.7682],[-117.5826,33.7677],[-117.5828,33.7674],[-117.583,33.7672],[-117.5831,33.7669],[-117.583,33.7667],[-117.583,33.7666],[-117.5829,33.7666],[-117.5827,33.7667],[-117.5823,33.767],[-117.5822,33.7672],[-117.5817,33.7675],[-117.5811,33.768],[-117.581,33.7681],[-117.581,33.7682],[-117.5808,33.7685],[-117.5808,33.7687],[-117.5807,33.7688],[-117.5805,33.7689],[-117.5803,33.7688],[-117.5801,33.7687],[-117.5799,33.7685],[-117.5797,33.7684],[-117.5796,33.7683],[-117.5795,33.7683],[-117.5792,33.7683],[-117.5789,33.7684],[-117.5786,33.7685],[-117.5784,33.7687],[-117.5784,33.7688],[-117.5783,33.7687],[-117.5783,33.7685],[-117.5784,33.7683],[-117.5784,33.768],[-117.5783,33.7679],[-117.5779,33.7676],[-117.5777,33.7676],[-117.5777,33.7675],[-117.5775,33.7674],[-117.5772,33.7672],[-117.5771,33.767],[-117.577,33.7668],[-117.5767,33.7666],[-117.5767,33.7665],[-117.5762,33.7665],[-117.5759,33.7665],[-117.5757,33.7665],[-117.5755,33.7664],[-117.5751,33.7664],[-117.5748,33.7664],[-117.5743,33.7664],[-117.574,33.7664],[-117.5735,33.7663],[-117.5734,33.7661],[-117.5731,33.7658],[-117.573,33.7656],[-117.573,33.7655],[-117.5732,33.7653],[-117.5734,33.7651],[-117.5735,33.7648],[-117.5734,33.7647],[-117.5733,33.7646],[-117.5731,33.7646],[-117.5729,33.7645],[-117.5726,33.7644],[-117.5724,33.7645],[-117.5723,33.7646],[-117.572,33.7647],[-117.5717,33.7647],[-117.5716,33.7646],[-117.5715,33.7645],[-117.5713,33.7644],[-117.5711,33.7643],[-117.5708,33.7643],[-117.5705,33.7642],[-117.5702,33.7641],[-117.5701,33.7641],[-117.57,33.7641],[-117.5698,33.7642],[-117.5696,33.7643],[-117.5695,33.7645],[-117.5694,33.7646],[-117.5692,33.7646],[-117.569,33.7646],[-117.5689,33.7647],[-117.5688,33.7649],[-117.5687,33.765],[-117.5686,33.765],[-117.5684,33.7649],[-117.5681,33.7648],[-117.568,33.7648],[-117.5678,33.7648],[-117.5676,33.7649],[-117.5674,33.7649],[-117.5672,33.765],[-117.5669,33.7649],[-117.5668,33.7649],[-117.5666,33.7648],[-117.5664,33.7646],[-117.5664,33.7645],[-117.5663,33.7644],[-117.5662,33.7644],[-117.5661,33.7646],[-117.566,33.7647],[-117.5657,33.7648],[-117.5656,33.7648],[-117.5653,33.7648],[-117.5652,33.7648],[-117.5652,33.7649],[-117.5652,33.765],[-117.5653,33.7652],[-117.5656,33.7654],[-117.5657,33.7655],[-117.5656,33.7656],[-117.5655,33.7657],[-117.5654,33.7657],[-117.5651,33.7658],[-117.565,33.7658],[-117.5648,33.7659],[-117.5646,33.7659],[-117.5645,33.7659],[-117.5644,33.7658],[-117.5644,33.7657],[-117.5644,33.7655],[-117.5643,33.7655],[-117.5642,33.7654],[-117.5638,33.7651],[-117.5637,33.7649],[-117.5635,33.7648],[-117.5633,33.7647],[-117.563,33.7646],[-117.5629,33.7646],[-117.5625,33.7645],[-117.5623,33.7645],[-117.5619,33.7645],[-117.5616,33.7645],[-117.5613,33.7646],[-117.5612,33.7646],[-117.561,33.7648],[-117.5609,33.7648],[-117.5607,33.7648],[-117.5605,33.7647],[-117.5604,33.7647],[-117.5601,33.7648],[-117.5598,33.7649],[-117.5593,33.7648],[-117.5589,33.7648],[-117.5586,33.7648],[-117.5584,33.7649],[-117.5582,33.7649],[-117.5581,33.765],[-117.5578,33.765],[-117.5577,33.765],[-117.5576,33.765],[-117.5574,33.765],[-117.5572,33.765],[-117.557,33.765],[-117.5567,33.7651],[-117.5566,33.7651],[-117.5564,33.765],[-117.5563,33.765],[-117.5562,33.7651],[-117.556,33.7652],[-117.5559,33.7652],[-117.5557,33.7651],[-117.5555,33.7651],[-117.5553,33.765],[-117.5552,33.765],[-117.555,33.7651],[-117.5548,33.7653],[-117.5547,33.7655],[-117.5546,33.7655],[-117.5544,33.7656],[-117.5543,33.7656],[-117.5543,33.7655],[-117.5542,33.7654],[-117.5541,33.7653],[-117.554,33.7652],[-117.5539,33.7652],[-117.5538,33.7652],[-117.5536,33.7651],[-117.5534,33.7651],[-117.5532,33.765],[-117.5529,33.7649],[-117.5528,33.7648],[-117.5527,33.7647],[-117.5526,33.7646],[-117.5524,33.7643],[-117.5523,33.7642],[-117.5522,33.764],[-117.5521,33.7639],[-117.552,33.7638],[-117.5519,33.7637],[-117.5518,33.7635],[-117.5516,33.7633],[-117.5515,33.7632],[-117.5513,33.763],[-117.5512,33.7629],[-117.5511,33.7627],[-117.5511,33.7625],[-117.5509,33.7623],[-117.5507,33.7622],[-117.5506,33.7621],[-117.5503,33.7616],[-117.5501,33.7614],[-117.5499,33.761],[-117.5497,33.7608],[-117.5496,33.7607],[-117.5491,33.7602],[-117.5488,33.7601],[-117.5483,33.76],[-117.5478,33.76],[-117.5474,33.76],[-117.5469,33.7601],[-117.5464,33.7602],[-117.5458,33.7602],[-117.5454,33.7604],[-117.5451,33.7605],[-117.5447,33.7604],[-117.5444,33.7603],[-117.544,33.7602],[-117.5438,33.7601],[-117.5436,33.7597],[-117.5434,33.7596],[-117.5425,33.7589],[-117.5415,33.7582],[-117.5412,33.7581],[-117.5409,33.7579],[-117.5406,33.7576],[-117.5402,33.7571],[-117.5398,33.7566],[-117.5396,33.7565],[-117.5393,33.7565],[-117.5382,33.7566],[-117.538,33.7565],[-117.5373,33.7564],[-117.5369,33.7563],[-117.5367,33.7561],[-117.5365,33.7558],[-117.5364,33.7555],[-117.5362,33.7553],[-117.5362,33.7552],[-117.5359,33.7545],[-117.5358,33.7542],[-117.5359,33.7537],[-117.5357,33.7535],[-117.5357,33.7531],[-117.5355,33.7528],[-117.5358,33.7523],[-117.5358,33.7522],[-117.5364,33.7519],[-117.5366,33.7517],[-117.5368,33.7515],[-117.5368,33.7513],[-117.5367,33.7512],[-117.5364,33.7512],[-117.5362,33.7511],[-117.5359,33.751],[-117.5355,33.7509],[-117.5353,33.7507],[-117.5352,33.7505],[-117.5351,33.7505],[-117.5349,33.7504],[-117.5348,33.7501],[-117.5347,33.7499],[-117.5348,33.7495],[-117.5348,33.7491],[-117.535,33.7486],[-117.5351,33.7482],[-117.535,33.7479],[-117.535,33.7477],[-117.535,33.7476],[-117.535,33.7475],[-117.5354,33.747],[-117.5356,33.7466],[-117.5361,33.7461],[-117.5362,33.746],[-117.5363,33.7458],[-117.5364,33.7446],[-117.5364,33.7444],[-117.5365,33.744],[-117.5365,33.7435],[-117.5366,33.743],[-117.5365,33.7426],[-117.5366,33.7421],[-117.5366,33.7415],[-117.5368,33.7409],[-117.5369,33.7408],[-117.5375,33.7404],[-117.5376,33.7403],[-117.5377,33.7403],[-117.538,33.7402],[-117.5383,33.7401],[-117.5385,33.7398],[-117.538,33.7392],[-117.5379,33.7391],[-117.5378,33.739],[-117.5377,33.7387],[-117.5378,33.7385],[-117.538,33.7384],[-117.5385,33.7382],[-117.5388,33.7379],[-117.5386,33.7376],[-117.5386,33.7374],[-117.5387,33.7372],[-117.5387,33.7368],[-117.5388,33.7366],[-117.5391,33.7362],[-117.539,33.736],[-117.5388,33.7358],[-117.5389,33.7355],[-117.5395,33.7352],[-117.5397,33.7351],[-117.5399,33.7348],[-117.5399,33.7347],[-117.5402,33.7343],[-117.5403,33.7342],[-117.5404,33.7336],[-117.5405,33.7334],[-117.5406,33.7331],[-117.5408,33.7328],[-117.5409,33.7326],[-117.5409,33.7324],[-117.5409,33.7318],[-117.541,33.7317],[-117.5413,33.7314],[-117.5417,33.7311],[-117.5419,33.7309],[-117.542,33.7307],[-117.5422,33.7304],[-117.5425,33.7301],[-117.543,33.73],[-117.5433,33.7297],[-117.5435,33.7297],[-117.5436,33.7296],[-117.5442,33.7293],[-117.5444,33.7292],[-117.5447,33.7292],[-117.5449,33.7292],[-117.5452,33.729],[-117.5455,33.729],[-117.5459,33.7289],[-117.5465,33.7289],[-117.5468,33.7289],[-117.5469,33.7289],[-117.5469,33.7287],[-117.547,33.7284],[-117.5469,33.7283],[-117.5469,33.7282],[-117.5468,33.7279],[-117.5469,33.7275],[-117.5468,33.727],[-117.5464,33.7268],[-117.5462,33.7266],[-117.5464,33.7261],[-117.5465,33.726],[-117.5462,33.7259],[-117.5461,33.7256],[-117.5459,33.7254],[-117.5461,33.725],[-117.5465,33.7245],[-117.5466,33.7243],[-117.547,33.7237],[-117.5471,33.7235],[-117.5471,33.7232],[-117.5476,33.7227],[-117.5476,33.7226],[-117.5475,33.7223],[-117.5474,33.722],[-117.5474,33.7219],[-117.5477,33.7215],[-117.5479,33.7214],[-117.5482,33.7212],[-117.5485,33.7209],[-117.5487,33.7207],[-117.549,33.7205],[-117.549,33.7204],[-117.549,33.7202],[-117.5491,33.7198],[-117.549,33.7197],[-117.5489,33.7194],[-117.5491,33.7189],[-117.5494,33.7186],[-117.5496,33.7184],[-117.5496,33.7181],[-117.5496,33.7179],[-117.5499,33.7175],[-117.5501,33.7172],[-117.5501,33.7169],[-117.5501,33.7166],[-117.5503,33.7163],[-117.5503,33.7161],[-117.5507,33.7157],[-117.5507,33.7156],[-117.5508,33.7153],[-117.5511,33.715],[-117.5514,33.7147],[-117.5515,33.7146],[-117.552,33.7144],[-117.5522,33.7143],[-117.5528,33.7142],[-117.5529,33.714],[-117.5533,33.7138],[-117.5538,33.7129],[-117.5543,33.7122],[-117.5544,33.7121],[-117.5543,33.712],[-117.5543,33.7119],[-117.5541,33.712],[-117.5537,33.7124],[-117.5534,33.7128],[-117.5531,33.713],[-117.5529,33.7132],[-117.5526,33.7135],[-117.5525,33.7136],[-117.5522,33.7137],[-117.5519,33.7137],[-117.5516,33.7138],[-117.5512,33.7137],[-117.5508,33.7136],[-117.5504,33.7137],[-117.5501,33.7138],[-117.5498,33.7142],[-117.5496,33.7145],[-117.5494,33.7149],[-117.5492,33.715],[-117.5486,33.7153],[-117.5481,33.7156],[-117.5477,33.716],[-117.5475,33.7163],[-117.5471,33.7167],[-117.5468,33.7171],[-117.5463,33.7172],[-117.5459,33.7171],[-117.5457,33.7169],[-117.5454,33.7167],[-117.5445,33.7168],[-117.5442,33.7166],[-117.5439,33.7166],[-117.5437,33.7167],[-117.5432,33.7169],[-117.543,33.7171],[-117.5428,33.7172],[-117.5426,33.7171],[-117.5424,33.7171],[-117.5421,33.7173],[-117.5419,33.7174],[-117.5418,33.7175],[-117.5412,33.7178],[-117.541,33.7178],[-117.5408,33.7177],[-117.5404,33.7176],[-117.5402,33.7172],[-117.54,33.7171],[-117.5399,33.7171],[-117.5395,33.7172],[-117.5392,33.7174],[-117.5388,33.7175],[-117.5387,33.7175],[-117.5384,33.7174],[-117.5381,33.7171],[-117.5379,33.7168],[-117.5379,33.7166],[-117.5379,33.7164],[-117.5376,33.7164],[-117.5376,33.7163],[-117.5376,33.716],[-117.5377,33.7159],[-117.5378,33.7159],[-117.5379,33.7157],[-117.538,33.7156],[-117.5381,33.7155],[-117.5381,33.7153],[-117.5378,33.7149],[-117.5375,33.7145],[-117.5375,33.7144],[-117.5373,33.7143],[-117.5373,33.7141],[-117.5373,33.714],[-117.5379,33.7136],[-117.5381,33.7134],[-117.538,33.7133],[-117.5377,33.7132],[-117.5376,33.713],[-117.5376,33.7129],[-117.5377,33.7125],[-117.5377,33.7122],[-117.5376,33.7118],[-117.5374,33.7115],[-117.5373,33.7113],[-117.5374,33.7111],[-117.5379,33.711],[-117.5382,33.7109],[-117.5383,33.7107],[-117.5383,33.7106],[-117.5382,33.7104],[-117.5379,33.7102],[-117.5378,33.71],[-117.5377,33.7096],[-117.5376,33.7094],[-117.5376,33.7091],[-117.5374,33.7089],[-117.5373,33.7085],[-117.5372,33.7081],[-117.5371,33.7079],[-117.5369,33.7076],[-117.5368,33.7073],[-117.5368,33.7071],[-117.5366,33.7068],[-117.5362,33.7066],[-117.536,33.7065],[-117.5354,33.7063],[-117.5349,33.706],[-117.5347,33.7058],[-117.5345,33.7057],[-117.5343,33.7057],[-117.5341,33.7059],[-117.534,33.7061],[-117.5339,33.7063],[-117.5338,33.7064],[-117.5338,33.7065],[-117.5339,33.7065],[-117.534,33.7065],[-117.5341,33.7063],[-117.5343,33.7061],[-117.5344,33.7061],[-117.5345,33.7061],[-117.5348,33.7063],[-117.5352,33.7067],[-117.5353,33.7069],[-117.5357,33.707],[-117.5359,33.7072],[-117.536,33.7077],[-117.5362,33.7084],[-117.5363,33.7095],[-117.536,33.71],[-117.5355,33.711],[-117.5352,33.7111],[-117.5351,33.7112],[-117.5349,33.712],[-117.5347,33.7122],[-117.5343,33.7124],[-117.5341,33.7126],[-117.5339,33.7127],[-117.5337,33.7126],[-117.5333,33.7125],[-117.5329,33.7123],[-117.5326,33.7123],[-117.5323,33.7124],[-117.532,33.7124],[-117.5318,33.7123],[-117.5318,33.7122],[-117.532,33.712],[-117.5322,33.7118],[-117.5324,33.7116],[-117.5326,33.7115],[-117.5325,33.7114],[-117.5324,33.7114],[-117.5323,33.7116],[-117.5321,33.7117],[-117.5318,33.7119],[-117.5315,33.7122],[-117.5313,33.7124],[-117.5312,33.7127],[-117.5312,33.7129],[-117.5313,33.713],[-117.5316,33.7131],[-117.5319,33.7131],[-117.5325,33.7129],[-117.5328,33.7128],[-117.5332,33.7129],[-117.5334,33.7131],[-117.5336,33.7133],[-117.5336,33.7135],[-117.5337,33.7138],[-117.5337,33.714],[-117.5335,33.7139],[-117.5334,33.7138],[-117.5333,33.7137],[-117.5332,33.7136],[-117.5331,33.7135],[-117.5328,33.7135],[-117.5326,33.7136],[-117.5322,33.7137],[-117.5319,33.7138],[-117.5314,33.7139],[-117.5311,33.714],[-117.5308,33.714],[-117.5304,33.7139],[-117.5301,33.7139],[-117.5299,33.7137],[-117.5297,33.7135],[-117.5294,33.7135],[-117.529,33.7135],[-117.5287,33.7135],[-117.5285,33.7136],[-117.528,33.7137],[-117.5277,33.7138],[-117.5275,33.7138],[-117.5271,33.7142],[-117.5269,33.7143],[-117.5267,33.7143],[-117.5263,33.7143],[-117.5261,33.7146],[-117.5259,33.7148],[-117.5257,33.715],[-117.5256,33.7152],[-117.5254,33.7153],[-117.5251,33.7156],[-117.5249,33.7159],[-117.5248,33.7162],[-117.5246,33.7164],[-117.5244,33.7165],[-117.5242,33.7166],[-117.524,33.7167],[-117.5239,33.7166],[-117.5237,33.7164],[-117.5235,33.7163],[-117.5234,33.7163],[-117.523,33.7161],[-117.5229,33.716],[-117.5227,33.7161],[-117.5226,33.7162],[-117.5223,33.7163],[-117.5221,33.7163],[-117.5219,33.7164],[-117.5215,33.7164],[-117.5212,33.7164],[-117.521,33.7165],[-117.5206,33.7167],[-117.5203,33.7169],[-117.52,33.7169],[-117.5198,33.7171],[-117.5197,33.7171],[-117.5195,33.717],[-117.5196,33.7168],[-117.5199,33.7166],[-117.5202,33.7165],[-117.5205,33.7164],[-117.5207,33.7161],[-117.5208,33.7161],[-117.5213,33.716],[-117.5217,33.716],[-117.522,33.7159],[-117.5222,33.7158],[-117.5223,33.7156],[-117.5224,33.7154],[-117.5226,33.7153],[-117.5227,33.7152],[-117.523,33.7152],[-117.5232,33.7153],[-117.5234,33.7155],[-117.5235,33.7155],[-117.5237,33.7155],[-117.5238,33.7153],[-117.5238,33.715],[-117.5238,33.7145],[-117.5239,33.7144],[-117.524,33.7141],[-117.5241,33.714],[-117.5239,33.714],[-117.5236,33.714],[-117.5233,33.714],[-117.5233,33.7139],[-117.5234,33.7137],[-117.5236,33.7135],[-117.5237,33.7134],[-117.5236,33.7131],[-117.5235,33.713],[-117.5236,33.7129],[-117.5236,33.7127],[-117.5235,33.7125],[-117.5236,33.7122],[-117.5237,33.7121],[-117.5239,33.712],[-117.5239,33.7118],[-117.524,33.7117],[-117.5239,33.7115],[-117.5239,33.7113],[-117.5239,33.7111],[-117.5237,33.7109],[-117.5234,33.7108],[-117.5233,33.7105],[-117.5232,33.7103],[-117.523,33.7102],[-117.5227,33.7101],[-117.5226,33.7099],[-117.5225,33.7097],[-117.5224,33.7094],[-117.5223,33.7091],[-117.5221,33.709],[-117.5218,33.709],[-117.5214,33.7089],[-117.5212,33.7087],[-117.5209,33.7086],[-117.5207,33.7085],[-117.5205,33.7085],[-117.5203,33.7084],[-117.5203,33.7082],[-117.5204,33.708],[-117.5205,33.708],[-117.5208,33.7081],[-117.5211,33.708],[-117.5213,33.7079],[-117.5215,33.7078],[-117.5218,33.7077],[-117.522,33.7076],[-117.5217,33.7076],[-117.5215,33.7076],[-117.5213,33.7077],[-117.5211,33.7078],[-117.5209,33.7078],[-117.5207,33.7077],[-117.5205,33.7074],[-117.5202,33.7073],[-117.5199,33.7074],[-117.5196,33.7075],[-117.5194,33.7076],[-117.5192,33.7075],[-117.5189,33.7074],[-117.5187,33.7075],[-117.5184,33.7077],[-117.5182,33.7078],[-117.5181,33.7079],[-117.5183,33.708],[-117.5186,33.7081],[-117.5189,33.7084],[-117.5188,33.7086],[-117.5187,33.7089],[-117.5187,33.7091],[-117.5191,33.7095],[-117.5192,33.7098],[-117.5194,33.7101],[-117.5194,33.7103],[-117.5192,33.7104],[-117.519,33.7105],[-117.5188,33.7103],[-117.5186,33.7102],[-117.5183,33.7102],[-117.5181,33.7102],[-117.5177,33.7102],[-117.5176,33.7101],[-117.5174,33.7101],[-117.5173,33.7101],[-117.5171,33.71],[-117.517,33.71],[-117.517,33.7102],[-117.5171,33.7103],[-117.5173,33.7104],[-117.5175,33.7104],[-117.5176,33.7106],[-117.5176,33.7109],[-117.5176,33.711],[-117.5174,33.711],[-117.5171,33.711],[-117.517,33.7109],[-117.5168,33.711],[-117.5166,33.711],[-117.5165,33.7109],[-117.5165,33.7107],[-117.5164,33.7106],[-117.5162,33.7105],[-117.5159,33.7104],[-117.5158,33.7105],[-117.5156,33.7106],[-117.5155,33.7107],[-117.5153,33.7109],[-117.5151,33.7109],[-117.5149,33.7108],[-117.5148,33.7107],[-117.5145,33.7105],[-117.5143,33.7104],[-117.5144,33.7101],[-117.5144,33.71],[-117.5142,33.7099],[-117.5139,33.71],[-117.5136,33.71],[-117.5135,33.7101],[-117.5133,33.71],[-117.5131,33.71],[-117.5129,33.71],[-117.5127,33.7098],[-117.5126,33.7097],[-117.5124,33.7097],[-117.5121,33.7097],[-117.5119,33.7097],[-117.5114,33.7097],[-117.5111,33.7097],[-117.511,33.7096],[-117.511,33.7093],[-117.5108,33.7092],[-117.5106,33.7091],[-117.5105,33.7089],[-117.5106,33.7088],[-117.5107,33.7086],[-117.5107,33.7084],[-117.5106,33.7083],[-117.5103,33.7085],[-117.5099,33.7088],[-117.5097,33.709],[-117.5097,33.7093],[-117.5097,33.7094],[-117.5095,33.7093],[-117.5093,33.7092],[-117.509,33.7091],[-117.5089,33.7089],[-117.5087,33.7088],[-117.5085,33.7086],[-117.5084,33.7083],[-117.508,33.7079],[-117.5079,33.7077],[-117.5079,33.7074],[-117.5076,33.7074],[-117.5072,33.7075],[-117.5069,33.7074],[-117.5066,33.7072],[-117.5064,33.7071],[-117.506,33.7072],[-117.5059,33.7073],[-117.5055,33.7075],[-117.5051,33.7077],[-117.5048,33.708],[-117.5045,33.7081],[-117.5042,33.7082],[-117.5039,33.7082],[-117.5035,33.7083],[-117.503,33.7084],[-117.5025,33.7085],[-117.5022,33.7085],[-117.5018,33.7084],[-117.5015,33.7082],[-117.5013,33.708],[-117.5012,33.7079],[-117.5004,33.7079],[-117.5002,33.7078],[-117.5002,33.7076],[-117.4999,33.7076],[-117.4995,33.7076],[-117.4991,33.7074],[-117.499,33.7072],[-117.4988,33.7071],[-117.4984,33.7071],[-117.4983,33.707],[-117.4984,33.7068],[-117.4984,33.7066],[-117.4983,33.7064],[-117.4984,33.7061],[-117.4982,33.7059],[-117.4976,33.7056],[-117.4972,33.7055],[-117.4971,33.7054],[-117.4969,33.7052],[-117.4968,33.705],[-117.4966,33.7049],[-117.4963,33.7049],[-117.496,33.705],[-117.4958,33.705],[-117.4957,33.7048],[-117.4957,33.7045],[-117.4955,33.7043],[-117.4955,33.7039],[-117.4954,33.7037],[-117.4953,33.7036],[-117.4949,33.7036],[-117.4946,33.7037],[-117.4944,33.7036],[-117.4941,33.7036],[-117.4936,33.7035],[-117.4933,33.7035],[-117.493,33.7036],[-117.4925,33.7036],[-117.4922,33.7035],[-117.492,33.7033],[-117.4919,33.7033],[-117.4917,33.7032],[-117.4914,33.7033],[-117.4911,33.703],[-117.4912,33.7028],[-117.4911,33.7025],[-117.4909,33.7024],[-117.4906,33.7025],[-117.4904,33.7027],[-117.4902,33.7028],[-117.4898,33.7029],[-117.4896,33.7029],[-117.4895,33.703],[-117.4893,33.703],[-117.4892,33.7029],[-117.4891,33.7026],[-117.489,33.7024],[-117.4887,33.7024],[-117.4885,33.7025],[-117.4883,33.7024],[-117.4882,33.7025],[-117.4879,33.7025],[-117.4878,33.7024],[-117.4878,33.7023],[-117.4877,33.7023],[-117.4872,33.7027],[-117.4869,33.7027],[-117.4865,33.7031],[-117.4864,33.7031],[-117.4862,33.7032],[-117.4857,33.7036],[-117.4856,33.7036],[-117.4854,33.7035],[-117.4851,33.7034],[-117.4849,33.7034],[-117.4843,33.7031],[-117.4839,33.703],[-117.4834,33.7029],[-117.4832,33.7029],[-117.4827,33.7027],[-117.4826,33.7027],[-117.482,33.7024],[-117.4813,33.7028],[-117.4809,33.7029],[-117.4808,33.7029],[-117.4805,33.7028],[-117.4804,33.7028],[-117.48,33.703],[-117.4799,33.7029],[-117.4796,33.7027],[-117.4794,33.7027],[-117.4792,33.7025],[-117.4787,33.7026],[-117.4784,33.7026],[-117.4778,33.7026],[-117.4772,33.7022],[-117.4772,33.7018],[-117.4771,33.7017],[-117.477,33.7014],[-117.4765,33.701],[-117.476,33.7009],[-117.4755,33.7009],[-117.4753,33.7008],[-117.475,33.7001],[-117.4747,33.6998],[-117.4746,33.6995],[-117.4745,33.6993],[-117.4743,33.6992],[-117.474,33.6989],[-117.4739,33.6988],[-117.4736,33.6987],[-117.4735,33.6985],[-117.4736,33.6984],[-117.4737,33.6983],[-117.4738,33.6982],[-117.4737,33.698],[-117.4735,33.6978],[-117.4733,33.6975],[-117.4729,33.6973],[-117.4725,33.6972],[-117.4723,33.6972],[-117.4721,33.6969],[-117.4721,33.6967],[-117.4719,33.6963],[-117.4719,33.6961],[-117.4718,33.6956],[-117.4715,33.6953],[-117.4715,33.6951],[-117.4714,33.6949],[-117.4716,33.6946],[-117.4715,33.6944],[-117.4714,33.6944],[-117.471,33.6945],[-117.4709,33.6944],[-117.4708,33.6943],[-117.4707,33.6942],[-117.4705,33.6943],[-117.4703,33.6943],[-117.4702,33.6942],[-117.4699,33.6941],[-117.4697,33.6941],[-117.4694,33.6943],[-117.4693,33.6943],[-117.4689,33.6943],[-117.4686,33.6944],[-117.4683,33.6943],[-117.4682,33.6942],[-117.4679,33.6938],[-117.4679,33.6936],[-117.4678,33.6932],[-117.4677,33.693],[-117.4676,33.6929],[-117.4674,33.6929],[-117.4671,33.693],[-117.4668,33.6932],[-117.4667,33.6931],[-117.4665,33.6928],[-117.4664,33.6928],[-117.4661,33.6927],[-117.466,33.6926],[-117.466,33.6922],[-117.4659,33.6922],[-117.4655,33.6921],[-117.4655,33.692],[-117.4657,33.6918],[-117.4657,33.6916],[-117.4663,33.6914],[-117.4664,33.6912],[-117.4663,33.691],[-117.466,33.691],[-117.4658,33.6909],[-117.4658,33.6908],[-117.4662,33.6905],[-117.4664,33.6903],[-117.4665,33.6901],[-117.4664,33.69],[-117.4663,33.6899],[-117.4661,33.6897],[-117.4659,33.6897],[-117.4655,33.6899],[-117.4654,33.69],[-117.4649,33.69],[-117.4647,33.6901],[-117.4644,33.6901],[-117.4641,33.6901],[-117.4638,33.6902],[-117.4635,33.6902],[-117.4633,33.69],[-117.4631,33.6898],[-117.4628,33.6897],[-117.4625,33.6897],[-117.4622,33.6896],[-117.4621,33.6895],[-117.4619,33.6895],[-117.4615,33.6893],[-117.4614,33.6892],[-117.4612,33.689],[-117.461,33.6889],[-117.4608,33.6889],[-117.4605,33.6889],[-117.4602,33.6889],[-117.46,33.6887],[-117.4597,33.6886],[-117.4596,33.6885],[-117.4594,33.6884],[-117.4591,33.6884],[-117.4589,33.6883],[-117.4587,33.6883],[-117.4585,33.6882],[-117.4581,33.6882],[-117.458,33.6887],[-117.4574,33.6891],[-117.4567,33.6891],[-117.4562,33.6892],[-117.4561,33.6892],[-117.456,33.6892],[-117.4559,33.6891],[-117.4559,33.6889],[-117.4563,33.6888],[-117.4566,33.6881],[-117.4567,33.6878],[-117.4566,33.6877],[-117.4564,33.6877],[-117.4562,33.6876],[-117.4563,33.6874],[-117.4565,33.6871],[-117.4565,33.687],[-117.4564,33.6868],[-117.4564,33.6866],[-117.4571,33.6863],[-117.4573,33.686],[-117.4574,33.6854],[-117.4572,33.6851],[-117.4566,33.6844],[-117.4558,33.6843],[-117.4554,33.6837],[-117.4551,33.6837],[-117.4548,33.6836],[-117.4544,33.6836],[-117.4544,33.6835],[-117.4546,33.6831],[-117.455,33.6825],[-117.4556,33.6822],[-117.4564,33.682],[-117.4566,33.6816],[-117.4568,33.6815],[-117.457,33.6815],[-117.4574,33.6815],[-117.4576,33.6811],[-117.458,33.6809],[-117.4586,33.681],[-117.4589,33.681],[-117.4591,33.6808],[-117.4589,33.6805],[-117.4583,33.6804],[-117.4578,33.68],[-117.4573,33.6799],[-117.457,33.6798],[-117.4572,33.6794],[-117.4576,33.6791],[-117.4573,33.6781],[-117.4574,33.6775],[-117.4576,33.677],[-117.458,33.6768],[-117.4581,33.6769],[-117.4584,33.6778],[-117.4586,33.6776],[-117.4588,33.6776],[-117.4594,33.6773],[-117.4595,33.6763],[-117.4596,33.6755],[-117.4598,33.6747],[-117.4597,33.6743],[-117.4599,33.6741],[-117.4602,33.6739],[-117.4602,33.6735],[-117.4598,33.6732],[-117.4598,33.6726],[-117.4602,33.6717],[-117.4601,33.6715],[-117.4601,33.6714],[-117.4597,33.6713],[-117.4595,33.6714],[-117.4592,33.6716],[-117.4591,33.6716],[-117.4586,33.671],[-117.4583,33.6706],[-117.4578,33.6705],[-117.4576,33.6704],[-117.4575,33.6703],[-117.4575,33.6699],[-117.4575,33.6697],[-117.4568,33.6692],[-117.4564,33.6688],[-117.4559,33.6682],[-117.4554,33.6679],[-117.455,33.6678],[-117.4546,33.6679],[-117.4543,33.668],[-117.4541,33.6679],[-117.4539,33.6677],[-117.4538,33.6673],[-117.4536,33.6672],[-117.4531,33.6671],[-117.4532,33.6666],[-117.4526,33.6658],[-117.4523,33.6655],[-117.4522,33.6651],[-117.4523,33.6646],[-117.4522,33.6645],[-117.4519,33.6646],[-117.4515,33.6645],[-117.451,33.6643],[-117.4509,33.6641],[-117.4511,33.6635],[-117.4518,33.6631],[-117.4518,33.6629],[-117.4516,33.6627],[-117.4516,33.6626],[-117.4521,33.6621],[-117.4522,33.662],[-117.452,33.6618],[-117.4516,33.6614],[-117.4515,33.6611],[-117.4518,33.6609],[-117.4521,33.6606],[-117.452,33.6604],[-117.4518,33.6602],[-117.4515,33.6597],[-117.4513,33.6594],[-117.4508,33.6594],[-117.4505,33.6596],[-117.4503,33.6599],[-117.4503,33.6602],[-117.4506,33.6604],[-117.4506,33.6607],[-117.4504,33.661],[-117.45,33.6611],[-117.4498,33.6611],[-117.4494,33.6609],[-117.449,33.6607],[-117.4486,33.6606],[-117.4482,33.6608],[-117.4479,33.661],[-117.4478,33.6613],[-117.448,33.6616],[-117.448,33.662],[-117.4479,33.6624]]}},{"type":"Feature","properties":{"id":"6S10","name":"HOT SPRINGS CANYON","kind":"road","access":"plate","seasonal":false},"geometry":{"type":"LineString","coordinates":[[-117.5132,33.5972],[-117.513,33.5975],[-117.5125,33.5979],[-117.5122,33.5984],[-117.5122,33.5985],[-117.5122,33.5986],[-117.5121,33.5986],[-117.5121,33.5988],[-117.5121,33.5989],[-117.5121,33.599],[-117.5122,33.5993],[-117.5123,33.6],[-117.5119,33.6001],[-117.5115,33.6001],[-117.5112,33.6004],[-117.5112,33.6008],[-117.5112,33.6012],[-117.5111,33.6013],[-117.5101,33.6016],[-117.5098,33.6023],[-117.5096,33.6028],[-117.5096,33.6032],[-117.5098,33.6036],[-117.5099,33.6038],[-117.5099,33.6041],[-117.5098,33.6042],[-117.5098,33.6043],[-117.5097,33.6044],[-117.5095,33.6046],[-117.5092,33.6051],[-117.5091,33.6054],[-117.5093,33.6057],[-117.5098,33.6057],[-117.51,33.6058],[-117.5101,33.6058],[-117.51,33.6061],[-117.5101,33.6064],[-117.5105,33.6067],[-117.5107,33.6068],[-117.5108,33.6068],[-117.5108,33.607],[-117.5108,33.6073]]}},{"type":"Feature","properties":{"id":"6S07E","name":"WILDOMAR TH,O.H.V.","kind":"road","access":"green","seasonal":false},"geometry":{"type":"LineString","coordinates":[[-117.3419,33.5885],[-117.3416,33.5884],[-117.3416,33.5883],[-117.3415,33.5883],[-117.3414,33.5881],[-117.3414,33.588],[-117.3415,33.5879],[-117.3416,33.5879],[-117.3416,33.5878],[-117.3415,33.5877],[-117.3413,33.5877],[-117.3411,33.5876],[-117.3409,33.5876],[-117.3408,33.5876],[-117.3408,33.5877],[-117.3409,33.5878],[-117.341,33.5878],[-117.3412,33.5878],[-117.3413,33.5879],[-117.3414,33.588]]}},{"type":"Feature","properties":{"id":"5S08","name":"HARDING","kind":"road","access":"plate","seasonal":false},"geometry":{"type":"LineString","coordinates":[[-117.548,33.7291],[-117.5477,33.729],[-117.5473,33.729],[-117.547,33.7289],[-117.5469,33.7289]]}},{"type":"Feature","properties":{"id":"7S03","name":"LOS ALAMOS","kind":"road","access":"plate","seasonal":false},"geometry":{"type":"LineString","coordinates":[[-117.3313,33.5896],[-117.3306,33.5894],[-117.3304,33.5892],[-117.3299,33.5892],[-117.3293,33.589],[-117.3291,33.5887],[-117.3293,33.5882],[-117.3296,33.5881],[-117.3302,33.5877],[-117.3313,33.587],[-117.3314,33.5868],[-117.3317,33.5868],[-117.3319,33.5865],[-117.3319,33.5862],[-117.332,33.5861],[-117.332,33.5859],[-117.3324,33.5859],[-117.3325,33.5856],[-117.3331,33.5856],[-117.3332,33.5856],[-117.3332,33.5852],[-117.3335,33.5848],[-117.3336,33.5846],[-117.3337,33.5845],[-117.3332,33.5841],[-117.3332,33.5839],[-117.3327,33.5839],[-117.3325,33.5838],[-117.3325,33.5836],[-117.3319,33.5836],[-117.3314,33.5836],[-117.3313,33.5835],[-117.3312,33.5834],[-117.331,33.583],[-117.3308,33.583],[-117.3305,33.5825],[-117.3304,33.5823],[-117.3301,33.5822],[-117.33,33.5821],[-117.3298,33.5822],[-117.3295,33.5821],[-117.3294,33.5818],[-117.3291,33.5819],[-117.3288,33.5818],[-117.3285,33.5816],[-117.3283,33.581],[-117.3283,33.5807],[-117.3281,33.5804],[-117.3284,33.5801],[-117.3287,33.5799],[-117.3288,33.5798],[-117.3288,33.5794],[-117.3283,33.5794],[-117.328,33.5793]]}},{"type":"Feature","properties":{"id":"6S05","name":"LONG CANYON","kind":"road","access":"plate","seasonal":false},"geometry":{"type":"LineString","coordinates":[[-117.4452,33.647],[-117.4453,33.6471],[-117.4454,33.6472],[-117.4454,33.6476],[-117.4456,33.6482],[-117.4457,33.6487],[-117.4459,33.649],[-117.4462,33.6491],[-117.4463,33.649],[-117.4462,33.6489],[-117.4461,33.6487],[-117.446,33.6484],[-117.4461,33.6481],[-117.4462,33.648],[-117.4464,33.648],[-117.4466,33.6481],[-117.4467,33.6483],[-117.4469,33.6484],[-117.4471,33.6484],[-117.4474,33.6482],[-117.4476,33.6481],[-117.4479,33.6482],[-117.448,33.6483],[-117.4481,33.6484],[-117.4483,33.6484],[-117.4486,33.6483],[-117.4487,33.6485],[-117.4485,33.6488],[-117.4484,33.6491],[-117.4484,33.6493],[-117.4485,33.6494],[-117.4487,33.6493],[-117.4489,33.6494],[-117.4489,33.6496],[-117.4488,33.6501],[-117.4488,33.6504],[-117.4487,33.6505],[-117.4479,33.6511],[-117.4478,33.6511],[-117.4477,33.6517],[-117.4477,33.652],[-117.448,33.6521],[-117.4482,33.6523],[-117.4484,33.6524],[-117.4486,33.6528],[-117.4485,33.653],[-117.4486,33.6533],[-117.4487,33.6538],[-117.4489,33.6542],[-117.4487,33.6546],[-117.4486,33.6547],[-117.4485,33.655],[-117.4484,33.6557],[-117.448,33.6565],[-117.448,33.6568],[-117.4481,33.657],[-117.4483,33.6571],[-117.4487,33.657],[-117.4496,33.6569],[-117.45,33.657],[-117.4503,33.6573],[-117.4506,33.6576],[-117.4508,33.6576],[-117.4508,33.6578],[-117.4507,33.6579],[-117.4502,33.6582],[-117.4498,33.6584],[-117.4494,33.6588],[-117.4492,33.6591],[-117.4492,33.6596],[-117.4492,33.6599],[-117.4488,33.6602],[-117.4483,33.6603],[-117.448,33.6606],[-117.4477,33.6609],[-117.4475,33.6611],[-117.4477,33.6615],[-117.4478,33.6617],[-117.4477,33.6619],[-117.4478,33.6623],[-117.4479,33.6624]]}},{"type":"Feature","properties":{"id":"6S07F","name":"WILDOMAR CG,O.H.V","kind":"road","access":"green","seasonal":false},"geometry":{"type":"LineString","coordinates":[[-117.3424,33.582],[-117.3421,33.5819],[-117.3418,33.5817],[-117.3418,33.5815],[-117.3415,33.5815],[-117.3414,33.5815],[-117.3413,33.5814],[-117.3411,33.5813],[-117.3411,33.5811],[-117.341,33.5809],[-117.3411,33.5807],[-117.3412,33.5804],[-117.3413,33.5803],[-117.3414,33.5803],[-117.3414,33.5805],[-117.3414,33.5807],[-117.3414,33.5808],[-117.3412,33.581],[-117.3411,33.5811]]}},{"type":"Feature","properties":{"id":"6S05A","name":"FALCON CG","kind":"road","access":"plate","seasonal":false},"geometry":{"type":"LineString","coordinates":[[-117.4507,33.6576],[-117.4508,33.6574],[-117.4508,33.6573],[-117.4509,33.6571],[-117.451,33.6569],[-117.4512,33.6568],[-117.4515,33.6567],[-117.4518,33.6565],[-117.4521,33.6564],[-117.4524,33.6563],[-117.4529,33.6561],[-117.4532,33.656],[-117.454,33.6558],[-117.4542,33.6558]]}},{"type":"Feature","properties":{"id":"6S01","name":"EL CARISO CG","kind":"road","access":"plate","seasonal":false},"geometry":{"type":"LineString","coordinates":[[-117.4129,33.6512],[-117.4129,33.6514],[-117.4129,33.6515],[-117.4128,33.6517],[-117.4125,33.652],[-117.4123,33.6522],[-117.4126,33.6523],[-117.4131,33.6522],[-117.4133,33.6519],[-117.413,33.6519],[-117.4128,33.6517]]}},{"type":"Feature","properties":{"id":"5S01","name":"INDIAN TRUCK TRAIL","kind":"road","access":"plate","seasonal":false},"geometry":{"type":"LineString","coordinates":[[-117.4585,33.738],[-117.4586,33.7378],[-117.4585,33.7375],[-117.4579,33.737],[-117.4576,33.7366],[-117.4576,33.7362],[-117.4572,33.7359],[-117.4565,33.7356],[-117.4559,33.735],[-117.4557,33.7347],[-117.4554,33.7339],[-117.4551,33.7335],[-117.4546,33.7333],[-117.4545,33.7332],[-117.4545,33.733],[-117.4553,33.7328],[-117.4557,33.7326],[-117.4559,33.7321],[-117.4558,33.7316],[-117.4551,33.7312],[-117.4549,33.7307],[-117.4553,33.7306],[-117.4553,33.7304],[-117.4551,33.73],[-117.455,33.7296],[-117.4553,33.7294],[-117.4555,33.7295],[-117.4559,33.7299],[-117.4561,33.7302],[-117.4562,33.7305],[-117.4566,33.7307],[-117.4567,33.7308],[-117.4569,33.7308],[-117.4569,33.7306],[-117.4566,33.7305],[-117.4565,33.7301],[-117.4564,33.7298],[-117.4566,33.7297],[-117.4568,33.7299],[-117.4575,33.7297],[-117.458,33.7298],[-117.4588,33.7297],[-117.4589,33.7292],[-117.4593,33.7286],[-117.4598,33.7282],[-117.4605,33.7285],[-117.461,33.7283],[-117.4611,33.7281],[-117.4611,33.7278],[-117.4614,33.7278],[-117.4614,33.7276],[-117.4613,33.7275],[-117.4614,33.7274],[-117.4618,33.7274],[-117.4622,33.7272],[-117.4624,33.7269],[-117.4631,33.7268],[-117.4632,33.7265],[-117.4637,33.7264],[-117.4643,33.7261],[-117.4645,33.7259],[-117.464,33.7259],[-117.4638,33.7259],[-117.4635,33.7258],[-117.4633,33.7256],[-117.4635,33.7253],[-117.4632,33.7252],[-117.4632,33.725],[-117.4622,33.7245],[-117.4625,33.7243],[-117.4629,33.7243],[-117.4633,33.7243],[-117.4635,33.7245],[-117.4635,33.7247],[-117.4636,33.725],[-117.464,33.7252],[-117.4646,33.7249],[-117.465,33.7249],[-117.4655,33.7247],[-117.4658,33.7247],[-117.466,33.7246],[-117.4664,33.725],[-117.4664,33.7253],[-117.4667,33.7254],[-117.4666,33.7257],[-117.4664,33.7258],[-117.4664,33.726],[-117.4657,33.726],[-117.4656,33.7261],[-117.4658,33.7266],[-117.4662,33.7267],[-117.4664,33.7266],[-117.4664,33.7265],[-117.4669,33.7266],[-117.4671,33.7266],[-117.4673,33.7262],[-117.4677,33.726],[-117.468,33.7255],[-117.4684,33.7255],[-117.4686,33.7254],[-117.4691,33.7254],[-117.4697,33.725],[-117.4698,33.7248],[-117.4702,33.7249],[-117.4703,33.7252],[-117.4707,33.7253],[-117.4709,33.7256],[-117.4709,33.726],[-117.4713,33.726],[-117.4717,33.7262],[-117.4721,33.7266],[-117.4722,33.7271],[-117.4728,33.7273],[-117.4728,33.7271],[-117.4725,33.7269],[-117.4723,33.7265],[-117.4719,33.7258],[-117.472,33.7256],[-117.4723,33.7255],[-117.4723,33.7252],[-117.4722,33.7249],[-117.4727,33.7243],[-117.4727,33.724],[-117.473,33.7234],[-117.4733,33.7236],[-117.4736,33.7237],[-117.474,33.7237],[-117.4741,33.7235],[-117.4743,33.7236],[-117.4746,33.7235],[-117.4749,33.723],[-117.4751,33.7229],[-117.4753,33.7231],[-117.4753,33.7235],[-117.4755,33.7236],[-117.4758,33.7234],[-117.4762,33.7234],[-117.4766,33.7237],[-117.4774,33.7232],[-117.4781,33.7232],[-117.4794,33.7228],[-117.4802,33.7229],[-117.4805,33.7227],[-117.4808,33.7225],[-117.4817,33.7221],[-117.482,33.7219],[-117.4826,33.7218],[-117.483,33.7216],[-117.4835,33.7215],[-117.4841,33.7216],[-117.4842,33.722],[-117.4841,33.7226],[-117.484,33.7232],[-117.484,33.7236],[-117.4842,33.7237],[-117.4845,33.7236],[-117.4848,33.7235],[-117.4852,33.7236],[-117.4854,33.7239],[-117.4857,33.7241],[-117.4864,33.7242],[-117.4867,33.7244],[-117.4868,33.7247],[-117.4869,33.7246],[-117.4873,33.7243],[-117.4873,33.7241],[-117.4875,33.7239],[-117.4879,33.7238],[-117.488,33.7236],[-117.4879,33.7232],[-117.4879,33.7231],[-117.4881,33.7229],[-117.4886,33.7229],[-117.4887,33.7226],[-117.4886,33.7222],[-117.4885,33.722],[-117.4886,33.7218],[-117.4884,33.7215],[-117.4882,33.7214],[-117.488,33.7212],[-117.4883,33.7211],[-117.4885,33.7209],[-117.4886,33.7206],[-117.4889,33.7205],[-117.4891,33.7201],[-117.4895,33.7199],[-117.4899,33.7199],[-117.4901,33.7195],[-117.4904,33.7193],[-117.491,33.7193],[-117.4912,33.7191],[-117.4915,33.7189],[-117.4916,33.7187],[-117.492,33.7187],[-117.4925,33.7184],[-117.4928,33.7184],[-117.493,33.7182],[-117.4933,33.7179],[-117.4938,33.7179],[-117.494,33.7178],[-117.4948,33.7177],[-117.4952,33.7174],[-117.4951,33.717],[-117.4956,33.7168],[-117.4956,33.7165],[-117.4953,33.7162],[-117.4952,33.7158],[-117.4961,33.7149],[-117.4963,33.7142],[-117.4964,33.7138],[-117.4965,33.7137],[-117.4964,33.7135],[-117.4964,33.7133],[-117.4966,33.7132],[-117.4962,33.7129],[-117.4963,33.7127],[-117.4972,33.7123],[-117.4976,33.7122],[-117.4978,33.7121],[-117.4977,33.7118],[-117.4983,33.7118],[-117.4985,33.7116],[-117.4985,33.7114],[-117.4985,33.711],[-117.4985,33.7108],[-117.4988,33.7106],[-117.4992,33.7107],[-117.4993,33.7106],[-117.499,33.7102],[-117.4986,33.7102],[-117.4985,33.7101],[-117.4988,33.7093],[-117.4991,33.7092],[-117.4994,33.7088],[-117.4996,33.7088],[-117.4998,33.7091],[-117.4999,33.7093],[-117.5001,33.7093],[-117.5004,33.709],[-117.5006,33.709],[-117.5008,33.7094],[-117.5011,33.7096],[-117.5015,33.7097],[-117.5016,33.7096],[-117.5019,33.7097],[-117.5021,33.7099],[-117.5025,33.7098],[-117.5034,33.7094],[-117.504,33.7093],[-117.5046,33.7092],[-117.5049,33.7093],[-117.5052,33.7094],[-117.5054,33.7094],[-117.5055,33.7093],[-117.5054,33.7092],[-117.5051,33.7092],[-117.5048,33.7091],[-117.5045,33.709],[-117.5036,33.7089],[-117.5027,33.709],[-117.5022,33.7091],[-117.5019,33.7089],[-117.5018,33.7087],[-117.5016,33.7087],[-117.5015,33.7082]]}},{"type":"Feature","properties":{"id":"6S01A","name":"EL CARISO PG","kind":"road","access":"plate","seasonal":false},"geometry":{"type":"LineString","coordinates":[[-117.4128,33.6517],[-117.4126,33.6517],[-117.4125,33.6518],[-117.4123,33.6518],[-117.4121,33.6518],[-117.412,33.6518],[-117.4118,33.6518],[-117.4117,33.6518],[-117.4113,33.6518],[-117.4111,33.6519],[-117.4109,33.652],[-117.4107,33.6521],[-117.4106,33.6522],[-117.4104,33.6522],[-117.4102,33.6522],[-117.4099,33.6522],[-117.4097,33.6523],[-117.4097,33.6524],[-117.4098,33.6526],[-117.41,33.6526],[-117.4102,33.6526],[-117.4105,33.6526],[-117.4111,33.6524],[-117.4113,33.6523],[-117.4115,33.6522],[-117.4118,33.652],[-117.412,33.6518]]}},{"type":"Feature","properties":{"id":"5S02","name":"TEMESCAL STATION","kind":"road","access":"plate","seasonal":false},"geometry":{"type":"LineString","coordinates":[[-117.4839,33.7618],[-117.4836,33.7621],[-117.4836,33.7622],[-117.4836,33.7623],[-117.4837,33.7624],[-117.4838,33.7624],[-117.4838,33.7625],[-117.4839,33.7626]]}},{"type":"Feature","properties":{"id":"6S05","name":"LONG CANYON","kind":"road","access":"plate","seasonal":false},"geometry":{"type":"LineString","coordinates":[[-117.4221,33.6375],[-117.4228,33.6377],[-117.4235,33.6379],[-117.4243,33.6381],[-117.4251,33.6386],[-117.4254,33.6388],[-117.4265,33.639],[-117.4276,33.639],[-117.4288,33.639],[-117.43,33.6395],[-117.4306,33.6396],[-117.4314,33.6403],[-117.4318,33.6404],[-117.4323,33.6403],[-117.433,33.6401],[-117.4334,33.6402],[-117.434,33.6406],[-117.4349,33.6411],[-117.4359,33.6412],[-117.4362,33.6414],[-117.4362,33.6418],[-117.4358,33.6421],[-117.4357,33.6426],[-117.4359,33.6429],[-117.4364,33.6431],[-117.4365,33.6432],[-117.4367,33.6434],[-117.437,33.6439],[-117.4373,33.644],[-117.4376,33.6438],[-117.4379,33.6438],[-117.4384,33.6439],[-117.4388,33.644],[-117.4388,33.6443],[-117.4389,33.6447],[-117.4393,33.6455],[-117.4395,33.6457],[-117.4399,33.6457],[-117.4403,33.6461],[-117.4406,33.6463],[-117.441,33.6463],[-117.4411,33.6465],[-117.4411,33.6469],[-117.4416,33.6471],[-117.4419,33.6471],[-117.4423,33.6468],[-117.4425,33.6467],[-117.4431,33.6467],[-117.4438,33.6467],[-117.444,33.6467],[-117.4446,33.6468],[-117.4452,33.6469],[-117.4452,33.647]]}},{"type":"Feature","properties":{"id":"6S07J","name":"MORRELL CANYON TH","kind":"road","access":"plate","seasonal":false},"geometry":{"type":"LineString","coordinates":[[-117.3833,33.634],[-117.3833,33.6337],[-117.383,33.6336],[-117.3829,33.6336],[-117.3828,33.6336],[-117.3826,33.6337],[-117.3825,33.6338]]}},{"type":"Feature","properties":{"id":"6S13","name":"TRABUCO CANYON","kind":"road","access":"plate","seasonal":false},"geometry":{"type":"LineString","coordinates":[[-117.5522,33.6718],[-117.5516,33.6717],[-117.5512,33.6719],[-117.5507,33.6722],[-117.5497,33.6726],[-117.5489,33.6728],[-117.5488,33.6729],[-117.5486,33.6731],[-117.5486,33.6739]]}},{"type":"Feature","properties":{"id":"3S04","name":"NORTH MAIN DIVIDE","kind":"road","access":"plate","seasonal":false},"geometry":{"type":"LineString","coordinates":[[-117.4479,33.6624],[-117.4479,33.6625],[-117.4477,33.6627],[-117.4472,33.6629],[-117.4464,33.6632],[-117.4461,33.6633],[-117.4459,33.6636],[-117.4459,33.6639],[-117.4462,33.6642],[-117.4462,33.6644],[-117.446,33.6646],[-117.4456,33.665],[-117.4448,33.6654],[-117.4446,33.6657],[-117.4435,33.6658],[-117.443,33.6657],[-117.4427,33.6657],[-117.4422,33.6657],[-117.4419,33.6658],[-117.4415,33.6658],[-117.4412,33.6655],[-117.4408,33.6652],[-117.4403,33.6652],[-117.4398,33.665],[-117.4395,33.6645],[-117.4394,33.6641],[-117.4396,33.6637],[-117.4396,33.6634],[-117.4394,33.6632],[-117.4391,33.6631],[-117.4384,33.6632],[-117.4377,33.6633],[-117.4374,33.6641],[-117.4374,33.6644],[-117.4377,33.6648],[-117.4377,33.6651],[-117.4374,33.6654],[-117.4371,33.6655],[-117.4364,33.6654],[-117.4361,33.6653],[-117.4356,33.6652],[-117.4354,33.6652],[-117.4347,33.6652],[-117.434,33.6655],[-117.4337,33.6655],[-117.433,33.6654],[-117.4321,33.6654],[-117.4314,33.6657],[-117.4309,33.666],[-117.4306,33.666],[-117.4303,33.6659],[-117.4299,33.6649],[-117.4295,33.6646],[-117.4293,33.6641],[-117.4289,33.664],[-117.4286,33.6639],[-117.4283,33.6634],[-117.4276,33.6633],[-117.4271,33.6629],[-117.4268,33.6626],[-117.4267,33.6624],[-117.4262,33.6605],[-117.426,33.6601],[-117.4255,33.6598],[-117.4249,33.6599],[-117.4246,33.6601],[-117.4242,33.6601],[-117.4236,33.6606],[-117.4236,33.6609],[-117.4234,33.6611],[-117.423,33.6613],[-117.4226,33.6615],[-117.4225,33.6619],[-117.4227,33.6622],[-117.423,33.6624],[-117.4232,33.6625],[-117.4231,33.6629],[-117.4228,33.6633],[-117.4224,33.6637],[-117.4219,33.6639],[-117.4218,33.6639],[-117.4216,33.664],[-117.4214,33.664],[-117.4206,33.6638],[-117.4197,33.6638],[-117.4188,33.6635],[-117.4186,33.6634],[-117.4181,33.6632],[-117.417,33.6628],[-117.4166,33.6627],[-117.4161,33.6624],[-117.416,33.6622],[-117.416,33.662],[-117.4159,33.6618],[-117.4162,33.6613],[-117.4165,33.6607],[-117.4166,33.6603],[-117.4164,33.66],[-117.416,33.6598],[-117.4156,33.6599],[-117.4151,33.66],[-117.4145,33.6598],[-117.414,33.6599],[-117.4135,33.6598],[-117.4133,33.6596],[-117.4133,33.6592],[-117.4138,33.6588],[-117.414,33.6585],[-117.414,33.6581],[-117.4135,33.6575],[-117.4135,33.6571],[-117.4138,33.6568],[-117.4143,33.6567],[-117.4153,33.6566],[-117.4158,33.6563],[-117.4159,33.6559],[-117.4158,33.6554],[-117.4158,33.6549],[-117.4159,33.6541],[-117.4158,33.6537],[-117.4155,33.6533],[-117.4148,33.6533],[-117.4141,33.6536],[-117.4134,33.6538],[-117.413,33.6537],[-117.4123,33.6532],[-117.4116,33.6529],[-117.4108,33.6529],[-117.4105,33.6529],[-117.4101,33.653],[-117.4096,33.653],[-117.4091,33.6527],[-117.4091,33.6526],[-117.4089,33.6522]]}},{"type":"Feature","properties":{"id":"W-7A","name":"WILDOMAR - 7A","kind":"trail","access":"green","seasonal":false},"geometry":{"type":"LineString","coordinates":[[-117.3379,33.584],[-117.338,33.584],[-117.3381,33.5842],[-117.338,33.5842],[-117.338,33.5843],[-117.3381,33.5844],[-117.338,33.5845],[-117.338,33.5846],[-117.3378,33.5847],[-117.3378,33.5848],[-117.3377,33.5849],[-117.3376,33.5849],[-117.3374,33.5848],[-117.3372,33.5848],[-117.3369,33.5847],[-117.3367,33.5848],[-117.3364,33.5848],[-117.3362,33.5848],[-117.3361,33.5847],[-117.336,33.5847],[-117.3358,33.5849],[-117.3356,33.5851],[-117.3355,33.5852],[-117.3359,33.5853],[-117.3366,33.5855],[-117.3366,33.5856]]}},{"type":"Feature","properties":{"id":"W-5B","name":"WILDOMAR - 5B","kind":"trail","access":"green","seasonal":false},"geometry":{"type":"LineString","coordinates":[[-117.3407,33.5833],[-117.3404,33.5833],[-117.3403,33.5833],[-117.34,33.5832],[-117.3398,33.5833],[-117.3397,33.5833],[-117.3395,33.5834]]}},{"type":"Feature","properties":{"id":"W-4B","name":"WILDOMAR - 4B","kind":"trail","access":"green","seasonal":false},"geometry":{"type":"LineString","coordinates":[[-117.339,33.5852],[-117.3389,33.5853],[-117.3384,33.5855],[-117.3384,33.5862]]}},{"type":"Feature","properties":{"id":"W-5C","name":"WILDOMAR - 5C","kind":"trail","access":"green","seasonal":false},"geometry":{"type":"LineString","coordinates":[[-117.341,33.5851],[-117.3408,33.585],[-117.3407,33.5851],[-117.3406,33.585],[-117.3406,33.5849],[-117.3405,33.5849]]}},{"type":"Feature","properties":{"id":"W-2A","name":"WILDOMAR - 2A","kind":"trail","access":"green","seasonal":false},"geometry":{"type":"LineString","coordinates":[[-117.3379,33.5878],[-117.3381,33.5873],[-117.3383,33.587]]}},{"type":"Feature","properties":{"id":"W-4","name":"WILDOMAR - 4","kind":"trail","access":"green","seasonal":false},"geometry":{"type":"LineString","coordinates":[[-117.3411,33.5874],[-117.3409,33.5873],[-117.3405,33.5871],[-117.3403,33.5869],[-117.34,33.5868],[-117.3399,33.5867],[-117.3396,33.5864],[-117.3395,33.5863]]}},{"type":"Feature","properties":{"id":"W-4A","name":"WILDOMAR - 4A","kind":"trail","access":"green","seasonal":false},"geometry":{"type":"LineString","coordinates":[[-117.3401,33.5862],[-117.3395,33.5863],[-117.3392,33.5862],[-117.3388,33.5863],[-117.3384,33.5862],[-117.3382,33.5863],[-117.3381,33.5863],[-117.3376,33.5861],[-117.3372,33.586],[-117.337,33.5858],[-117.337,33.5857],[-117.337,33.5858],[-117.3369,33.5857],[-117.3367,33.5857],[-117.3366,33.5856],[-117.3363,33.5857],[-117.3361,33.5858],[-117.336,33.586]]}},{"type":"Feature","properties":{"id":"W-6","name":"WILDOMAR - 6","kind":"trail","access":"green","seasonal":false},"geometry":{"type":"LineString","coordinates":[[-117.3401,33.5815],[-117.3401,33.5816],[-117.3399,33.5816],[-117.3392,33.5826],[-117.339,33.5826],[-117.3386,33.5827],[-117.3384,33.583],[-117.3382,33.5831],[-117.338,33.5833],[-117.338,33.5835],[-117.3379,33.584],[-117.3376,33.5842],[-117.3374,33.5846],[-117.3374,33.5848],[-117.3373,33.5852],[-117.337,33.5856],[-117.3369,33.5857],[-117.3366,33.5861],[-117.3367,33.5861],[-117.337,33.5862],[-117.3369,33.5863],[-117.3369,33.5865],[-117.3368,33.5867],[-117.3368,33.5869],[-117.3365,33.587],[-117.3364,33.5871],[-117.3362,33.5875],[-117.3364,33.588],[-117.3363,33.5881],[-117.3363,33.5883],[-117.3362,33.5886]]}},{"type":"Feature","properties":{"id":"W-6A","name":"WILDOMAR - 6A","kind":"trail","access":"green","seasonal":false},"geometry":{"type":"LineString","coordinates":[[-117.3362,33.5875],[-117.3359,33.5875],[-117.3357,33.5876],[-117.3354,33.5876],[-117.3353,33.5875],[-117.3353,33.5874],[-117.3353,33.5873],[-117.3353,33.5872],[-117.3351,33.5874],[-117.335,33.5875],[-117.335,33.5876],[-117.3352,33.5876],[-117.3353,33.5876]]}},{"type":"Feature","properties":{"id":"W-5TIE","name":"TIE TO WILDOMAR-5","kind":"trail","access":"green","seasonal":false},"geometry":{"type":"LineString","coordinates":[[-117.3414,33.5815],[-117.3414,33.5816],[-117.3415,33.5817],[-117.3414,33.5817],[-117.3413,33.5818],[-117.3412,33.5818],[-117.3412,33.5819],[-117.3411,33.5819]]}},{"type":"Feature","properties":{"id":"W-5A","name":"WILDOMAR - 5A","kind":"trail","access":"green","seasonal":false},"geometry":{"type":"LineString","coordinates":[[-117.3408,33.582],[-117.3407,33.5821],[-117.3407,33.5822],[-117.3408,33.5823],[-117.3407,33.5824],[-117.3406,33.5824],[-117.3405,33.5825],[-117.3403,33.5825],[-117.3401,33.5827],[-117.34,33.5827],[-117.34,33.5828],[-117.3398,33.5829],[-117.3398,33.583],[-117.3397,33.583],[-117.3396,33.5831],[-117.3395,33.5833],[-117.3395,33.5834],[-117.3395,33.5835],[-117.3392,33.5839],[-117.3392,33.584],[-117.3393,33.5842],[-117.3393,33.5843],[-117.3394,33.5844],[-117.3396,33.5844],[-117.3397,33.5844],[-117.3398,33.5844],[-117.3399,33.5845],[-117.34,33.5845],[-117.3401,33.5845],[-117.3402,33.5845],[-117.3403,33.5845]]}},{"type":"Feature","properties":{"id":"W-8","name":"WILDOMAR - 8","kind":"trail","access":"green","seasonal":false},"geometry":{"type":"LineString","coordinates":[[-117.341,33.5888],[-117.3411,33.5889],[-117.3413,33.5888],[-117.3414,33.5888],[-117.3412,33.589],[-117.3408,33.5891],[-117.3406,33.5893],[-117.3406,33.5895],[-117.3404,33.5895],[-117.3402,33.5894],[-117.34,33.5896],[-117.3399,33.5898],[-117.3397,33.5899],[-117.3396,33.59],[-117.3395,33.59],[-117.3392,33.5903],[-117.3391,33.5902],[-117.3391,33.59],[-117.339,33.59],[-117.339,33.5896],[-117.3388,33.5896],[-117.3385,33.5894],[-117.3383,33.5895],[-117.3383,33.5893],[-117.3379,33.5891],[-117.3377,33.5891],[-117.3377,33.589],[-117.3374,33.5889],[-117.3373,33.5887],[-117.3373,33.5886],[-117.3371,33.5885],[-117.3369,33.5886],[-117.3367,33.5886],[-117.3364,33.5886],[-117.3362,33.5886],[-117.336,33.5885],[-117.3357,33.5886],[-117.3356,33.5884],[-117.3357,33.5883],[-117.3358,33.5883],[-117.3358,33.5882],[-117.3357,33.5881],[-117.3354,33.5881],[-117.3352,33.5878],[-117.3349,33.5878],[-117.3348,33.5878],[-117.3347,33.5878],[-117.3345,33.5878],[-117.3343,33.5878],[-117.3334,33.5877],[-117.3334,33.5878],[-117.3334,33.5879],[-117.3333,33.5879],[-117.3332,33.588],[-117.3331,33.5879],[-117.3329,33.5879],[-117.3326,33.5879],[-117.3323,33.5881],[-117.3321,33.588],[-117.3319,33.5881],[-117.3318,33.5882],[-117.3315,33.5881],[-117.3311,33.588],[-117.331,33.5882],[-117.3308,33.5882],[-117.3306,33.5883],[-117.3304,33.5882],[-117.3303,33.588],[-117.3304,33.5879],[-117.3305,33.5878],[-117.3308,33.5878],[-117.3309,33.5877],[-117.3313,33.5877],[-117.3314,33.5876],[-117.3317,33.5875],[-117.3318,33.5876],[-117.332,33.5875],[-117.3323,33.5873],[-117.3325,33.5873]]}},{"type":"Feature","properties":{"id":"W-26","name":"WILDOMAR 26","kind":"trail","access":"green","seasonal":false},"geometry":{"type":"LineString","coordinates":[[-117.3409,33.5875],[-117.3412,33.5874],[-117.3416,33.5873],[-117.3417,33.5873],[-117.3418,33.5872],[-117.3418,33.5871],[-117.3417,33.587],[-117.3416,33.5869],[-117.3414,33.5868]]}},{"type":"Feature","properties":{"id":"W-6B","name":"WILDOMAR - 6B","kind":"trail","access":"green","seasonal":false},"geometry":{"type":"LineString","coordinates":[[-117.3405,33.5805],[-117.3402,33.5806],[-117.3398,33.5806],[-117.3396,33.5806]]}},{"type":"Feature","properties":{"id":"W-WUL","name":"WILDOMAR - WUL","kind":"trail","access":"green","seasonal":false},"geometry":{"type":"LineString","coordinates":[[-117.3414,33.5888],[-117.3416,33.5888],[-117.3417,33.5889],[-117.3418,33.589],[-117.3418,33.5891],[-117.3419,33.5893],[-117.342,33.5895],[-117.342,33.5898],[-117.342,33.59],[-117.3419,33.5901],[-117.3418,33.5901],[-117.3417,33.5901],[-117.3417,33.5899],[-117.3417,33.5897],[-117.3417,33.5896],[-117.3417,33.5895],[-117.3416,33.5894],[-117.3414,33.5894],[-117.3414,33.5895],[-117.3413,33.5895],[-117.3412,33.5894],[-117.3413,33.5894],[-117.3414,33.5894]]}},{"type":"Feature","properties":{"id":"W-27","name":"WILDOMAR 27","kind":"trail","access":"green","seasonal":false},"geometry":{"type":"LineString","coordinates":[[-117.3334,33.5879],[-117.3334,33.588],[-117.3333,33.5884],[-117.3334,33.5885],[-117.3336,33.5885],[-117.3337,33.5883],[-117.334,33.5883],[-117.3342,33.5885],[-117.3344,33.5885],[-117.3345,33.5885],[-117.3346,33.5883],[-117.3346,33.5882],[-117.3348,33.588],[-117.3348,33.5879]]}},{"type":"Feature","properties":{"id":"W-8","name":"WILDOMAR - 8","kind":"trail","access":"green","seasonal":false},"geometry":{"type":"LineString","coordinates":[[-117.3325,33.5873],[-117.3327,33.5874],[-117.3328,33.5873],[-117.333,33.5873],[-117.333,33.5871],[-117.3332,33.587],[-117.3333,33.587],[-117.3334,33.5871],[-117.3337,33.5869],[-117.334,33.5869],[-117.3341,33.5868],[-117.3342,33.5868],[-117.3345,33.5868],[-117.3347,33.5868],[-117.3348,33.5867],[-117.3349,33.5866],[-117.335,33.5867],[-117.3353,33.5867],[-117.3354,33.5866],[-117.3354,33.5865],[-117.3352,33.5865],[-117.3349,33.5864],[-117.3348,33.5864],[-117.3348,33.5862],[-117.3349,33.5861],[-117.335,33.5861],[-117.335,33.5859],[-117.3352,33.5858],[-117.3348,33.5857],[-117.3342,33.5857],[-117.3341,33.5856],[-117.3337,33.5856],[-117.3339,33.5854],[-117.3339,33.5852],[-117.3337,33.5846],[-117.3342,33.5842],[-117.3339,33.5837],[-117.3339,33.5835],[-117.3338,33.5831],[-117.334,33.5827],[-117.3338,33.5826],[-117.3336,33.5825],[-117.3337,33.5821],[-117.3338,33.5821],[-117.3341,33.5818],[-117.3341,33.5816],[-117.3341,33.5814],[-117.3343,33.5813],[-117.3344,33.5813],[-117.3345,33.5812],[-117.3346,33.5813],[-117.3348,33.5813],[-117.3351,33.5813],[-117.3355,33.5812],[-117.3358,33.581],[-117.336,33.5809],[-117.3365,33.5808],[-117.3366,33.5807],[-117.3367,33.5806],[-117.3369,33.5805],[-117.3369,33.5804],[-117.3372,33.5802],[-117.3371,33.58],[-117.3372,33.5798],[-117.3374,33.5798],[-117.3378,33.5797],[-117.3379,33.5795],[-117.3382,33.5795],[-117.3384,33.5797],[-117.3386,33.5796],[-117.3387,33.5796],[-117.3389,33.5796],[-117.3395,33.5797],[-117.3396,33.5798],[-117.3401,33.58],[-117.3406,33.5801],[-117.3404,33.5803],[-117.3405,33.5805],[-117.3406,33.5806],[-117.3405,33.5811],[-117.3404,33.5813],[-117.3401,33.5815],[-117.3404,33.5816],[-117.3406,33.5819],[-117.3407,33.5819],[-117.3407,33.582],[-117.3408,33.582],[-117.3409,33.582],[-117.3411,33.5819],[-117.3413,33.582],[-117.3414,33.5821],[-117.3414,33.5826],[-117.3412,33.5826],[-117.3412,33.5828],[-117.3411,33.5829],[-117.3412,33.5832],[-117.3412,33.5833],[-117.3414,33.5835],[-117.3415,33.5837],[-117.3411,33.5839],[-117.3412,33.5842],[-117.3414,33.5842],[-117.3416,33.5843],[-117.3415,33.5846],[-117.3412,33.5847],[-117.341,33.5851],[-117.3411,33.5854],[-117.3413,33.5854],[-117.3415,33.5856],[-117.3414,33.5857],[-117.3411,33.5858],[-117.3411,33.5861],[-117.3411,33.5862],[-117.3413,33.5864],[-117.3414,33.5865],[-117.3415,33.5868],[-117.3414,33.5868],[-117.3413,33.587],[-117.3411,33.5873],[-117.3411,33.5874],[-117.3409,33.5875],[-117.3407,33.5877],[-117.3405,33.5878],[-117.3403,33.5879],[-117.3401,33.588],[-117.3405,33.5881],[-117.3406,33.5881],[-117.3407,33.5882],[-117.3405,33.5885],[-117.3406,33.5886],[-117.341,33.5888]]}},{"type":"Feature","properties":{"id":"W-3","name":"WILDOMAR - 3","kind":"trail","access":"green","seasonal":false},"geometry":{"type":"LineString","coordinates":[[-117.3407,33.5877],[-117.3404,33.5875],[-117.3399,33.5875],[-117.3395,33.5872],[-117.3388,33.5871],[-117.3386,33.5871],[-117.3383,33.587],[-117.3378,33.5866],[-117.3372,33.5862],[-117.337,33.5862],[-117.3367,33.5861],[-117.3366,33.5861],[-117.3362,33.586],[-117.336,33.586],[-117.3357,33.5859],[-117.3352,33.5858]]}},{"type":"Feature","properties":{"id":"W-7","name":"WILDOMAR - 7","kind":"trail","access":"green","seasonal":false},"geometry":{"type":"LineString","coordinates":[[-117.3394,33.5852],[-117.3391,33.5853],[-117.339,33.5852],[-117.3387,33.5852],[-117.3385,33.5853],[-117.3381,33.5852],[-117.3379,33.5853],[-117.3377,33.5854],[-117.3375,33.5853],[-117.3373,33.5852],[-117.3371,33.5851],[-117.3369,33.5851],[-117.3368,33.585],[-117.3365,33.5849],[-117.3364,33.5848],[-117.3364,33.5847],[-117.336,33.5844],[-117.336,33.5843],[-117.3358,33.5843],[-117.3355,33.5841],[-117.3352,33.5841],[-117.3349,33.5843],[-117.3346,33.5843],[-117.3344,33.5845],[-117.3343,33.5846],[-117.334,33.5846],[-117.3337,33.5846]]}},{"type":"Feature","properties":{"id":"W-8A","name":"WILDOMAR - 8A","kind":"trail","access":"green","seasonal":false},"geometry":{"type":"LineString","coordinates":[[-117.3339,33.585],[-117.3343,33.5851],[-117.3345,33.5851],[-117.3346,33.5852],[-117.3345,33.5853],[-117.3342,33.5853],[-117.3341,33.5854],[-117.334,33.5854],[-117.3339,33.5854]]}},{"type":"Feature","properties":{"id":"W-2","name":"WILDOMAR - 2","kind":"trail","access":"green","seasonal":false},"geometry":{"type":"LineString","coordinates":[[-117.3401,33.588],[-117.34,33.5881],[-117.3394,33.588],[-117.3387,33.588],[-117.3379,33.5878],[-117.3377,33.5885],[-117.3374,33.5886],[-117.3373,33.5886]]}},{"type":"Feature","properties":{"id":"W-1","name":"WILDOMAR - 1","kind":"trail","access":"green","seasonal":false},"geometry":{"type":"LineString","coordinates":[[-117.3405,33.5885],[-117.3404,33.5884],[-117.3404,33.5883],[-117.3403,33.5884],[-117.34,33.5889],[-117.3398,33.5891],[-117.3398,33.5892],[-117.3398,33.5894],[-117.34,33.5896]]}},{"type":"Feature","properties":{"id":"W-1A","name":"WILDOMAR - 1A","kind":"trail","access":"green","seasonal":false},"geometry":{"type":"LineString","coordinates":[[-117.3398,33.5891],[-117.3395,33.5891],[-117.3392,33.5893],[-117.339,33.5894],[-117.339,33.5896]]}},{"type":"Feature","properties":{"id":"W-5","name":"WILDOMAR - 5","kind":"trail","access":"green","seasonal":false},"geometry":{"type":"LineString","coordinates":[[-117.3408,33.582],[-117.341,33.5823],[-117.3409,33.5824],[-117.3407,33.5826],[-117.3405,33.5827],[-117.3406,33.5828],[-117.3408,33.5828],[-117.3409,33.5829],[-117.3409,33.5831],[-117.3407,33.5832],[-117.3407,33.5833],[-117.3407,33.5834],[-117.3406,33.5835],[-117.3407,33.5837],[-117.3406,33.5839],[-117.3404,33.584],[-117.3404,33.5841],[-117.3404,33.5843],[-117.3403,33.5844],[-117.3403,33.5845],[-117.3404,33.5845],[-117.3404,33.5846],[-117.3405,33.5849],[-117.3402,33.585],[-117.3399,33.585],[-117.3397,33.585],[-117.3396,33.5852],[-117.3395,33.5852],[-117.3394,33.5852],[-117.3394,33.5855],[-117.3396,33.5857],[-117.3399,33.5859],[-117.34,33.5861],[-117.3401,33.5862],[-117.34,33.5865],[-117.34,33.5868]]}}]}