<?xml version="1.0" encoding="UTF-8"?>
<gpx version="1.1" creator="dirt-bikes build-loop-gpx (composite of existing route GPX)" xmlns="http://www.topografix.com/GPX/1/1">
  <metadata><name>Jawbone Canyon: Canyon Stage &amp; Singletrack</name></metadata>
  <trk><name>Jawbone Canyon Road</name>
    <trkseg>
      <trkpt lat="35.36319" lon="-118.11320"><ele>1153.0</ele></trkpt>
      <trkpt lat="35.36316" lon="-118.11320"><ele>1153.0</ele></trkpt>
      <trkpt lat="35.36307" lon="-118.11318"><ele>1153.0</ele></trkpt>
      <trkpt lat="35.36298" lon="-118.11316"><ele>1153.0</ele></trkpt>
      <trkpt lat="35.36290" lon="-118.11312"><ele>1153.0</ele></trkpt>
      <trkpt lat="35.36282" lon="-118.11307"><ele>1149.0</ele></trkpt>
      <trkpt lat="35.36275" lon="-118.11302"><ele>1149.0</ele></trkpt>
      <trkpt lat="35.36269" lon="-118.11299"><ele>1149.0</ele></trkpt>
      <trkpt lat="35.36263" lon="-118.11295"><ele>1149.0</ele></trkpt>
      <trkpt lat="35.36258" lon="-118.11292"><ele>1149.0</ele></trkpt>
      <trkpt lat="35.36253" lon="-118.11289"><ele>1149.0</ele></trkpt>
      <trkpt lat="35.36248" lon="-118.11287"><ele>1149.0</ele></trkpt>
      <trkpt lat="35.36244" lon="-118.11285"><ele>1149.0</ele></trkpt>
      <trkpt lat="35.36238" lon="-118.11284"><ele>1149.0</ele></trkpt>
      <trkpt lat="35.36233" lon="-118.11283"><ele>1149.0</ele></trkpt>
      <trkpt lat="35.36226" lon="-118.11282"><ele>1147.0</ele></trkpt>
      <trkpt lat="35.36220" lon="-118.11283"><ele>1147.0</ele></trkpt>
      <trkpt lat="35.36214" lon="-118.11285"><ele>1147.0</ele></trkpt>
      <trkpt lat="35.36207" lon="-118.11288"><ele>1147.0</ele></trkpt>
      <trkpt lat="35.36201" lon="-118.11292"><ele>1147.0</ele></trkpt>
      <trkpt lat="35.36195" lon="-118.11297"><ele>1147.0</ele></trkpt>
      <trkpt lat="35.36190" lon="-118.11303"><ele>1147.0</ele></trkpt>
      <trkpt lat="35.36185" lon="-118.11307"><ele>1147.0</ele></trkpt>
      <trkpt lat="35.36181" lon="-118.11312"><ele>1147.0</ele></trkpt>
      <trkpt lat="35.36177" lon="-118.11317"><ele>1151.0</ele></trkpt>
      <trkpt lat="35.36174" lon="-118.11323"><ele>1151.0</ele></trkpt>
      <trkpt lat="35.36170" lon="-118.11329"><ele>1151.0</ele></trkpt>
      <trkpt lat="35.36166" lon="-118.11335"><ele>1151.0</ele></trkpt>
      <trkpt lat="35.36162" lon="-118.11341"><ele>1151.0</ele></trkpt>
      <trkpt lat="35.36158" lon="-118.11348"><ele>1151.0</ele></trkpt>
      <trkpt lat="35.36154" lon="-118.11355"><ele>1151.0</ele></trkpt>
      <trkpt lat="35.36150" lon="-118.11361"><ele>1151.0</ele></trkpt>
      <trkpt lat="35.36146" lon="-118.11368"><ele>1151.0</ele></trkpt>
      <trkpt lat="35.36141" lon="-118.11374"><ele>1151.0</ele></trkpt>
      <trkpt lat="35.36136" lon="-118.11380"><ele>1157.0</ele></trkpt>
      <trkpt lat="35.36131" lon="-118.11386"><ele>1157.0</ele></trkpt>
      <trkpt lat="35.36127" lon="-118.11393"><ele>1157.0</ele></trkpt>
      <trkpt lat="35.36122" lon="-118.11400"><ele>1157.0</ele></trkpt>
      <trkpt lat="35.36118" lon="-118.11407"><ele>1157.0</ele></trkpt>
      <trkpt lat="35.36113" lon="-118.11414"><ele>1157.0</ele></trkpt>
      <trkpt lat="35.36109" lon="-118.11421"><ele>1157.0</ele></trkpt>
      <trkpt lat="35.36104" lon="-118.11428"><ele>1157.0</ele></trkpt>
      <trkpt lat="35.36100" lon="-118.11435"><ele>1157.0</ele></trkpt>
      <trkpt lat="35.36096" lon="-118.11442"><ele>1164.0</ele></trkpt>
      <trkpt lat="35.36092" lon="-118.11449"><ele>1164.0</ele></trkpt>
      <trkpt lat="35.36088" lon="-118.11456"><ele>1164.0</ele></trkpt>
      <trkpt lat="35.36084" lon="-118.11462"><ele>1164.0</ele></trkpt>
      <trkpt lat="35.36079" lon="-118.11469"><ele>1164.0</ele></trkpt>
      <trkpt lat="35.36074" lon="-118.11475"><ele>1164.0</ele></trkpt>
      <trkpt lat="35.36069" lon="-118.11481"><ele>1164.0</ele></trkpt>
      <trkpt lat="35.36063" lon="-118.11486"><ele>1164.0</ele></trkpt>
      <trkpt lat="35.36056" lon="-118.11490"><ele>1164.0</ele></trkpt>
      <trkpt lat="35.36050" lon="-118.11494"><ele>1171.0</ele></trkpt>
      <trkpt lat="35.36043" lon="-118.11497"><ele>1171.0</ele></trkpt>
      <trkpt lat="35.36036" lon="-118.11501"><ele>1171.0</ele></trkpt>
      <trkpt lat="35.36029" lon="-118.11504"><ele>1171.0</ele></trkpt>
      <trkpt lat="35.36022" lon="-118.11507"><ele>1171.0</ele></trkpt>
      <trkpt lat="35.36014" lon="-118.11510"><ele>1171.0</ele></trkpt>
      <trkpt lat="35.36007" lon="-118.11513"><ele>1171.0</ele></trkpt>
      <trkpt lat="35.36000" lon="-118.11517"><ele>1171.0</ele></trkpt>
      <trkpt lat="35.35992" lon="-118.11520"><ele>1171.0</ele></trkpt>
      <trkpt lat="35.35985" lon="-118.11522"><ele>1171.0</ele></trkpt>
      <trkpt lat="35.35977" lon="-118.11525"><ele>1182.0</ele></trkpt>
      <trkpt lat="35.35970" lon="-118.11528"><ele>1182.0</ele></trkpt>
      <trkpt lat="35.35962" lon="-118.11530"><ele>1182.0</ele></trkpt>
      <trkpt lat="35.35954" lon="-118.11532"><ele>1182.0</ele></trkpt>
      <trkpt lat="35.35946" lon="-118.11533"><ele>1182.0</ele></trkpt>
      <trkpt lat="35.35938" lon="-118.11534"><ele>1182.0</ele></trkpt>
      <trkpt lat="35.35930" lon="-118.11534"><ele>1182.0</ele></trkpt>
      <trkpt lat="35.35921" lon="-118.11534"><ele>1182.0</ele></trkpt>
      <trkpt lat="35.35913" lon="-118.11533"><ele>1182.0</ele></trkpt>
      <trkpt lat="35.35905" lon="-118.11533"><ele>1186.0</ele></trkpt>
      <trkpt lat="35.35898" lon="-118.11532"><ele>1186.0</ele></trkpt>
      <trkpt lat="35.35892" lon="-118.11531"><ele>1186.0</ele></trkpt>
      <trkpt lat="35.35886" lon="-118.11529"><ele>1186.0</ele></trkpt>
      <trkpt lat="35.35881" lon="-118.11527"><ele>1186.0</ele></trkpt>
      <trkpt lat="35.35875" lon="-118.11525"><ele>1186.0</ele></trkpt>
      <trkpt lat="35.35868" lon="-118.11525"><ele>1186.0</ele></trkpt>
      <trkpt lat="35.35862" lon="-118.11525"><ele>1186.0</ele></trkpt>
      <trkpt lat="35.35855" lon="-118.11527"><ele>1186.0</ele></trkpt>
      <trkpt lat="35.35847" lon="-118.11528"><ele>1193.0</ele></trkpt>
      <trkpt lat="35.35840" lon="-118.11530"><ele>1193.0</ele></trkpt>
      <trkpt lat="35.35833" lon="-118.11532"><ele>1193.0</ele></trkpt>
      <trkpt lat="35.35826" lon="-118.11535"><ele>1193.0</ele></trkpt>
      <trkpt lat="35.35819" lon="-118.11538"><ele>1193.0</ele></trkpt>
      <trkpt lat="35.35812" lon="-118.11541"><ele>1193.0</ele></trkpt>
      <trkpt lat="35.35805" lon="-118.11544"><ele>1193.0</ele></trkpt>
      <trkpt lat="35.35799" lon="-118.11548"><ele>1193.0</ele></trkpt>
      <trkpt lat="35.35792" lon="-118.11552"><ele>1193.0</ele></trkpt>
      <trkpt lat="35.35785" lon="-118.11557"><ele>1193.0</ele></trkpt>
      <trkpt lat="35.35778" lon="-118.11561"><ele>1203.0</ele></trkpt>
      <trkpt lat="35.35771" lon="-118.11566"><ele>1203.0</ele></trkpt>
      <trkpt lat="35.35763" lon="-118.11570"><ele>1203.0</ele></trkpt>
      <trkpt lat="35.35756" lon="-118.11573"><ele>1203.0</ele></trkpt>
      <trkpt lat="35.35748" lon="-118.11575"><ele>1203.0</ele></trkpt>
      <trkpt lat="35.35741" lon="-118.11575"><ele>1203.0</ele></trkpt>
      <trkpt lat="35.35733" lon="-118.11574"><ele>1203.0</ele></trkpt>
      <trkpt lat="35.35726" lon="-118.11571"><ele>1203.0</ele></trkpt>
      <trkpt lat="35.35719" lon="-118.11566"><ele>1203.0</ele></trkpt>
      <trkpt lat="35.35713" lon="-118.11560"><ele>1201.0</ele></trkpt>
      <trkpt lat="35.35708" lon="-118.11553"><ele>1201.0</ele></trkpt>
      <trkpt lat="35.35703" lon="-118.11545"><ele>1201.0</ele></trkpt>
      <trkpt lat="35.35697" lon="-118.11539"><ele>1201.0</ele></trkpt>
      <trkpt lat="35.35691" lon="-118.11533"><ele>1201.0</ele></trkpt>
      <trkpt lat="35.35684" lon="-118.11528"><ele>1201.0</ele></trkpt>
      <trkpt lat="35.35676" lon="-118.11524"><ele>1201.0</ele></trkpt>
      <trkpt lat="35.35668" lon="-118.11521"><ele>1201.0</ele></trkpt>
      <trkpt lat="35.35660" lon="-118.11521"><ele>1201.0</ele></trkpt>
      <trkpt lat="35.35653" lon="-118.11521"><ele>1201.0</ele></trkpt>
      <trkpt lat="35.35645" lon="-118.11522"><ele>1206.0</ele></trkpt>
      <trkpt lat="35.35639" lon="-118.11524"><ele>1206.0</ele></trkpt>
      <trkpt lat="35.35632" lon="-118.11527"><ele>1206.0</ele></trkpt>
      <trkpt lat="35.35626" lon="-118.11530"><ele>1206.0</ele></trkpt>
      <trkpt lat="35.35619" lon="-118.11534"><ele>1206.0</ele></trkpt>
      <trkpt lat="35.35613" lon="-118.11538"><ele>1206.0</ele></trkpt>
      <trkpt lat="35.35607" lon="-118.11541"><ele>1206.0</ele></trkpt>
      <trkpt lat="35.35600" lon="-118.11543"><ele>1206.0</ele></trkpt>
      <trkpt lat="35.35594" lon="-118.11545"><ele>1206.0</ele></trkpt>
      <trkpt lat="35.35586" lon="-118.11546"><ele>1213.0</ele></trkpt>
      <trkpt lat="35.35579" lon="-118.11548"><ele>1213.0</ele></trkpt>
      <trkpt lat="35.35572" lon="-118.11549"><ele>1213.0</ele></trkpt>
      <trkpt lat="35.35564" lon="-118.11552"><ele>1213.0</ele></trkpt>
      <trkpt lat="35.35557" lon="-118.11555"><ele>1213.0</ele></trkpt>
      <trkpt lat="35.35550" lon="-118.11560"><ele>1213.0</ele></trkpt>
      <trkpt lat="35.35543" lon="-118.11565"><ele>1213.0</ele></trkpt>
      <trkpt lat="35.35536" lon="-118.11570"><ele>1213.0</ele></trkpt>
      <trkpt lat="35.35530" lon="-118.11574"><ele>1213.0</ele></trkpt>
      <trkpt lat="35.35524" lon="-118.11578"><ele>1220.0</ele></trkpt>
      <trkpt lat="35.35518" lon="-118.11580"><ele>1220.0</ele></trkpt>
      <trkpt lat="35.35511" lon="-118.11582"><ele>1220.0</ele></trkpt>
      <trkpt lat="35.35505" lon="-118.11584"><ele>1220.0</ele></trkpt>
      <trkpt lat="35.35500" lon="-118.11584"><ele>1220.0</ele></trkpt>
      <trkpt lat="35.35494" lon="-118.11584"><ele>1220.0</ele></trkpt>
      <trkpt lat="35.35489" lon="-118.11584"><ele>1220.0</ele></trkpt>
      <trkpt lat="35.35483" lon="-118.11583"><ele>1220.0</ele></trkpt>
      <trkpt lat="35.35477" lon="-118.11582"><ele>1220.0</ele></trkpt>
      <trkpt lat="35.35471" lon="-118.11581"><ele>1220.0</ele></trkpt>
      <trkpt lat="35.35465" lon="-118.11579"><ele>1225.0</ele></trkpt>
      <trkpt lat="35.35459" lon="-118.11578"><ele>1225.0</ele></trkpt>
      <trkpt lat="35.35453" lon="-118.11577"><ele>1225.0</ele></trkpt>
      <trkpt lat="35.35446" lon="-118.11576"><ele>1225.0</ele></trkpt>
      <trkpt lat="35.35439" lon="-118.11575"><ele>1225.0</ele></trkpt>
      <trkpt lat="35.35433" lon="-118.11573"><ele>1225.0</ele></trkpt>
      <trkpt lat="35.35426" lon="-118.11570"><ele>1225.0</ele></trkpt>
      <trkpt lat="35.35419" lon="-118.11567"><ele>1225.0</ele></trkpt>
      <trkpt lat="35.35413" lon="-118.11564"><ele>1225.0</ele></trkpt>
      <trkpt lat="35.35406" lon="-118.11560"><ele>1230.0</ele></trkpt>
      <trkpt lat="35.35399" lon="-118.11556"><ele>1230.0</ele></trkpt>
      <trkpt lat="35.35392" lon="-118.11551"><ele>1230.0</ele></trkpt>
      <trkpt lat="35.35385" lon="-118.11546"><ele>1230.0</ele></trkpt>
      <trkpt lat="35.35378" lon="-118.11541"><ele>1230.0</ele></trkpt>
      <trkpt lat="35.35371" lon="-118.11536"><ele>1230.0</ele></trkpt>
      <trkpt lat="35.35364" lon="-118.11531"><ele>1230.0</ele></trkpt>
      <trkpt lat="35.35357" lon="-118.11525"><ele>1230.0</ele></trkpt>
      <trkpt lat="35.35350" lon="-118.11520"><ele>1230.0</ele></trkpt>
      <trkpt lat="35.35343" lon="-118.11515"><ele>1237.0</ele></trkpt>
      <trkpt lat="35.35337" lon="-118.11510"><ele>1237.0</ele></trkpt>
      <trkpt lat="35.35330" lon="-118.11505"><ele>1237.0</ele></trkpt>
      <trkpt lat="35.35324" lon="-118.11500"><ele>1237.0</ele></trkpt>
      <trkpt lat="35.35317" lon="-118.11495"><ele>1237.0</ele></trkpt>
      <trkpt lat="35.35311" lon="-118.11490"><ele>1237.0</ele></trkpt>
      <trkpt lat="35.35305" lon="-118.11486"><ele>1237.0</ele></trkpt>
      <trkpt lat="35.35299" lon="-118.11481"><ele>1237.0</ele></trkpt>
      <trkpt lat="35.35292" lon="-118.11477"><ele>1237.0</ele></trkpt>
      <trkpt lat="35.35285" lon="-118.11475"><ele>1237.0</ele></trkpt>
      <trkpt lat="35.35278" lon="-118.11474"><ele>1233.0</ele></trkpt>
      <trkpt lat="35.35271" lon="-118.11473"><ele>1233.0</ele></trkpt>
      <trkpt lat="35.35265" lon="-118.11474"><ele>1233.0</ele></trkpt>
      <trkpt lat="35.35258" lon="-118.11475"><ele>1233.0</ele></trkpt>
      <trkpt lat="35.35252" lon="-118.11476"><ele>1233.0</ele></trkpt>
      <trkpt lat="35.35245" lon="-118.11476"><ele>1233.0</ele></trkpt>
      <trkpt lat="35.35239" lon="-118.11476"><ele>1233.0</ele></trkpt>
      <trkpt lat="35.35233" lon="-118.11475"><ele>1233.0</ele></trkpt>
      <trkpt lat="35.35227" lon="-118.11473"><ele>1233.0</ele></trkpt>
      <trkpt lat="35.35222" lon="-118.11471"><ele>1231.0</ele></trkpt>
      <trkpt lat="35.35217" lon="-118.11468"><ele>1231.0</ele></trkpt>
      <trkpt lat="35.35212" lon="-118.11465"><ele>1231.0</ele></trkpt>
      <trkpt lat="35.35207" lon="-118.11461"><ele>1231.0</ele></trkpt>
      <trkpt lat="35.35203" lon="-118.11457"><ele>1231.0</ele></trkpt>
      <trkpt lat="35.35198" lon="-118.11452"><ele>1231.0</ele></trkpt>
      <trkpt lat="35.35193" lon="-118.11448"><ele>1231.0</ele></trkpt>
      <trkpt lat="35.35189" lon="-118.11443"><ele>1231.0</ele></trkpt>
      <trkpt lat="35.35184" lon="-118.11438"><ele>1231.0</ele></trkpt>
      <trkpt lat="35.35179" lon="-118.11432"><ele>1231.0</ele></trkpt>
      <trkpt lat="35.35174" lon="-118.11427"><ele>1233.0</ele></trkpt>
      <trkpt lat="35.35170" lon="-118.11421"><ele>1233.0</ele></trkpt>
      <trkpt lat="35.35165" lon="-118.11415"><ele>1233.0</ele></trkpt>
      <trkpt lat="35.35159" lon="-118.11409"><ele>1233.0</ele></trkpt>
      <trkpt lat="35.35154" lon="-118.11403"><ele>1233.0</ele></trkpt>
      <trkpt lat="35.35148" lon="-118.11397"><ele>1233.0</ele></trkpt>
      <trkpt lat="35.35142" lon="-118.11391"><ele>1233.0</ele></trkpt>
      <trkpt lat="35.35136" lon="-118.11386"><ele>1233.0</ele></trkpt>
      <trkpt lat="35.35130" lon="-118.11380"><ele>1233.0</ele></trkpt>
      <trkpt lat="35.35124" lon="-118.11375"><ele>1225.0</ele></trkpt>
      <trkpt lat="35.35118" lon="-118.11369"><ele>1225.0</ele></trkpt>
      <trkpt lat="35.35112" lon="-118.11364"><ele>1225.0</ele></trkpt>
      <trkpt lat="35.35105" lon="-118.11359"><ele>1225.0</ele></trkpt>
      <trkpt lat="35.35097" lon="-118.11353"><ele>1225.0</ele></trkpt>
      <trkpt lat="35.35090" lon="-118.11348"><ele>1225.0</ele></trkpt>
      <trkpt lat="35.35084" lon="-118.11343"><ele>1225.0</ele></trkpt>
      <trkpt lat="35.35078" lon="-118.11339"><ele>1225.0</ele></trkpt>
      <trkpt lat="35.35072" lon="-118.11335"><ele>1225.0</ele></trkpt>
      <trkpt lat="35.35068" lon="-118.11332"><ele>1221.0</ele></trkpt>
      <trkpt lat="35.35064" lon="-118.11329"><ele>1221.0</ele></trkpt>
      <trkpt lat="35.35061" lon="-118.11327"><ele>1221.0</ele></trkpt>
      <trkpt lat="35.35058" lon="-118.11326"><ele>1221.0</ele></trkpt>
      <trkpt lat="35.35055" lon="-118.11324"><ele>1221.0</ele></trkpt>
      <trkpt lat="35.35051" lon="-118.11322"><ele>1221.0</ele></trkpt>
      <trkpt lat="35.35047" lon="-118.11320"><ele>1221.0</ele></trkpt>
      <trkpt lat="35.35042" lon="-118.11318"><ele>1221.0</ele></trkpt>
      <trkpt lat="35.35037" lon="-118.11316"><ele>1221.0</ele></trkpt>
      <trkpt lat="35.35032" lon="-118.11315"><ele>1221.0</ele></trkpt>
      <trkpt lat="35.35026" lon="-118.11314"><ele>1214.0</ele></trkpt>
      <trkpt lat="35.35020" lon="-118.11314"><ele>1214.0</ele></trkpt>
      <trkpt lat="35.35013" lon="-118.11315"><ele>1214.0</ele></trkpt>
      <trkpt lat="35.35007" lon="-118.11315"><ele>1214.0</ele></trkpt>
      <trkpt lat="35.35001" lon="-118.11315"><ele>1214.0</ele></trkpt>
      <trkpt lat="35.34994" lon="-118.11315"><ele>1214.0</ele></trkpt>
      <trkpt lat="35.34989" lon="-118.11314"><ele>1214.0</ele></trkpt>
      <trkpt lat="35.34983" lon="-118.11313"><ele>1214.0</ele></trkpt>
      <trkpt lat="35.34978" lon="-118.11313"><ele>1214.0</ele></trkpt>
      <trkpt lat="35.34972" lon="-118.11313"><ele>1207.0</ele></trkpt>
      <trkpt lat="35.34966" lon="-118.11313"><ele>1207.0</ele></trkpt>
      <trkpt lat="35.34960" lon="-118.11314"><ele>1207.0</ele></trkpt>
      <trkpt lat="35.34955" lon="-118.11316"><ele>1207.0</ele></trkpt>
      <trkpt lat="35.34949" lon="-118.11319"><ele>1207.0</ele></trkpt>
      <trkpt lat="35.34944" lon="-118.11322"><ele>1207.0</ele></trkpt>
      <trkpt lat="35.34939" lon="-118.11326"><ele>1207.0</ele></trkpt>
      <trkpt lat="35.34933" lon="-118.11329"><ele>1207.0</ele></trkpt>
      <trkpt lat="35.34928" lon="-118.11331"><ele>1207.0</ele></trkpt>
      <trkpt lat="35.34922" lon="-118.11333"><ele>1207.0</ele></trkpt>
      <trkpt lat="35.34916" lon="-118.11334"><ele>1198.0</ele></trkpt>
      <trkpt lat="35.34910" lon="-118.11334"><ele>1198.0</ele></trkpt>
      <trkpt lat="35.34903" lon="-118.11333"><ele>1198.0</ele></trkpt>
      <trkpt lat="35.34895" lon="-118.11332"><ele>1198.0</ele></trkpt>
      <trkpt lat="35.34888" lon="-118.11330"><ele>1198.0</ele></trkpt>
      <trkpt lat="35.34879" lon="-118.11327"><ele>1198.0</ele></trkpt>
      <trkpt lat="35.34871" lon="-118.11324"><ele>1198.0</ele></trkpt>
      <trkpt lat="35.34858" lon="-118.11315"><ele>1198.0</ele></trkpt>
    </trkseg>
    <trkseg>
      <trkpt lat="35.31541" lon="-118.10905"><ele>1198.0</ele></trkpt>
      <trkpt lat="35.31533" lon="-118.10899"><ele>863.0</ele></trkpt>
      <trkpt lat="35.31525" lon="-118.10893"><ele>863.0</ele></trkpt>
      <trkpt lat="35.31517" lon="-118.10887"><ele>863.0</ele></trkpt>
      <trkpt lat="35.31510" lon="-118.10881"><ele>863.0</ele></trkpt>
      <trkpt lat="35.31506" lon="-118.10878"><ele>863.0</ele></trkpt>
      <trkpt lat="35.31502" lon="-118.10875"><ele>863.0</ele></trkpt>
      <trkpt lat="35.31495" lon="-118.10868"><ele>863.0</ele></trkpt>
      <trkpt lat="35.31487" lon="-118.10861"><ele>863.0</ele></trkpt>
      <trkpt lat="35.31483" lon="-118.10856"><ele>863.0</ele></trkpt>
      <trkpt lat="35.31481" lon="-118.10854"><ele>862.0</ele></trkpt>
      <trkpt lat="35.31475" lon="-118.10847"><ele>862.0</ele></trkpt>
      <trkpt lat="35.31470" lon="-118.10839"><ele>862.0</ele></trkpt>
      <trkpt lat="35.31465" lon="-118.10831"><ele>862.0</ele></trkpt>
      <trkpt lat="35.31461" lon="-118.10823"><ele>862.0</ele></trkpt>
      <trkpt lat="35.31457" lon="-118.10815"><ele>862.0</ele></trkpt>
      <trkpt lat="35.31454" lon="-118.10807"><ele>862.0</ele></trkpt>
      <trkpt lat="35.31451" lon="-118.10798"><ele>862.0</ele></trkpt>
      <trkpt lat="35.31449" lon="-118.10790"><ele>862.0</ele></trkpt>
      <trkpt lat="35.31447" lon="-118.10786"><ele>862.0</ele></trkpt>
      <trkpt lat="35.31446" lon="-118.10781"><ele>856.0</ele></trkpt>
      <trkpt lat="35.31442" lon="-118.10773"><ele>856.0</ele></trkpt>
      <trkpt lat="35.31438" lon="-118.10766"><ele>856.0</ele></trkpt>
      <trkpt lat="35.31435" lon="-118.10758"><ele>856.0</ele></trkpt>
      <trkpt lat="35.31431" lon="-118.10751"><ele>856.0</ele></trkpt>
      <trkpt lat="35.31427" lon="-118.10744"><ele>856.0</ele></trkpt>
      <trkpt lat="35.31423" lon="-118.10737"><ele>856.0</ele></trkpt>
      <trkpt lat="35.31420" lon="-118.10730"><ele>856.0</ele></trkpt>
      <trkpt lat="35.31417" lon="-118.10722"><ele>856.0</ele></trkpt>
      <trkpt lat="35.31413" lon="-118.10715"><ele>855.0</ele></trkpt>
      <trkpt lat="35.31410" lon="-118.10707"><ele>855.0</ele></trkpt>
      <trkpt lat="35.31408" lon="-118.10699"><ele>855.0</ele></trkpt>
      <trkpt lat="35.31405" lon="-118.10691"><ele>855.0</ele></trkpt>
      <trkpt lat="35.31403" lon="-118.10683"><ele>855.0</ele></trkpt>
      <trkpt lat="35.31400" lon="-118.10676"><ele>855.0</ele></trkpt>
      <trkpt lat="35.31398" lon="-118.10668"><ele>855.0</ele></trkpt>
      <trkpt lat="35.31395" lon="-118.10660"><ele>855.0</ele></trkpt>
      <trkpt lat="35.31393" lon="-118.10652"><ele>855.0</ele></trkpt>
      <trkpt lat="35.31390" lon="-118.10645"><ele>860.0</ele></trkpt>
      <trkpt lat="35.31387" lon="-118.10637"><ele>860.0</ele></trkpt>
      <trkpt lat="35.31384" lon="-118.10630"><ele>860.0</ele></trkpt>
      <trkpt lat="35.31381" lon="-118.10624"><ele>860.0</ele></trkpt>
      <trkpt lat="35.31377" lon="-118.10619"><ele>860.0</ele></trkpt>
      <trkpt lat="35.31373" lon="-118.10613"><ele>860.0</ele></trkpt>
      <trkpt lat="35.31368" lon="-118.10608"><ele>860.0</ele></trkpt>
      <trkpt lat="35.31363" lon="-118.10604"><ele>860.0</ele></trkpt>
      <trkpt lat="35.31358" lon="-118.10600"><ele>860.0</ele></trkpt>
      <trkpt lat="35.31353" lon="-118.10597"><ele>860.0</ele></trkpt>
      <trkpt lat="35.31348" lon="-118.10593"><ele>857.0</ele></trkpt>
      <trkpt lat="35.31342" lon="-118.10589"><ele>857.0</ele></trkpt>
      <trkpt lat="35.31336" lon="-118.10584"><ele>857.0</ele></trkpt>
      <trkpt lat="35.31330" lon="-118.10580"><ele>857.0</ele></trkpt>
      <trkpt lat="35.31323" lon="-118.10575"><ele>857.0</ele></trkpt>
      <trkpt lat="35.31318" lon="-118.10571"><ele>857.0</ele></trkpt>
      <trkpt lat="35.31312" lon="-118.10566"><ele>857.0</ele></trkpt>
      <trkpt lat="35.31306" lon="-118.10562"><ele>857.0</ele></trkpt>
      <trkpt lat="35.31300" lon="-118.10558"><ele>857.0</ele></trkpt>
      <trkpt lat="35.31298" lon="-118.10557"><ele>855.0</ele></trkpt>
      <trkpt lat="35.31293" lon="-118.10554"><ele>855.0</ele></trkpt>
      <trkpt lat="35.31287" lon="-118.10550"><ele>855.0</ele></trkpt>
      <trkpt lat="35.31282" lon="-118.10546"><ele>855.0</ele></trkpt>
      <trkpt lat="35.31276" lon="-118.10541"><ele>855.0</ele></trkpt>
      <trkpt lat="35.31270" lon="-118.10536"><ele>855.0</ele></trkpt>
      <trkpt lat="35.31265" lon="-118.10530"><ele>855.0</ele></trkpt>
      <trkpt lat="35.31261" lon="-118.10524"><ele>855.0</ele></trkpt>
      <trkpt lat="35.31256" lon="-118.10518"><ele>855.0</ele></trkpt>
      <trkpt lat="35.31252" lon="-118.10513"><ele>855.0</ele></trkpt>
      <trkpt lat="35.31247" lon="-118.10508"><ele>852.0</ele></trkpt>
      <trkpt lat="35.31242" lon="-118.10503"><ele>852.0</ele></trkpt>
      <trkpt lat="35.31237" lon="-118.10499"><ele>852.0</ele></trkpt>
      <trkpt lat="35.31232" lon="-118.10495"><ele>852.0</ele></trkpt>
      <trkpt lat="35.31228" lon="-118.10491"><ele>852.0</ele></trkpt>
      <trkpt lat="35.31222" lon="-118.10486"><ele>852.0</ele></trkpt>
      <trkpt lat="35.31217" lon="-118.10481"><ele>852.0</ele></trkpt>
      <trkpt lat="35.31212" lon="-118.10476"><ele>852.0</ele></trkpt>
      <trkpt lat="35.31207" lon="-118.10471"><ele>852.0</ele></trkpt>
      <trkpt lat="35.31203" lon="-118.10464"><ele>852.0</ele></trkpt>
      <trkpt lat="35.31199" lon="-118.10457"><ele>852.0</ele></trkpt>
      <trkpt lat="35.31195" lon="-118.10450"><ele>852.0</ele></trkpt>
      <trkpt lat="35.31190" lon="-118.10443"><ele>852.0</ele></trkpt>
      <trkpt lat="35.31187" lon="-118.10438"><ele>852.0</ele></trkpt>
      <trkpt lat="35.31186" lon="-118.10437"><ele>852.0</ele></trkpt>
      <trkpt lat="35.31181" lon="-118.10430"><ele>852.0</ele></trkpt>
      <trkpt lat="35.31177" lon="-118.10423"><ele>852.0</ele></trkpt>
      <trkpt lat="35.31172" lon="-118.10417"><ele>852.0</ele></trkpt>
      <trkpt lat="35.31167" lon="-118.10411"><ele>852.0</ele></trkpt>
      <trkpt lat="35.31162" lon="-118.10406"><ele>852.0</ele></trkpt>
      <trkpt lat="35.31156" lon="-118.10400"><ele>852.0</ele></trkpt>
      <trkpt lat="35.31151" lon="-118.10395"><ele>852.0</ele></trkpt>
      <trkpt lat="35.31146" lon="-118.10390"><ele>852.0</ele></trkpt>
      <trkpt lat="35.31140" lon="-118.10385"><ele>852.0</ele></trkpt>
      <trkpt lat="35.31140" lon="-118.10385"><ele>852.0</ele></trkpt>
      <trkpt lat="35.31134" lon="-118.10380"><ele>852.0</ele></trkpt>
      <trkpt lat="35.31128" lon="-118.10376"><ele>852.0</ele></trkpt>
      <trkpt lat="35.31122" lon="-118.10371"><ele>852.0</ele></trkpt>
      <trkpt lat="35.31115" lon="-118.10366"><ele>844.0</ele></trkpt>
      <trkpt lat="35.31109" lon="-118.10361"><ele>844.0</ele></trkpt>
      <trkpt lat="35.31102" lon="-118.10356"><ele>844.0</ele></trkpt>
      <trkpt lat="35.31096" lon="-118.10351"><ele>844.0</ele></trkpt>
      <trkpt lat="35.31090" lon="-118.10346"><ele>844.0</ele></trkpt>
      <trkpt lat="35.31083" lon="-118.10340"><ele>844.0</ele></trkpt>
      <trkpt lat="35.31077" lon="-118.10334"><ele>844.0</ele></trkpt>
      <trkpt lat="35.31071" lon="-118.10328"><ele>844.0</ele></trkpt>
      <trkpt lat="35.31065" lon="-118.10322"><ele>844.0</ele></trkpt>
      <trkpt lat="35.31060" lon="-118.10315"><ele>843.0</ele></trkpt>
      <trkpt lat="35.31059" lon="-118.10314"><ele>843.0</ele></trkpt>
      <trkpt lat="35.31054" lon="-118.10308"><ele>843.0</ele></trkpt>
      <trkpt lat="35.31049" lon="-118.10301"><ele>843.0</ele></trkpt>
      <trkpt lat="35.31044" lon="-118.10294"><ele>843.0</ele></trkpt>
      <trkpt lat="35.31039" lon="-118.10288"><ele>843.0</ele></trkpt>
      <trkpt lat="35.31034" lon="-118.10282"><ele>843.0</ele></trkpt>
      <trkpt lat="35.31028" lon="-118.10276"><ele>843.0</ele></trkpt>
      <trkpt lat="35.31022" lon="-118.10271"><ele>843.0</ele></trkpt>
      <trkpt lat="35.31016" lon="-118.10265"><ele>843.0</ele></trkpt>
      <trkpt lat="35.31011" lon="-118.10259"><ele>838.0</ele></trkpt>
      <trkpt lat="35.31008" lon="-118.10251"><ele>838.0</ele></trkpt>
      <trkpt lat="35.31006" lon="-118.10242"><ele>838.0</ele></trkpt>
      <trkpt lat="35.31005" lon="-118.10233"><ele>838.0</ele></trkpt>
      <trkpt lat="35.31004" lon="-118.10224"><ele>838.0</ele></trkpt>
      <trkpt lat="35.31002" lon="-118.10215"><ele>838.0</ele></trkpt>
      <trkpt lat="35.31000" lon="-118.10206"><ele>838.0</ele></trkpt>
      <trkpt lat="35.30998" lon="-118.10197"><ele>838.0</ele></trkpt>
      <trkpt lat="35.30995" lon="-118.10188"><ele>838.0</ele></trkpt>
      <trkpt lat="35.30991" lon="-118.10179"><ele>836.0</ele></trkpt>
      <trkpt lat="35.30988" lon="-118.10170"><ele>836.0</ele></trkpt>
      <trkpt lat="35.30985" lon="-118.10162"><ele>836.0</ele></trkpt>
      <trkpt lat="35.30981" lon="-118.10154"><ele>836.0</ele></trkpt>
      <trkpt lat="35.30977" lon="-118.10147"><ele>836.0</ele></trkpt>
      <trkpt lat="35.30974" lon="-118.10139"><ele>836.0</ele></trkpt>
      <trkpt lat="35.30970" lon="-118.10132"><ele>836.0</ele></trkpt>
      <trkpt lat="35.30967" lon="-118.10125"><ele>836.0</ele></trkpt>
      <trkpt lat="35.30963" lon="-118.10117"><ele>836.0</ele></trkpt>
      <trkpt lat="35.30960" lon="-118.10109"><ele>834.0</ele></trkpt>
      <trkpt lat="35.30956" lon="-118.10101"><ele>834.0</ele></trkpt>
      <trkpt lat="35.30952" lon="-118.10093"><ele>834.0</ele></trkpt>
      <trkpt lat="35.30949" lon="-118.10085"><ele>834.0</ele></trkpt>
      <trkpt lat="35.30945" lon="-118.10076"><ele>834.0</ele></trkpt>
      <trkpt lat="35.30941" lon="-118.10068"><ele>834.0</ele></trkpt>
      <trkpt lat="35.30938" lon="-118.10060"><ele>834.0</ele></trkpt>
      <trkpt lat="35.30934" lon="-118.10051"><ele>834.0</ele></trkpt>
      <trkpt lat="35.30931" lon="-118.10043"><ele>834.0</ele></trkpt>
      <trkpt lat="35.30928" lon="-118.10034"><ele>834.0</ele></trkpt>
      <trkpt lat="35.30926" lon="-118.10028"><ele>833.0</ele></trkpt>
      <trkpt lat="35.30924" lon="-118.10025"><ele>833.0</ele></trkpt>
      <trkpt lat="35.30922" lon="-118.10016"><ele>833.0</ele></trkpt>
      <trkpt lat="35.30919" lon="-118.10008"><ele>833.0</ele></trkpt>
      <trkpt lat="35.30917" lon="-118.09999"><ele>833.0</ele></trkpt>
      <trkpt lat="35.30915" lon="-118.09990"><ele>833.0</ele></trkpt>
      <trkpt lat="35.30914" lon="-118.09981"><ele>833.0</ele></trkpt>
      <trkpt lat="35.30913" lon="-118.09973"><ele>833.0</ele></trkpt>
      <trkpt lat="35.30913" lon="-118.09965"><ele>833.0</ele></trkpt>
      <trkpt lat="35.30912" lon="-118.09957"><ele>829.0</ele></trkpt>
      <trkpt lat="35.30911" lon="-118.09949"><ele>829.0</ele></trkpt>
      <trkpt lat="35.30910" lon="-118.09942"><ele>829.0</ele></trkpt>
      <trkpt lat="35.30909" lon="-118.09936"><ele>829.0</ele></trkpt>
      <trkpt lat="35.30908" lon="-118.09929"><ele>829.0</ele></trkpt>
      <trkpt lat="35.30908" lon="-118.09923"><ele>829.0</ele></trkpt>
      <trkpt lat="35.30907" lon="-118.09922"><ele>829.0</ele></trkpt>
      <trkpt lat="35.30907" lon="-118.09918"><ele>829.0</ele></trkpt>
      <trkpt lat="35.30906" lon="-118.09914"><ele>829.0</ele></trkpt>
      <trkpt lat="35.30906" lon="-118.09911"><ele>829.0</ele></trkpt>
      <trkpt lat="35.30906" lon="-118.09908"><ele>829.0</ele></trkpt>
      <trkpt lat="35.30905" lon="-118.09906"><ele>829.0</ele></trkpt>
      <trkpt lat="35.30905" lon="-118.09904"><ele>829.0</ele></trkpt>
      <trkpt lat="35.30905" lon="-118.09903"><ele>829.0</ele></trkpt>
      <trkpt lat="35.30904" lon="-118.09901"><ele>829.0</ele></trkpt>
      <trkpt lat="35.30904" lon="-118.09898"><ele>829.0</ele></trkpt>
      <trkpt lat="35.30904" lon="-118.09894"><ele>829.0</ele></trkpt>
      <trkpt lat="35.30904" lon="-118.09888"><ele>829.0</ele></trkpt>
      <trkpt lat="35.30904" lon="-118.09882"><ele>829.0</ele></trkpt>
      <trkpt lat="35.30905" lon="-118.09875"><ele>830.0</ele></trkpt>
      <trkpt lat="35.30907" lon="-118.09871"><ele>830.0</ele></trkpt>
      <trkpt lat="35.30908" lon="-118.09867"><ele>830.0</ele></trkpt>
      <trkpt lat="35.30912" lon="-118.09857"><ele>830.0</ele></trkpt>
      <trkpt lat="35.30916" lon="-118.09848"><ele>830.0</ele></trkpt>
      <trkpt lat="35.30921" lon="-118.09838"><ele>830.0</ele></trkpt>
      <trkpt lat="35.30927" lon="-118.09826"><ele>830.0</ele></trkpt>
      <trkpt lat="35.30933" lon="-118.09814"><ele>830.0</ele></trkpt>
      <trkpt lat="35.30939" lon="-118.09801"><ele>830.0</ele></trkpt>
      <trkpt lat="35.30945" lon="-118.09787"><ele>827.0</ele></trkpt>
      <trkpt lat="35.30951" lon="-118.09773"><ele>827.0</ele></trkpt>
      <trkpt lat="35.30956" lon="-118.09759"><ele>827.0</ele></trkpt>
      <trkpt lat="35.30961" lon="-118.09745"><ele>827.0</ele></trkpt>
      <trkpt lat="35.30965" lon="-118.09732"><ele>827.0</ele></trkpt>
      <trkpt lat="35.30970" lon="-118.09719"><ele>827.0</ele></trkpt>
      <trkpt lat="35.30974" lon="-118.09706"><ele>827.0</ele></trkpt>
      <trkpt lat="35.30978" lon="-118.09693"><ele>827.0</ele></trkpt>
      <trkpt lat="35.30982" lon="-118.09680"><ele>827.0</ele></trkpt>
      <trkpt lat="35.30987" lon="-118.09667"><ele>827.0</ele></trkpt>
      <trkpt lat="35.30992" lon="-118.09654"><ele>824.0</ele></trkpt>
      <trkpt lat="35.30997" lon="-118.09641"><ele>824.0</ele></trkpt>
      <trkpt lat="35.31002" lon="-118.09628"><ele>824.0</ele></trkpt>
      <trkpt lat="35.31008" lon="-118.09615"><ele>824.0</ele></trkpt>
      <trkpt lat="35.31014" lon="-118.09603"><ele>824.0</ele></trkpt>
      <trkpt lat="35.31020" lon="-118.09590"><ele>824.0</ele></trkpt>
      <trkpt lat="35.31026" lon="-118.09577"><ele>824.0</ele></trkpt>
      <trkpt lat="35.31032" lon="-118.09565"><ele>824.0</ele></trkpt>
      <trkpt lat="35.31039" lon="-118.09552"><ele>824.0</ele></trkpt>
      <trkpt lat="35.31045" lon="-118.09539"><ele>822.0</ele></trkpt>
      <trkpt lat="35.31051" lon="-118.09526"><ele>822.0</ele></trkpt>
      <trkpt lat="35.31057" lon="-118.09513"><ele>822.0</ele></trkpt>
      <trkpt lat="35.31064" lon="-118.09500"><ele>822.0</ele></trkpt>
      <trkpt lat="35.31071" lon="-118.09486"><ele>822.0</ele></trkpt>
      <trkpt lat="35.31077" lon="-118.09472"><ele>822.0</ele></trkpt>
      <trkpt lat="35.31084" lon="-118.09458"><ele>822.0</ele></trkpt>
      <trkpt lat="35.31091" lon="-118.09444"><ele>822.0</ele></trkpt>
      <trkpt lat="35.31097" lon="-118.09430"><ele>822.0</ele></trkpt>
      <trkpt lat="35.31104" lon="-118.09417"><ele>822.0</ele></trkpt>
      <trkpt lat="35.31110" lon="-118.09404"><ele>822.0</ele></trkpt>
      <trkpt lat="35.31116" lon="-118.09392"><ele>822.0</ele></trkpt>
      <trkpt lat="35.31123" lon="-118.09379"><ele>822.0</ele></trkpt>
      <trkpt lat="35.31129" lon="-118.09367"><ele>822.0</ele></trkpt>
      <trkpt lat="35.31135" lon="-118.09356"><ele>822.0</ele></trkpt>
      <trkpt lat="35.31142" lon="-118.09344"><ele>822.0</ele></trkpt>
      <trkpt lat="35.31148" lon="-118.09333"><ele>822.0</ele></trkpt>
      <trkpt lat="35.31156" lon="-118.09323"><ele>822.0</ele></trkpt>
      <trkpt lat="35.31163" lon="-118.09313"><ele>822.0</ele></trkpt>
      <trkpt lat="35.31170" lon="-118.09304"><ele>817.0</ele></trkpt>
      <trkpt lat="35.31178" lon="-118.09295"><ele>817.0</ele></trkpt>
      <trkpt lat="35.31185" lon="-118.09287"><ele>817.0</ele></trkpt>
      <trkpt lat="35.31192" lon="-118.09278"><ele>817.0</ele></trkpt>
      <trkpt lat="35.31200" lon="-118.09270"><ele>817.0</ele></trkpt>
      <trkpt lat="35.31207" lon="-118.09261"><ele>817.0</ele></trkpt>
      <trkpt lat="35.31215" lon="-118.09253"><ele>817.0</ele></trkpt>
      <trkpt lat="35.31222" lon="-118.09244"><ele>817.0</ele></trkpt>
      <trkpt lat="35.31229" lon="-118.09234"><ele>817.0</ele></trkpt>
      <trkpt lat="35.31237" lon="-118.09225"><ele>814.0</ele></trkpt>
      <trkpt lat="35.31244" lon="-118.09216"><ele>814.0</ele></trkpt>
      <trkpt lat="35.31251" lon="-118.09206"><ele>814.0</ele></trkpt>
      <trkpt lat="35.31258" lon="-118.09196"><ele>814.0</ele></trkpt>
      <trkpt lat="35.31266" lon="-118.09186"><ele>814.0</ele></trkpt>
      <trkpt lat="35.31268" lon="-118.09182"><ele>814.0</ele></trkpt>
      <trkpt lat="35.31273" lon="-118.09176"><ele>814.0</ele></trkpt>
    </trkseg>
    <trkseg>
      <trkpt lat="35.37014" lon="-118.14540"><ele>814.0</ele></trkpt>
      <trkpt lat="35.37015" lon="-118.14540"><ele>814.0</ele></trkpt>
      <trkpt lat="35.37017" lon="-118.14529"><ele>1417.0</ele></trkpt>
      <trkpt lat="35.37019" lon="-118.14518"><ele>1417.0</ele></trkpt>
      <trkpt lat="35.37020" lon="-118.14508"><ele>1417.0</ele></trkpt>
      <trkpt lat="35.37022" lon="-118.14498"><ele>1417.0</ele></trkpt>
      <trkpt lat="35.37024" lon="-118.14488"><ele>1417.0</ele></trkpt>
      <trkpt lat="35.37026" lon="-118.14478"><ele>1417.0</ele></trkpt>
      <trkpt lat="35.37028" lon="-118.14467"><ele>1417.0</ele></trkpt>
      <trkpt lat="35.37029" lon="-118.14457"><ele>1417.0</ele></trkpt>
      <trkpt lat="35.37031" lon="-118.14446"><ele>1417.0</ele></trkpt>
      <trkpt lat="35.37033" lon="-118.14435"><ele>1417.0</ele></trkpt>
      <trkpt lat="35.37035" lon="-118.14424"><ele>1421.0</ele></trkpt>
      <trkpt lat="35.37036" lon="-118.14413"><ele>1421.0</ele></trkpt>
      <trkpt lat="35.37038" lon="-118.14401"><ele>1421.0</ele></trkpt>
      <trkpt lat="35.37041" lon="-118.14390"><ele>1421.0</ele></trkpt>
      <trkpt lat="35.37043" lon="-118.14378"><ele>1421.0</ele></trkpt>
      <trkpt lat="35.37045" lon="-118.14367"><ele>1421.0</ele></trkpt>
      <trkpt lat="35.37047" lon="-118.14355"><ele>1421.0</ele></trkpt>
      <trkpt lat="35.37049" lon="-118.14344"><ele>1421.0</ele></trkpt>
      <trkpt lat="35.37051" lon="-118.14333"><ele>1421.0</ele></trkpt>
      <trkpt lat="35.37053" lon="-118.14321"><ele>1425.0</ele></trkpt>
      <trkpt lat="35.37054" lon="-118.14311"><ele>1425.0</ele></trkpt>
      <trkpt lat="35.37056" lon="-118.14300"><ele>1425.0</ele></trkpt>
      <trkpt lat="35.37058" lon="-118.14289"><ele>1425.0</ele></trkpt>
      <trkpt lat="35.37059" lon="-118.14279"><ele>1425.0</ele></trkpt>
      <trkpt lat="35.37061" lon="-118.14269"><ele>1425.0</ele></trkpt>
      <trkpt lat="35.37062" lon="-118.14259"><ele>1425.0</ele></trkpt>
      <trkpt lat="35.37063" lon="-118.14250"><ele>1425.0</ele></trkpt>
      <trkpt lat="35.37064" lon="-118.14241"><ele>1425.0</ele></trkpt>
      <trkpt lat="35.37065" lon="-118.14232"><ele>1425.0</ele></trkpt>
      <trkpt lat="35.37067" lon="-118.14223"><ele>1430.0</ele></trkpt>
      <trkpt lat="35.37068" lon="-118.14215"><ele>1430.0</ele></trkpt>
      <trkpt lat="35.37069" lon="-118.14206"><ele>1430.0</ele></trkpt>
      <trkpt lat="35.37071" lon="-118.14197"><ele>1430.0</ele></trkpt>
      <trkpt lat="35.37074" lon="-118.14189"><ele>1430.0</ele></trkpt>
      <trkpt lat="35.37078" lon="-118.14182"><ele>1430.0</ele></trkpt>
      <trkpt lat="35.37082" lon="-118.14177"><ele>1430.0</ele></trkpt>
      <trkpt lat="35.37087" lon="-118.14172"><ele>1430.0</ele></trkpt>
      <trkpt lat="35.37093" lon="-118.14168"><ele>1430.0</ele></trkpt>
      <trkpt lat="35.37099" lon="-118.14165"><ele>1428.0</ele></trkpt>
      <trkpt lat="35.37106" lon="-118.14163"><ele>1428.0</ele></trkpt>
      <trkpt lat="35.37113" lon="-118.14161"><ele>1428.0</ele></trkpt>
      <trkpt lat="35.37120" lon="-118.14158"><ele>1428.0</ele></trkpt>
      <trkpt lat="35.37127" lon="-118.14156"><ele>1428.0</ele></trkpt>
      <trkpt lat="35.37133" lon="-118.14154"><ele>1428.0</ele></trkpt>
      <trkpt lat="35.37138" lon="-118.14152"><ele>1428.0</ele></trkpt>
      <trkpt lat="35.37144" lon="-118.14149"><ele>1428.0</ele></trkpt>
      <trkpt lat="35.37149" lon="-118.14146"><ele>1428.0</ele></trkpt>
      <trkpt lat="35.37155" lon="-118.14143"><ele>1419.0</ele></trkpt>
      <trkpt lat="35.37160" lon="-118.14140"><ele>1419.0</ele></trkpt>
      <trkpt lat="35.37164" lon="-118.14136"><ele>1419.0</ele></trkpt>
      <trkpt lat="35.37170" lon="-118.14133"><ele>1419.0</ele></trkpt>
      <trkpt lat="35.37175" lon="-118.14130"><ele>1419.0</ele></trkpt>
      <trkpt lat="35.37181" lon="-118.14127"><ele>1419.0</ele></trkpt>
      <trkpt lat="35.37187" lon="-118.14126"><ele>1419.0</ele></trkpt>
      <trkpt lat="35.37193" lon="-118.14127"><ele>1419.0</ele></trkpt>
      <trkpt lat="35.37200" lon="-118.14129"><ele>1419.0</ele></trkpt>
      <trkpt lat="35.37206" lon="-118.14133"><ele>1419.0</ele></trkpt>
      <trkpt lat="35.37212" lon="-118.14138"><ele>1413.0</ele></trkpt>
      <trkpt lat="35.37217" lon="-118.14144"><ele>1413.0</ele></trkpt>
      <trkpt lat="35.37222" lon="-118.14151"><ele>1413.0</ele></trkpt>
      <trkpt lat="35.37227" lon="-118.14158"><ele>1413.0</ele></trkpt>
      <trkpt lat="35.37233" lon="-118.14165"><ele>1413.0</ele></trkpt>
      <trkpt lat="35.37239" lon="-118.14172"><ele>1413.0</ele></trkpt>
      <trkpt lat="35.37245" lon="-118.14178"><ele>1413.0</ele></trkpt>
      <trkpt lat="35.37252" lon="-118.14184"><ele>1413.0</ele></trkpt>
      <trkpt lat="35.37260" lon="-118.14190"><ele>1413.0</ele></trkpt>
      <trkpt lat="35.37266" lon="-118.14196"><ele>1410.0</ele></trkpt>
      <trkpt lat="35.37272" lon="-118.14202"><ele>1410.0</ele></trkpt>
      <trkpt lat="35.37277" lon="-118.14208"><ele>1410.0</ele></trkpt>
      <trkpt lat="35.37282" lon="-118.14214"><ele>1410.0</ele></trkpt>
      <trkpt lat="35.37288" lon="-118.14221"><ele>1410.0</ele></trkpt>
      <trkpt lat="35.37294" lon="-118.14227"><ele>1410.0</ele></trkpt>
      <trkpt lat="35.37302" lon="-118.14232"><ele>1410.0</ele></trkpt>
      <trkpt lat="35.37310" lon="-118.14235"><ele>1410.0</ele></trkpt>
      <trkpt lat="35.37318" lon="-118.14237"><ele>1410.0</ele></trkpt>
      <trkpt lat="35.37326" lon="-118.14239"><ele>1410.0</ele></trkpt>
      <trkpt lat="35.37334" lon="-118.14240"><ele>1402.0</ele></trkpt>
      <trkpt lat="35.37343" lon="-118.14241"><ele>1402.0</ele></trkpt>
      <trkpt lat="35.37351" lon="-118.14243"><ele>1402.0</ele></trkpt>
      <trkpt lat="35.37360" lon="-118.14245"><ele>1402.0</ele></trkpt>
      <trkpt lat="35.37369" lon="-118.14248"><ele>1402.0</ele></trkpt>
      <trkpt lat="35.37376" lon="-118.14252"><ele>1402.0</ele></trkpt>
      <trkpt lat="35.37383" lon="-118.14256"><ele>1402.0</ele></trkpt>
      <trkpt lat="35.37389" lon="-118.14260"><ele>1402.0</ele></trkpt>
      <trkpt lat="35.37394" lon="-118.14264"><ele>1402.0</ele></trkpt>
      <trkpt lat="35.37400" lon="-118.14268"><ele>1401.0</ele></trkpt>
      <trkpt lat="35.37405" lon="-118.14271"><ele>1401.0</ele></trkpt>
      <trkpt lat="35.37411" lon="-118.14275"><ele>1401.0</ele></trkpt>
      <trkpt lat="35.37416" lon="-118.14277"><ele>1401.0</ele></trkpt>
      <trkpt lat="35.37422" lon="-118.14278"><ele>1401.0</ele></trkpt>
      <trkpt lat="35.37427" lon="-118.14277"><ele>1401.0</ele></trkpt>
      <trkpt lat="35.37433" lon="-118.14274"><ele>1401.0</ele></trkpt>
      <trkpt lat="35.37437" lon="-118.14269"><ele>1401.0</ele></trkpt>
      <trkpt lat="35.37440" lon="-118.14263"><ele>1401.0</ele></trkpt>
      <trkpt lat="35.37442" lon="-118.14255"><ele>1400.0</ele></trkpt>
      <trkpt lat="35.37443" lon="-118.14247"><ele>1400.0</ele></trkpt>
      <trkpt lat="35.37444" lon="-118.14238"><ele>1400.0</ele></trkpt>
      <trkpt lat="35.37444" lon="-118.14229"><ele>1400.0</ele></trkpt>
      <trkpt lat="35.37444" lon="-118.14220"><ele>1400.0</ele></trkpt>
      <trkpt lat="35.37444" lon="-118.14211"><ele>1400.0</ele></trkpt>
      <trkpt lat="35.37445" lon="-118.14201"><ele>1400.0</ele></trkpt>
      <trkpt lat="35.37444" lon="-118.14191"><ele>1400.0</ele></trkpt>
      <trkpt lat="35.37444" lon="-118.14180"><ele>1400.0</ele></trkpt>
      <trkpt lat="35.37443" lon="-118.14169"><ele>1400.0</ele></trkpt>
      <trkpt lat="35.37442" lon="-118.14158"><ele>1385.0</ele></trkpt>
      <trkpt lat="35.37441" lon="-118.14146"><ele>1385.0</ele></trkpt>
      <trkpt lat="35.37440" lon="-118.14135"><ele>1385.0</ele></trkpt>
      <trkpt lat="35.37438" lon="-118.14124"><ele>1385.0</ele></trkpt>
      <trkpt lat="35.37435" lon="-118.14112"><ele>1385.0</ele></trkpt>
      <trkpt lat="35.37432" lon="-118.14100"><ele>1385.0</ele></trkpt>
      <trkpt lat="35.37429" lon="-118.14088"><ele>1385.0</ele></trkpt>
      <trkpt lat="35.37426" lon="-118.14076"><ele>1385.0</ele></trkpt>
      <trkpt lat="35.37422" lon="-118.14064"><ele>1385.0</ele></trkpt>
      <trkpt lat="35.37418" lon="-118.14051"><ele>1373.0</ele></trkpt>
      <trkpt lat="35.37415" lon="-118.14037"><ele>1373.0</ele></trkpt>
      <trkpt lat="35.37413" lon="-118.14024"><ele>1373.0</ele></trkpt>
      <trkpt lat="35.37411" lon="-118.14011"><ele>1373.0</ele></trkpt>
      <trkpt lat="35.37410" lon="-118.13997"><ele>1373.0</ele></trkpt>
      <trkpt lat="35.37410" lon="-118.13983"><ele>1373.0</ele></trkpt>
      <trkpt lat="35.37410" lon="-118.13970"><ele>1373.0</ele></trkpt>
      <trkpt lat="35.37411" lon="-118.13956"><ele>1373.0</ele></trkpt>
      <trkpt lat="35.37411" lon="-118.13942"><ele>1373.0</ele></trkpt>
      <trkpt lat="35.37412" lon="-118.13928"><ele>1363.0</ele></trkpt>
      <trkpt lat="35.37413" lon="-118.13914"><ele>1363.0</ele></trkpt>
      <trkpt lat="35.37414" lon="-118.13900"><ele>1363.0</ele></trkpt>
      <trkpt lat="35.37415" lon="-118.13886"><ele>1363.0</ele></trkpt>
      <trkpt lat="35.37417" lon="-118.13871"><ele>1363.0</ele></trkpt>
      <trkpt lat="35.37419" lon="-118.13857"><ele>1363.0</ele></trkpt>
      <trkpt lat="35.37422" lon="-118.13844"><ele>1363.0</ele></trkpt>
      <trkpt lat="35.37425" lon="-118.13831"><ele>1363.0</ele></trkpt>
      <trkpt lat="35.37428" lon="-118.13818"><ele>1363.0</ele></trkpt>
      <trkpt lat="35.37432" lon="-118.13806"><ele>1363.0</ele></trkpt>
      <trkpt lat="35.37436" lon="-118.13793"><ele>1360.0</ele></trkpt>
      <trkpt lat="35.37441" lon="-118.13781"><ele>1360.0</ele></trkpt>
      <trkpt lat="35.37445" lon="-118.13769"><ele>1360.0</ele></trkpt>
      <trkpt lat="35.37448" lon="-118.13756"><ele>1360.0</ele></trkpt>
      <trkpt lat="35.37450" lon="-118.13744"><ele>1360.0</ele></trkpt>
      <trkpt lat="35.37454" lon="-118.13732"><ele>1360.0</ele></trkpt>
      <trkpt lat="35.37458" lon="-118.13720"><ele>1360.0</ele></trkpt>
      <trkpt lat="35.37462" lon="-118.13709"><ele>1360.0</ele></trkpt>
      <trkpt lat="35.37467" lon="-118.13697"><ele>1360.0</ele></trkpt>
      <trkpt lat="35.37472" lon="-118.13686"><ele>1356.0</ele></trkpt>
      <trkpt lat="35.37477" lon="-118.13674"><ele>1356.0</ele></trkpt>
      <trkpt lat="35.37482" lon="-118.13660"><ele>1356.0</ele></trkpt>
      <trkpt lat="35.37486" lon="-118.13647"><ele>1356.0</ele></trkpt>
      <trkpt lat="35.37488" lon="-118.13633"><ele>1356.0</ele></trkpt>
      <trkpt lat="35.37490" lon="-118.13620"><ele>1356.0</ele></trkpt>
      <trkpt lat="35.37491" lon="-118.13606"><ele>1356.0</ele></trkpt>
      <trkpt lat="35.37491" lon="-118.13593"><ele>1356.0</ele></trkpt>
      <trkpt lat="35.37490" lon="-118.13579"><ele>1356.0</ele></trkpt>
      <trkpt lat="35.37488" lon="-118.13565"><ele>1356.0</ele></trkpt>
      <trkpt lat="35.37487" lon="-118.13552"><ele>1349.0</ele></trkpt>
      <trkpt lat="35.37487" lon="-118.13538"><ele>1349.0</ele></trkpt>
      <trkpt lat="35.37488" lon="-118.13525"><ele>1349.0</ele></trkpt>
      <trkpt lat="35.37489" lon="-118.13513"><ele>1349.0</ele></trkpt>
      <trkpt lat="35.37490" lon="-118.13502"><ele>1349.0</ele></trkpt>
      <trkpt lat="35.37491" lon="-118.13491"><ele>1349.0</ele></trkpt>
      <trkpt lat="35.37491" lon="-118.13480"><ele>1349.0</ele></trkpt>
      <trkpt lat="35.37490" lon="-118.13470"><ele>1349.0</ele></trkpt>
      <trkpt lat="35.37489" lon="-118.13460"><ele>1349.0</ele></trkpt>
      <trkpt lat="35.37488" lon="-118.13449"><ele>1340.0</ele></trkpt>
      <trkpt lat="35.37486" lon="-118.13439"><ele>1340.0</ele></trkpt>
      <trkpt lat="35.37483" lon="-118.13429"><ele>1340.0</ele></trkpt>
      <trkpt lat="35.37481" lon="-118.13419"><ele>1340.0</ele></trkpt>
      <trkpt lat="35.37479" lon="-118.13408"><ele>1340.0</ele></trkpt>
      <trkpt lat="35.37477" lon="-118.13397"><ele>1340.0</ele></trkpt>
      <trkpt lat="35.37476" lon="-118.13386"><ele>1340.0</ele></trkpt>
      <trkpt lat="35.37475" lon="-118.13374"><ele>1340.0</ele></trkpt>
      <trkpt lat="35.37473" lon="-118.13362"><ele>1340.0</ele></trkpt>
      <trkpt lat="35.37472" lon="-118.13350"><ele>1328.0</ele></trkpt>
      <trkpt lat="35.37471" lon="-118.13338"><ele>1328.0</ele></trkpt>
      <trkpt lat="35.37470" lon="-118.13327"><ele>1328.0</ele></trkpt>
      <trkpt lat="35.37469" lon="-118.13316"><ele>1328.0</ele></trkpt>
      <trkpt lat="35.37468" lon="-118.13305"><ele>1328.0</ele></trkpt>
      <trkpt lat="35.37466" lon="-118.13294"><ele>1328.0</ele></trkpt>
      <trkpt lat="35.37465" lon="-118.13282"><ele>1328.0</ele></trkpt>
      <trkpt lat="35.37463" lon="-118.13271"><ele>1328.0</ele></trkpt>
      <trkpt lat="35.37461" lon="-118.13258"><ele>1328.0</ele></trkpt>
      <trkpt lat="35.37459" lon="-118.13245"><ele>1328.0</ele></trkpt>
      <trkpt lat="35.37457" lon="-118.13232"><ele>1315.0</ele></trkpt>
      <trkpt lat="35.37455" lon="-118.13218"><ele>1315.0</ele></trkpt>
      <trkpt lat="35.37453" lon="-118.13205"><ele>1315.0</ele></trkpt>
      <trkpt lat="35.37451" lon="-118.13192"><ele>1315.0</ele></trkpt>
      <trkpt lat="35.37449" lon="-118.13179"><ele>1315.0</ele></trkpt>
      <trkpt lat="35.37447" lon="-118.13166"><ele>1315.0</ele></trkpt>
      <trkpt lat="35.37445" lon="-118.13153"><ele>1315.0</ele></trkpt>
      <trkpt lat="35.37443" lon="-118.13139"><ele>1315.0</ele></trkpt>
      <trkpt lat="35.37440" lon="-118.13125"><ele>1315.0</ele></trkpt>
      <trkpt lat="35.37438" lon="-118.13111"><ele>1304.0</ele></trkpt>
      <trkpt lat="35.37436" lon="-118.13096"><ele>1304.0</ele></trkpt>
      <trkpt lat="35.37434" lon="-118.13081"><ele>1304.0</ele></trkpt>
      <trkpt lat="35.37431" lon="-118.13066"><ele>1304.0</ele></trkpt>
      <trkpt lat="35.37429" lon="-118.13052"><ele>1304.0</ele></trkpt>
      <trkpt lat="35.37427" lon="-118.13039"><ele>1304.0</ele></trkpt>
      <trkpt lat="35.37425" lon="-118.13027"><ele>1304.0</ele></trkpt>
      <trkpt lat="35.37423" lon="-118.13015"><ele>1304.0</ele></trkpt>
      <trkpt lat="35.37422" lon="-118.13005"><ele>1304.0</ele></trkpt>
      <trkpt lat="35.37420" lon="-118.12996"><ele>1304.0</ele></trkpt>
      <trkpt lat="35.37420" lon="-118.12988"><ele>1297.0</ele></trkpt>
      <trkpt lat="35.37419" lon="-118.12981"><ele>1297.0</ele></trkpt>
      <trkpt lat="35.37418" lon="-118.12975"><ele>1297.0</ele></trkpt>
      <trkpt lat="35.37418" lon="-118.12969"><ele>1297.0</ele></trkpt>
      <trkpt lat="35.37417" lon="-118.12962"><ele>1297.0</ele></trkpt>
      <trkpt lat="35.37416" lon="-118.12955"><ele>1297.0</ele></trkpt>
      <trkpt lat="35.37415" lon="-118.12947"><ele>1297.0</ele></trkpt>
      <trkpt lat="35.37414" lon="-118.12940"><ele>1297.0</ele></trkpt>
      <trkpt lat="35.37412" lon="-118.12933"><ele>1297.0</ele></trkpt>
      <trkpt lat="35.37411" lon="-118.12925"><ele>1293.0</ele></trkpt>
      <trkpt lat="35.37409" lon="-118.12917"><ele>1293.0</ele></trkpt>
      <trkpt lat="35.37408" lon="-118.12908"><ele>1293.0</ele></trkpt>
      <trkpt lat="35.37406" lon="-118.12899"><ele>1293.0</ele></trkpt>
      <trkpt lat="35.37404" lon="-118.12890"><ele>1293.0</ele></trkpt>
      <trkpt lat="35.37403" lon="-118.12881"><ele>1293.0</ele></trkpt>
      <trkpt lat="35.37401" lon="-118.12871"><ele>1293.0</ele></trkpt>
      <trkpt lat="35.37399" lon="-118.12862"><ele>1293.0</ele></trkpt>
      <trkpt lat="35.37397" lon="-118.12852"><ele>1293.0</ele></trkpt>
      <trkpt lat="35.37396" lon="-118.12841"><ele>1288.0</ele></trkpt>
      <trkpt lat="35.37396" lon="-118.12830"><ele>1288.0</ele></trkpt>
      <trkpt lat="35.37396" lon="-118.12818"><ele>1288.0</ele></trkpt>
      <trkpt lat="35.37398" lon="-118.12806"><ele>1288.0</ele></trkpt>
      <trkpt lat="35.37400" lon="-118.12795"><ele>1288.0</ele></trkpt>
      <trkpt lat="35.37402" lon="-118.12783"><ele>1288.0</ele></trkpt>
      <trkpt lat="35.37406" lon="-118.12771"><ele>1288.0</ele></trkpt>
      <trkpt lat="35.37409" lon="-118.12760"><ele>1288.0</ele></trkpt>
      <trkpt lat="35.37412" lon="-118.12751"><ele>1288.0</ele></trkpt>
    </trkseg>
    <trkseg>
      <trkpt lat="35.38270" lon="-118.19934"><ele>1288.0</ele></trkpt>
      <trkpt lat="35.38271" lon="-118.19932"><ele>1272.0</ele></trkpt>
      <trkpt lat="35.38277" lon="-118.19920"><ele>1272.0</ele></trkpt>
      <trkpt lat="35.38283" lon="-118.19907"><ele>1272.0</ele></trkpt>
      <trkpt lat="35.38289" lon="-118.19895"><ele>1272.0</ele></trkpt>
      <trkpt lat="35.38294" lon="-118.19883"><ele>1272.0</ele></trkpt>
      <trkpt lat="35.38300" lon="-118.19870"><ele>1272.0</ele></trkpt>
      <trkpt lat="35.38306" lon="-118.19858"><ele>1272.0</ele></trkpt>
      <trkpt lat="35.38311" lon="-118.19846"><ele>1272.0</ele></trkpt>
      <trkpt lat="35.38316" lon="-118.19834"><ele>1272.0</ele></trkpt>
      <trkpt lat="35.38321" lon="-118.19822"><ele>1278.0</ele></trkpt>
      <trkpt lat="35.38326" lon="-118.19810"><ele>1278.0</ele></trkpt>
      <trkpt lat="35.38330" lon="-118.19798"><ele>1278.0</ele></trkpt>
      <trkpt lat="35.38334" lon="-118.19786"><ele>1278.0</ele></trkpt>
      <trkpt lat="35.38337" lon="-118.19775"><ele>1278.0</ele></trkpt>
      <trkpt lat="35.38341" lon="-118.19763"><ele>1278.0</ele></trkpt>
      <trkpt lat="35.38344" lon="-118.19751"><ele>1278.0</ele></trkpt>
      <trkpt lat="35.38347" lon="-118.19740"><ele>1278.0</ele></trkpt>
      <trkpt lat="35.38350" lon="-118.19728"><ele>1278.0</ele></trkpt>
      <trkpt lat="35.38352" lon="-118.19716"><ele>1283.0</ele></trkpt>
      <trkpt lat="35.38354" lon="-118.19704"><ele>1283.0</ele></trkpt>
      <trkpt lat="35.38364" lon="-118.19628"><ele>1283.0</ele></trkpt>
      <trkpt lat="35.38364" lon="-118.19625"><ele>1283.0</ele></trkpt>
      <trkpt lat="35.38364" lon="-118.19622"><ele>1283.0</ele></trkpt>
      <trkpt lat="35.38365" lon="-118.19618"><ele>1283.0</ele></trkpt>
      <trkpt lat="35.38365" lon="-118.19613"><ele>1283.0</ele></trkpt>
      <trkpt lat="35.38366" lon="-118.19607"><ele>1283.0</ele></trkpt>
      <trkpt lat="35.38366" lon="-118.19601"><ele>1283.0</ele></trkpt>
      <trkpt lat="35.38367" lon="-118.19594"><ele>1283.0</ele></trkpt>
      <trkpt lat="35.38368" lon="-118.19585"><ele>1286.0</ele></trkpt>
      <trkpt lat="35.38368" lon="-118.19576"><ele>1286.0</ele></trkpt>
      <trkpt lat="35.38369" lon="-118.19567"><ele>1286.0</ele></trkpt>
      <trkpt lat="35.38370" lon="-118.19556"><ele>1286.0</ele></trkpt>
      <trkpt lat="35.38370" lon="-118.19545"><ele>1286.0</ele></trkpt>
      <trkpt lat="35.38371" lon="-118.19534"><ele>1286.0</ele></trkpt>
      <trkpt lat="35.38371" lon="-118.19522"><ele>1286.0</ele></trkpt>
      <trkpt lat="35.38371" lon="-118.19510"><ele>1286.0</ele></trkpt>
      <trkpt lat="35.38371" lon="-118.19498"><ele>1286.0</ele></trkpt>
      <trkpt lat="35.38372" lon="-118.19485"><ele>1290.0</ele></trkpt>
      <trkpt lat="35.38372" lon="-118.19472"><ele>1290.0</ele></trkpt>
      <trkpt lat="35.38372" lon="-118.19459"><ele>1290.0</ele></trkpt>
      <trkpt lat="35.38373" lon="-118.19446"><ele>1290.0</ele></trkpt>
      <trkpt lat="35.38373" lon="-118.19433"><ele>1290.0</ele></trkpt>
      <trkpt lat="35.38373" lon="-118.19420"><ele>1290.0</ele></trkpt>
      <trkpt lat="35.38374" lon="-118.19406"><ele>1290.0</ele></trkpt>
      <trkpt lat="35.38374" lon="-118.19393"><ele>1290.0</ele></trkpt>
      <trkpt lat="35.38374" lon="-118.19379"><ele>1290.0</ele></trkpt>
      <trkpt lat="35.38374" lon="-118.19365"><ele>1290.0</ele></trkpt>
      <trkpt lat="35.38374" lon="-118.19351"><ele>1296.0</ele></trkpt>
      <trkpt lat="35.38375" lon="-118.19337"><ele>1296.0</ele></trkpt>
      <trkpt lat="35.38375" lon="-118.19323"><ele>1296.0</ele></trkpt>
      <trkpt lat="35.38375" lon="-118.19309"><ele>1296.0</ele></trkpt>
      <trkpt lat="35.38374" lon="-118.19296"><ele>1296.0</ele></trkpt>
      <trkpt lat="35.38374" lon="-118.19282"><ele>1296.0</ele></trkpt>
      <trkpt lat="35.38374" lon="-118.19269"><ele>1296.0</ele></trkpt>
      <trkpt lat="35.38374" lon="-118.19255"><ele>1296.0</ele></trkpt>
      <trkpt lat="35.38375" lon="-118.19241"><ele>1296.0</ele></trkpt>
      <trkpt lat="35.38376" lon="-118.19227"><ele>1302.0</ele></trkpt>
      <trkpt lat="35.38377" lon="-118.19213"><ele>1302.0</ele></trkpt>
      <trkpt lat="35.38379" lon="-118.19199"><ele>1302.0</ele></trkpt>
      <trkpt lat="35.38382" lon="-118.19185"><ele>1302.0</ele></trkpt>
      <trkpt lat="35.38385" lon="-118.19170"><ele>1302.0</ele></trkpt>
      <trkpt lat="35.38388" lon="-118.19156"><ele>1302.0</ele></trkpt>
      <trkpt lat="35.38391" lon="-118.19141"><ele>1302.0</ele></trkpt>
      <trkpt lat="35.38395" lon="-118.19127"><ele>1302.0</ele></trkpt>
      <trkpt lat="35.38400" lon="-118.19112"><ele>1302.0</ele></trkpt>
      <trkpt lat="35.38404" lon="-118.19097"><ele>1308.0</ele></trkpt>
      <trkpt lat="35.38408" lon="-118.19083"><ele>1308.0</ele></trkpt>
      <trkpt lat="35.38413" lon="-118.19068"><ele>1308.0</ele></trkpt>
      <trkpt lat="35.38417" lon="-118.19053"><ele>1308.0</ele></trkpt>
      <trkpt lat="35.38421" lon="-118.19038"><ele>1308.0</ele></trkpt>
      <trkpt lat="35.38425" lon="-118.19024"><ele>1308.0</ele></trkpt>
      <trkpt lat="35.38429" lon="-118.19009"><ele>1308.0</ele></trkpt>
      <trkpt lat="35.38432" lon="-118.18994"><ele>1308.0</ele></trkpt>
      <trkpt lat="35.38436" lon="-118.18979"><ele>1308.0</ele></trkpt>
      <trkpt lat="35.38439" lon="-118.18964"><ele>1308.0</ele></trkpt>
      <trkpt lat="35.38442" lon="-118.18949"><ele>1315.0</ele></trkpt>
      <trkpt lat="35.38445" lon="-118.18934"><ele>1315.0</ele></trkpt>
      <trkpt lat="35.38447" lon="-118.18919"><ele>1315.0</ele></trkpt>
      <trkpt lat="35.38448" lon="-118.18904"><ele>1315.0</ele></trkpt>
      <trkpt lat="35.38449" lon="-118.18889"><ele>1315.0</ele></trkpt>
      <trkpt lat="35.38449" lon="-118.18874"><ele>1315.0</ele></trkpt>
      <trkpt lat="35.38449" lon="-118.18859"><ele>1315.0</ele></trkpt>
      <trkpt lat="35.38448" lon="-118.18844"><ele>1315.0</ele></trkpt>
      <trkpt lat="35.38447" lon="-118.18829"><ele>1315.0</ele></trkpt>
      <trkpt lat="35.38445" lon="-118.18813"><ele>1319.0</ele></trkpt>
      <trkpt lat="35.38443" lon="-118.18797"><ele>1319.0</ele></trkpt>
      <trkpt lat="35.38441" lon="-118.18781"><ele>1319.0</ele></trkpt>
      <trkpt lat="35.38439" lon="-118.18765"><ele>1319.0</ele></trkpt>
      <trkpt lat="35.38438" lon="-118.18749"><ele>1319.0</ele></trkpt>
      <trkpt lat="35.38436" lon="-118.18734"><ele>1319.0</ele></trkpt>
      <trkpt lat="35.38434" lon="-118.18719"><ele>1319.0</ele></trkpt>
      <trkpt lat="35.38432" lon="-118.18704"><ele>1319.0</ele></trkpt>
      <trkpt lat="35.38429" lon="-118.18690"><ele>1319.0</ele></trkpt>
      <trkpt lat="35.38426" lon="-118.18677"><ele>1323.0</ele></trkpt>
      <trkpt lat="35.38422" lon="-118.18664"><ele>1323.0</ele></trkpt>
      <trkpt lat="35.38419" lon="-118.18652"><ele>1323.0</ele></trkpt>
      <trkpt lat="35.38415" lon="-118.18640"><ele>1323.0</ele></trkpt>
      <trkpt lat="35.38411" lon="-118.18628"><ele>1323.0</ele></trkpt>
      <trkpt lat="35.38407" lon="-118.18616"><ele>1323.0</ele></trkpt>
      <trkpt lat="35.38404" lon="-118.18604"><ele>1323.0</ele></trkpt>
      <trkpt lat="35.38400" lon="-118.18591"><ele>1323.0</ele></trkpt>
      <trkpt lat="35.38396" lon="-118.18578"><ele>1323.0</ele></trkpt>
      <trkpt lat="35.38393" lon="-118.18565"><ele>1323.0</ele></trkpt>
      <trkpt lat="35.38389" lon="-118.18552"><ele>1329.0</ele></trkpt>
      <trkpt lat="35.38386" lon="-118.18538"><ele>1329.0</ele></trkpt>
      <trkpt lat="35.38382" lon="-118.18524"><ele>1329.0</ele></trkpt>
      <trkpt lat="35.38379" lon="-118.18510"><ele>1329.0</ele></trkpt>
      <trkpt lat="35.38377" lon="-118.18495"><ele>1329.0</ele></trkpt>
      <trkpt lat="35.38374" lon="-118.18481"><ele>1329.0</ele></trkpt>
      <trkpt lat="35.38372" lon="-118.18467"><ele>1329.0</ele></trkpt>
      <trkpt lat="35.38371" lon="-118.18452"><ele>1329.0</ele></trkpt>
      <trkpt lat="35.38369" lon="-118.18438"><ele>1329.0</ele></trkpt>
      <trkpt lat="35.38368" lon="-118.18423"><ele>1337.0</ele></trkpt>
      <trkpt lat="35.38366" lon="-118.18407"><ele>1337.0</ele></trkpt>
      <trkpt lat="35.38365" lon="-118.18392"><ele>1337.0</ele></trkpt>
      <trkpt lat="35.38363" lon="-118.18376"><ele>1337.0</ele></trkpt>
      <trkpt lat="35.38361" lon="-118.18361"><ele>1337.0</ele></trkpt>
      <trkpt lat="35.38359" lon="-118.18348"><ele>1337.0</ele></trkpt>
      <trkpt lat="35.38357" lon="-118.18337"><ele>1337.0</ele></trkpt>
      <trkpt lat="35.38355" lon="-118.18326"><ele>1337.0</ele></trkpt>
      <trkpt lat="35.38354" lon="-118.18316"><ele>1337.0</ele></trkpt>
      <trkpt lat="35.38352" lon="-118.18306"><ele>1337.0</ele></trkpt>
      <trkpt lat="35.38350" lon="-118.18296"><ele>1340.0</ele></trkpt>
      <trkpt lat="35.38348" lon="-118.18287"><ele>1340.0</ele></trkpt>
      <trkpt lat="35.38346" lon="-118.18277"><ele>1340.0</ele></trkpt>
      <trkpt lat="35.38343" lon="-118.18267"><ele>1340.0</ele></trkpt>
      <trkpt lat="35.38341" lon="-118.18256"><ele>1340.0</ele></trkpt>
      <trkpt lat="35.38339" lon="-118.18245"><ele>1340.0</ele></trkpt>
      <trkpt lat="35.38337" lon="-118.18233"><ele>1340.0</ele></trkpt>
      <trkpt lat="35.38335" lon="-118.18222"><ele>1340.0</ele></trkpt>
      <trkpt lat="35.38333" lon="-118.18210"><ele>1340.0</ele></trkpt>
      <trkpt lat="35.38331" lon="-118.18199"><ele>1347.0</ele></trkpt>
      <trkpt lat="35.38329" lon="-118.18188"><ele>1347.0</ele></trkpt>
      <trkpt lat="35.38327" lon="-118.18176"><ele>1347.0</ele></trkpt>
      <trkpt lat="35.38325" lon="-118.18164"><ele>1347.0</ele></trkpt>
      <trkpt lat="35.38323" lon="-118.18154"><ele>1347.0</ele></trkpt>
    </trkseg>
  </trk>
  <trk><name>Jawbone Motorized Singletrack</name>
    <trkseg>
      <trkpt lat="35.25442" lon="-118.14301"><ele>1296.0</ele></trkpt>
      <trkpt lat="35.25423" lon="-118.14364"><ele>1296.0</ele></trkpt>
      <trkpt lat="35.25410" lon="-118.14410"><ele>1307.0</ele></trkpt>
      <trkpt lat="35.25380" lon="-118.14477"><ele>1307.0</ele></trkpt>
      <trkpt lat="35.25393" lon="-118.14494"><ele>1307.0</ele></trkpt>
      <trkpt lat="35.25406" lon="-118.14516"><ele>1308.0</ele></trkpt>
      <trkpt lat="35.25432" lon="-118.14555"><ele>1308.0</ele></trkpt>
      <trkpt lat="35.25453" lon="-118.14590"><ele>1318.0</ele></trkpt>
      <trkpt lat="35.25473" lon="-118.14614"><ele>1318.0</ele></trkpt>
      <trkpt lat="35.25510" lon="-118.14641"><ele>1318.0</ele></trkpt>
      <trkpt lat="35.25544" lon="-118.14663"><ele>1319.0</ele></trkpt>
      <trkpt lat="35.25564" lon="-118.14684"><ele>1319.0</ele></trkpt>
      <trkpt lat="35.25583" lon="-118.14705"><ele>1319.0</ele></trkpt>
      <trkpt lat="35.25597" lon="-118.14719"><ele>1318.0</ele></trkpt>
      <trkpt lat="35.25613" lon="-118.14739"><ele>1318.0</ele></trkpt>
      <trkpt lat="35.25625" lon="-118.14754"><ele>1324.0</ele></trkpt>
      <trkpt lat="35.25650" lon="-118.14766"><ele>1324.0</ele></trkpt>
      <trkpt lat="35.25681" lon="-118.14786"><ele>1324.0</ele></trkpt>
      <trkpt lat="35.25691" lon="-118.14796"><ele>1324.0</ele></trkpt>
      <trkpt lat="35.25704" lon="-118.14826"><ele>1324.0</ele></trkpt>
      <trkpt lat="35.25713" lon="-118.14851"><ele>1324.0</ele></trkpt>
      <trkpt lat="35.25723" lon="-118.14859"><ele>1323.0</ele></trkpt>
      <trkpt lat="35.25742" lon="-118.14864"><ele>1323.0</ele></trkpt>
      <trkpt lat="35.25769" lon="-118.14866"><ele>1323.0</ele></trkpt>
      <trkpt lat="35.25787" lon="-118.14872"><ele>1322.0</ele></trkpt>
      <trkpt lat="35.25797" lon="-118.14879"><ele>1322.0</ele></trkpt>
      <trkpt lat="35.25811" lon="-118.14890"><ele>1321.0</ele></trkpt>
      <trkpt lat="35.25829" lon="-118.14894"><ele>1321.0</ele></trkpt>
      <trkpt lat="35.25840" lon="-118.14898"><ele>1321.0</ele></trkpt>
      <trkpt lat="35.25850" lon="-118.14905"><ele>1317.0</ele></trkpt>
      <trkpt lat="35.25861" lon="-118.14920"><ele>1317.0</ele></trkpt>
      <trkpt lat="35.25871" lon="-118.14927"><ele>1317.0</ele></trkpt>
      <trkpt lat="35.25879" lon="-118.14928"><ele>1314.0</ele></trkpt>
      <trkpt lat="35.25891" lon="-118.14920"><ele>1314.0</ele></trkpt>
      <trkpt lat="35.25921" lon="-118.14898"><ele>1316.0</ele></trkpt>
      <trkpt lat="35.25936" lon="-118.14885"><ele>1316.0</ele></trkpt>
      <trkpt lat="35.25945" lon="-118.14881"><ele>1316.0</ele></trkpt>
      <trkpt lat="35.25956" lon="-118.14881"><ele>1317.0</ele></trkpt>
      <trkpt lat="35.25970" lon="-118.14884"><ele>1317.0</ele></trkpt>
      <trkpt lat="35.25981" lon="-118.14895"><ele>1317.0</ele></trkpt>
      <trkpt lat="35.25994" lon="-118.14914"><ele>1316.0</ele></trkpt>
      <trkpt lat="35.26104" lon="-118.14737"><ele>1316.0</ele></trkpt>
      <trkpt lat="35.26124" lon="-118.14704"><ele>1317.0</ele></trkpt>
      <trkpt lat="35.26134" lon="-118.14691"><ele>1317.0</ele></trkpt>
      <trkpt lat="35.26142" lon="-118.14686"><ele>1317.0</ele></trkpt>
      <trkpt lat="35.26161" lon="-118.14674"><ele>1323.0</ele></trkpt>
      <trkpt lat="35.26180" lon="-118.14665"><ele>1323.0</ele></trkpt>
      <trkpt lat="35.26214" lon="-118.14645"><ele>1323.0</ele></trkpt>
      <trkpt lat="35.26240" lon="-118.14627"><ele>1322.0</ele></trkpt>
      <trkpt lat="35.26261" lon="-118.14618"><ele>1322.0</ele></trkpt>
      <trkpt lat="35.26290" lon="-118.14604"><ele>1322.0</ele></trkpt>
      <trkpt lat="35.26325" lon="-118.14587"><ele>1318.0</ele></trkpt>
      <trkpt lat="35.26343" lon="-118.14580"><ele>1318.0</ele></trkpt>
      <trkpt lat="35.26352" lon="-118.14579"><ele>1317.0</ele></trkpt>
      <trkpt lat="35.26368" lon="-118.14581"><ele>1317.0</ele></trkpt>
      <trkpt lat="35.26378" lon="-118.14582"><ele>1317.0</ele></trkpt>
      <trkpt lat="35.26387" lon="-118.14579"><ele>1316.0</ele></trkpt>
      <trkpt lat="35.26400" lon="-118.14568"><ele>1316.0</ele></trkpt>
      <trkpt lat="35.26413" lon="-118.14550"><ele>1316.0</ele></trkpt>
      <trkpt lat="35.26422" lon="-118.14533"><ele>1318.0</ele></trkpt>
      <trkpt lat="35.26424" lon="-118.14528"><ele>1318.0</ele></trkpt>
      <trkpt lat="35.26433" lon="-118.14518"><ele>1319.0</ele></trkpt>
      <trkpt lat="35.26436" lon="-118.14500"><ele>1319.0</ele></trkpt>
      <trkpt lat="35.26442" lon="-118.14494"><ele>1319.0</ele></trkpt>
      <trkpt lat="35.26459" lon="-118.14484"><ele>1321.0</ele></trkpt>
      <trkpt lat="35.26464" lon="-118.14476"><ele>1321.0</ele></trkpt>
      <trkpt lat="35.26465" lon="-118.14469"><ele>1321.0</ele></trkpt>
      <trkpt lat="35.26475" lon="-118.14462"><ele>1322.0</ele></trkpt>
      <trkpt lat="35.26490" lon="-118.14455"><ele>1322.0</ele></trkpt>
      <trkpt lat="35.26506" lon="-118.14446"><ele>1325.0</ele></trkpt>
      <trkpt lat="35.26516" lon="-118.14437"><ele>1325.0</ele></trkpt>
      <trkpt lat="35.26528" lon="-118.14426"><ele>1325.0</ele></trkpt>
      <trkpt lat="35.26547" lon="-118.14429"><ele>1332.0</ele></trkpt>
      <trkpt lat="35.26575" lon="-118.14437"><ele>1332.0</ele></trkpt>
      <trkpt lat="35.26606" lon="-118.14454"><ele>1332.0</ele></trkpt>
      <trkpt lat="35.26635" lon="-118.14463"><ele>1333.0</ele></trkpt>
      <trkpt lat="35.26635" lon="-118.14463"><ele>1333.0</ele></trkpt>
      <trkpt lat="35.26652" lon="-118.14424"><ele>1333.0</ele></trkpt>
      <trkpt lat="35.26666" lon="-118.14393"><ele>1336.0</ele></trkpt>
      <trkpt lat="35.26672" lon="-118.14385"><ele>1336.0</ele></trkpt>
      <trkpt lat="35.26673" lon="-118.14371"><ele>1335.0</ele></trkpt>
      <trkpt lat="35.26677" lon="-118.14351"><ele>1335.0</ele></trkpt>
      <trkpt lat="35.26682" lon="-118.14322"><ele>1335.0</ele></trkpt>
      <trkpt lat="35.26682" lon="-118.14305"><ele>1333.0</ele></trkpt>
      <trkpt lat="35.26679" lon="-118.14293"><ele>1333.0</ele></trkpt>
      <trkpt lat="35.26673" lon="-118.14282"><ele>1333.0</ele></trkpt>
      <trkpt lat="35.26656" lon="-118.14265"><ele>1333.0</ele></trkpt>
      <trkpt lat="35.26635" lon="-118.14244"><ele>1333.0</ele></trkpt>
      <trkpt lat="35.26626" lon="-118.14226"><ele>1327.0</ele></trkpt>
      <trkpt lat="35.26625" lon="-118.14209"><ele>1327.0</ele></trkpt>
      <trkpt lat="35.26625" lon="-118.14191"><ele>1327.0</ele></trkpt>
      <trkpt lat="35.26625" lon="-118.14191"><ele>1324.0</ele></trkpt>
      <trkpt lat="35.26629" lon="-118.14175"><ele>1324.0</ele></trkpt>
      <trkpt lat="35.26631" lon="-118.14160"><ele>1324.0</ele></trkpt>
      <trkpt lat="35.26648" lon="-118.14136"><ele>1318.0</ele></trkpt>
      <trkpt lat="35.26656" lon="-118.14113"><ele>1318.0</ele></trkpt>
      <trkpt lat="35.26665" lon="-118.14087"><ele>1312.0</ele></trkpt>
      <trkpt lat="35.26672" lon="-118.14074"><ele>1312.0</ele></trkpt>
      <trkpt lat="35.26682" lon="-118.14069"><ele>1312.0</ele></trkpt>
      <trkpt lat="35.26694" lon="-118.14066"><ele>1306.0</ele></trkpt>
      <trkpt lat="35.26702" lon="-118.14064"><ele>1306.0</ele></trkpt>
      <trkpt lat="35.26713" lon="-118.14066"><ele>1306.0</ele></trkpt>
      <trkpt lat="35.26720" lon="-118.14065"><ele>1303.0</ele></trkpt>
      <trkpt lat="35.26735" lon="-118.14056"><ele>1303.0</ele></trkpt>
      <trkpt lat="35.26764" lon="-118.14031"><ele>1292.0</ele></trkpt>
      <trkpt lat="35.26793" lon="-118.14009"><ele>1292.0</ele></trkpt>
      <trkpt lat="35.26808" lon="-118.14003"><ele>1292.0</ele></trkpt>
      <trkpt lat="35.26822" lon="-118.14008"><ele>1287.0</ele></trkpt>
      <trkpt lat="35.26838" lon="-118.14013"><ele>1287.0</ele></trkpt>
      <trkpt lat="35.26851" lon="-118.14011"><ele>1287.0</ele></trkpt>
      <trkpt lat="35.26862" lon="-118.14006"><ele>1284.0</ele></trkpt>
      <trkpt lat="35.26888" lon="-118.13966"><ele>1284.0</ele></trkpt>
      <trkpt lat="35.26895" lon="-118.13946"><ele>1284.0</ele></trkpt>
      <trkpt lat="35.26901" lon="-118.13922"><ele>1281.0</ele></trkpt>
      <trkpt lat="35.26904" lon="-118.13879"><ele>1281.0</ele></trkpt>
      <trkpt lat="35.26904" lon="-118.13850"><ele>1274.0</ele></trkpt>
      <trkpt lat="35.26901" lon="-118.13830"><ele>1274.0</ele></trkpt>
      <trkpt lat="35.26894" lon="-118.13798"><ele>1274.0</ele></trkpt>
      <trkpt lat="35.26888" lon="-118.13764"><ele>1267.0</ele></trkpt>
      <trkpt lat="35.26880" lon="-118.13726"><ele>1267.0</ele></trkpt>
      <trkpt lat="35.26878" lon="-118.13699"><ele>1267.0</ele></trkpt>
      <trkpt lat="35.26873" lon="-118.13666"><ele>1260.0</ele></trkpt>
      <trkpt lat="35.26871" lon="-118.13635"><ele>1260.0</ele></trkpt>
      <trkpt lat="35.26861" lon="-118.13614"><ele>1255.0</ele></trkpt>
      <trkpt lat="35.26854" lon="-118.13601"><ele>1255.0</ele></trkpt>
      <trkpt lat="35.26853" lon="-118.13585"><ele>1255.0</ele></trkpt>
      <trkpt lat="35.26847" lon="-118.13571"><ele>1249.0</ele></trkpt>
      <trkpt lat="35.26839" lon="-118.13536"><ele>1249.0</ele></trkpt>
      <trkpt lat="35.26835" lon="-118.13516"><ele>1249.0</ele></trkpt>
      <trkpt lat="35.26832" lon="-118.13493"><ele>1246.0</ele></trkpt>
      <trkpt lat="35.26826" lon="-118.13472"><ele>1246.0</ele></trkpt>
      <trkpt lat="35.26813" lon="-118.13458"><ele>1247.0</ele></trkpt>
      <trkpt lat="35.26796" lon="-118.13443"><ele>1247.0</ele></trkpt>
      <trkpt lat="35.26785" lon="-118.13426"><ele>1247.0</ele></trkpt>
      <trkpt lat="35.26774" lon="-118.13398"><ele>1242.0</ele></trkpt>
      <trkpt lat="35.26776" lon="-118.13375"><ele>1242.0</ele></trkpt>
      <trkpt lat="35.26774" lon="-118.13347"><ele>1242.0</ele></trkpt>
      <trkpt lat="35.26769" lon="-118.13324"><ele>1236.0</ele></trkpt>
      <trkpt lat="35.26773" lon="-118.13318"><ele>1236.0</ele></trkpt>
      <trkpt lat="35.26784" lon="-118.13320"><ele>1236.0</ele></trkpt>
      <trkpt lat="35.26797" lon="-118.13332"><ele>1238.0</ele></trkpt>
      <trkpt lat="35.26809" lon="-118.13341"><ele>1238.0</ele></trkpt>
      <trkpt lat="35.26785" lon="-118.13426"><ele>1246.0</ele></trkpt>
      <trkpt lat="35.26798" lon="-118.13430"><ele>1246.0</ele></trkpt>
      <trkpt lat="35.26810" lon="-118.13432"><ele>1246.0</ele></trkpt>
      <trkpt lat="35.26815" lon="-118.13430"><ele>1244.0</ele></trkpt>
      <trkpt lat="35.26817" lon="-118.13429"><ele>1244.0</ele></trkpt>
      <trkpt lat="35.26817" lon="-118.13429"><ele>1244.0</ele></trkpt>
      <trkpt lat="35.26817" lon="-118.13420"><ele>1244.0</ele></trkpt>
      <trkpt lat="35.26818" lon="-118.13395"><ele>1244.0</ele></trkpt>
      <trkpt lat="35.26816" lon="-118.13374"><ele>1241.0</ele></trkpt>
      <trkpt lat="35.26814" lon="-118.13362"><ele>1241.0</ele></trkpt>
      <trkpt lat="35.26809" lon="-118.13351"><ele>1241.0</ele></trkpt>
      <trkpt lat="35.26809" lon="-118.13341"><ele>1238.0</ele></trkpt>
      <trkpt lat="35.26802" lon="-118.13320"><ele>1238.0</ele></trkpt>
      <trkpt lat="35.26791" lon="-118.13301"><ele>1238.0</ele></trkpt>
      <trkpt lat="35.26782" lon="-118.13278"><ele>1235.0</ele></trkpt>
      <trkpt lat="35.26775" lon="-118.13254"><ele>1235.0</ele></trkpt>
      <trkpt lat="35.26767" lon="-118.13228"><ele>1230.0</ele></trkpt>
      <trkpt lat="35.26761" lon="-118.13205"><ele>1230.0</ele></trkpt>
      <trkpt lat="35.26754" lon="-118.13191"><ele>1230.0</ele></trkpt>
      <trkpt lat="35.26747" lon="-118.13176"><ele>1227.0</ele></trkpt>
      <trkpt lat="35.26738" lon="-118.13161"><ele>1227.0</ele></trkpt>
      <trkpt lat="35.26734" lon="-118.13141"><ele>1227.0</ele></trkpt>
      <trkpt lat="35.26722" lon="-118.13123"><ele>1227.0</ele></trkpt>
      <trkpt lat="35.26706" lon="-118.13109"><ele>1227.0</ele></trkpt>
      <trkpt lat="35.26699" lon="-118.13097"><ele>1221.0</ele></trkpt>
      <trkpt lat="35.26680" lon="-118.13077"><ele>1221.0</ele></trkpt>
      <trkpt lat="35.26660" lon="-118.13054"><ele>1221.0</ele></trkpt>
      <trkpt lat="35.26657" lon="-118.13042"><ele>1215.0</ele></trkpt>
      <trkpt lat="35.26660" lon="-118.13027"><ele>1215.0</ele></trkpt>
      <trkpt lat="35.26661" lon="-118.13004"><ele>1215.0</ele></trkpt>
      <trkpt lat="35.26657" lon="-118.12987"><ele>1212.0</ele></trkpt>
      <trkpt lat="35.26651" lon="-118.12978"><ele>1212.0</ele></trkpt>
      <trkpt lat="35.26631" lon="-118.12946"><ele>1212.0</ele></trkpt>
      <trkpt lat="35.26613" lon="-118.12927"><ele>1208.0</ele></trkpt>
      <trkpt lat="35.26597" lon="-118.12912"><ele>1208.0</ele></trkpt>
      <trkpt lat="35.26586" lon="-118.12891"><ele>1206.0</ele></trkpt>
      <trkpt lat="35.26581" lon="-118.12872"><ele>1206.0</ele></trkpt>
      <trkpt lat="35.26573" lon="-118.12836"><ele>1206.0</ele></trkpt>
      <trkpt lat="35.26566" lon="-118.12822"><ele>1204.0</ele></trkpt>
      <trkpt lat="35.26561" lon="-118.12812"><ele>1204.0</ele></trkpt>
      <trkpt lat="35.26547" lon="-118.12809"><ele>1204.0</ele></trkpt>
      <trkpt lat="35.26535" lon="-118.12800"><ele>1203.0</ele></trkpt>
      <trkpt lat="35.26531" lon="-118.12790"><ele>1203.0</ele></trkpt>
      <trkpt lat="35.26523" lon="-118.12773"><ele>1198.0</ele></trkpt>
      <trkpt lat="35.26515" lon="-118.12760"><ele>1198.0</ele></trkpt>
      <trkpt lat="35.26515" lon="-118.12760"><ele>1198.0</ele></trkpt>
      <trkpt lat="35.26503" lon="-118.12763"><ele>1197.0</ele></trkpt>
      <trkpt lat="35.26486" lon="-118.12758"><ele>1197.0</ele></trkpt>
      <trkpt lat="35.26474" lon="-118.12751"><ele>1197.0</ele></trkpt>
      <trkpt lat="35.26466" lon="-118.12743"><ele>1197.0</ele></trkpt>
      <trkpt lat="35.26465" lon="-118.12728"><ele>1197.0</ele></trkpt>
      <trkpt lat="35.26468" lon="-118.12711"><ele>1194.0</ele></trkpt>
      <trkpt lat="35.26470" lon="-118.12693"><ele>1194.0</ele></trkpt>
      <trkpt lat="35.26469" lon="-118.12682"><ele>1194.0</ele></trkpt>
      <trkpt lat="35.26460" lon="-118.12674"><ele>1193.0</ele></trkpt>
      <trkpt lat="35.26455" lon="-118.12671"><ele>1193.0</ele></trkpt>
      <trkpt lat="35.26453" lon="-118.12664"><ele>1193.0</ele></trkpt>
      <trkpt lat="35.26453" lon="-118.12664"><ele>1195.0</ele></trkpt>
      <trkpt lat="35.26439" lon="-118.12680"><ele>1195.0</ele></trkpt>
      <trkpt lat="35.26423" lon="-118.12696"><ele>1195.0</ele></trkpt>
      <trkpt lat="35.26398" lon="-118.12725"><ele>1201.0</ele></trkpt>
      <trkpt lat="35.26389" lon="-118.12741"><ele>1201.0</ele></trkpt>
      <trkpt lat="35.26367" lon="-118.12765"><ele>1207.0</ele></trkpt>
      <trkpt lat="35.26347" lon="-118.12772"><ele>1207.0</ele></trkpt>
      <trkpt lat="35.26323" lon="-118.12772"><ele>1207.0</ele></trkpt>
      <trkpt lat="35.26303" lon="-118.12773"><ele>1213.0</ele></trkpt>
      <trkpt lat="35.26288" lon="-118.12790"><ele>1213.0</ele></trkpt>
      <trkpt lat="35.26270" lon="-118.12818"><ele>1213.0</ele></trkpt>
      <trkpt lat="35.26266" lon="-118.12867"><ele>1216.0</ele></trkpt>
      <trkpt lat="35.26259" lon="-118.12894"><ele>1216.0</ele></trkpt>
      <trkpt lat="35.26252" lon="-118.12925"><ele>1218.0</ele></trkpt>
      <trkpt lat="35.26251" lon="-118.12934"><ele>1218.0</ele></trkpt>
      <trkpt lat="35.26255" lon="-118.12950"><ele>1218.0</ele></trkpt>
      <trkpt lat="35.26252" lon="-118.12960"><ele>1223.0</ele></trkpt>
      <trkpt lat="35.26255" lon="-118.12969"><ele>1223.0</ele></trkpt>
      <trkpt lat="35.26250" lon="-118.12980"><ele>1223.0</ele></trkpt>
      <trkpt lat="35.26244" lon="-118.13007"><ele>1226.0</ele></trkpt>
      <trkpt lat="35.26241" lon="-118.13041"><ele>1226.0</ele></trkpt>
      <trkpt lat="35.26241" lon="-118.13061"><ele>1231.0</ele></trkpt>
      <trkpt lat="35.26230" lon="-118.13072"><ele>1231.0</ele></trkpt>
      <trkpt lat="35.26221" lon="-118.13085"><ele>1231.0</ele></trkpt>
      <trkpt lat="35.26202" lon="-118.13099"><ele>1237.0</ele></trkpt>
      <trkpt lat="35.26182" lon="-118.13105"><ele>1237.0</ele></trkpt>
      <trkpt lat="35.26167" lon="-118.13106"><ele>1237.0</ele></trkpt>
      <trkpt lat="35.26159" lon="-118.13112"><ele>1240.0</ele></trkpt>
      <trkpt lat="35.26141" lon="-118.13128"><ele>1240.0</ele></trkpt>
      <trkpt lat="35.26141" lon="-118.13128"><ele>1240.0</ele></trkpt>
      <trkpt lat="35.26126" lon="-118.13124"><ele>1241.0</ele></trkpt>
      <trkpt lat="35.26113" lon="-118.13130"><ele>1241.0</ele></trkpt>
      <trkpt lat="35.26090" lon="-118.13141"><ele>1246.0</ele></trkpt>
      <trkpt lat="35.26065" lon="-118.13145"><ele>1246.0</ele></trkpt>
      <trkpt lat="35.26018" lon="-118.13164"><ele>1246.0</ele></trkpt>
      <trkpt lat="35.25974" lon="-118.13177"><ele>1264.0</ele></trkpt>
      <trkpt lat="35.25932" lon="-118.13187"><ele>1264.0</ele></trkpt>
      <trkpt lat="35.25896" lon="-118.13198"><ele>1264.0</ele></trkpt>
      <trkpt lat="35.25863" lon="-118.13195"><ele>1271.0</ele></trkpt>
      <trkpt lat="35.25831" lon="-118.13193"><ele>1271.0</ele></trkpt>
      <trkpt lat="35.25795" lon="-118.13179"><ele>1281.0</ele></trkpt>
      <trkpt lat="35.25756" lon="-118.13160"><ele>1281.0</ele></trkpt>
    </trkseg>
  </trk>
</gpx>
