<?xml version="1.0" encoding="UTF-8"?>
<gpx version="1.1" creator="dirt-bikes build-loop-gpx (composite of existing route GPX)" xmlns="http://www.topografix.com/GPX/1/1">
  <metadata><name>Mt Pinos: Cuyama Badlands</name></metadata>
  <trk><name>Apache Canyon OHV</name><trkseg>
    <trkpt lat="34.74824" lon="-119.40852"><ele>1005.0</ele></trkpt>
    <trkpt lat="34.74850" lon="-119.40810"><ele>1005.0</ele></trkpt>
    <trkpt lat="34.74868" lon="-119.40784"><ele>1005.0</ele></trkpt>
    <trkpt lat="34.74872" lon="-119.40768"><ele>1005.0</ele></trkpt>
    <trkpt lat="34.74875" lon="-119.40756"><ele>1010.0</ele></trkpt>
    <trkpt lat="34.74876" lon="-119.40740"><ele>1010.0</ele></trkpt>
    <trkpt lat="34.74877" lon="-119.40707"><ele>1010.0</ele></trkpt>
    <trkpt lat="34.74876" lon="-119.40671"><ele>1010.0</ele></trkpt>
    <trkpt lat="34.74876" lon="-119.40648"><ele>1010.0</ele></trkpt>
    <trkpt lat="34.74876" lon="-119.40628"><ele>1010.0</ele></trkpt>
    <trkpt lat="34.74874" lon="-119.40574"><ele>1010.0</ele></trkpt>
    <trkpt lat="34.74873" lon="-119.40539"><ele>1017.0</ele></trkpt>
    <trkpt lat="34.74872" lon="-119.40512"><ele>1017.0</ele></trkpt>
    <trkpt lat="34.74870" lon="-119.40485"><ele>1017.0</ele></trkpt>
    <trkpt lat="34.74868" lon="-119.40448"><ele>1017.0</ele></trkpt>
    <trkpt lat="34.74864" lon="-119.40418"><ele>1017.0</ele></trkpt>
    <trkpt lat="34.74862" lon="-119.40392"><ele>1017.0</ele></trkpt>
    <trkpt lat="34.74860" lon="-119.40363"><ele>1017.0</ele></trkpt>
    <trkpt lat="34.74858" lon="-119.40337"><ele>1025.0</ele></trkpt>
    <trkpt lat="34.74852" lon="-119.40303"><ele>1025.0</ele></trkpt>
    <trkpt lat="34.74847" lon="-119.40276"><ele>1025.0</ele></trkpt>
    <trkpt lat="34.74844" lon="-119.40250"><ele>1025.0</ele></trkpt>
    <trkpt lat="34.74844" lon="-119.40222"><ele>1025.0</ele></trkpt>
    <trkpt lat="34.74845" lon="-119.40209"><ele>1025.0</ele></trkpt>
    <trkpt lat="34.74851" lon="-119.40190"><ele>1025.0</ele></trkpt>
    <trkpt lat="34.74863" lon="-119.40166"><ele>1026.0</ele></trkpt>
    <trkpt lat="34.74878" lon="-119.40136"><ele>1026.0</ele></trkpt>
    <trkpt lat="34.74892" lon="-119.40100"><ele>1026.0</ele></trkpt>
    <trkpt lat="34.74903" lon="-119.40073"><ele>1026.0</ele></trkpt>
    <trkpt lat="34.74911" lon="-119.40048"><ele>1026.0</ele></trkpt>
    <trkpt lat="34.74914" lon="-119.40011"><ele>1026.0</ele></trkpt>
    <trkpt lat="34.74917" lon="-119.39964"><ele>1026.0</ele></trkpt>
    <trkpt lat="34.74917" lon="-119.39918"><ele>1031.0</ele></trkpt>
    <trkpt lat="34.74921" lon="-119.39864"><ele>1031.0</ele></trkpt>
    <trkpt lat="34.74923" lon="-119.39831"><ele>1031.0</ele></trkpt>
    <trkpt lat="34.74925" lon="-119.39811"><ele>1031.0</ele></trkpt>
    <trkpt lat="34.74930" lon="-119.39787"><ele>1031.0</ele></trkpt>
    <trkpt lat="34.74938" lon="-119.39764"><ele>1031.0</ele></trkpt>
    <trkpt lat="34.74953" lon="-119.39735"><ele>1031.0</ele></trkpt>
    <trkpt lat="34.74969" lon="-119.39698"><ele>1038.0</ele></trkpt>
    <trkpt lat="34.74981" lon="-119.39679"><ele>1038.0</ele></trkpt>
    <trkpt lat="34.74998" lon="-119.39657"><ele>1038.0</ele></trkpt>
    <trkpt lat="34.75003" lon="-119.39644"><ele>1038.0</ele></trkpt>
    <trkpt lat="34.75006" lon="-119.39636"><ele>1038.0</ele></trkpt>
    <trkpt lat="34.75019" lon="-119.39600"><ele>1038.0</ele></trkpt>
    <trkpt lat="34.75030" lon="-119.39571"><ele>1038.0</ele></trkpt>
    <trkpt lat="34.75038" lon="-119.39540"><ele>1043.0</ele></trkpt>
    <trkpt lat="34.75040" lon="-119.39517"><ele>1043.0</ele></trkpt>
    <trkpt lat="34.75046" lon="-119.39490"><ele>1043.0</ele></trkpt>
    <trkpt lat="34.75062" lon="-119.39468"><ele>1043.0</ele></trkpt>
    <trkpt lat="34.75079" lon="-119.39442"><ele>1043.0</ele></trkpt>
    <trkpt lat="34.75094" lon="-119.39416"><ele>1043.0</ele></trkpt>
    <trkpt lat="34.75108" lon="-119.39383"><ele>1043.0</ele></trkpt>
    <trkpt lat="34.75119" lon="-119.39338"><ele>1048.0</ele></trkpt>
    <trkpt lat="34.75119" lon="-119.39296"><ele>1048.0</ele></trkpt>
    <trkpt lat="34.75114" lon="-119.39259"><ele>1048.0</ele></trkpt>
    <trkpt lat="34.75105" lon="-119.39217"><ele>1048.0</ele></trkpt>
    <trkpt lat="34.75098" lon="-119.39188"><ele>1048.0</ele></trkpt>
    <trkpt lat="34.75091" lon="-119.39166"><ele>1048.0</ele></trkpt>
    <trkpt lat="34.75092" lon="-119.39142"><ele>1048.0</ele></trkpt>
    <trkpt lat="34.75094" lon="-119.39111"><ele>1053.0</ele></trkpt>
    <trkpt lat="34.75095" lon="-119.39065"><ele>1053.0</ele></trkpt>
    <trkpt lat="34.75092" lon="-119.39031"><ele>1053.0</ele></trkpt>
    <trkpt lat="34.75092" lon="-119.39023"><ele>1053.0</ele></trkpt>
    <trkpt lat="34.75087" lon="-119.39004"><ele>1053.0</ele></trkpt>
    <trkpt lat="34.75085" lon="-119.38984"><ele>1053.0</ele></trkpt>
    <trkpt lat="34.75083" lon="-119.38969"><ele>1053.0</ele></trkpt>
    <trkpt lat="34.75084" lon="-119.38948"><ele>1053.0</ele></trkpt>
    <trkpt lat="34.75088" lon="-119.38929"><ele>1053.0</ele></trkpt>
    <trkpt lat="34.75097" lon="-119.38911"><ele>1053.0</ele></trkpt>
    <trkpt lat="34.75107" lon="-119.38901"><ele>1053.0</ele></trkpt>
    <trkpt lat="34.75122" lon="-119.38887"><ele>1053.0</ele></trkpt>
    <trkpt lat="34.75135" lon="-119.38875"><ele>1053.0</ele></trkpt>
    <trkpt lat="34.75144" lon="-119.38865"><ele>1063.0</ele></trkpt>
    <trkpt lat="34.75156" lon="-119.38849"><ele>1063.0</ele></trkpt>
    <trkpt lat="34.75162" lon="-119.38835"><ele>1063.0</ele></trkpt>
    <trkpt lat="34.75170" lon="-119.38812"><ele>1063.0</ele></trkpt>
    <trkpt lat="34.75173" lon="-119.38791"><ele>1063.0</ele></trkpt>
    <trkpt lat="34.75173" lon="-119.38777"><ele>1063.0</ele></trkpt>
    <trkpt lat="34.75168" lon="-119.38763"><ele>1063.0</ele></trkpt>
    <trkpt lat="34.75168" lon="-119.38763"><ele>1057.0</ele></trkpt>
    <trkpt lat="34.75161" lon="-119.38742"><ele>1057.0</ele></trkpt>
    <trkpt lat="34.75157" lon="-119.38718"><ele>1057.0</ele></trkpt>
    <trkpt lat="34.75157" lon="-119.38697"><ele>1057.0</ele></trkpt>
    <trkpt lat="34.75159" lon="-119.38684"><ele>1057.0</ele></trkpt>
    <trkpt lat="34.75162" lon="-119.38661"><ele>1057.0</ele></trkpt>
    <trkpt lat="34.75164" lon="-119.38640"><ele>1057.0</ele></trkpt>
    <trkpt lat="34.75164" lon="-119.38613"><ele>1061.0</ele></trkpt>
    <trkpt lat="34.75164" lon="-119.38584"><ele>1061.0</ele></trkpt>
    <trkpt lat="34.75167" lon="-119.38552"><ele>1061.0</ele></trkpt>
    <trkpt lat="34.75170" lon="-119.38522"><ele>1061.0</ele></trkpt>
    <trkpt lat="34.75174" lon="-119.38495"><ele>1061.0</ele></trkpt>
    <trkpt lat="34.75178" lon="-119.38472"><ele>1061.0</ele></trkpt>
    <trkpt lat="34.75184" lon="-119.38446"><ele>1061.0</ele></trkpt>
    <trkpt lat="34.75192" lon="-119.38426"><ele>1067.0</ele></trkpt>
    <trkpt lat="34.75202" lon="-119.38406"><ele>1067.0</ele></trkpt>
    <trkpt lat="34.75218" lon="-119.38389"><ele>1067.0</ele></trkpt>
    <trkpt lat="34.75232" lon="-119.38378"><ele>1067.0</ele></trkpt>
    <trkpt lat="34.75247" lon="-119.38372"><ele>1067.0</ele></trkpt>
    <trkpt lat="34.75270" lon="-119.38360"><ele>1067.0</ele></trkpt>
    <trkpt lat="34.75288" lon="-119.38355"><ele>1067.0</ele></trkpt>
    <trkpt lat="34.75307" lon="-119.38346"><ele>1068.0</ele></trkpt>
    <trkpt lat="34.75326" lon="-119.38335"><ele>1068.0</ele></trkpt>
    <trkpt lat="34.75341" lon="-119.38324"><ele>1068.0</ele></trkpt>
    <trkpt lat="34.75356" lon="-119.38310"><ele>1068.0</ele></trkpt>
    <trkpt lat="34.75375" lon="-119.38290"><ele>1068.0</ele></trkpt>
    <trkpt lat="34.75393" lon="-119.38270"><ele>1068.0</ele></trkpt>
    <trkpt lat="34.75404" lon="-119.38263"><ele>1068.0</ele></trkpt>
    <trkpt lat="34.75408" lon="-119.38261"><ele>1071.0</ele></trkpt>
    <trkpt lat="34.75435" lon="-119.38256"><ele>1071.0</ele></trkpt>
    <trkpt lat="34.75449" lon="-119.38256"><ele>1071.0</ele></trkpt>
    <trkpt lat="34.75468" lon="-119.38264"><ele>1071.0</ele></trkpt>
    <trkpt lat="34.75477" lon="-119.38272"><ele>1071.0</ele></trkpt>
    <trkpt lat="34.75495" lon="-119.38276"><ele>1071.0</ele></trkpt>
    <trkpt lat="34.75510" lon="-119.38273"><ele>1071.0</ele></trkpt>
    <trkpt lat="34.75520" lon="-119.38263"><ele>1074.0</ele></trkpt>
    <trkpt lat="34.75530" lon="-119.38249"><ele>1074.0</ele></trkpt>
    <trkpt lat="34.75540" lon="-119.38241"><ele>1074.0</ele></trkpt>
    <trkpt lat="34.75548" lon="-119.38240"><ele>1074.0</ele></trkpt>
    <trkpt lat="34.75560" lon="-119.38246"><ele>1074.0</ele></trkpt>
    <trkpt lat="34.75574" lon="-119.38253"><ele>1074.0</ele></trkpt>
    <trkpt lat="34.75602" lon="-119.38262"><ele>1074.0</ele></trkpt>
    <trkpt lat="34.75621" lon="-119.38264"><ele>1076.0</ele></trkpt>
    <trkpt lat="34.75637" lon="-119.38263"><ele>1076.0</ele></trkpt>
    <trkpt lat="34.75650" lon="-119.38257"><ele>1076.0</ele></trkpt>
    <trkpt lat="34.75666" lon="-119.38253"><ele>1076.0</ele></trkpt>
    <trkpt lat="34.75679" lon="-119.38252"><ele>1076.0</ele></trkpt>
    <trkpt lat="34.75701" lon="-119.38249"><ele>1076.0</ele></trkpt>
    <trkpt lat="34.75714" lon="-119.38243"><ele>1076.0</ele></trkpt>
    <trkpt lat="34.75727" lon="-119.38233"><ele>1081.0</ele></trkpt>
    <trkpt lat="34.75754" lon="-119.38211"><ele>1081.0</ele></trkpt>
    <trkpt lat="34.75779" lon="-119.38197"><ele>1081.0</ele></trkpt>
    <trkpt lat="34.75790" lon="-119.38197"><ele>1081.0</ele></trkpt>
    <trkpt lat="34.75811" lon="-119.38200"><ele>1081.0</ele></trkpt>
    <trkpt lat="34.75840" lon="-119.38206"><ele>1081.0</ele></trkpt>
    <trkpt lat="34.75847" lon="-119.38199"><ele>1081.0</ele></trkpt>
    <trkpt lat="34.75856" lon="-119.38189"><ele>1088.0</ele></trkpt>
    <trkpt lat="34.75873" lon="-119.38171"><ele>1088.0</ele></trkpt>
    <trkpt lat="34.75893" lon="-119.38148"><ele>1088.0</ele></trkpt>
    <trkpt lat="34.75920" lon="-119.38121"><ele>1088.0</ele></trkpt>
    <trkpt lat="34.75943" lon="-119.38095"><ele>1088.0</ele></trkpt>
    <trkpt lat="34.75953" lon="-119.38088"><ele>1088.0</ele></trkpt>
    <trkpt lat="34.75961" lon="-119.38085"><ele>1088.0</ele></trkpt>
    <trkpt lat="34.75974" lon="-119.38080"><ele>1089.0</ele></trkpt>
    <trkpt lat="34.75990" lon="-119.38070"><ele>1089.0</ele></trkpt>
    <trkpt lat="34.75999" lon="-119.38055"><ele>1089.0</ele></trkpt>
    <trkpt lat="34.76004" lon="-119.38037"><ele>1089.0</ele></trkpt>
    <trkpt lat="34.76005" lon="-119.38025"><ele>1089.0</ele></trkpt>
    <trkpt lat="34.76011" lon="-119.38008"><ele>1089.0</ele></trkpt>
    <trkpt lat="34.76027" lon="-119.37990"><ele>1089.0</ele></trkpt>
    <trkpt lat="34.76035" lon="-119.37983"><ele>1090.0</ele></trkpt>
    <trkpt lat="34.76047" lon="-119.37974"><ele>1090.0</ele></trkpt>
    <trkpt lat="34.76062" lon="-119.37966"><ele>1090.0</ele></trkpt>
    <trkpt lat="34.76081" lon="-119.37955"><ele>1090.0</ele></trkpt>
    <trkpt lat="34.76091" lon="-119.37950"><ele>1090.0</ele></trkpt>
    <trkpt lat="34.76105" lon="-119.37940"><ele>1090.0</ele></trkpt>
    <trkpt lat="34.76122" lon="-119.37927"><ele>1090.0</ele></trkpt>
    <trkpt lat="34.76129" lon="-119.37920"><ele>1092.0</ele></trkpt>
    <trkpt lat="34.76137" lon="-119.37910"><ele>1092.0</ele></trkpt>
    <trkpt lat="34.76146" lon="-119.37902"><ele>1092.0</ele></trkpt>
    <trkpt lat="34.76160" lon="-119.37895"><ele>1092.0</ele></trkpt>
    <trkpt lat="34.76182" lon="-119.37887"><ele>1092.0</ele></trkpt>
    <trkpt lat="34.76214" lon="-119.37877"><ele>1092.0</ele></trkpt>
    <trkpt lat="34.76232" lon="-119.37866"><ele>1092.0</ele></trkpt>
    <trkpt lat="34.76242" lon="-119.37854"><ele>1095.0</ele></trkpt>
    <trkpt lat="34.76248" lon="-119.37839"><ele>1095.0</ele></trkpt>
    <trkpt lat="34.76249" lon="-119.37827"><ele>1095.0</ele></trkpt>
    <trkpt lat="34.76249" lon="-119.37817"><ele>1095.0</ele></trkpt>
    <trkpt lat="34.76250" lon="-119.37803"><ele>1095.0</ele></trkpt>
    <trkpt lat="34.76252" lon="-119.37796"><ele>1095.0</ele></trkpt>
    <trkpt lat="34.76258" lon="-119.37786"><ele>1095.0</ele></trkpt>
    <trkpt lat="34.76262" lon="-119.37767"><ele>1096.0</ele></trkpt>
    <trkpt lat="34.76266" lon="-119.37736"><ele>1096.0</ele></trkpt>
    <trkpt lat="34.76268" lon="-119.37707"><ele>1096.0</ele></trkpt>
    <trkpt lat="34.76267" lon="-119.37684"><ele>1096.0</ele></trkpt>
    <trkpt lat="34.76268" lon="-119.37668"><ele>1096.0</ele></trkpt>
    <trkpt lat="34.76275" lon="-119.37648"><ele>1096.0</ele></trkpt>
    <trkpt lat="34.76277" lon="-119.37639"><ele>1096.0</ele></trkpt>
    <trkpt lat="34.76288" lon="-119.37596"><ele>1098.0</ele></trkpt>
    <trkpt lat="34.76293" lon="-119.37578"><ele>1098.0</ele></trkpt>
    <trkpt lat="34.76299" lon="-119.37556"><ele>1098.0</ele></trkpt>
    <trkpt lat="34.76305" lon="-119.37540"><ele>1098.0</ele></trkpt>
    <trkpt lat="34.76315" lon="-119.37526"><ele>1098.0</ele></trkpt>
    <trkpt lat="34.76335" lon="-119.37510"><ele>1098.0</ele></trkpt>
    <trkpt lat="34.76341" lon="-119.37503"><ele>1098.0</ele></trkpt>
    <trkpt lat="34.76347" lon="-119.37488"><ele>1100.0</ele></trkpt>
    <trkpt lat="34.76358" lon="-119.37473"><ele>1100.0</ele></trkpt>
    <trkpt lat="34.76365" lon="-119.37466"><ele>1100.0</ele></trkpt>
    <trkpt lat="34.76390" lon="-119.37444"><ele>1100.0</ele></trkpt>
    <trkpt lat="34.76400" lon="-119.37433"><ele>1100.0</ele></trkpt>
    <trkpt lat="34.76408" lon="-119.37423"><ele>1100.0</ele></trkpt>
    <trkpt lat="34.76421" lon="-119.37409"><ele>1103.0</ele></trkpt>
    <trkpt lat="34.76429" lon="-119.37401"><ele>1103.0</ele></trkpt>
    <trkpt lat="34.76445" lon="-119.37392"><ele>1103.0</ele></trkpt>
    <trkpt lat="34.76464" lon="-119.37380"><ele>1103.0</ele></trkpt>
    <trkpt lat="34.76482" lon="-119.37373"><ele>1103.0</ele></trkpt>
    <trkpt lat="34.76501" lon="-119.37364"><ele>1103.0</ele></trkpt>
    <trkpt lat="34.76515" lon="-119.37357"><ele>1103.0</ele></trkpt>
    <trkpt lat="34.76535" lon="-119.37346"><ele>1108.0</ele></trkpt>
    <trkpt lat="34.76550" lon="-119.37333"><ele>1108.0</ele></trkpt>
    <trkpt lat="34.76570" lon="-119.37321"><ele>1108.0</ele></trkpt>
    <trkpt lat="34.76590" lon="-119.37311"><ele>1108.0</ele></trkpt>
    <trkpt lat="34.76612" lon="-119.37297"><ele>1108.0</ele></trkpt>
    <trkpt lat="34.76623" lon="-119.37286"><ele>1108.0</ele></trkpt>
    <trkpt lat="34.76644" lon="-119.37267"><ele>1108.0</ele></trkpt>
    <trkpt lat="34.76655" lon="-119.37258"><ele>1112.0</ele></trkpt>
    <trkpt lat="34.76664" lon="-119.37240"><ele>1112.0</ele></trkpt>
    <trkpt lat="34.76680" lon="-119.37222"><ele>1112.0</ele></trkpt>
    <trkpt lat="34.76693" lon="-119.37206"><ele>1112.0</ele></trkpt>
    <trkpt lat="34.76714" lon="-119.37197"><ele>1112.0</ele></trkpt>
    <trkpt lat="34.76724" lon="-119.37185"><ele>1112.0</ele></trkpt>
    <trkpt lat="34.76741" lon="-119.37168"><ele>1112.0</ele></trkpt>
    <trkpt lat="34.76765" lon="-119.37140"><ele>1117.0</ele></trkpt>
    <trkpt lat="34.76788" lon="-119.37116"><ele>1117.0</ele></trkpt>
    <trkpt lat="34.76806" lon="-119.37090"><ele>1117.0</ele></trkpt>
    <trkpt lat="34.76823" lon="-119.37071"><ele>1117.0</ele></trkpt>
    <trkpt lat="34.76845" lon="-119.37047"><ele>1117.0</ele></trkpt>
    <trkpt lat="34.76863" lon="-119.37021"><ele>1117.0</ele></trkpt>
    <trkpt lat="34.76868" lon="-119.37002"><ele>1117.0</ele></trkpt>
    <trkpt lat="34.76876" lon="-119.36993"><ele>1121.0</ele></trkpt>
    <trkpt lat="34.76890" lon="-119.36979"><ele>1121.0</ele></trkpt>
    <trkpt lat="34.76908" lon="-119.36957"><ele>1121.0</ele></trkpt>
    <trkpt lat="34.76928" lon="-119.36929"><ele>1121.0</ele></trkpt>
    <trkpt lat="34.76945" lon="-119.36907"><ele>1121.0</ele></trkpt>
    <trkpt lat="34.76963" lon="-119.36877"><ele>1121.0</ele></trkpt>
    <trkpt lat="34.76978" lon="-119.36853"><ele>1121.0</ele></trkpt>
    <trkpt lat="34.76990" lon="-119.36831"><ele>1127.0</ele></trkpt>
    <trkpt lat="34.76994" lon="-119.36813"><ele>1127.0</ele></trkpt>
    <trkpt lat="34.76995" lon="-119.36788"><ele>1127.0</ele></trkpt>
    <trkpt lat="34.76996" lon="-119.36755"><ele>1127.0</ele></trkpt>
    <trkpt lat="34.77000" lon="-119.36734"><ele>1127.0</ele></trkpt>
    <trkpt lat="34.77005" lon="-119.36718"><ele>1127.0</ele></trkpt>
    <trkpt lat="34.77008" lon="-119.36697"><ele>1127.0</ele></trkpt>
    <trkpt lat="34.77010" lon="-119.36694"><ele>1128.0</ele></trkpt>
    <trkpt lat="34.77017" lon="-119.36678"><ele>1128.0</ele></trkpt>
    <trkpt lat="34.77027" lon="-119.36662"><ele>1128.0</ele></trkpt>
    <trkpt lat="34.77033" lon="-119.36637"><ele>1128.0</ele></trkpt>
    <trkpt lat="34.77042" lon="-119.36601"><ele>1128.0</ele></trkpt>
    <trkpt lat="34.77043" lon="-119.36578"><ele>1128.0</ele></trkpt>
    <trkpt lat="34.77043" lon="-119.36573"><ele>1128.0</ele></trkpt>
    <trkpt lat="34.77042" lon="-119.36528"><ele>1132.0</ele></trkpt>
    <trkpt lat="34.77046" lon="-119.36501"><ele>1132.0</ele></trkpt>
    <trkpt lat="34.77049" lon="-119.36479"><ele>1132.0</ele></trkpt>
    <trkpt lat="34.77051" lon="-119.36438"><ele>1132.0</ele></trkpt>
    <trkpt lat="34.77056" lon="-119.36401"><ele>1132.0</ele></trkpt>
    <trkpt lat="34.77064" lon="-119.36377"><ele>1132.0</ele></trkpt>
    <trkpt lat="34.77070" lon="-119.36352"><ele>1132.0</ele></trkpt>
    <trkpt lat="34.77070" lon="-119.36335"><ele>1139.0</ele></trkpt>
    <trkpt lat="34.77069" lon="-119.36278"><ele>1139.0</ele></trkpt>
    <trkpt lat="34.77066" lon="-119.36239"><ele>1139.0</ele></trkpt>
    <trkpt lat="34.77061" lon="-119.36209"><ele>1139.0</ele></trkpt>
    <trkpt lat="34.77054" lon="-119.36178"><ele>1139.0</ele></trkpt>
    <trkpt lat="34.77051" lon="-119.36146"><ele>1139.0</ele></trkpt>
    <trkpt lat="34.77047" lon="-119.36128"><ele>1139.0</ele></trkpt>
    <trkpt lat="34.77047" lon="-119.36099"><ele>1144.0</ele></trkpt>
    <trkpt lat="34.77052" lon="-119.36076"><ele>1144.0</ele></trkpt>
    <trkpt lat="34.77052" lon="-119.36055"><ele>1144.0</ele></trkpt>
    <trkpt lat="34.77050" lon="-119.36019"><ele>1144.0</ele></trkpt>
    <trkpt lat="34.77048" lon="-119.36005"><ele>1144.0</ele></trkpt>
    <trkpt lat="34.77043" lon="-119.35986"><ele>1144.0</ele></trkpt>
    <trkpt lat="34.77046" lon="-119.35947"><ele>1144.0</ele></trkpt>
    <trkpt lat="34.77045" lon="-119.35924"><ele>1147.0</ele></trkpt>
    <trkpt lat="34.77044" lon="-119.35906"><ele>1147.0</ele></trkpt>
    <trkpt lat="34.77046" lon="-119.35880"><ele>1147.0</ele></trkpt>
    <trkpt lat="34.77049" lon="-119.35856"><ele>1147.0</ele></trkpt>
    <trkpt lat="34.77050" lon="-119.35830"><ele>1147.0</ele></trkpt>
    <trkpt lat="34.77047" lon="-119.35805"><ele>1147.0</ele></trkpt>
    <trkpt lat="34.77047" lon="-119.35767"><ele>1147.0</ele></trkpt>
    <trkpt lat="34.77042" lon="-119.35749"><ele>1152.0</ele></trkpt>
    <trkpt lat="34.77038" lon="-119.35725"><ele>1152.0</ele></trkpt>
    <trkpt lat="34.77034" lon="-119.35708"><ele>1152.0</ele></trkpt>
    <trkpt lat="34.77024" lon="-119.35660"><ele>1152.0</ele></trkpt>
    <trkpt lat="34.77017" lon="-119.35639"><ele>1152.0</ele></trkpt>
    <trkpt lat="34.77011" lon="-119.35611"><ele>1152.0</ele></trkpt>
    <trkpt lat="34.77006" lon="-119.35587"><ele>1152.0</ele></trkpt>
    <trkpt lat="34.77004" lon="-119.35561"><ele>1155.0</ele></trkpt>
    <trkpt lat="34.77000" lon="-119.35543"><ele>1155.0</ele></trkpt>
    <trkpt lat="34.76994" lon="-119.35506"><ele>1155.0</ele></trkpt>
    <trkpt lat="34.76999" lon="-119.35488"><ele>1155.0</ele></trkpt>
    <trkpt lat="34.77010" lon="-119.35468"><ele>1155.0</ele></trkpt>
    <trkpt lat="34.77021" lon="-119.35442"><ele>1155.0</ele></trkpt>
    <trkpt lat="34.77032" lon="-119.35419"><ele>1155.0</ele></trkpt>
    <trkpt lat="34.77040" lon="-119.35402"><ele>1157.0</ele></trkpt>
    <trkpt lat="34.77050" lon="-119.35384"><ele>1157.0</ele></trkpt>
    <trkpt lat="34.77062" lon="-119.35369"><ele>1157.0</ele></trkpt>
    <trkpt lat="34.77069" lon="-119.35355"><ele>1157.0</ele></trkpt>
    <trkpt lat="34.77071" lon="-119.35344"><ele>1157.0</ele></trkpt>
    <trkpt lat="34.77074" lon="-119.35338"><ele>1157.0</ele></trkpt>
    <trkpt lat="34.77083" lon="-119.35330"><ele>1157.0</ele></trkpt>
    <trkpt lat="34.77089" lon="-119.35324"><ele>1156.0</ele></trkpt>
    <trkpt lat="34.77104" lon="-119.35318"><ele>1156.0</ele></trkpt>
    <trkpt lat="34.77122" lon="-119.35307"><ele>1156.0</ele></trkpt>
    <trkpt lat="34.77139" lon="-119.35297"><ele>1156.0</ele></trkpt>
    <trkpt lat="34.77148" lon="-119.35289"><ele>1156.0</ele></trkpt>
    <trkpt lat="34.77150" lon="-119.35277"><ele>1156.0</ele></trkpt>
    <trkpt lat="34.77155" lon="-119.35252"><ele>1156.0</ele></trkpt>
    <trkpt lat="34.77157" lon="-119.35242"><ele>1157.0</ele></trkpt>
    <trkpt lat="34.77156" lon="-119.35224"><ele>1157.0</ele></trkpt>
    <trkpt lat="34.77158" lon="-119.35189"><ele>1157.0</ele></trkpt>
    <trkpt lat="34.77160" lon="-119.35161"><ele>1157.0</ele></trkpt>
    <trkpt lat="34.77160" lon="-119.35147"><ele>1157.0</ele></trkpt>
    <trkpt lat="34.77170" lon="-119.35121"><ele>1157.0</ele></trkpt>
    <trkpt lat="34.77180" lon="-119.35091"><ele>1157.0</ele></trkpt>
    <trkpt lat="34.77190" lon="-119.35066"><ele>1164.0</ele></trkpt>
    <trkpt lat="34.77193" lon="-119.35046"><ele>1164.0</ele></trkpt>
    <trkpt lat="34.77195" lon="-119.35025"><ele>1164.0</ele></trkpt>
    <trkpt lat="34.77206" lon="-119.34992"><ele>1164.0</ele></trkpt>
    <trkpt lat="34.77206" lon="-119.34969"><ele>1164.0</ele></trkpt>
    <trkpt lat="34.77205" lon="-119.34945"><ele>1164.0</ele></trkpt>
    <trkpt lat="34.77205" lon="-119.34931"><ele>1164.0</ele></trkpt>
    <trkpt lat="34.77213" lon="-119.34909"><ele>1169.0</ele></trkpt>
    <trkpt lat="34.77221" lon="-119.34896"><ele>1169.0</ele></trkpt>
    <trkpt lat="34.77240" lon="-119.34876"><ele>1169.0</ele></trkpt>
    <trkpt lat="34.77251" lon="-119.34868"><ele>1169.0</ele></trkpt>
    <trkpt lat="34.77274" lon="-119.34842"><ele>1169.0</ele></trkpt>
    <trkpt lat="34.77296" lon="-119.34819"><ele>1169.0</ele></trkpt>
    <trkpt lat="34.77300" lon="-119.34809"><ele>1174.0</ele></trkpt>
    <trkpt lat="34.77305" lon="-119.34798"><ele>1174.0</ele></trkpt>
    <trkpt lat="34.77311" lon="-119.34779"><ele>1174.0</ele></trkpt>
    <trkpt lat="34.77329" lon="-119.34755"><ele>1174.0</ele></trkpt>
    <trkpt lat="34.77353" lon="-119.34735"><ele>1174.0</ele></trkpt>
    <trkpt lat="34.77376" lon="-119.34719"><ele>1174.0</ele></trkpt>
    <trkpt lat="34.77385" lon="-119.34715"><ele>1174.0</ele></trkpt>
    <trkpt lat="34.77408" lon="-119.34709"><ele>1181.0</ele></trkpt>
    <trkpt lat="34.77427" lon="-119.34703"><ele>1181.0</ele></trkpt>
    <trkpt lat="34.77454" lon="-119.34693"><ele>1181.0</ele></trkpt>
    <trkpt lat="34.77464" lon="-119.34686"><ele>1181.0</ele></trkpt>
    <trkpt lat="34.77484" lon="-119.34675"><ele>1181.0</ele></trkpt>
    <trkpt lat="34.77507" lon="-119.34660"><ele>1181.0</ele></trkpt>
    <trkpt lat="34.77522" lon="-119.34650"><ele>1181.0</ele></trkpt>
    <trkpt lat="34.77532" lon="-119.34645"><ele>1191.0</ele></trkpt>
    <trkpt lat="34.77565" lon="-119.34648"><ele>1191.0</ele></trkpt>
    <trkpt lat="34.77607" lon="-119.34648"><ele>1191.0</ele></trkpt>
    <trkpt lat="34.77636" lon="-119.34645"><ele>1191.0</ele></trkpt>
    <trkpt lat="34.77651" lon="-119.34635"><ele>1191.0</ele></trkpt>
    <trkpt lat="34.77655" lon="-119.34627"><ele>1191.0</ele></trkpt>
    <trkpt lat="34.77655" lon="-119.34613"><ele>1191.0</ele></trkpt>
    <trkpt lat="34.77653" lon="-119.34598"><ele>1191.0</ele></trkpt>
    <trkpt lat="34.77655" lon="-119.34576"><ele>1191.0</ele></trkpt>
    <trkpt lat="34.77659" lon="-119.34558"><ele>1191.0</ele></trkpt>
    <trkpt lat="34.77666" lon="-119.34542"><ele>1191.0</ele></trkpt>
    <trkpt lat="34.77668" lon="-119.34525"><ele>1191.0</ele></trkpt>
    <trkpt lat="34.77674" lon="-119.34504"><ele>1191.0</ele></trkpt>
    <trkpt lat="34.77681" lon="-119.34490"><ele>1191.0</ele></trkpt>
    <trkpt lat="34.77685" lon="-119.34482"><ele>1190.0</ele></trkpt>
    <trkpt lat="34.77689" lon="-119.34465"><ele>1190.0</ele></trkpt>
    <trkpt lat="34.77695" lon="-119.34450"><ele>1190.0</ele></trkpt>
    <trkpt lat="34.77697" lon="-119.34423"><ele>1190.0</ele></trkpt>
    <trkpt lat="34.77703" lon="-119.34391"><ele>1190.0</ele></trkpt>
    <trkpt lat="34.77705" lon="-119.34363"><ele>1190.0</ele></trkpt>
    <trkpt lat="34.77709" lon="-119.34337"><ele>1190.0</ele></trkpt>
    <trkpt lat="34.77715" lon="-119.34310"><ele>1190.0</ele></trkpt>
    <trkpt lat="34.77718" lon="-119.34290"><ele>1190.0</ele></trkpt>
    <trkpt lat="34.77722" lon="-119.34283"><ele>1190.0</ele></trkpt>
    <trkpt lat="34.77741" lon="-119.34270"><ele>1190.0</ele></trkpt>
    <trkpt lat="34.77761" lon="-119.34256"><ele>1190.0</ele></trkpt>
    <trkpt lat="34.77776" lon="-119.34247"><ele>1190.0</ele></trkpt>
    <trkpt lat="34.77790" lon="-119.34238"><ele>1190.0</ele></trkpt>
    <trkpt lat="34.77801" lon="-119.34229"><ele>1194.0</ele></trkpt>
    <trkpt lat="34.77817" lon="-119.34212"><ele>1194.0</ele></trkpt>
    <trkpt lat="34.77831" lon="-119.34202"><ele>1194.0</ele></trkpt>
    <trkpt lat="34.77841" lon="-119.34193"><ele>1194.0</ele></trkpt>
    <trkpt lat="34.77846" lon="-119.34183"><ele>1194.0</ele></trkpt>
    <trkpt lat="34.77854" lon="-119.34156"><ele>1194.0</ele></trkpt>
    <trkpt lat="34.77866" lon="-119.34129"><ele>1194.0</ele></trkpt>
    <trkpt lat="34.77882" lon="-119.34081"><ele>1204.0</ele></trkpt>
    <trkpt lat="34.77894" lon="-119.34047"><ele>1204.0</ele></trkpt>
    <trkpt lat="34.77909" lon="-119.34009"><ele>1204.0</ele></trkpt>
    <trkpt lat="34.77917" lon="-119.33979"><ele>1204.0</ele></trkpt>
    <trkpt lat="34.77930" lon="-119.33942"><ele>1204.0</ele></trkpt>
    <trkpt lat="34.77939" lon="-119.33909"><ele>1204.0</ele></trkpt>
    <trkpt lat="34.77950" lon="-119.33876"><ele>1204.0</ele></trkpt>
    <trkpt lat="34.77959" lon="-119.33847"><ele>1211.0</ele></trkpt>
    <trkpt lat="34.77966" lon="-119.33823"><ele>1211.0</ele></trkpt>
    <trkpt lat="34.77975" lon="-119.33804"><ele>1211.0</ele></trkpt>
    <trkpt lat="34.77988" lon="-119.33785"><ele>1211.0</ele></trkpt>
    <trkpt lat="34.77999" lon="-119.33773"><ele>1211.0</ele></trkpt>
    <trkpt lat="34.78003" lon="-119.33760"><ele>1211.0</ele></trkpt>
    <trkpt lat="34.78004" lon="-119.33749"><ele>1211.0</ele></trkpt>
    <trkpt lat="34.78007" lon="-119.33723"><ele>1217.0</ele></trkpt>
    <trkpt lat="34.78007" lon="-119.33703"><ele>1217.0</ele></trkpt>
    <trkpt lat="34.78008" lon="-119.33693"><ele>1217.0</ele></trkpt>
    <trkpt lat="34.78020" lon="-119.33678"><ele>1217.0</ele></trkpt>
    <trkpt lat="34.78043" lon="-119.33640"><ele>1217.0</ele></trkpt>
    <trkpt lat="34.78059" lon="-119.33618"><ele>1217.0</ele></trkpt>
    <trkpt lat="34.78071" lon="-119.33597"><ele>1217.0</ele></trkpt>
    <trkpt lat="34.78085" lon="-119.33575"><ele>1224.0</ele></trkpt>
    <trkpt lat="34.78097" lon="-119.33564"><ele>1224.0</ele></trkpt>
    <trkpt lat="34.78124" lon="-119.33550"><ele>1224.0</ele></trkpt>
    <trkpt lat="34.78155" lon="-119.33534"><ele>1224.0</ele></trkpt>
    <trkpt lat="34.78183" lon="-119.33520"><ele>1224.0</ele></trkpt>
    <trkpt lat="34.78207" lon="-119.33508"><ele>1224.0</ele></trkpt>
    <trkpt lat="34.78226" lon="-119.33499"><ele>1224.0</ele></trkpt>
    <trkpt lat="34.78245" lon="-119.33487"><ele>1228.0</ele></trkpt>
    <trkpt lat="34.78264" lon="-119.33476"><ele>1228.0</ele></trkpt>
    <trkpt lat="34.78288" lon="-119.33459"><ele>1228.0</ele></trkpt>
    <trkpt lat="34.78314" lon="-119.33440"><ele>1228.0</ele></trkpt>
    <trkpt lat="34.78340" lon="-119.33417"><ele>1228.0</ele></trkpt>
    <trkpt lat="34.78348" lon="-119.33406"><ele>1228.0</ele></trkpt>
    <trkpt lat="34.78353" lon="-119.33383"><ele>1228.0</ele></trkpt>
    <trkpt lat="34.78366" lon="-119.33351"><ele>1231.0</ele></trkpt>
    <trkpt lat="34.78371" lon="-119.33335"><ele>1231.0</ele></trkpt>
    <trkpt lat="34.78371" lon="-119.33320"><ele>1231.0</ele></trkpt>
    <trkpt lat="34.78386" lon="-119.33321"><ele>1231.0</ele></trkpt>
    <trkpt lat="34.78402" lon="-119.33319"><ele>1231.0</ele></trkpt>
    <trkpt lat="34.78412" lon="-119.33316"><ele>1231.0</ele></trkpt>
    <trkpt lat="34.78419" lon="-119.33316"><ele>1231.0</ele></trkpt>
    <trkpt lat="34.78456" lon="-119.33317"><ele>1230.0</ele></trkpt>
    <trkpt lat="34.78484" lon="-119.33319"><ele>1230.0</ele></trkpt>
    <trkpt lat="34.78500" lon="-119.33320"><ele>1230.0</ele></trkpt>
    <trkpt lat="34.78534" lon="-119.33322"><ele>1230.0</ele></trkpt>
    <trkpt lat="34.78564" lon="-119.33324"><ele>1230.0</ele></trkpt>
    <trkpt lat="34.78575" lon="-119.33324"><ele>1230.0</ele></trkpt>
    <trkpt lat="34.78591" lon="-119.33325"><ele>1230.0</ele></trkpt>
    <trkpt lat="34.78595" lon="-119.33320"><ele>1229.0</ele></trkpt>
    <trkpt lat="34.78602" lon="-119.33306"><ele>1229.0</ele></trkpt>
    <trkpt lat="34.78604" lon="-119.33293"><ele>1229.0</ele></trkpt>
    <trkpt lat="34.78613" lon="-119.33265"><ele>1229.0</ele></trkpt>
    <trkpt lat="34.78623" lon="-119.33239"><ele>1229.0</ele></trkpt>
    <trkpt lat="34.78632" lon="-119.33220"><ele>1229.0</ele></trkpt>
    <trkpt lat="34.78643" lon="-119.33187"><ele>1229.0</ele></trkpt>
    <trkpt lat="34.78656" lon="-119.33163"><ele>1235.0</ele></trkpt>
    <trkpt lat="34.78667" lon="-119.33144"><ele>1235.0</ele></trkpt>
    <trkpt lat="34.78681" lon="-119.33109"><ele>1235.0</ele></trkpt>
    <trkpt lat="34.78691" lon="-119.33086"><ele>1235.0</ele></trkpt>
    <trkpt lat="34.78700" lon="-119.33054"><ele>1235.0</ele></trkpt>
    <trkpt lat="34.78709" lon="-119.33025"><ele>1235.0</ele></trkpt>
    <trkpt lat="34.78719" lon="-119.32990"><ele>1235.0</ele></trkpt>
    <trkpt lat="34.78728" lon="-119.32960"><ele>1239.0</ele></trkpt>
    <trkpt lat="34.78741" lon="-119.32930"><ele>1239.0</ele></trkpt>
    <trkpt lat="34.78746" lon="-119.32912"><ele>1239.0</ele></trkpt>
    <trkpt lat="34.78751" lon="-119.32890"><ele>1239.0</ele></trkpt>
    <trkpt lat="34.78761" lon="-119.32848"><ele>1239.0</ele></trkpt>
    <trkpt lat="34.78768" lon="-119.32814"><ele>1239.0</ele></trkpt>
    <trkpt lat="34.78778" lon="-119.32779"><ele>1239.0</ele></trkpt>
    <trkpt lat="34.78785" lon="-119.32753"><ele>1244.0</ele></trkpt>
    <trkpt lat="34.78793" lon="-119.32721"><ele>1244.0</ele></trkpt>
    <trkpt lat="34.78797" lon="-119.32691"><ele>1244.0</ele></trkpt>
    <trkpt lat="34.78805" lon="-119.32665"><ele>1244.0</ele></trkpt>
    <trkpt lat="34.78811" lon="-119.32649"><ele>1244.0</ele></trkpt>
    <trkpt lat="34.78812" lon="-119.32637"><ele>1244.0</ele></trkpt>
    <trkpt lat="34.78812" lon="-119.32615"><ele>1247.0</ele></trkpt>
    <trkpt lat="34.78813" lon="-119.32590"><ele>1247.0</ele></trkpt>
    <trkpt lat="34.78825" lon="-119.32568"><ele>1247.0</ele></trkpt>
    <trkpt lat="34.78839" lon="-119.32550"><ele>1247.0</ele></trkpt>
    <trkpt lat="34.78843" lon="-119.32527"><ele>1247.0</ele></trkpt>
    <trkpt lat="34.78849" lon="-119.32500"><ele>1247.0</ele></trkpt>
    <trkpt lat="34.78856" lon="-119.32472"><ele>1247.0</ele></trkpt>
    <trkpt lat="34.78861" lon="-119.32448"><ele>1255.0</ele></trkpt>
    <trkpt lat="34.78863" lon="-119.32428"><ele>1255.0</ele></trkpt>
    <trkpt lat="34.78864" lon="-119.32408"><ele>1255.0</ele></trkpt>
    <trkpt lat="34.78872" lon="-119.32375"><ele>1255.0</ele></trkpt>
    <trkpt lat="34.78877" lon="-119.32364"><ele>1255.0</ele></trkpt>
    <trkpt lat="34.78889" lon="-119.32343"><ele>1255.0</ele></trkpt>
    <trkpt lat="34.78904" lon="-119.32328"><ele>1255.0</ele></trkpt>
    <trkpt lat="34.78926" lon="-119.32312"><ele>1255.0</ele></trkpt>
    <trkpt lat="34.78946" lon="-119.32295"><ele>1255.0</ele></trkpt>
    <trkpt lat="34.78959" lon="-119.32294"><ele>1255.0</ele></trkpt>
    <trkpt lat="34.78975" lon="-119.32292"><ele>1255.0</ele></trkpt>
    <trkpt lat="34.78980" lon="-119.32292"><ele>1255.0</ele></trkpt>
    <trkpt lat="34.78991" lon="-119.32292"><ele>1255.0</ele></trkpt>
    <trkpt lat="34.79018" lon="-119.32291"><ele>1255.0</ele></trkpt>
    <trkpt lat="34.79040" lon="-119.32284"><ele>1258.0</ele></trkpt>
    <trkpt lat="34.79050" lon="-119.32278"><ele>1258.0</ele></trkpt>
    <trkpt lat="34.79054" lon="-119.32272"><ele>1258.0</ele></trkpt>
    <trkpt lat="34.79066" lon="-119.32248"><ele>1258.0</ele></trkpt>
    <trkpt lat="34.79073" lon="-119.32228"><ele>1258.0</ele></trkpt>
    <trkpt lat="34.79077" lon="-119.32205"><ele>1258.0</ele></trkpt>
    <trkpt lat="34.79086" lon="-119.32165"><ele>1258.0</ele></trkpt>
    <trkpt lat="34.79090" lon="-119.32139"><ele>1266.0</ele></trkpt>
    <trkpt lat="34.79102" lon="-119.32101"><ele>1266.0</ele></trkpt>
    <trkpt lat="34.79109" lon="-119.32076"><ele>1266.0</ele></trkpt>
    <trkpt lat="34.79119" lon="-119.32040"><ele>1266.0</ele></trkpt>
    <trkpt lat="34.79130" lon="-119.32003"><ele>1266.0</ele></trkpt>
    <trkpt lat="34.79138" lon="-119.31976"><ele>1266.0</ele></trkpt>
    <trkpt lat="34.79147" lon="-119.31944"><ele>1266.0</ele></trkpt>
    <trkpt lat="34.79157" lon="-119.31926"><ele>1272.0</ele></trkpt>
    <trkpt lat="34.79162" lon="-119.31911"><ele>1272.0</ele></trkpt>
    <trkpt lat="34.79174" lon="-119.31875"><ele>1272.0</ele></trkpt>
    <trkpt lat="34.79180" lon="-119.31855"><ele>1272.0</ele></trkpt>
    <trkpt lat="34.79187" lon="-119.31836"><ele>1272.0</ele></trkpt>
    <trkpt lat="34.79204" lon="-119.31803"><ele>1272.0</ele></trkpt>
    <trkpt lat="34.79215" lon="-119.31781"><ele>1272.0</ele></trkpt>
    <trkpt lat="34.79219" lon="-119.31756"><ele>1277.0</ele></trkpt>
    <trkpt lat="34.79225" lon="-119.31730"><ele>1277.0</ele></trkpt>
    <trkpt lat="34.79230" lon="-119.31692"><ele>1277.0</ele></trkpt>
    <trkpt lat="34.79234" lon="-119.31653"><ele>1277.0</ele></trkpt>
    <trkpt lat="34.79239" lon="-119.31621"><ele>1277.0</ele></trkpt>
    <trkpt lat="34.79243" lon="-119.31591"><ele>1277.0</ele></trkpt>
    <trkpt lat="34.79249" lon="-119.31551"><ele>1277.0</ele></trkpt>
    <trkpt lat="34.79251" lon="-119.31515"><ele>1279.0</ele></trkpt>
    <trkpt lat="34.79256" lon="-119.31462"><ele>1279.0</ele></trkpt>
    <trkpt lat="34.79261" lon="-119.31433"><ele>1279.0</ele></trkpt>
    <trkpt lat="34.79266" lon="-119.31387"><ele>1279.0</ele></trkpt>
    <trkpt lat="34.79271" lon="-119.31350"><ele>1279.0</ele></trkpt>
    <trkpt lat="34.79269" lon="-119.31324"><ele>1279.0</ele></trkpt>
    <trkpt lat="34.79269" lon="-119.31297"><ele>1279.0</ele></trkpt>
    <trkpt lat="34.79272" lon="-119.31277"><ele>1284.0</ele></trkpt>
    <trkpt lat="34.79282" lon="-119.31253"><ele>1284.0</ele></trkpt>
    <trkpt lat="34.79291" lon="-119.31217"><ele>1284.0</ele></trkpt>
    <trkpt lat="34.79295" lon="-119.31191"><ele>1284.0</ele></trkpt>
    <trkpt lat="34.79297" lon="-119.31166"><ele>1284.0</ele></trkpt>
    <trkpt lat="34.79301" lon="-119.31131"><ele>1284.0</ele></trkpt>
    <trkpt lat="34.79304" lon="-119.31114"><ele>1284.0</ele></trkpt>
    <trkpt lat="34.79304" lon="-119.31077"><ele>1289.0</ele></trkpt>
    <trkpt lat="34.79306" lon="-119.31033"><ele>1289.0</ele></trkpt>
    <trkpt lat="34.79307" lon="-119.31011"><ele>1289.0</ele></trkpt>
    <trkpt lat="34.79315" lon="-119.30969"><ele>1289.0</ele></trkpt>
    <trkpt lat="34.79320" lon="-119.30947"><ele>1289.0</ele></trkpt>
    <trkpt lat="34.79328" lon="-119.30928"><ele>1289.0</ele></trkpt>
    <trkpt lat="34.79328" lon="-119.30893"><ele>1289.0</ele></trkpt>
    <trkpt lat="34.79339" lon="-119.30854"><ele>1295.0</ele></trkpt>
    <trkpt lat="34.79347" lon="-119.30819"><ele>1295.0</ele></trkpt>
    <trkpt lat="34.79355" lon="-119.30796"><ele>1295.0</ele></trkpt>
    <trkpt lat="34.79363" lon="-119.30762"><ele>1295.0</ele></trkpt>
    <trkpt lat="34.79374" lon="-119.30730"><ele>1295.0</ele></trkpt>
    <trkpt lat="34.79379" lon="-119.30701"><ele>1295.0</ele></trkpt>
    <trkpt lat="34.79384" lon="-119.30673"><ele>1295.0</ele></trkpt>
    <trkpt lat="34.79391" lon="-119.30656"><ele>1298.0</ele></trkpt>
    <trkpt lat="34.79404" lon="-119.30629"><ele>1298.0</ele></trkpt>
    <trkpt lat="34.79409" lon="-119.30614"><ele>1298.0</ele></trkpt>
    <trkpt lat="34.79417" lon="-119.30598"><ele>1298.0</ele></trkpt>
    <trkpt lat="34.79434" lon="-119.30582"><ele>1298.0</ele></trkpt>
    <trkpt lat="34.79452" lon="-119.30563"><ele>1298.0</ele></trkpt>
    <trkpt lat="34.79472" lon="-119.30543"><ele>1298.0</ele></trkpt>
    <trkpt lat="34.79493" lon="-119.30524"><ele>1304.0</ele></trkpt>
    <trkpt lat="34.79510" lon="-119.30504"><ele>1304.0</ele></trkpt>
    <trkpt lat="34.79525" lon="-119.30491"><ele>1304.0</ele></trkpt>
    <trkpt lat="34.79533" lon="-119.30479"><ele>1304.0</ele></trkpt>
    <trkpt lat="34.79558" lon="-119.30445"><ele>1304.0</ele></trkpt>
    <trkpt lat="34.79562" lon="-119.30434"><ele>1304.0</ele></trkpt>
    <trkpt lat="34.79566" lon="-119.30409"><ele>1304.0</ele></trkpt>
    <trkpt lat="34.79571" lon="-119.30369"><ele>1306.0</ele></trkpt>
    <trkpt lat="34.79575" lon="-119.30325"><ele>1306.0</ele></trkpt>
    <trkpt lat="34.79578" lon="-119.30291"><ele>1306.0</ele></trkpt>
    <trkpt lat="34.79579" lon="-119.30232"><ele>1306.0</ele></trkpt>
    <trkpt lat="34.79580" lon="-119.30169"><ele>1306.0</ele></trkpt>
    <trkpt lat="34.79582" lon="-119.30114"><ele>1306.0</ele></trkpt>
    <trkpt lat="34.79581" lon="-119.30085"><ele>1306.0</ele></trkpt>
    <trkpt lat="34.79584" lon="-119.30020"><ele>1315.0</ele></trkpt>
    <trkpt lat="34.79587" lon="-119.29982"><ele>1315.0</ele></trkpt>
    <trkpt lat="34.79588" lon="-119.29930"><ele>1315.0</ele></trkpt>
    <trkpt lat="34.79588" lon="-119.29880"><ele>1315.0</ele></trkpt>
    <trkpt lat="34.79591" lon="-119.29826"><ele>1315.0</ele></trkpt>
    <trkpt lat="34.79595" lon="-119.29778"><ele>1315.0</ele></trkpt>
    <trkpt lat="34.79595" lon="-119.29711"><ele>1315.0</ele></trkpt>
    <trkpt lat="34.79595" lon="-119.29666"><ele>1323.0</ele></trkpt>
    <trkpt lat="34.79603" lon="-119.29610"><ele>1323.0</ele></trkpt>
    <trkpt lat="34.79611" lon="-119.29550"><ele>1323.0</ele></trkpt>
    <trkpt lat="34.79612" lon="-119.29520"><ele>1323.0</ele></trkpt>
    <trkpt lat="34.79617" lon="-119.29490"><ele>1323.0</ele></trkpt>
    <trkpt lat="34.79634" lon="-119.29457"><ele>1323.0</ele></trkpt>
    <trkpt lat="34.79648" lon="-119.29437"><ele>1323.0</ele></trkpt>
    <trkpt lat="34.79658" lon="-119.29433"><ele>1326.0</ele></trkpt>
    <trkpt lat="34.79675" lon="-119.29434"><ele>1326.0</ele></trkpt>
    <trkpt lat="34.79683" lon="-119.29432"><ele>1326.0</ele></trkpt>
    <trkpt lat="34.79691" lon="-119.29423"><ele>1326.0</ele></trkpt>
    <trkpt lat="34.79708" lon="-119.29406"><ele>1326.0</ele></trkpt>
    <trkpt lat="34.79728" lon="-119.29382"><ele>1326.0</ele></trkpt>
    <trkpt lat="34.79733" lon="-119.29367"><ele>1326.0</ele></trkpt>
    <trkpt lat="34.79738" lon="-119.29353"><ele>1328.0</ele></trkpt>
    <trkpt lat="34.79744" lon="-119.29344"><ele>1328.0</ele></trkpt>
    <trkpt lat="34.79759" lon="-119.29343"><ele>1328.0</ele></trkpt>
    <trkpt lat="34.79776" lon="-119.29340"><ele>1328.0</ele></trkpt>
    <trkpt lat="34.79789" lon="-119.29341"><ele>1328.0</ele></trkpt>
    <trkpt lat="34.79809" lon="-119.29344"><ele>1328.0</ele></trkpt>
    <trkpt lat="34.79817" lon="-119.29346"><ele>1333.0</ele></trkpt>
    <trkpt lat="34.79842" lon="-119.29353"><ele>1333.0</ele></trkpt>
    <trkpt lat="34.79851" lon="-119.29357"><ele>1333.0</ele></trkpt>
    <trkpt lat="34.79861" lon="-119.29363"><ele>1333.0</ele></trkpt>
    <trkpt lat="34.79876" lon="-119.29374"><ele>1333.0</ele></trkpt>
    <trkpt lat="34.79889" lon="-119.29384"><ele>1333.0</ele></trkpt>
    <trkpt lat="34.79911" lon="-119.29400"><ele>1333.0</ele></trkpt>
    <trkpt lat="34.79918" lon="-119.29409"><ele>1337.0</ele></trkpt>
    <trkpt lat="34.79928" lon="-119.29422"><ele>1337.0</ele></trkpt>
    <trkpt lat="34.79940" lon="-119.29431"><ele>1337.0</ele></trkpt>
    <trkpt lat="34.79949" lon="-119.29439"><ele>1337.0</ele></trkpt>
    <trkpt lat="34.79961" lon="-119.29454"><ele>1337.0</ele></trkpt>
    <trkpt lat="34.79981" lon="-119.29481"><ele>1337.0</ele></trkpt>
    <trkpt lat="34.79993" lon="-119.29499"><ele>1337.0</ele></trkpt>
    <trkpt lat="34.80007" lon="-119.29513"><ele>1342.0</ele></trkpt>
    <trkpt lat="34.80020" lon="-119.29515"><ele>1342.0</ele></trkpt>
    <trkpt lat="34.80043" lon="-119.29515"><ele>1342.0</ele></trkpt>
    <trkpt lat="34.80054" lon="-119.29500"><ele>1342.0</ele></trkpt>
    <trkpt lat="34.80069" lon="-119.29483"><ele>1342.0</ele></trkpt>
    <trkpt lat="34.80094" lon="-119.29464"><ele>1342.0</ele></trkpt>
    <trkpt lat="34.80105" lon="-119.29456"><ele>1342.0</ele></trkpt>
    <trkpt lat="34.80132" lon="-119.29440"><ele>1351.0</ele></trkpt>
    <trkpt lat="34.80159" lon="-119.29423"><ele>1351.0</ele></trkpt>
    <trkpt lat="34.80181" lon="-119.29410"><ele>1351.0</ele></trkpt>
    <trkpt lat="34.80189" lon="-119.29403"><ele>1351.0</ele></trkpt>
    <trkpt lat="34.80215" lon="-119.29374"><ele>1351.0</ele></trkpt>
    <trkpt lat="34.80223" lon="-119.29366"><ele>1351.0</ele></trkpt>
    <trkpt lat="34.80239" lon="-119.29350"><ele>1351.0</ele></trkpt>
    <trkpt lat="34.80260" lon="-119.29331"><ele>1358.0</ele></trkpt>
    <trkpt lat="34.80260" lon="-119.29331"><ele>1358.0</ele></trkpt>
    <trkpt lat="34.80264" lon="-119.29309"><ele>1358.0</ele></trkpt>
    <trkpt lat="34.80273" lon="-119.29285"><ele>1358.0</ele></trkpt>
    <trkpt lat="34.80280" lon="-119.29267"><ele>1358.0</ele></trkpt>
    <trkpt lat="34.80288" lon="-119.29250"><ele>1358.0</ele></trkpt>
    <trkpt lat="34.80302" lon="-119.29232"><ele>1358.0</ele></trkpt>
    <trkpt lat="34.80317" lon="-119.29216"><ele>1356.0</ele></trkpt>
    <trkpt lat="34.80327" lon="-119.29207"><ele>1356.0</ele></trkpt>
    <trkpt lat="34.80335" lon="-119.29207"><ele>1356.0</ele></trkpt>
    <trkpt lat="34.80341" lon="-119.29209"><ele>1356.0</ele></trkpt>
    <trkpt lat="34.80342" lon="-119.29216"><ele>1356.0</ele></trkpt>
    <trkpt lat="34.80342" lon="-119.29221"><ele>1356.0</ele></trkpt>
    <trkpt lat="34.80339" lon="-119.29233"><ele>1356.0</ele></trkpt>
    <trkpt lat="34.80338" lon="-119.29247"><ele>1355.0</ele></trkpt>
    <trkpt lat="34.80339" lon="-119.29263"><ele>1355.0</ele></trkpt>
    <trkpt lat="34.80339" lon="-119.29278"><ele>1355.0</ele></trkpt>
    <trkpt lat="34.80333" lon="-119.29296"><ele>1355.0</ele></trkpt>
    <trkpt lat="34.80317" lon="-119.29314"><ele>1355.0</ele></trkpt>
    <trkpt lat="34.80302" lon="-119.29322"><ele>1355.0</ele></trkpt>
    <trkpt lat="34.80292" lon="-119.29323"><ele>1355.0</ele></trkpt>
    <trkpt lat="34.80283" lon="-119.29324"><ele>1352.0</ele></trkpt>
    <trkpt lat="34.80271" lon="-119.29327"><ele>1352.0</ele></trkpt>
    <trkpt lat="34.80267" lon="-119.29328"><ele>1352.0</ele></trkpt>
    <trkpt lat="34.80261" lon="-119.29331"><ele>1352.0</ele></trkpt>
  </trkseg></trk>
  <trk><name>Quatal Canyon OHV</name><trkseg>
    <trkpt lat="34.83633" lon="-119.38291"><ele>1076.0</ele></trkpt>
    <trkpt lat="34.83639" lon="-119.38278"><ele>1076.0</ele></trkpt>
    <trkpt lat="34.83658" lon="-119.38225"><ele>1076.0</ele></trkpt>
    <trkpt lat="34.83825" lon="-119.37743"><ele>1093.0</ele></trkpt>
    <trkpt lat="34.83845" lon="-119.37694"><ele>1093.0</ele></trkpt>
    <trkpt lat="34.83853" lon="-119.37664"><ele>1093.0</ele></trkpt>
    <trkpt lat="34.83859" lon="-119.37633"><ele>1093.0</ele></trkpt>
    <trkpt lat="34.83860" lon="-119.37597"><ele>1095.0</ele></trkpt>
    <trkpt lat="34.83857" lon="-119.37556"><ele>1095.0</ele></trkpt>
    <trkpt lat="34.83852" lon="-119.37514"><ele>1095.0</ele></trkpt>
    <trkpt lat="34.83849" lon="-119.37471"><ele>1095.0</ele></trkpt>
    <trkpt lat="34.83843" lon="-119.37408"><ele>1095.0</ele></trkpt>
    <trkpt lat="34.83833" lon="-119.37305"><ele>1098.0</ele></trkpt>
    <trkpt lat="34.83831" lon="-119.37281"><ele>1098.0</ele></trkpt>
    <trkpt lat="34.83827" lon="-119.37242"><ele>1098.0</ele></trkpt>
    <trkpt lat="34.83821" lon="-119.37174"><ele>1098.0</ele></trkpt>
    <trkpt lat="34.83818" lon="-119.37142"><ele>1101.0</ele></trkpt>
    <trkpt lat="34.83812" lon="-119.37091"><ele>1101.0</ele></trkpt>
    <trkpt lat="34.83808" lon="-119.37049"><ele>1101.0</ele></trkpt>
    <trkpt lat="34.83800" lon="-119.36966"><ele>1101.0</ele></trkpt>
    <trkpt lat="34.83798" lon="-119.36932"><ele>1101.0</ele></trkpt>
    <trkpt lat="34.83796" lon="-119.36905"><ele>1103.0</ele></trkpt>
    <trkpt lat="34.83794" lon="-119.36881"><ele>1103.0</ele></trkpt>
    <trkpt lat="34.83787" lon="-119.36810"><ele>1103.0</ele></trkpt>
    <trkpt lat="34.83785" lon="-119.36762"><ele>1103.0</ele></trkpt>
    <trkpt lat="34.83776" lon="-119.36684"><ele>1113.0</ele></trkpt>
    <trkpt lat="34.83769" lon="-119.36618"><ele>1113.0</ele></trkpt>
    <trkpt lat="34.83763" lon="-119.36535"><ele>1113.0</ele></trkpt>
    <trkpt lat="34.83761" lon="-119.36515"><ele>1113.0</ele></trkpt>
    <trkpt lat="34.83759" lon="-119.36475"><ele>1113.0</ele></trkpt>
    <trkpt lat="34.83755" lon="-119.36447"><ele>1118.0</ele></trkpt>
    <trkpt lat="34.83753" lon="-119.36412"><ele>1118.0</ele></trkpt>
    <trkpt lat="34.83748" lon="-119.36370"><ele>1118.0</ele></trkpt>
    <trkpt lat="34.83744" lon="-119.36339"><ele>1118.0</ele></trkpt>
    <trkpt lat="34.83744" lon="-119.36339"><ele>1125.0</ele></trkpt>
    <trkpt lat="34.83740" lon="-119.36293"><ele>1125.0</ele></trkpt>
    <trkpt lat="34.83737" lon="-119.36262"><ele>1125.0</ele></trkpt>
    <trkpt lat="34.83737" lon="-119.36245"><ele>1125.0</ele></trkpt>
    <trkpt lat="34.83734" lon="-119.36212"><ele>1125.0</ele></trkpt>
    <trkpt lat="34.83727" lon="-119.36148"><ele>1131.0</ele></trkpt>
    <trkpt lat="34.83721" lon="-119.36079"><ele>1131.0</ele></trkpt>
    <trkpt lat="34.83709" lon="-119.35941"><ele>1131.0</ele></trkpt>
    <trkpt lat="34.83706" lon="-119.35906"><ele>1131.0</ele></trkpt>
    <trkpt lat="34.83700" lon="-119.35843"><ele>1140.0</ele></trkpt>
    <trkpt lat="34.83699" lon="-119.35819"><ele>1140.0</ele></trkpt>
    <trkpt lat="34.83694" lon="-119.35783"><ele>1140.0</ele></trkpt>
    <trkpt lat="34.83688" lon="-119.35715"><ele>1140.0</ele></trkpt>
    <trkpt lat="34.83678" lon="-119.35612"><ele>1149.0</ele></trkpt>
    <trkpt lat="34.83667" lon="-119.35511"><ele>1149.0</ele></trkpt>
    <trkpt lat="34.83654" lon="-119.35354"><ele>1149.0</ele></trkpt>
    <trkpt lat="34.83644" lon="-119.35259"><ele>1149.0</ele></trkpt>
    <trkpt lat="34.83635" lon="-119.35142"><ele>1149.0</ele></trkpt>
    <trkpt lat="34.83630" lon="-119.35076"><ele>1163.0</ele></trkpt>
    <trkpt lat="34.83613" lon="-119.34914"><ele>1163.0</ele></trkpt>
    <trkpt lat="34.83591" lon="-119.34682"><ele>1163.0</ele></trkpt>
    <trkpt lat="34.83570" lon="-119.34448"><ele>1163.0</ele></trkpt>
    <trkpt lat="34.83563" lon="-119.34367"><ele>1183.0</ele></trkpt>
    <trkpt lat="34.83556" lon="-119.34291"><ele>1183.0</ele></trkpt>
    <trkpt lat="34.83551" lon="-119.34241"><ele>1183.0</ele></trkpt>
    <trkpt lat="34.83548" lon="-119.34212"><ele>1183.0</ele></trkpt>
    <trkpt lat="34.83542" lon="-119.34182"><ele>1183.0</ele></trkpt>
    <trkpt lat="34.83538" lon="-119.34150"><ele>1184.0</ele></trkpt>
    <trkpt lat="34.83528" lon="-119.34098"><ele>1184.0</ele></trkpt>
    <trkpt lat="34.83516" lon="-119.34029"><ele>1184.0</ele></trkpt>
    <trkpt lat="34.83504" lon="-119.33975"><ele>1184.0</ele></trkpt>
    <trkpt lat="34.83488" lon="-119.33882"><ele>1192.0</ele></trkpt>
    <trkpt lat="34.83473" lon="-119.33786"><ele>1192.0</ele></trkpt>
    <trkpt lat="34.83465" lon="-119.33747"><ele>1192.0</ele></trkpt>
    <trkpt lat="34.83459" lon="-119.33715"><ele>1192.0</ele></trkpt>
    <trkpt lat="34.83451" lon="-119.33668"><ele>1192.0</ele></trkpt>
    <trkpt lat="34.83441" lon="-119.33601"><ele>1197.0</ele></trkpt>
    <trkpt lat="34.83432" lon="-119.33556"><ele>1197.0</ele></trkpt>
    <trkpt lat="34.83428" lon="-119.33507"><ele>1197.0</ele></trkpt>
    <trkpt lat="34.83424" lon="-119.33474"><ele>1197.0</ele></trkpt>
    <trkpt lat="34.83418" lon="-119.33389"><ele>1199.0</ele></trkpt>
    <trkpt lat="34.83408" lon="-119.33284"><ele>1199.0</ele></trkpt>
    <trkpt lat="34.83402" lon="-119.33202"><ele>1199.0</ele></trkpt>
    <trkpt lat="34.83396" lon="-119.33112"><ele>1199.0</ele></trkpt>
    <trkpt lat="34.83393" lon="-119.33074"><ele>1204.0</ele></trkpt>
    <trkpt lat="34.83391" lon="-119.33030"><ele>1204.0</ele></trkpt>
    <trkpt lat="34.83388" lon="-119.33005"><ele>1204.0</ele></trkpt>
    <trkpt lat="34.83391" lon="-119.32975"><ele>1204.0</ele></trkpt>
    <trkpt lat="34.83397" lon="-119.32937"><ele>1204.0</ele></trkpt>
    <trkpt lat="34.83400" lon="-119.32915"><ele>1206.0</ele></trkpt>
    <trkpt lat="34.83410" lon="-119.32880"><ele>1206.0</ele></trkpt>
    <trkpt lat="34.83463" lon="-119.32699"><ele>1206.0</ele></trkpt>
    <trkpt lat="34.83482" lon="-119.32635"><ele>1206.0</ele></trkpt>
    <trkpt lat="34.83502" lon="-119.32562"><ele>1225.0</ele></trkpt>
    <trkpt lat="34.83516" lon="-119.32509"><ele>1225.0</ele></trkpt>
    <trkpt lat="34.83577" lon="-119.32309"><ele>1225.0</ele></trkpt>
    <trkpt lat="34.83600" lon="-119.32227"><ele>1225.0</ele></trkpt>
    <trkpt lat="34.83618" lon="-119.32164"><ele>1225.0</ele></trkpt>
    <trkpt lat="34.83634" lon="-119.32107"><ele>1230.0</ele></trkpt>
    <trkpt lat="34.83652" lon="-119.32043"><ele>1230.0</ele></trkpt>
    <trkpt lat="34.83665" lon="-119.32004"><ele>1230.0</ele></trkpt>
    <trkpt lat="34.83707" lon="-119.31868"><ele>1230.0</ele></trkpt>
    <trkpt lat="34.83724" lon="-119.31805"><ele>1243.0</ele></trkpt>
    <trkpt lat="34.83754" lon="-119.31704"><ele>1243.0</ele></trkpt>
    <trkpt lat="34.83769" lon="-119.31649"><ele>1243.0</ele></trkpt>
    <trkpt lat="34.83832" lon="-119.31441"><ele>1243.0</ele></trkpt>
    <trkpt lat="34.83850" lon="-119.31378"><ele>1243.0</ele></trkpt>
    <trkpt lat="34.83860" lon="-119.31352"><ele>1255.0</ele></trkpt>
    <trkpt lat="34.83876" lon="-119.31291"><ele>1255.0</ele></trkpt>
    <trkpt lat="34.83886" lon="-119.31258"><ele>1255.0</ele></trkpt>
    <trkpt lat="34.83902" lon="-119.31195"><ele>1255.0</ele></trkpt>
    <trkpt lat="34.83924" lon="-119.31117"><ele>1257.0</ele></trkpt>
    <trkpt lat="34.83932" lon="-119.31086"><ele>1257.0</ele></trkpt>
    <trkpt lat="34.83948" lon="-119.31032"><ele>1257.0</ele></trkpt>
    <trkpt lat="34.83959" lon="-119.30996"><ele>1257.0</ele></trkpt>
    <trkpt lat="34.83977" lon="-119.30937"><ele>1257.0</ele></trkpt>
    <trkpt lat="34.83999" lon="-119.30853"><ele>1267.0</ele></trkpt>
    <trkpt lat="34.84061" lon="-119.30643"><ele>1267.0</ele></trkpt>
    <trkpt lat="34.84076" lon="-119.30587"><ele>1267.0</ele></trkpt>
    <trkpt lat="34.84110" lon="-119.30473"><ele>1267.0</ele></trkpt>
    <trkpt lat="34.84133" lon="-119.30384"><ele>1280.0</ele></trkpt>
    <trkpt lat="34.84174" lon="-119.30251"><ele>1280.0</ele></trkpt>
    <trkpt lat="34.84193" lon="-119.30180"><ele>1280.0</ele></trkpt>
    <trkpt lat="34.84209" lon="-119.30123"><ele>1280.0</ele></trkpt>
    <trkpt lat="34.84222" lon="-119.30080"><ele>1291.0</ele></trkpt>
    <trkpt lat="34.84241" lon="-119.30016"><ele>1291.0</ele></trkpt>
    <trkpt lat="34.84266" lon="-119.29929"><ele>1291.0</ele></trkpt>
    <trkpt lat="34.84290" lon="-119.29845"><ele>1291.0</ele></trkpt>
    <trkpt lat="34.84304" lon="-119.29803"><ele>1291.0</ele></trkpt>
    <trkpt lat="34.84320" lon="-119.29744"><ele>1300.0</ele></trkpt>
    <trkpt lat="34.84340" lon="-119.29679"><ele>1300.0</ele></trkpt>
    <trkpt lat="34.84361" lon="-119.29607"><ele>1300.0</ele></trkpt>
    <trkpt lat="34.84373" lon="-119.29564"><ele>1300.0</ele></trkpt>
    <trkpt lat="34.84399" lon="-119.29472"><ele>1310.0</ele></trkpt>
    <trkpt lat="34.84416" lon="-119.29417"><ele>1310.0</ele></trkpt>
    <trkpt lat="34.84445" lon="-119.29322"><ele>1310.0</ele></trkpt>
    <trkpt lat="34.84461" lon="-119.29266"><ele>1310.0</ele></trkpt>
    <trkpt lat="34.84482" lon="-119.29189"><ele>1310.0</ele></trkpt>
    <trkpt lat="34.84508" lon="-119.29098"><ele>1321.0</ele></trkpt>
    <trkpt lat="34.84530" lon="-119.29023"><ele>1321.0</ele></trkpt>
    <trkpt lat="34.84550" lon="-119.28961"><ele>1321.0</ele></trkpt>
    <trkpt lat="34.84568" lon="-119.28895"><ele>1321.0</ele></trkpt>
    <trkpt lat="34.84586" lon="-119.28837"><ele>1334.0</ele></trkpt>
    <trkpt lat="34.84598" lon="-119.28794"><ele>1334.0</ele></trkpt>
    <trkpt lat="34.84616" lon="-119.28729"><ele>1334.0</ele></trkpt>
    <trkpt lat="34.84632" lon="-119.28666"><ele>1334.0</ele></trkpt>
    <trkpt lat="34.84654" lon="-119.28579"><ele>1334.0</ele></trkpt>
    <trkpt lat="34.84674" lon="-119.28502"><ele>1348.0</ele></trkpt>
    <trkpt lat="34.84692" lon="-119.28425"><ele>1348.0</ele></trkpt>
    <trkpt lat="34.84712" lon="-119.28345"><ele>1348.0</ele></trkpt>
    <trkpt lat="34.84733" lon="-119.28275"><ele>1348.0</ele></trkpt>
    <trkpt lat="34.84776" lon="-119.28091"><ele>1365.0</ele></trkpt>
    <trkpt lat="34.84799" lon="-119.27989"><ele>1365.0</ele></trkpt>
    <trkpt lat="34.84817" lon="-119.27913"><ele>1365.0</ele></trkpt>
    <trkpt lat="34.84834" lon="-119.27849"><ele>1365.0</ele></trkpt>
    <trkpt lat="34.84848" lon="-119.27794"><ele>1378.0</ele></trkpt>
    <trkpt lat="34.84877" lon="-119.27675"><ele>1378.0</ele></trkpt>
    <trkpt lat="34.84890" lon="-119.27627"><ele>1378.0</ele></trkpt>
    <trkpt lat="34.84898" lon="-119.27588"><ele>1378.0</ele></trkpt>
    <trkpt lat="34.84906" lon="-119.27556"><ele>1378.0</ele></trkpt>
    <trkpt lat="34.84919" lon="-119.27506"><ele>1392.0</ele></trkpt>
    <trkpt lat="34.84933" lon="-119.27446"><ele>1392.0</ele></trkpt>
    <trkpt lat="34.84942" lon="-119.27406"><ele>1392.0</ele></trkpt>
    <trkpt lat="34.84953" lon="-119.27362"><ele>1392.0</ele></trkpt>
    <trkpt lat="34.84966" lon="-119.27312"><ele>1407.0</ele></trkpt>
    <trkpt lat="34.84985" lon="-119.27236"><ele>1407.0</ele></trkpt>
    <trkpt lat="34.84996" lon="-119.27194"><ele>1407.0</ele></trkpt>
    <trkpt lat="34.85008" lon="-119.27145"><ele>1407.0</ele></trkpt>
    <trkpt lat="34.85019" lon="-119.27110"><ele>1407.0</ele></trkpt>
    <trkpt lat="34.85025" lon="-119.27094"><ele>1412.0</ele></trkpt>
    <trkpt lat="34.85041" lon="-119.27060"><ele>1412.0</ele></trkpt>
    <trkpt lat="34.85065" lon="-119.27031"><ele>1412.0</ele></trkpt>
    <trkpt lat="34.85073" lon="-119.27018"><ele>1412.0</ele></trkpt>
    <trkpt lat="34.85094" lon="-119.26998"><ele>1425.0</ele></trkpt>
    <trkpt lat="34.85119" lon="-119.26983"><ele>1425.0</ele></trkpt>
    <trkpt lat="34.85149" lon="-119.26973"><ele>1425.0</ele></trkpt>
    <trkpt lat="34.85182" lon="-119.26956"><ele>1425.0</ele></trkpt>
    <trkpt lat="34.85199" lon="-119.26950"><ele>1425.0</ele></trkpt>
    <trkpt lat="34.85225" lon="-119.26938"><ele>1429.0</ele></trkpt>
    <trkpt lat="34.85241" lon="-119.26933"><ele>1429.0</ele></trkpt>
    <trkpt lat="34.85271" lon="-119.26914"><ele>1429.0</ele></trkpt>
    <trkpt lat="34.85302" lon="-119.26886"><ele>1429.0</ele></trkpt>
    <trkpt lat="34.85338" lon="-119.26863"><ele>1437.0</ele></trkpt>
    <trkpt lat="34.85382" lon="-119.26827"><ele>1437.0</ele></trkpt>
    <trkpt lat="34.85415" lon="-119.26799"><ele>1437.0</ele></trkpt>
    <trkpt lat="34.85442" lon="-119.26773"><ele>1437.0</ele></trkpt>
    <trkpt lat="34.85458" lon="-119.26748"><ele>1437.0</ele></trkpt>
    <trkpt lat="34.85469" lon="-119.26727"><ele>1442.0</ele></trkpt>
    <trkpt lat="34.85482" lon="-119.26697"><ele>1442.0</ele></trkpt>
    <trkpt lat="34.85497" lon="-119.26649"><ele>1442.0</ele></trkpt>
    <trkpt lat="34.85508" lon="-119.26615"><ele>1442.0</ele></trkpt>
    <trkpt lat="34.85524" lon="-119.26564"><ele>1453.0</ele></trkpt>
    <trkpt lat="34.85535" lon="-119.26519"><ele>1453.0</ele></trkpt>
    <trkpt lat="34.85547" lon="-119.26462"><ele>1453.0</ele></trkpt>
    <trkpt lat="34.85557" lon="-119.26417"><ele>1453.0</ele></trkpt>
    <trkpt lat="34.85568" lon="-119.26376"><ele>1461.0</ele></trkpt>
    <trkpt lat="34.85574" lon="-119.26349"><ele>1461.0</ele></trkpt>
    <trkpt lat="34.85586" lon="-119.26302"><ele>1461.0</ele></trkpt>
    <trkpt lat="34.85598" lon="-119.26253"><ele>1461.0</ele></trkpt>
    <trkpt lat="34.85610" lon="-119.26202"><ele>1461.0</ele></trkpt>
    <trkpt lat="34.85619" lon="-119.26129"><ele>1479.0</ele></trkpt>
    <trkpt lat="34.85625" lon="-119.26080"><ele>1479.0</ele></trkpt>
    <trkpt lat="34.85633" lon="-119.26026"><ele>1479.0</ele></trkpt>
    <trkpt lat="34.85642" lon="-119.25982"><ele>1479.0</ele></trkpt>
    <trkpt lat="34.85644" lon="-119.25950"><ele>1484.0</ele></trkpt>
    <trkpt lat="34.85656" lon="-119.25913"><ele>1484.0</ele></trkpt>
    <trkpt lat="34.85665" lon="-119.25879"><ele>1484.0</ele></trkpt>
    <trkpt lat="34.85687" lon="-119.25820"><ele>1484.0</ele></trkpt>
    <trkpt lat="34.85700" lon="-119.25787"><ele>1484.0</ele></trkpt>
    <trkpt lat="34.85719" lon="-119.25731"><ele>1500.0</ele></trkpt>
    <trkpt lat="34.85730" lon="-119.25703"><ele>1500.0</ele></trkpt>
    <trkpt lat="34.85743" lon="-119.25676"><ele>1500.0</ele></trkpt>
    <trkpt lat="34.85762" lon="-119.25651"><ele>1500.0</ele></trkpt>
    <trkpt lat="34.85781" lon="-119.25625"><ele>1509.0</ele></trkpt>
    <trkpt lat="34.85793" lon="-119.25597"><ele>1509.0</ele></trkpt>
    <trkpt lat="34.85803" lon="-119.25576"><ele>1509.0</ele></trkpt>
    <trkpt lat="34.85820" lon="-119.25527"><ele>1509.0</ele></trkpt>
    <trkpt lat="34.85846" lon="-119.25463"><ele>1509.0</ele></trkpt>
    <trkpt lat="34.85873" lon="-119.25388"><ele>1525.0</ele></trkpt>
    <trkpt lat="34.85886" lon="-119.25349"><ele>1525.0</ele></trkpt>
    <trkpt lat="34.85892" lon="-119.25324"><ele>1525.0</ele></trkpt>
    <trkpt lat="34.85895" lon="-119.25307"><ele>1525.0</ele></trkpt>
    <trkpt lat="34.85901" lon="-119.25266"><ele>1529.0</ele></trkpt>
    <trkpt lat="34.85904" lon="-119.25248"><ele>1529.0</ele></trkpt>
    <trkpt lat="34.85911" lon="-119.25213"><ele>1529.0</ele></trkpt>
    <trkpt lat="34.85917" lon="-119.25195"><ele>1529.0</ele></trkpt>
    <trkpt lat="34.85924" lon="-119.25181"><ele>1534.0</ele></trkpt>
    <trkpt lat="34.85935" lon="-119.25155"><ele>1534.0</ele></trkpt>
    <trkpt lat="34.85948" lon="-119.25125"><ele>1534.0</ele></trkpt>
    <trkpt lat="34.85964" lon="-119.25096"><ele>1534.0</ele></trkpt>
    <trkpt lat="34.85970" lon="-119.25086"><ele>1534.0</ele></trkpt>
    <trkpt lat="34.85980" lon="-119.25070"><ele>1539.0</ele></trkpt>
    <trkpt lat="34.85987" lon="-119.25058"><ele>1539.0</ele></trkpt>
    <trkpt lat="34.85995" lon="-119.25042"><ele>1539.0</ele></trkpt>
    <trkpt lat="34.86000" lon="-119.25026"><ele>1539.0</ele></trkpt>
    <trkpt lat="34.86008" lon="-119.24999"><ele>1546.0</ele></trkpt>
    <trkpt lat="34.86011" lon="-119.24988"><ele>1546.0</ele></trkpt>
    <trkpt lat="34.86018" lon="-119.24950"><ele>1546.0</ele></trkpt>
    <trkpt lat="34.86022" lon="-119.24920"><ele>1546.0</ele></trkpt>
    <trkpt lat="34.86026" lon="-119.24887"><ele>1546.0</ele></trkpt>
    <trkpt lat="34.86030" lon="-119.24852"><ele>1557.0</ele></trkpt>
    <trkpt lat="34.86035" lon="-119.24825"><ele>1557.0</ele></trkpt>
    <trkpt lat="34.86042" lon="-119.24788"><ele>1557.0</ele></trkpt>
    <trkpt lat="34.86049" lon="-119.24764"><ele>1557.0</ele></trkpt>
    <trkpt lat="34.86057" lon="-119.24724"><ele>1565.0</ele></trkpt>
    <trkpt lat="34.86063" lon="-119.24697"><ele>1565.0</ele></trkpt>
    <trkpt lat="34.86070" lon="-119.24666"><ele>1565.0</ele></trkpt>
    <trkpt lat="34.86079" lon="-119.24641"><ele>1565.0</ele></trkpt>
    <trkpt lat="34.86090" lon="-119.24623"><ele>1565.0</ele></trkpt>
    <trkpt lat="34.86104" lon="-119.24606"><ele>1573.0</ele></trkpt>
    <trkpt lat="34.86117" lon="-119.24594"><ele>1573.0</ele></trkpt>
    <trkpt lat="34.86133" lon="-119.24574"><ele>1573.0</ele></trkpt>
    <trkpt lat="34.86150" lon="-119.24547"><ele>1573.0</ele></trkpt>
    <trkpt lat="34.86163" lon="-119.24523"><ele>1586.0</ele></trkpt>
    <trkpt lat="34.86175" lon="-119.24496"><ele>1586.0</ele></trkpt>
    <trkpt lat="34.86182" lon="-119.24479"><ele>1586.0</ele></trkpt>
    <trkpt lat="34.86192" lon="-119.24444"><ele>1586.0</ele></trkpt>
    <trkpt lat="34.86201" lon="-119.24415"><ele>1586.0</ele></trkpt>
    <trkpt lat="34.86199" lon="-119.24409"><ele>1599.0</ele></trkpt>
    <trkpt lat="34.86195" lon="-119.24407"><ele>1599.0</ele></trkpt>
    <trkpt lat="34.86188" lon="-119.24406"><ele>1599.0</ele></trkpt>
    <trkpt lat="34.86185" lon="-119.24407"><ele>1599.0</ele></trkpt>
    <trkpt lat="34.86174" lon="-119.24430"><ele>1587.0</ele></trkpt>
    <trkpt lat="34.86164" lon="-119.24450"><ele>1587.0</ele></trkpt>
    <trkpt lat="34.86150" lon="-119.24472"><ele>1587.0</ele></trkpt>
    <trkpt lat="34.86141" lon="-119.24474"><ele>1587.0</ele></trkpt>
    <trkpt lat="34.86122" lon="-119.24481"><ele>1580.0</ele></trkpt>
    <trkpt lat="34.86111" lon="-119.24487"><ele>1580.0</ele></trkpt>
    <trkpt lat="34.86106" lon="-119.24486"><ele>1580.0</ele></trkpt>
    <trkpt lat="34.86104" lon="-119.24482"><ele>1580.0</ele></trkpt>
    <trkpt lat="34.86104" lon="-119.24482"><ele>1580.0</ele></trkpt>
    <trkpt lat="34.86103" lon="-119.24480"><ele>1581.0</ele></trkpt>
    <trkpt lat="34.86101" lon="-119.24474"><ele>1581.0</ele></trkpt>
    <trkpt lat="34.86102" lon="-119.24455"><ele>1581.0</ele></trkpt>
    <trkpt lat="34.86105" lon="-119.24443"><ele>1581.0</ele></trkpt>
    <trkpt lat="34.86109" lon="-119.24427"><ele>1592.0</ele></trkpt>
    <trkpt lat="34.86112" lon="-119.24411"><ele>1592.0</ele></trkpt>
    <trkpt lat="34.86113" lon="-119.24401"><ele>1592.0</ele></trkpt>
    <trkpt lat="34.86111" lon="-119.24388"><ele>1592.0</ele></trkpt>
    <trkpt lat="34.86105" lon="-119.24374"><ele>1592.0</ele></trkpt>
    <trkpt lat="34.86090" lon="-119.24355"><ele>1599.0</ele></trkpt>
    <trkpt lat="34.86083" lon="-119.24343"><ele>1599.0</ele></trkpt>
    <trkpt lat="34.86084" lon="-119.24331"><ele>1599.0</ele></trkpt>
    <trkpt lat="34.86084" lon="-119.24316"><ele>1599.0</ele></trkpt>
    <trkpt lat="34.86080" lon="-119.24300"><ele>1610.0</ele></trkpt>
    <trkpt lat="34.86074" lon="-119.24289"><ele>1610.0</ele></trkpt>
    <trkpt lat="34.86070" lon="-119.24288"><ele>1610.0</ele></trkpt>
    <trkpt lat="34.86053" lon="-119.24275"><ele>1610.0</ele></trkpt>
    <trkpt lat="34.86051" lon="-119.24270"><ele>1610.0</ele></trkpt>
    <trkpt lat="34.86051" lon="-119.24265"><ele>1616.0</ele></trkpt>
    <trkpt lat="34.86059" lon="-119.24246"><ele>1616.0</ele></trkpt>
    <trkpt lat="34.86069" lon="-119.24225"><ele>1616.0</ele></trkpt>
    <trkpt lat="34.86080" lon="-119.24201"><ele>1616.0</ele></trkpt>
    <trkpt lat="34.86080" lon="-119.24179"><ele>1623.0</ele></trkpt>
    <trkpt lat="34.86063" lon="-119.24168"><ele>1623.0</ele></trkpt>
    <trkpt lat="34.86050" lon="-119.24157"><ele>1623.0</ele></trkpt>
    <trkpt lat="34.86033" lon="-119.24132"><ele>1623.0</ele></trkpt>
    <trkpt lat="34.86027" lon="-119.24123"><ele>1630.0</ele></trkpt>
    <trkpt lat="34.86023" lon="-119.24109"><ele>1630.0</ele></trkpt>
    <trkpt lat="34.86016" lon="-119.24080"><ele>1630.0</ele></trkpt>
    <trkpt lat="34.86015" lon="-119.24062"><ele>1630.0</ele></trkpt>
    <trkpt lat="34.86011" lon="-119.24040"><ele>1630.0</ele></trkpt>
    <trkpt lat="34.86011" lon="-119.24023"><ele>1637.0</ele></trkpt>
    <trkpt lat="34.86013" lon="-119.24004"><ele>1637.0</ele></trkpt>
    <trkpt lat="34.86010" lon="-119.23979"><ele>1637.0</ele></trkpt>
    <trkpt lat="34.86007" lon="-119.23969"><ele>1637.0</ele></trkpt>
    <trkpt lat="34.85997" lon="-119.23952"><ele>1645.0</ele></trkpt>
    <trkpt lat="34.85992" lon="-119.23927"><ele>1645.0</ele></trkpt>
    <trkpt lat="34.85987" lon="-119.23903"><ele>1645.0</ele></trkpt>
    <trkpt lat="34.85986" lon="-119.23883"><ele>1645.0</ele></trkpt>
    <trkpt lat="34.85981" lon="-119.23839"><ele>1645.0</ele></trkpt>
    <trkpt lat="34.85974" lon="-119.23823"><ele>1659.0</ele></trkpt>
    <trkpt lat="34.85961" lon="-119.23794"><ele>1659.0</ele></trkpt>
    <trkpt lat="34.85953" lon="-119.23783"><ele>1659.0</ele></trkpt>
    <trkpt lat="34.85946" lon="-119.23781"><ele>1659.0</ele></trkpt>
    <trkpt lat="34.85931" lon="-119.23782"><ele>1654.0</ele></trkpt>
    <trkpt lat="34.85925" lon="-119.23784"><ele>1654.0</ele></trkpt>
    <trkpt lat="34.85911" lon="-119.23794"><ele>1654.0</ele></trkpt>
    <trkpt lat="34.85902" lon="-119.23795"><ele>1654.0</ele></trkpt>
    <trkpt lat="34.85882" lon="-119.23787"><ele>1654.0</ele></trkpt>
    <trkpt lat="34.85877" lon="-119.23781"><ele>1659.0</ele></trkpt>
    <trkpt lat="34.85872" lon="-119.23759"><ele>1659.0</ele></trkpt>
    <trkpt lat="34.85867" lon="-119.23746"><ele>1659.0</ele></trkpt>
    <trkpt lat="34.85864" lon="-119.23742"><ele>1659.0</ele></trkpt>
    <trkpt lat="34.85844" lon="-119.23730"><ele>1664.0</ele></trkpt>
    <trkpt lat="34.85831" lon="-119.23725"><ele>1664.0</ele></trkpt>
    <trkpt lat="34.85827" lon="-119.23720"><ele>1664.0</ele></trkpt>
    <trkpt lat="34.85826" lon="-119.23715"><ele>1664.0</ele></trkpt>
    <trkpt lat="34.85827" lon="-119.23698"><ele>1664.0</ele></trkpt>
    <trkpt lat="34.85827" lon="-119.23676"><ele>1670.0</ele></trkpt>
    <trkpt lat="34.85828" lon="-119.23653"><ele>1670.0</ele></trkpt>
    <trkpt lat="34.85824" lon="-119.23628"><ele>1670.0</ele></trkpt>
    <trkpt lat="34.85822" lon="-119.23608"><ele>1670.0</ele></trkpt>
    <trkpt lat="34.85819" lon="-119.23574"><ele>1680.0</ele></trkpt>
    <trkpt lat="34.85818" lon="-119.23557"><ele>1680.0</ele></trkpt>
    <trkpt lat="34.85822" lon="-119.23542"><ele>1680.0</ele></trkpt>
    <trkpt lat="34.85826" lon="-119.23528"><ele>1680.0</ele></trkpt>
    <trkpt lat="34.85824" lon="-119.23496"><ele>1687.0</ele></trkpt>
    <trkpt lat="34.85823" lon="-119.23485"><ele>1687.0</ele></trkpt>
    <trkpt lat="34.85816" lon="-119.23456"><ele>1687.0</ele></trkpt>
    <trkpt lat="34.85811" lon="-119.23430"><ele>1687.0</ele></trkpt>
    <trkpt lat="34.85808" lon="-119.23416"><ele>1687.0</ele></trkpt>
    <trkpt lat="34.85804" lon="-119.23379"><ele>1693.0</ele></trkpt>
    <trkpt lat="34.85799" lon="-119.23362"><ele>1693.0</ele></trkpt>
    <trkpt lat="34.85794" lon="-119.23342"><ele>1693.0</ele></trkpt>
    <trkpt lat="34.85793" lon="-119.23325"><ele>1693.0</ele></trkpt>
    <trkpt lat="34.85795" lon="-119.23313"><ele>1699.0</ele></trkpt>
    <trkpt lat="34.85796" lon="-119.23308"><ele>1699.0</ele></trkpt>
    <trkpt lat="34.85798" lon="-119.23283"><ele>1699.0</ele></trkpt>
    <trkpt lat="34.85806" lon="-119.23268"><ele>1699.0</ele></trkpt>
    <trkpt lat="34.85823" lon="-119.23242"><ele>1699.0</ele></trkpt>
    <trkpt lat="34.85834" lon="-119.23229"><ele>1703.0</ele></trkpt>
    <trkpt lat="34.85839" lon="-119.23229"><ele>1703.0</ele></trkpt>
    <trkpt lat="34.85845" lon="-119.23232"><ele>1703.0</ele></trkpt>
    <trkpt lat="34.85851" lon="-119.23238"><ele>1703.0</ele></trkpt>
    <trkpt lat="34.85860" lon="-119.23246"><ele>1708.0</ele></trkpt>
    <trkpt lat="34.85873" lon="-119.23250"><ele>1708.0</ele></trkpt>
    <trkpt lat="34.85893" lon="-119.23248"><ele>1708.0</ele></trkpt>
    <trkpt lat="34.85897" lon="-119.23248"><ele>1708.0</ele></trkpt>
    <trkpt lat="34.85903" lon="-119.23242"><ele>1708.0</ele></trkpt>
    <trkpt lat="34.85907" lon="-119.23228"><ele>1710.0</ele></trkpt>
    <trkpt lat="34.85913" lon="-119.23209"><ele>1710.0</ele></trkpt>
    <trkpt lat="34.85914" lon="-119.23180"><ele>1710.0</ele></trkpt>
    <trkpt lat="34.85913" lon="-119.23159"><ele>1710.0</ele></trkpt>
    <trkpt lat="34.85916" lon="-119.23148"><ele>1710.0</ele></trkpt>
    <trkpt lat="34.85918" lon="-119.23119"><ele>1710.0</ele></trkpt>
    <trkpt lat="34.85921" lon="-119.23106"><ele>1710.0</ele></trkpt>
    <trkpt lat="34.85926" lon="-119.23092"><ele>1710.0</ele></trkpt>
    <trkpt lat="34.85937" lon="-119.23070"><ele>1722.0</ele></trkpt>
    <trkpt lat="34.85957" lon="-119.23040"><ele>1722.0</ele></trkpt>
    <trkpt lat="34.85975" lon="-119.23015"><ele>1722.0</ele></trkpt>
    <trkpt lat="34.85999" lon="-119.22980"><ele>1722.0</ele></trkpt>
    <trkpt lat="34.86020" lon="-119.22954"><ele>1722.0</ele></trkpt>
    <trkpt lat="34.86028" lon="-119.22940"><ele>1730.0</ele></trkpt>
    <trkpt lat="34.86035" lon="-119.22928"><ele>1730.0</ele></trkpt>
    <trkpt lat="34.86040" lon="-119.22909"><ele>1730.0</ele></trkpt>
    <trkpt lat="34.86050" lon="-119.22893"><ele>1730.0</ele></trkpt>
    <trkpt lat="34.86060" lon="-119.22871"><ele>1734.0</ele></trkpt>
    <trkpt lat="34.86071" lon="-119.22851"><ele>1734.0</ele></trkpt>
    <trkpt lat="34.86095" lon="-119.22808"><ele>1734.0</ele></trkpt>
    <trkpt lat="34.86106" lon="-119.22789"><ele>1734.0</ele></trkpt>
    <trkpt lat="34.86115" lon="-119.22775"><ele>1734.0</ele></trkpt>
    <trkpt lat="34.86125" lon="-119.22768"><ele>1739.0</ele></trkpt>
    <trkpt lat="34.86128" lon="-119.22766"><ele>1739.0</ele></trkpt>
    <trkpt lat="34.86136" lon="-119.22769"><ele>1739.0</ele></trkpt>
    <trkpt lat="34.86147" lon="-119.22779"><ele>1739.0</ele></trkpt>
    <trkpt lat="34.86157" lon="-119.22790"><ele>1742.0</ele></trkpt>
    <trkpt lat="34.86164" lon="-119.22791"><ele>1742.0</ele></trkpt>
    <trkpt lat="34.86169" lon="-119.22790"><ele>1742.0</ele></trkpt>
    <trkpt lat="34.86180" lon="-119.22782"><ele>1742.0</ele></trkpt>
    <trkpt lat="34.86191" lon="-119.22775"><ele>1742.0</ele></trkpt>
    <trkpt lat="34.86196" lon="-119.22772"><ele>1747.0</ele></trkpt>
    <trkpt lat="34.86219" lon="-119.22769"><ele>1747.0</ele></trkpt>
    <trkpt lat="34.86228" lon="-119.22768"><ele>1747.0</ele></trkpt>
    <trkpt lat="34.86241" lon="-119.22761"><ele>1747.0</ele></trkpt>
    <trkpt lat="34.86249" lon="-119.22755"><ele>1755.0</ele></trkpt>
    <trkpt lat="34.86267" lon="-119.22737"><ele>1755.0</ele></trkpt>
    <trkpt lat="34.86286" lon="-119.22716"><ele>1755.0</ele></trkpt>
    <trkpt lat="34.86299" lon="-119.22704"><ele>1755.0</ele></trkpt>
    <trkpt lat="34.86309" lon="-119.22694"><ele>1755.0</ele></trkpt>
    <trkpt lat="34.86316" lon="-119.22691"><ele>1759.0</ele></trkpt>
    <trkpt lat="34.86327" lon="-119.22691"><ele>1759.0</ele></trkpt>
  </trkseg></trk>
</gpx>
