<?xml version="1.0" encoding="UTF-8"?>
<gpx version="1.1" creator="dirt-bikes build-loop-gpx (composite of existing route GPX)" xmlns="http://www.topografix.com/GPX/1/1">
  <metadata><name>Palomar: High Point &amp; Indian Flats</name></metadata>
  <trk><name>High Point Road</name><trkseg>
    <trkpt lat="33.44032" lon="-116.85696"><ele>610.0</ele></trkpt>
    <trkpt lat="33.43980" lon="-116.85713"><ele>610.0</ele></trkpt>
    <trkpt lat="33.43902" lon="-116.85773"><ele>610.0</ele></trkpt>
    <trkpt lat="33.43863" lon="-116.85778"><ele>606.0</ele></trkpt>
    <trkpt lat="33.43822" lon="-116.85804"><ele>606.0</ele></trkpt>
    <trkpt lat="33.43795" lon="-116.85864"><ele>606.0</ele></trkpt>
    <trkpt lat="33.43785" lon="-116.85880"><ele>606.0</ele></trkpt>
    <trkpt lat="33.43750" lon="-116.85899"><ele>604.0</ele></trkpt>
    <trkpt lat="33.43665" lon="-116.85888"><ele>604.0</ele></trkpt>
    <trkpt lat="33.43618" lon="-116.85867"><ele>604.0</ele></trkpt>
    <trkpt lat="33.43493" lon="-116.85799"><ele>604.0</ele></trkpt>
    <trkpt lat="33.43411" lon="-116.85777"><ele>611.0</ele></trkpt>
    <trkpt lat="33.43382" lon="-116.85787"><ele>611.0</ele></trkpt>
    <trkpt lat="33.43346" lon="-116.85805"><ele>611.0</ele></trkpt>
    <trkpt lat="33.43346" lon="-116.85805"><ele>611.0</ele></trkpt>
    <trkpt lat="33.43342" lon="-116.85807"><ele>611.0</ele></trkpt>
    <trkpt lat="33.43275" lon="-116.85873"><ele>619.0</ele></trkpt>
    <trkpt lat="33.43259" lon="-116.85866"><ele>619.0</ele></trkpt>
    <trkpt lat="33.43242" lon="-116.85846"><ele>619.0</ele></trkpt>
    <trkpt lat="33.43198" lon="-116.85830"><ele>619.0</ele></trkpt>
    <trkpt lat="33.43140" lon="-116.85810"><ele>646.0</ele></trkpt>
    <trkpt lat="33.43057" lon="-116.85745"><ele>646.0</ele></trkpt>
    <trkpt lat="33.43035" lon="-116.85739"><ele>646.0</ele></trkpt>
    <trkpt lat="33.43019" lon="-116.85758"><ele>646.0</ele></trkpt>
    <trkpt lat="33.43035" lon="-116.85812"><ele>646.0</ele></trkpt>
    <trkpt lat="33.43027" lon="-116.85843"><ele>646.0</ele></trkpt>
    <trkpt lat="33.42931" lon="-116.85939"><ele>646.0</ele></trkpt>
    <trkpt lat="33.42885" lon="-116.85965"><ele>646.0</ele></trkpt>
    <trkpt lat="33.42830" lon="-116.85978"><ele>660.0</ele></trkpt>
    <trkpt lat="33.42806" lon="-116.85989"><ele>660.0</ele></trkpt>
    <trkpt lat="33.42753" lon="-116.85976"><ele>660.0</ele></trkpt>
    <trkpt lat="33.42704" lon="-116.85983"><ele>660.0</ele></trkpt>
    <trkpt lat="33.42645" lon="-116.85968"><ele>660.0</ele></trkpt>
    <trkpt lat="33.42596" lon="-116.85949"><ele>685.0</ele></trkpt>
    <trkpt lat="33.42541" lon="-116.85900"><ele>685.0</ele></trkpt>
    <trkpt lat="33.42540" lon="-116.85860"><ele>685.0</ele></trkpt>
    <trkpt lat="33.42517" lon="-116.85845"><ele>685.0</ele></trkpt>
    <trkpt lat="33.42480" lon="-116.85821"><ele>711.0</ele></trkpt>
    <trkpt lat="33.42442" lon="-116.85740"><ele>711.0</ele></trkpt>
    <trkpt lat="33.42450" lon="-116.85693"><ele>711.0</ele></trkpt>
    <trkpt lat="33.42450" lon="-116.85675"><ele>711.0</ele></trkpt>
    <trkpt lat="33.42429" lon="-116.85653"><ele>713.0</ele></trkpt>
    <trkpt lat="33.42341" lon="-116.85666"><ele>713.0</ele></trkpt>
    <trkpt lat="33.42286" lon="-116.85700"><ele>713.0</ele></trkpt>
    <trkpt lat="33.42261" lon="-116.85738"><ele>713.0</ele></trkpt>
    <trkpt lat="33.42221" lon="-116.85756"><ele>719.0</ele></trkpt>
    <trkpt lat="33.42187" lon="-116.85765"><ele>719.0</ele></trkpt>
    <trkpt lat="33.42161" lon="-116.85761"><ele>719.0</ele></trkpt>
    <trkpt lat="33.42133" lon="-116.85734"><ele>719.0</ele></trkpt>
    <trkpt lat="33.42093" lon="-116.85676"><ele>719.0</ele></trkpt>
    <trkpt lat="33.42027" lon="-116.85649"><ele>725.0</ele></trkpt>
    <trkpt lat="33.41956" lon="-116.85615"><ele>725.0</ele></trkpt>
    <trkpt lat="33.41860" lon="-116.85569"><ele>725.0</ele></trkpt>
    <trkpt lat="33.41712" lon="-116.85498"><ele>725.0</ele></trkpt>
    <trkpt lat="33.41701" lon="-116.85479"><ele>753.0</ele></trkpt>
    <trkpt lat="33.41658" lon="-116.85449"><ele>753.0</ele></trkpt>
    <trkpt lat="33.41576" lon="-116.85408"><ele>753.0</ele></trkpt>
    <trkpt lat="33.41505" lon="-116.85387"><ele>753.0</ele></trkpt>
    <trkpt lat="33.41452" lon="-116.85356"><ele>766.0</ele></trkpt>
    <trkpt lat="33.41421" lon="-116.85318"><ele>766.0</ele></trkpt>
    <trkpt lat="33.41374" lon="-116.85277"><ele>766.0</ele></trkpt>
    <trkpt lat="33.41354" lon="-116.85252"><ele>766.0</ele></trkpt>
    <trkpt lat="33.41312" lon="-116.85213"><ele>779.0</ele></trkpt>
    <trkpt lat="33.41280" lon="-116.85152"><ele>779.0</ele></trkpt>
    <trkpt lat="33.41277" lon="-116.85128"><ele>779.0</ele></trkpt>
    <trkpt lat="33.41269" lon="-116.85079"><ele>779.0</ele></trkpt>
    <trkpt lat="33.41224" lon="-116.85022"><ele>779.0</ele></trkpt>
    <trkpt lat="33.41199" lon="-116.85019"><ele>790.0</ele></trkpt>
    <trkpt lat="33.41174" lon="-116.85045"><ele>790.0</ele></trkpt>
    <trkpt lat="33.41165" lon="-116.85044"><ele>790.0</ele></trkpt>
    <trkpt lat="33.41136" lon="-116.85014"><ele>790.0</ele></trkpt>
    <trkpt lat="33.41125" lon="-116.84980"><ele>799.0</ele></trkpt>
    <trkpt lat="33.41081" lon="-116.84948"><ele>799.0</ele></trkpt>
    <trkpt lat="33.41024" lon="-116.84847"><ele>799.0</ele></trkpt>
    <trkpt lat="33.41008" lon="-116.84824"><ele>799.0</ele></trkpt>
    <trkpt lat="33.40986" lon="-116.84811"><ele>814.0</ele></trkpt>
    <trkpt lat="33.40980" lon="-116.84796"><ele>814.0</ele></trkpt>
    <trkpt lat="33.40983" lon="-116.84720"><ele>814.0</ele></trkpt>
    <trkpt lat="33.40928" lon="-116.84638"><ele>814.0</ele></trkpt>
    <trkpt lat="33.40867" lon="-116.84602"><ele>838.0</ele></trkpt>
    <trkpt lat="33.40812" lon="-116.84536"><ele>838.0</ele></trkpt>
    <trkpt lat="33.40780" lon="-116.84516"><ele>838.0</ele></trkpt>
    <trkpt lat="33.40711" lon="-116.84457"><ele>838.0</ele></trkpt>
    <trkpt lat="33.40658" lon="-116.84463"><ele>865.0</ele></trkpt>
    <trkpt lat="33.40644" lon="-116.84481"><ele>865.0</ele></trkpt>
    <trkpt lat="33.40636" lon="-116.84510"><ele>865.0</ele></trkpt>
    <trkpt lat="33.40587" lon="-116.84534"><ele>865.0</ele></trkpt>
    <trkpt lat="33.40570" lon="-116.84564"><ele>865.0</ele></trkpt>
    <trkpt lat="33.40557" lon="-116.84576"><ele>880.0</ele></trkpt>
    <trkpt lat="33.40540" lon="-116.84568"><ele>880.0</ele></trkpt>
    <trkpt lat="33.40508" lon="-116.84582"><ele>880.0</ele></trkpt>
    <trkpt lat="33.40499" lon="-116.84599"><ele>880.0</ele></trkpt>
    <trkpt lat="33.40457" lon="-116.84631"><ele>904.0</ele></trkpt>
    <trkpt lat="33.40444" lon="-116.84632"><ele>904.0</ele></trkpt>
    <trkpt lat="33.40424" lon="-116.84662"><ele>904.0</ele></trkpt>
    <trkpt lat="33.40397" lon="-116.84691"><ele>904.0</ele></trkpt>
    <trkpt lat="33.40375" lon="-116.84698"><ele>923.0</ele></trkpt>
    <trkpt lat="33.40362" lon="-116.84709"><ele>923.0</ele></trkpt>
    <trkpt lat="33.40354" lon="-116.84762"><ele>923.0</ele></trkpt>
    <trkpt lat="33.40305" lon="-116.84817"><ele>923.0</ele></trkpt>
    <trkpt lat="33.40286" lon="-116.84817"><ele>944.0</ele></trkpt>
    <trkpt lat="33.40244" lon="-116.84845"><ele>944.0</ele></trkpt>
    <trkpt lat="33.40249" lon="-116.84853"><ele>944.0</ele></trkpt>
    <trkpt lat="33.40250" lon="-116.84883"><ele>944.0</ele></trkpt>
    <trkpt lat="33.40242" lon="-116.84898"><ele>944.0</ele></trkpt>
    <trkpt lat="33.40252" lon="-116.84905"><ele>943.0</ele></trkpt>
    <trkpt lat="33.40275" lon="-116.84883"><ele>943.0</ele></trkpt>
    <trkpt lat="33.40311" lon="-116.84872"><ele>943.0</ele></trkpt>
    <trkpt lat="33.40339" lon="-116.84878"><ele>943.0</ele></trkpt>
    <trkpt lat="33.40359" lon="-116.84902"><ele>950.0</ele></trkpt>
    <trkpt lat="33.40379" lon="-116.84900"><ele>950.0</ele></trkpt>
    <trkpt lat="33.40402" lon="-116.84909"><ele>950.0</ele></trkpt>
    <trkpt lat="33.40408" lon="-116.84906"><ele>950.0</ele></trkpt>
    <trkpt lat="33.40416" lon="-116.84893"><ele>939.0</ele></trkpt>
    <trkpt lat="33.40409" lon="-116.84863"><ele>939.0</ele></trkpt>
    <trkpt lat="33.40422" lon="-116.84842"><ele>939.0</ele></trkpt>
    <trkpt lat="33.40445" lon="-116.84846"><ele>939.0</ele></trkpt>
    <trkpt lat="33.40486" lon="-116.84913"><ele>949.0</ele></trkpt>
    <trkpt lat="33.40519" lon="-116.84924"><ele>949.0</ele></trkpt>
    <trkpt lat="33.40548" lon="-116.84951"><ele>949.0</ele></trkpt>
    <trkpt lat="33.40548" lon="-116.85009"><ele>949.0</ele></trkpt>
    <trkpt lat="33.40517" lon="-116.85035"><ele>949.0</ele></trkpt>
    <trkpt lat="33.40460" lon="-116.85112"><ele>979.0</ele></trkpt>
    <trkpt lat="33.40475" lon="-116.85144"><ele>979.0</ele></trkpt>
    <trkpt lat="33.40473" lon="-116.85172"><ele>979.0</ele></trkpt>
    <trkpt lat="33.40458" lon="-116.85201"><ele>979.0</ele></trkpt>
    <trkpt lat="33.40462" lon="-116.85213"><ele>974.0</ele></trkpt>
    <trkpt lat="33.40518" lon="-116.85252"><ele>974.0</ele></trkpt>
    <trkpt lat="33.40525" lon="-116.85261"><ele>974.0</ele></trkpt>
    <trkpt lat="33.40509" lon="-116.85275"><ele>974.0</ele></trkpt>
    <trkpt lat="33.40489" lon="-116.85286"><ele>996.0</ele></trkpt>
    <trkpt lat="33.40484" lon="-116.85305"><ele>996.0</ele></trkpt>
    <trkpt lat="33.40484" lon="-116.85390"><ele>996.0</ele></trkpt>
    <trkpt lat="33.40510" lon="-116.85426"><ele>996.0</ele></trkpt>
    <trkpt lat="33.40515" lon="-116.85454"><ele>1007.0</ele></trkpt>
    <trkpt lat="33.40496" lon="-116.85472"><ele>1007.0</ele></trkpt>
    <trkpt lat="33.40472" lon="-116.85469"><ele>1007.0</ele></trkpt>
    <trkpt lat="33.40449" lon="-116.85503"><ele>1007.0</ele></trkpt>
    <trkpt lat="33.40420" lon="-116.85485"><ele>1007.0</ele></trkpt>
    <trkpt lat="33.40391" lon="-116.85475"><ele>1037.0</ele></trkpt>
    <trkpt lat="33.40382" lon="-116.85480"><ele>1037.0</ele></trkpt>
    <trkpt lat="33.40397" lon="-116.85524"><ele>1037.0</ele></trkpt>
    <trkpt lat="33.40394" lon="-116.85560"><ele>1037.0</ele></trkpt>
    <trkpt lat="33.40386" lon="-116.85589"><ele>1033.0</ele></trkpt>
    <trkpt lat="33.40393" lon="-116.85600"><ele>1033.0</ele></trkpt>
    <trkpt lat="33.40387" lon="-116.85625"><ele>1033.0</ele></trkpt>
    <trkpt lat="33.40359" lon="-116.85635"><ele>1033.0</ele></trkpt>
    <trkpt lat="33.40348" lon="-116.85662"><ele>1051.0</ele></trkpt>
    <trkpt lat="33.40345" lon="-116.85689"><ele>1051.0</ele></trkpt>
    <trkpt lat="33.40362" lon="-116.85700"><ele>1051.0</ele></trkpt>
    <trkpt lat="33.40373" lon="-116.85732"><ele>1051.0</ele></trkpt>
    <trkpt lat="33.40381" lon="-116.85763"><ele>1042.0</ele></trkpt>
    <trkpt lat="33.40361" lon="-116.85772"><ele>1042.0</ele></trkpt>
    <trkpt lat="33.40334" lon="-116.85759"><ele>1042.0</ele></trkpt>
    <trkpt lat="33.40305" lon="-116.85785"><ele>1042.0</ele></trkpt>
    <trkpt lat="33.40293" lon="-116.85783"><ele>1061.0</ele></trkpt>
    <trkpt lat="33.40297" lon="-116.85738"><ele>1061.0</ele></trkpt>
    <trkpt lat="33.40286" lon="-116.85685"><ele>1061.0</ele></trkpt>
    <trkpt lat="33.40298" lon="-116.85643"><ele>1061.0</ele></trkpt>
    <trkpt lat="33.40291" lon="-116.85625"><ele>1061.0</ele></trkpt>
    <trkpt lat="33.40285" lon="-116.85560"><ele>1076.0</ele></trkpt>
    <trkpt lat="33.40250" lon="-116.85547"><ele>1076.0</ele></trkpt>
    <trkpt lat="33.40193" lon="-116.85516"><ele>1076.0</ele></trkpt>
    <trkpt lat="33.40174" lon="-116.85497"><ele>1076.0</ele></trkpt>
    <trkpt lat="33.40160" lon="-116.85454"><ele>1090.0</ele></trkpt>
    <trkpt lat="33.40131" lon="-116.85413"><ele>1090.0</ele></trkpt>
    <trkpt lat="33.40108" lon="-116.85379"><ele>1090.0</ele></trkpt>
    <trkpt lat="33.40125" lon="-116.85305"><ele>1090.0</ele></trkpt>
    <trkpt lat="33.40114" lon="-116.85297"><ele>1103.0</ele></trkpt>
    <trkpt lat="33.40072" lon="-116.85312"><ele>1103.0</ele></trkpt>
    <trkpt lat="33.40044" lon="-116.85294"><ele>1103.0</ele></trkpt>
    <trkpt lat="33.40011" lon="-116.85286"><ele>1103.0</ele></trkpt>
    <trkpt lat="33.39984" lon="-116.85245"><ele>1121.0</ele></trkpt>
    <trkpt lat="33.39957" lon="-116.85217"><ele>1121.0</ele></trkpt>
    <trkpt lat="33.39916" lon="-116.85208"><ele>1121.0</ele></trkpt>
    <trkpt lat="33.39891" lon="-116.85201"><ele>1121.0</ele></trkpt>
    <trkpt lat="33.39884" lon="-116.85206"><ele>1121.0</ele></trkpt>
    <trkpt lat="33.39890" lon="-116.85243"><ele>1136.0</ele></trkpt>
    <trkpt lat="33.39878" lon="-116.85278"><ele>1136.0</ele></trkpt>
    <trkpt lat="33.39872" lon="-116.85333"><ele>1136.0</ele></trkpt>
    <trkpt lat="33.39848" lon="-116.85370"><ele>1136.0</ele></trkpt>
    <trkpt lat="33.39853" lon="-116.85408"><ele>1140.0</ele></trkpt>
    <trkpt lat="33.39850" lon="-116.85445"><ele>1140.0</ele></trkpt>
    <trkpt lat="33.39840" lon="-116.85461"><ele>1140.0</ele></trkpt>
    <trkpt lat="33.39831" lon="-116.85447"><ele>1140.0</ele></trkpt>
    <trkpt lat="33.39830" lon="-116.85416"><ele>1151.0</ele></trkpt>
    <trkpt lat="33.39822" lon="-116.85389"><ele>1151.0</ele></trkpt>
    <trkpt lat="33.39778" lon="-116.85359"><ele>1151.0</ele></trkpt>
    <trkpt lat="33.39773" lon="-116.85383"><ele>1151.0</ele></trkpt>
    <trkpt lat="33.39753" lon="-116.85399"><ele>1158.0</ele></trkpt>
    <trkpt lat="33.39729" lon="-116.85434"><ele>1158.0</ele></trkpt>
    <trkpt lat="33.39707" lon="-116.85440"><ele>1158.0</ele></trkpt>
    <trkpt lat="33.39693" lon="-116.85454"><ele>1158.0</ele></trkpt>
    <trkpt lat="33.39705" lon="-116.85480"><ele>1158.0</ele></trkpt>
    <trkpt lat="33.39700" lon="-116.85495"><ele>1159.0</ele></trkpt>
    <trkpt lat="33.39614" lon="-116.85478"><ele>1159.0</ele></trkpt>
    <trkpt lat="33.39549" lon="-116.85418"><ele>1159.0</ele></trkpt>
    <trkpt lat="33.39539" lon="-116.85380"><ele>1159.0</ele></trkpt>
    <trkpt lat="33.39499" lon="-116.85337"><ele>1166.0</ele></trkpt>
    <trkpt lat="33.39471" lon="-116.85346"><ele>1166.0</ele></trkpt>
    <trkpt lat="33.39453" lon="-116.85370"><ele>1166.0</ele></trkpt>
    <trkpt lat="33.39432" lon="-116.85388"><ele>1166.0</ele></trkpt>
    <trkpt lat="33.39414" lon="-116.85381"><ele>1159.0</ele></trkpt>
    <trkpt lat="33.39396" lon="-116.85348"><ele>1159.0</ele></trkpt>
    <trkpt lat="33.39403" lon="-116.85326"><ele>1159.0</ele></trkpt>
    <trkpt lat="33.39422" lon="-116.85297"><ele>1159.0</ele></trkpt>
    <trkpt lat="33.39430" lon="-116.85226"><ele>1158.0</ele></trkpt>
    <trkpt lat="33.39414" lon="-116.85210"><ele>1158.0</ele></trkpt>
    <trkpt lat="33.39401" lon="-116.85177"><ele>1158.0</ele></trkpt>
    <trkpt lat="33.39409" lon="-116.85098"><ele>1158.0</ele></trkpt>
    <trkpt lat="33.39440" lon="-116.85017"><ele>1158.0</ele></trkpt>
    <trkpt lat="33.39420" lon="-116.85000"><ele>1173.0</ele></trkpt>
    <trkpt lat="33.39404" lon="-116.85002"><ele>1173.0</ele></trkpt>
    <trkpt lat="33.39396" lon="-116.84991"><ele>1173.0</ele></trkpt>
    <trkpt lat="33.39416" lon="-116.84931"><ele>1173.0</ele></trkpt>
    <trkpt lat="33.39411" lon="-116.84892"><ele>1187.0</ele></trkpt>
    <trkpt lat="33.39425" lon="-116.84851"><ele>1187.0</ele></trkpt>
    <trkpt lat="33.39421" lon="-116.84837"><ele>1187.0</ele></trkpt>
    <trkpt lat="33.39427" lon="-116.84792"><ele>1187.0</ele></trkpt>
    <trkpt lat="33.39421" lon="-116.84734"><ele>1188.0</ele></trkpt>
    <trkpt lat="33.39421" lon="-116.84709"><ele>1188.0</ele></trkpt>
    <trkpt lat="33.39439" lon="-116.84676"><ele>1188.0</ele></trkpt>
    <trkpt lat="33.39440" lon="-116.84636"><ele>1188.0</ele></trkpt>
    <trkpt lat="33.39452" lon="-116.84599"><ele>1197.0</ele></trkpt>
    <trkpt lat="33.39451" lon="-116.84559"><ele>1197.0</ele></trkpt>
    <trkpt lat="33.39435" lon="-116.84532"><ele>1197.0</ele></trkpt>
    <trkpt lat="33.39428" lon="-116.84501"><ele>1197.0</ele></trkpt>
    <trkpt lat="33.39434" lon="-116.84456"><ele>1197.0</ele></trkpt>
    <trkpt lat="33.39419" lon="-116.84423"><ele>1211.0</ele></trkpt>
    <trkpt lat="33.39403" lon="-116.84421"><ele>1211.0</ele></trkpt>
    <trkpt lat="33.39393" lon="-116.84397"><ele>1211.0</ele></trkpt>
    <trkpt lat="33.39365" lon="-116.84376"><ele>1211.0</ele></trkpt>
    <trkpt lat="33.39359" lon="-116.84362"><ele>1214.0</ele></trkpt>
    <trkpt lat="33.39370" lon="-116.84345"><ele>1214.0</ele></trkpt>
    <trkpt lat="33.39368" lon="-116.84325"><ele>1214.0</ele></trkpt>
    <trkpt lat="33.39382" lon="-116.84282"><ele>1214.0</ele></trkpt>
    <trkpt lat="33.39403" lon="-116.84276"><ele>1223.0</ele></trkpt>
    <trkpt lat="33.39453" lon="-116.84246"><ele>1223.0</ele></trkpt>
    <trkpt lat="33.39444" lon="-116.84222"><ele>1223.0</ele></trkpt>
    <trkpt lat="33.39457" lon="-116.84205"><ele>1223.0</ele></trkpt>
    <trkpt lat="33.39471" lon="-116.84157"><ele>1228.0</ele></trkpt>
    <trkpt lat="33.39497" lon="-116.84146"><ele>1228.0</ele></trkpt>
    <trkpt lat="33.39527" lon="-116.84186"><ele>1228.0</ele></trkpt>
    <trkpt lat="33.39541" lon="-116.84183"><ele>1228.0</ele></trkpt>
    <trkpt lat="33.39545" lon="-116.84165"><ele>1221.0</ele></trkpt>
    <trkpt lat="33.39565" lon="-116.84131"><ele>1221.0</ele></trkpt>
    <trkpt lat="33.39582" lon="-116.84069"><ele>1221.0</ele></trkpt>
    <trkpt lat="33.39560" lon="-116.84026"><ele>1221.0</ele></trkpt>
    <trkpt lat="33.39528" lon="-116.84021"><ele>1221.0</ele></trkpt>
    <trkpt lat="33.39522" lon="-116.83985"><ele>1216.0</ele></trkpt>
    <trkpt lat="33.39538" lon="-116.83961"><ele>1216.0</ele></trkpt>
    <trkpt lat="33.39544" lon="-116.83930"><ele>1216.0</ele></trkpt>
    <trkpt lat="33.39516" lon="-116.83872"><ele>1216.0</ele></trkpt>
    <trkpt lat="33.39500" lon="-116.83875"><ele>1229.0</ele></trkpt>
    <trkpt lat="33.39483" lon="-116.83900"><ele>1229.0</ele></trkpt>
    <trkpt lat="33.39437" lon="-116.83906"><ele>1229.0</ele></trkpt>
    <trkpt lat="33.39390" lon="-116.83946"><ele>1229.0</ele></trkpt>
    <trkpt lat="33.39379" lon="-116.83964"><ele>1229.0</ele></trkpt>
    <trkpt lat="33.39382" lon="-116.83993"><ele>1229.0</ele></trkpt>
    <trkpt lat="33.39369" lon="-116.84014"><ele>1229.0</ele></trkpt>
    <trkpt lat="33.39352" lon="-116.84008"><ele>1229.0</ele></trkpt>
    <trkpt lat="33.39343" lon="-116.83989"><ele>1250.0</ele></trkpt>
    <trkpt lat="33.39375" lon="-116.83908"><ele>1250.0</ele></trkpt>
    <trkpt lat="33.39434" lon="-116.83833"><ele>1250.0</ele></trkpt>
    <trkpt lat="33.39434" lon="-116.83740"><ele>1250.0</ele></trkpt>
    <trkpt lat="33.39350" lon="-116.83676"><ele>1250.0</ele></trkpt>
    <trkpt lat="33.39344" lon="-116.83653"><ele>1255.0</ele></trkpt>
    <trkpt lat="33.39304" lon="-116.83595"><ele>1255.0</ele></trkpt>
    <trkpt lat="33.39283" lon="-116.83576"><ele>1255.0</ele></trkpt>
    <trkpt lat="33.39252" lon="-116.83575"><ele>1255.0</ele></trkpt>
    <trkpt lat="33.39225" lon="-116.83552"><ele>1255.0</ele></trkpt>
    <trkpt lat="33.39193" lon="-116.83543"><ele>1255.0</ele></trkpt>
    <trkpt lat="33.39193" lon="-116.83491"><ele>1255.0</ele></trkpt>
    <trkpt lat="33.39181" lon="-116.83471"><ele>1255.0</ele></trkpt>
    <trkpt lat="33.39174" lon="-116.83455"><ele>1253.0</ele></trkpt>
    <trkpt lat="33.39185" lon="-116.83408"><ele>1253.0</ele></trkpt>
    <trkpt lat="33.39179" lon="-116.83384"><ele>1253.0</ele></trkpt>
    <trkpt lat="33.39131" lon="-116.83362"><ele>1253.0</ele></trkpt>
    <trkpt lat="33.39118" lon="-116.83330"><ele>1264.0</ele></trkpt>
    <trkpt lat="33.39095" lon="-116.83331"><ele>1264.0</ele></trkpt>
    <trkpt lat="33.39058" lon="-116.83351"><ele>1264.0</ele></trkpt>
    <trkpt lat="33.39040" lon="-116.83345"><ele>1264.0</ele></trkpt>
    <trkpt lat="33.39021" lon="-116.83359"><ele>1264.0</ele></trkpt>
    <trkpt lat="33.38988" lon="-116.83356"><ele>1266.0</ele></trkpt>
    <trkpt lat="33.38957" lon="-116.83324"><ele>1266.0</ele></trkpt>
    <trkpt lat="33.38896" lon="-116.83306"><ele>1266.0</ele></trkpt>
    <trkpt lat="33.38884" lon="-116.83290"><ele>1266.0</ele></trkpt>
    <trkpt lat="33.38853" lon="-116.83273"><ele>1267.0</ele></trkpt>
    <trkpt lat="33.38852" lon="-116.83250"><ele>1267.0</ele></trkpt>
    <trkpt lat="33.38860" lon="-116.83240"><ele>1267.0</ele></trkpt>
    <trkpt lat="33.38842" lon="-116.83183"><ele>1267.0</ele></trkpt>
    <trkpt lat="33.38808" lon="-116.83132"><ele>1277.0</ele></trkpt>
    <trkpt lat="33.38780" lon="-116.83141"><ele>1277.0</ele></trkpt>
    <trkpt lat="33.38755" lon="-116.83124"><ele>1277.0</ele></trkpt>
    <trkpt lat="33.38739" lon="-116.83101"><ele>1277.0</ele></trkpt>
    <trkpt lat="33.38728" lon="-116.83101"><ele>1287.0</ele></trkpt>
    <trkpt lat="33.38719" lon="-116.83091"><ele>1287.0</ele></trkpt>
    <trkpt lat="33.38721" lon="-116.83062"><ele>1287.0</ele></trkpt>
    <trkpt lat="33.38707" lon="-116.83059"><ele>1287.0</ele></trkpt>
    <trkpt lat="33.38697" lon="-116.83045"><ele>1287.0</ele></trkpt>
    <trkpt lat="33.38699" lon="-116.83016"><ele>1287.0</ele></trkpt>
    <trkpt lat="33.38706" lon="-116.83004"><ele>1287.0</ele></trkpt>
    <trkpt lat="33.38709" lon="-116.82987"><ele>1287.0</ele></trkpt>
    <trkpt lat="33.38692" lon="-116.82953"><ele>1287.0</ele></trkpt>
    <trkpt lat="33.38689" lon="-116.82940"><ele>1285.0</ele></trkpt>
    <trkpt lat="33.38706" lon="-116.82924"><ele>1285.0</ele></trkpt>
    <trkpt lat="33.38705" lon="-116.82910"><ele>1285.0</ele></trkpt>
    <trkpt lat="33.38689" lon="-116.82887"><ele>1285.0</ele></trkpt>
    <trkpt lat="33.38658" lon="-116.82882"><ele>1298.0</ele></trkpt>
    <trkpt lat="33.38638" lon="-116.82850"><ele>1298.0</ele></trkpt>
    <trkpt lat="33.38606" lon="-116.82846"><ele>1298.0</ele></trkpt>
    <trkpt lat="33.38599" lon="-116.82827"><ele>1298.0</ele></trkpt>
    <trkpt lat="33.38557" lon="-116.82838"><ele>1317.0</ele></trkpt>
    <trkpt lat="33.38533" lon="-116.82836"><ele>1317.0</ele></trkpt>
    <trkpt lat="33.38522" lon="-116.82812"><ele>1317.0</ele></trkpt>
    <trkpt lat="33.38504" lon="-116.82802"><ele>1317.0</ele></trkpt>
    <trkpt lat="33.38489" lon="-116.82790"><ele>1325.0</ele></trkpt>
    <trkpt lat="33.38482" lon="-116.82800"><ele>1325.0</ele></trkpt>
    <trkpt lat="33.38472" lon="-116.82798"><ele>1325.0</ele></trkpt>
    <trkpt lat="33.38471" lon="-116.82775"><ele>1325.0</ele></trkpt>
    <trkpt lat="33.38486" lon="-116.82750"><ele>1325.0</ele></trkpt>
    <trkpt lat="33.38515" lon="-116.82723"><ele>1311.0</ele></trkpt>
    <trkpt lat="33.38559" lon="-116.82663"><ele>1311.0</ele></trkpt>
    <trkpt lat="33.38554" lon="-116.82645"><ele>1311.0</ele></trkpt>
    <trkpt lat="33.38523" lon="-116.82646"><ele>1311.0</ele></trkpt>
    <trkpt lat="33.38475" lon="-116.82673"><ele>1322.0</ele></trkpt>
    <trkpt lat="33.38469" lon="-116.82693"><ele>1322.0</ele></trkpt>
    <trkpt lat="33.38445" lon="-116.82693"><ele>1322.0</ele></trkpt>
    <trkpt lat="33.38409" lon="-116.82788"><ele>1322.0</ele></trkpt>
    <trkpt lat="33.38392" lon="-116.82793"><ele>1340.0</ele></trkpt>
    <trkpt lat="33.38377" lon="-116.82774"><ele>1340.0</ele></trkpt>
    <trkpt lat="33.38340" lon="-116.82772"><ele>1340.0</ele></trkpt>
    <trkpt lat="33.38314" lon="-116.82805"><ele>1340.0</ele></trkpt>
    <trkpt lat="33.38294" lon="-116.82812"><ele>1351.0</ele></trkpt>
    <trkpt lat="33.38295" lon="-116.82858"><ele>1351.0</ele></trkpt>
    <trkpt lat="33.38308" lon="-116.82877"><ele>1351.0</ele></trkpt>
    <trkpt lat="33.38320" lon="-116.82898"><ele>1351.0</ele></trkpt>
    <trkpt lat="33.38318" lon="-116.82923"><ele>1351.0</ele></trkpt>
    <trkpt lat="33.38278" lon="-116.82944"><ele>1365.0</ele></trkpt>
    <trkpt lat="33.38244" lon="-116.82977"><ele>1365.0</ele></trkpt>
    <trkpt lat="33.38218" lon="-116.82957"><ele>1365.0</ele></trkpt>
    <trkpt lat="33.38205" lon="-116.82972"><ele>1365.0</ele></trkpt>
    <trkpt lat="33.38150" lon="-116.83015"><ele>1388.0</ele></trkpt>
    <trkpt lat="33.38108" lon="-116.83004"><ele>1388.0</ele></trkpt>
    <trkpt lat="33.38091" lon="-116.82981"><ele>1388.0</ele></trkpt>
    <trkpt lat="33.38098" lon="-116.82970"><ele>1388.0</ele></trkpt>
    <trkpt lat="33.38104" lon="-116.82951"><ele>1390.0</ele></trkpt>
    <trkpt lat="33.38091" lon="-116.82938"><ele>1390.0</ele></trkpt>
    <trkpt lat="33.38076" lon="-116.82886"><ele>1390.0</ele></trkpt>
    <trkpt lat="33.38033" lon="-116.82862"><ele>1390.0</ele></trkpt>
    <trkpt lat="33.38047" lon="-116.82952"><ele>1409.0</ele></trkpt>
    <trkpt lat="33.38031" lon="-116.82977"><ele>1409.0</ele></trkpt>
    <trkpt lat="33.38035" lon="-116.83005"><ele>1409.0</ele></trkpt>
    <trkpt lat="33.38019" lon="-116.83031"><ele>1409.0</ele></trkpt>
    <trkpt lat="33.37991" lon="-116.83027"><ele>1409.0</ele></trkpt>
    <trkpt lat="33.37978" lon="-116.83049"><ele>1426.0</ele></trkpt>
    <trkpt lat="33.37942" lon="-116.83064"><ele>1426.0</ele></trkpt>
    <trkpt lat="33.37905" lon="-116.83055"><ele>1426.0</ele></trkpt>
    <trkpt lat="33.37883" lon="-116.83036"><ele>1426.0</ele></trkpt>
    <trkpt lat="33.37858" lon="-116.83043"><ele>1446.0</ele></trkpt>
    <trkpt lat="33.37842" lon="-116.83035"><ele>1446.0</ele></trkpt>
    <trkpt lat="33.37825" lon="-116.83008"><ele>1446.0</ele></trkpt>
    <trkpt lat="33.37815" lon="-116.82975"><ele>1446.0</ele></trkpt>
    <trkpt lat="33.37819" lon="-116.82943"><ele>1445.0</ele></trkpt>
    <trkpt lat="33.37801" lon="-116.82918"><ele>1445.0</ele></trkpt>
    <trkpt lat="33.37773" lon="-116.82920"><ele>1445.0</ele></trkpt>
    <trkpt lat="33.37761" lon="-116.82936"><ele>1445.0</ele></trkpt>
    <trkpt lat="33.37739" lon="-116.82944"><ele>1479.0</ele></trkpt>
    <trkpt lat="33.37724" lon="-116.82933"><ele>1479.0</ele></trkpt>
    <trkpt lat="33.37688" lon="-116.82940"><ele>1479.0</ele></trkpt>
    <trkpt lat="33.37677" lon="-116.82934"><ele>1479.0</ele></trkpt>
    <trkpt lat="33.37678" lon="-116.82857"><ele>1479.0</ele></trkpt>
    <trkpt lat="33.37662" lon="-116.82815"><ele>1481.0</ele></trkpt>
    <trkpt lat="33.37666" lon="-116.82793"><ele>1481.0</ele></trkpt>
    <trkpt lat="33.37655" lon="-116.82744"><ele>1481.0</ele></trkpt>
    <trkpt lat="33.37634" lon="-116.82738"><ele>1481.0</ele></trkpt>
    <trkpt lat="33.37612" lon="-116.82729"><ele>1492.0</ele></trkpt>
    <trkpt lat="33.37627" lon="-116.82691"><ele>1492.0</ele></trkpt>
  </trkseg></trk>
  <trk><name>Indian Flats Road</name><trkseg>
    <trkpt lat="33.28632" lon="-116.66031"><ele>890.0</ele></trkpt>
    <trkpt lat="33.28655" lon="-116.66049"><ele>890.0</ele></trkpt>
    <trkpt lat="33.28675" lon="-116.66040"><ele>890.0</ele></trkpt>
    <trkpt lat="33.28716" lon="-116.65988"><ele>897.0</ele></trkpt>
    <trkpt lat="33.28827" lon="-116.65906"><ele>897.0</ele></trkpt>
    <trkpt lat="33.28944" lon="-116.65861"><ele>897.0</ele></trkpt>
    <trkpt lat="33.29032" lon="-116.65850"><ele>920.0</ele></trkpt>
    <trkpt lat="33.29056" lon="-116.65814"><ele>920.0</ele></trkpt>
    <trkpt lat="33.29065" lon="-116.65817"><ele>920.0</ele></trkpt>
    <trkpt lat="33.29084" lon="-116.65842"><ele>920.0</ele></trkpt>
    <trkpt lat="33.29117" lon="-116.65838"><ele>927.0</ele></trkpt>
    <trkpt lat="33.29166" lon="-116.65821"><ele>927.0</ele></trkpt>
    <trkpt lat="33.29188" lon="-116.65824"><ele>927.0</ele></trkpt>
    <trkpt lat="33.29227" lon="-116.65852"><ele>927.0</ele></trkpt>
    <trkpt lat="33.29222" lon="-116.65872"><ele>928.0</ele></trkpt>
    <trkpt lat="33.29187" lon="-116.65900"><ele>928.0</ele></trkpt>
    <trkpt lat="33.29192" lon="-116.65908"><ele>928.0</ele></trkpt>
    <trkpt lat="33.29209" lon="-116.65906"><ele>934.0</ele></trkpt>
    <trkpt lat="33.29238" lon="-116.65912"><ele>934.0</ele></trkpt>
    <trkpt lat="33.29261" lon="-116.65932"><ele>934.0</ele></trkpt>
    <trkpt lat="33.29274" lon="-116.65918"><ele>934.0</ele></trkpt>
    <trkpt lat="33.29278" lon="-116.65886"><ele>944.0</ele></trkpt>
    <trkpt lat="33.29356" lon="-116.65786"><ele>944.0</ele></trkpt>
    <trkpt lat="33.29406" lon="-116.65673"><ele>944.0</ele></trkpt>
    <trkpt lat="33.29414" lon="-116.65619"><ele>944.0</ele></trkpt>
    <trkpt lat="33.29465" lon="-116.65520"><ele>954.0</ele></trkpt>
    <trkpt lat="33.29518" lon="-116.65458"><ele>954.0</ele></trkpt>
    <trkpt lat="33.29561" lon="-116.65363"><ele>954.0</ele></trkpt>
    <trkpt lat="33.29627" lon="-116.65260"><ele>968.0</ele></trkpt>
    <trkpt lat="33.29715" lon="-116.65184"><ele>968.0</ele></trkpt>
    <trkpt lat="33.29797" lon="-116.65157"><ele>968.0</ele></trkpt>
    <trkpt lat="33.29850" lon="-116.65124"><ele>968.0</ele></trkpt>
    <trkpt lat="33.29935" lon="-116.65082"><ele>966.0</ele></trkpt>
    <trkpt lat="33.29955" lon="-116.65034"><ele>966.0</ele></trkpt>
    <trkpt lat="33.29953" lon="-116.64898"><ele>966.0</ele></trkpt>
    <trkpt lat="33.29970" lon="-116.64859"><ele>966.0</ele></trkpt>
    <trkpt lat="33.30009" lon="-116.64839"><ele>978.0</ele></trkpt>
    <trkpt lat="33.30114" lon="-116.64845"><ele>978.0</ele></trkpt>
    <trkpt lat="33.30137" lon="-116.64832"><ele>978.0</ele></trkpt>
    <trkpt lat="33.30209" lon="-116.64792"><ele>978.0</ele></trkpt>
    <trkpt lat="33.30281" lon="-116.64717"><ele>978.0</ele></trkpt>
    <trkpt lat="33.30342" lon="-116.64669"><ele>978.0</ele></trkpt>
    <trkpt lat="33.30358" lon="-116.64659"><ele>978.0</ele></trkpt>
    <trkpt lat="33.30395" lon="-116.64638"><ele>987.0</ele></trkpt>
    <trkpt lat="33.30399" lon="-116.64642"><ele>987.0</ele></trkpt>
    <trkpt lat="33.30437" lon="-116.64684"><ele>987.0</ele></trkpt>
    <trkpt lat="33.30490" lon="-116.64702"><ele>987.0</ele></trkpt>
    <trkpt lat="33.30515" lon="-116.64741"><ele>1003.0</ele></trkpt>
    <trkpt lat="33.30531" lon="-116.64746"><ele>1003.0</ele></trkpt>
    <trkpt lat="33.30588" lon="-116.64671"><ele>1003.0</ele></trkpt>
    <trkpt lat="33.30621" lon="-116.64671"><ele>1029.0</ele></trkpt>
    <trkpt lat="33.30652" lon="-116.64689"><ele>1029.0</ele></trkpt>
    <trkpt lat="33.30656" lon="-116.64727"><ele>1029.0</ele></trkpt>
    <trkpt lat="33.30644" lon="-116.64751"><ele>1029.0</ele></trkpt>
    <trkpt lat="33.30663" lon="-116.64759"><ele>1026.0</ele></trkpt>
    <trkpt lat="33.30687" lon="-116.64782"><ele>1026.0</ele></trkpt>
    <trkpt lat="33.30701" lon="-116.64827"><ele>1026.0</ele></trkpt>
    <trkpt lat="33.30714" lon="-116.64836"><ele>1026.0</ele></trkpt>
    <trkpt lat="33.30739" lon="-116.64822"><ele>1029.0</ele></trkpt>
    <trkpt lat="33.30775" lon="-116.64763"><ele>1029.0</ele></trkpt>
    <trkpt lat="33.30772" lon="-116.64653"><ele>1029.0</ele></trkpt>
    <trkpt lat="33.30798" lon="-116.64581"><ele>1057.0</ele></trkpt>
    <trkpt lat="33.30847" lon="-116.64543"><ele>1057.0</ele></trkpt>
    <trkpt lat="33.30899" lon="-116.64525"><ele>1057.0</ele></trkpt>
    <trkpt lat="33.30952" lon="-116.64534"><ele>1057.0</ele></trkpt>
    <trkpt lat="33.31007" lon="-116.64526"><ele>1066.0</ele></trkpt>
    <trkpt lat="33.31021" lon="-116.64504"><ele>1066.0</ele></trkpt>
    <trkpt lat="33.31023" lon="-116.64461"><ele>1066.0</ele></trkpt>
    <trkpt lat="33.31010" lon="-116.64444"><ele>1066.0</ele></trkpt>
    <trkpt lat="33.31010" lon="-116.64428"><ele>1076.0</ele></trkpt>
    <trkpt lat="33.31030" lon="-116.64410"><ele>1076.0</ele></trkpt>
    <trkpt lat="33.31027" lon="-116.64371"><ele>1076.0</ele></trkpt>
    <trkpt lat="33.31049" lon="-116.64348"><ele>1082.0</ele></trkpt>
    <trkpt lat="33.31055" lon="-116.64317"><ele>1082.0</ele></trkpt>
    <trkpt lat="33.31081" lon="-116.64321"><ele>1082.0</ele></trkpt>
    <trkpt lat="33.31102" lon="-116.64299"><ele>1082.0</ele></trkpt>
    <trkpt lat="33.31124" lon="-116.64245"><ele>1090.0</ele></trkpt>
    <trkpt lat="33.31108" lon="-116.64204"><ele>1090.0</ele></trkpt>
    <trkpt lat="33.31159" lon="-116.64168"><ele>1090.0</ele></trkpt>
    <trkpt lat="33.31212" lon="-116.64154"><ele>1090.0</ele></trkpt>
    <trkpt lat="33.31244" lon="-116.64172"><ele>1106.0</ele></trkpt>
    <trkpt lat="33.31285" lon="-116.64153"><ele>1106.0</ele></trkpt>
    <trkpt lat="33.31335" lon="-116.64107"><ele>1106.0</ele></trkpt>
    <trkpt lat="33.31338" lon="-116.64065"><ele>1106.0</ele></trkpt>
    <trkpt lat="33.31366" lon="-116.64035"><ele>1133.0</ele></trkpt>
    <trkpt lat="33.31434" lon="-116.64013"><ele>1133.0</ele></trkpt>
    <trkpt lat="33.31527" lon="-116.64036"><ele>1133.0</ele></trkpt>
    <trkpt lat="33.31579" lon="-116.64047"><ele>1136.0</ele></trkpt>
    <trkpt lat="33.31595" lon="-116.64036"><ele>1136.0</ele></trkpt>
    <trkpt lat="33.31601" lon="-116.63988"><ele>1136.0</ele></trkpt>
    <trkpt lat="33.31583" lon="-116.63968"><ele>1136.0</ele></trkpt>
    <trkpt lat="33.31588" lon="-116.63909"><ele>1148.0</ele></trkpt>
    <trkpt lat="33.31562" lon="-116.63891"><ele>1148.0</ele></trkpt>
    <trkpt lat="33.31561" lon="-116.63878"><ele>1148.0</ele></trkpt>
    <trkpt lat="33.31589" lon="-116.63850"><ele>1148.0</ele></trkpt>
    <trkpt lat="33.31636" lon="-116.63839"><ele>1153.0</ele></trkpt>
    <trkpt lat="33.31672" lon="-116.63849"><ele>1153.0</ele></trkpt>
    <trkpt lat="33.31705" lon="-116.63886"><ele>1153.0</ele></trkpt>
    <trkpt lat="33.31768" lon="-116.63898"><ele>1155.0</ele></trkpt>
    <trkpt lat="33.31772" lon="-116.63930"><ele>1155.0</ele></trkpt>
    <trkpt lat="33.31783" lon="-116.63969"><ele>1155.0</ele></trkpt>
    <trkpt lat="33.31810" lon="-116.63975"><ele>1155.0</ele></trkpt>
    <trkpt lat="33.31827" lon="-116.63958"><ele>1164.0</ele></trkpt>
    <trkpt lat="33.31822" lon="-116.63910"><ele>1164.0</ele></trkpt>
    <trkpt lat="33.31851" lon="-116.63888"><ele>1164.0</ele></trkpt>
    <trkpt lat="33.31875" lon="-116.63835"><ele>1164.0</ele></trkpt>
    <trkpt lat="33.31874" lon="-116.63756"><ele>1182.0</ele></trkpt>
    <trkpt lat="33.31882" lon="-116.63715"><ele>1182.0</ele></trkpt>
    <trkpt lat="33.31929" lon="-116.63685"><ele>1182.0</ele></trkpt>
    <trkpt lat="33.31929" lon="-116.63667"><ele>1188.0</ele></trkpt>
    <trkpt lat="33.31957" lon="-116.63620"><ele>1188.0</ele></trkpt>
    <trkpt lat="33.31956" lon="-116.63575"><ele>1188.0</ele></trkpt>
    <trkpt lat="33.31961" lon="-116.63544"><ele>1188.0</ele></trkpt>
    <trkpt lat="33.32002" lon="-116.63525"><ele>1196.0</ele></trkpt>
    <trkpt lat="33.32046" lon="-116.63529"><ele>1196.0</ele></trkpt>
    <trkpt lat="33.32047" lon="-116.63527"><ele>1196.0</ele></trkpt>
    <trkpt lat="33.32111" lon="-116.63475"><ele>1196.0</ele></trkpt>
    <trkpt lat="33.32171" lon="-116.63475"><ele>1187.0</ele></trkpt>
    <trkpt lat="33.32240" lon="-116.63444"><ele>1187.0</ele></trkpt>
    <trkpt lat="33.32279" lon="-116.63384"><ele>1187.0</ele></trkpt>
    <trkpt lat="33.32323" lon="-116.63369"><ele>1195.0</ele></trkpt>
    <trkpt lat="33.32336" lon="-116.63379"><ele>1195.0</ele></trkpt>
    <trkpt lat="33.32360" lon="-116.63377"><ele>1195.0</ele></trkpt>
    <trkpt lat="33.32399" lon="-116.63340"><ele>1195.0</ele></trkpt>
    <trkpt lat="33.32468" lon="-116.63346"><ele>1212.0</ele></trkpt>
    <trkpt lat="33.32485" lon="-116.63361"><ele>1212.0</ele></trkpt>
    <trkpt lat="33.32554" lon="-116.63385"><ele>1212.0</ele></trkpt>
    <trkpt lat="33.32571" lon="-116.63478"><ele>1212.0</ele></trkpt>
    <trkpt lat="33.32567" lon="-116.63535"><ele>1226.0</ele></trkpt>
    <trkpt lat="33.32621" lon="-116.63616"><ele>1226.0</ele></trkpt>
    <trkpt lat="33.32621" lon="-116.63676"><ele>1226.0</ele></trkpt>
    <trkpt lat="33.32622" lon="-116.63680"><ele>1222.0</ele></trkpt>
    <trkpt lat="33.32635" lon="-116.63727"><ele>1222.0</ele></trkpt>
    <trkpt lat="33.32660" lon="-116.63745"><ele>1222.0</ele></trkpt>
    <trkpt lat="33.32674" lon="-116.63775"><ele>1222.0</ele></trkpt>
    <trkpt lat="33.32732" lon="-116.63852"><ele>1222.0</ele></trkpt>
    <trkpt lat="33.32794" lon="-116.63884"><ele>1222.0</ele></trkpt>
    <trkpt lat="33.32870" lon="-116.63969"><ele>1222.0</ele></trkpt>
    <trkpt lat="33.32900" lon="-116.63973"><ele>1222.0</ele></trkpt>
    <trkpt lat="33.32937" lon="-116.63998"><ele>1211.0</ele></trkpt>
    <trkpt lat="33.32958" lon="-116.64010"><ele>1211.0</ele></trkpt>
    <trkpt lat="33.32983" lon="-116.64042"><ele>1211.0</ele></trkpt>
    <trkpt lat="33.33006" lon="-116.64072"><ele>1206.0</ele></trkpt>
    <trkpt lat="33.33031" lon="-116.64072"><ele>1206.0</ele></trkpt>
    <trkpt lat="33.33058" lon="-116.64078"><ele>1206.0</ele></trkpt>
    <trkpt lat="33.33122" lon="-116.64113"><ele>1206.0</ele></trkpt>
    <trkpt lat="33.33187" lon="-116.64108"><ele>1206.0</ele></trkpt>
    <trkpt lat="33.33234" lon="-116.64104"><ele>1206.0</ele></trkpt>
    <trkpt lat="33.33451" lon="-116.64079"><ele>1206.0</ele></trkpt>
    <trkpt lat="33.33478" lon="-116.64096"><ele>1206.0</ele></trkpt>
    <trkpt lat="33.33526" lon="-116.64090"><ele>1217.0</ele></trkpt>
    <trkpt lat="33.33578" lon="-116.64097"><ele>1217.0</ele></trkpt>
    <trkpt lat="33.33599" lon="-116.64119"><ele>1217.0</ele></trkpt>
    <trkpt lat="33.33659" lon="-116.64209"><ele>1200.0</ele></trkpt>
    <trkpt lat="33.33716" lon="-116.64256"><ele>1200.0</ele></trkpt>
    <trkpt lat="33.33812" lon="-116.64261"><ele>1200.0</ele></trkpt>
    <trkpt lat="33.33898" lon="-116.64260"><ele>1200.0</ele></trkpt>
    <trkpt lat="33.33972" lon="-116.64328"><ele>1188.0</ele></trkpt>
    <trkpt lat="33.33984" lon="-116.64359"><ele>1188.0</ele></trkpt>
    <trkpt lat="33.33996" lon="-116.64373"><ele>1188.0</ele></trkpt>
    <trkpt lat="33.34017" lon="-116.64411"><ele>1188.0</ele></trkpt>
    <trkpt lat="33.34028" lon="-116.64484"><ele>1178.0</ele></trkpt>
    <trkpt lat="33.34049" lon="-116.64527"><ele>1178.0</ele></trkpt>
    <trkpt lat="33.34066" lon="-116.64592"><ele>1178.0</ele></trkpt>
    <trkpt lat="33.34098" lon="-116.64643"><ele>1173.0</ele></trkpt>
    <trkpt lat="33.34121" lon="-116.64654"><ele>1173.0</ele></trkpt>
    <trkpt lat="33.34148" lon="-116.64692"><ele>1173.0</ele></trkpt>
    <trkpt lat="33.34171" lon="-116.64698"><ele>1173.0</ele></trkpt>
    <trkpt lat="33.34209" lon="-116.64699"><ele>1167.0</ele></trkpt>
    <trkpt lat="33.34247" lon="-116.64700"><ele>1167.0</ele></trkpt>
    <trkpt lat="33.34376" lon="-116.64747"><ele>1167.0</ele></trkpt>
    <trkpt lat="33.34392" lon="-116.64763"><ele>1167.0</ele></trkpt>
    <trkpt lat="33.34410" lon="-116.64821"><ele>1166.0</ele></trkpt>
    <trkpt lat="33.34426" lon="-116.64852"><ele>1166.0</ele></trkpt>
    <trkpt lat="33.34478" lon="-116.64960"><ele>1166.0</ele></trkpt>
    <trkpt lat="33.34495" lon="-116.65036"><ele>1166.0</ele></trkpt>
    <trkpt lat="33.34524" lon="-116.65118"><ele>1166.0</ele></trkpt>
    <trkpt lat="33.34560" lon="-116.65173"><ele>1166.0</ele></trkpt>
    <trkpt lat="33.34565" lon="-116.65197"><ele>1166.0</ele></trkpt>
    <trkpt lat="33.34562" lon="-116.65222"><ele>1159.0</ele></trkpt>
    <trkpt lat="33.34558" lon="-116.65259"><ele>1159.0</ele></trkpt>
    <trkpt lat="33.34574" lon="-116.65291"><ele>1159.0</ele></trkpt>
    <trkpt lat="33.34630" lon="-116.65384"><ele>1159.0</ele></trkpt>
    <trkpt lat="33.34658" lon="-116.65408"><ele>1150.0</ele></trkpt>
    <trkpt lat="33.34666" lon="-116.65417"><ele>1150.0</ele></trkpt>
    <trkpt lat="33.34699" lon="-116.65456"><ele>1150.0</ele></trkpt>
    <trkpt lat="33.34734" lon="-116.65471"><ele>1140.0</ele></trkpt>
    <trkpt lat="33.34765" lon="-116.65533"><ele>1140.0</ele></trkpt>
    <trkpt lat="33.34789" lon="-116.65545"><ele>1140.0</ele></trkpt>
    <trkpt lat="33.34793" lon="-116.65547"><ele>1140.0</ele></trkpt>
    <trkpt lat="33.34804" lon="-116.65552"><ele>1142.0</ele></trkpt>
    <trkpt lat="33.34804" lon="-116.65552"><ele>1142.0</ele></trkpt>
    <trkpt lat="33.34812" lon="-116.65556"><ele>1142.0</ele></trkpt>
    <trkpt lat="33.34834" lon="-116.65554"><ele>1142.0</ele></trkpt>
    <trkpt lat="33.34844" lon="-116.65553"><ele>1145.0</ele></trkpt>
    <trkpt lat="33.34864" lon="-116.65573"><ele>1145.0</ele></trkpt>
    <trkpt lat="33.34887" lon="-116.65567"><ele>1145.0</ele></trkpt>
    <trkpt lat="33.34911" lon="-116.65591"><ele>1147.0</ele></trkpt>
    <trkpt lat="33.34955" lon="-116.65605"><ele>1147.0</ele></trkpt>
    <trkpt lat="33.35012" lon="-116.65605"><ele>1147.0</ele></trkpt>
    <trkpt lat="33.35047" lon="-116.65634"><ele>1147.0</ele></trkpt>
    <trkpt lat="33.35068" lon="-116.65684"><ele>1156.0</ele></trkpt>
    <trkpt lat="33.35073" lon="-116.65686"><ele>1156.0</ele></trkpt>
    <trkpt lat="33.35149" lon="-116.65725"><ele>1156.0</ele></trkpt>
    <trkpt lat="33.35196" lon="-116.65733"><ele>1156.0</ele></trkpt>
    <trkpt lat="33.35216" lon="-116.65762"><ele>1161.0</ele></trkpt>
    <trkpt lat="33.35251" lon="-116.65762"><ele>1161.0</ele></trkpt>
    <trkpt lat="33.35288" lon="-116.65794"><ele>1161.0</ele></trkpt>
    <trkpt lat="33.35355" lon="-116.65819"><ele>1167.0</ele></trkpt>
    <trkpt lat="33.35400" lon="-116.65795"><ele>1167.0</ele></trkpt>
    <trkpt lat="33.35455" lon="-116.65820"><ele>1167.0</ele></trkpt>
    <trkpt lat="33.35481" lon="-116.65841"><ele>1167.0</ele></trkpt>
    <trkpt lat="33.35481" lon="-116.65841"><ele>1168.0</ele></trkpt>
    <trkpt lat="33.35485" lon="-116.65844"><ele>1168.0</ele></trkpt>
    <trkpt lat="33.35512" lon="-116.65833"><ele>1168.0</ele></trkpt>
    <trkpt lat="33.35518" lon="-116.65830"><ele>1168.0</ele></trkpt>
    <trkpt lat="33.35541" lon="-116.65841"><ele>1168.0</ele></trkpt>
    <trkpt lat="33.35577" lon="-116.65926"><ele>1168.0</ele></trkpt>
    <trkpt lat="33.35587" lon="-116.66010"><ele>1168.0</ele></trkpt>
    <trkpt lat="33.35612" lon="-116.66036"><ele>1167.0</ele></trkpt>
    <trkpt lat="33.35637" lon="-116.66098"><ele>1167.0</ele></trkpt>
    <trkpt lat="33.35693" lon="-116.66187"><ele>1167.0</ele></trkpt>
    <trkpt lat="33.35728" lon="-116.66212"><ele>1167.0</ele></trkpt>
    <trkpt lat="33.35754" lon="-116.66275"><ele>1155.0</ele></trkpt>
    <trkpt lat="33.35770" lon="-116.66456"><ele>1155.0</ele></trkpt>
    <trkpt lat="33.35794" lon="-116.66485"><ele>1155.0</ele></trkpt>
    <trkpt lat="33.35819" lon="-116.66550"><ele>1155.0</ele></trkpt>
    <trkpt lat="33.35807" lon="-116.66589"><ele>1154.0</ele></trkpt>
    <trkpt lat="33.35808" lon="-116.66611"><ele>1154.0</ele></trkpt>
    <trkpt lat="33.35803" lon="-116.66660"><ele>1154.0</ele></trkpt>
    <trkpt lat="33.35766" lon="-116.66750"><ele>1155.0</ele></trkpt>
    <trkpt lat="33.35748" lon="-116.66835"><ele>1155.0</ele></trkpt>
    <trkpt lat="33.35787" lon="-116.66896"><ele>1155.0</ele></trkpt>
    <trkpt lat="33.35857" lon="-116.66977"><ele>1155.0</ele></trkpt>
    <trkpt lat="33.35864" lon="-116.67007"><ele>1164.0</ele></trkpt>
    <trkpt lat="33.35858" lon="-116.67141"><ele>1164.0</ele></trkpt>
    <trkpt lat="33.35875" lon="-116.67174"><ele>1164.0</ele></trkpt>
    <trkpt lat="33.35914" lon="-116.67197"><ele>1164.0</ele></trkpt>
    <trkpt lat="33.36013" lon="-116.67227"><ele>1166.0</ele></trkpt>
    <trkpt lat="33.36075" lon="-116.67244"><ele>1166.0</ele></trkpt>
    <trkpt lat="33.36105" lon="-116.67241"><ele>1166.0</ele></trkpt>
    <trkpt lat="33.36140" lon="-116.67213"><ele>1171.0</ele></trkpt>
    <trkpt lat="33.36158" lon="-116.67239"><ele>1171.0</ele></trkpt>
    <trkpt lat="33.36213" lon="-116.67296"><ele>1171.0</ele></trkpt>
    <trkpt lat="33.36258" lon="-116.67307"><ele>1171.0</ele></trkpt>
    <trkpt lat="33.36280" lon="-116.67343"><ele>1183.0</ele></trkpt>
    <trkpt lat="33.36303" lon="-116.67387"><ele>1183.0</ele></trkpt>
    <trkpt lat="33.36312" lon="-116.67426"><ele>1183.0</ele></trkpt>
    <trkpt lat="33.36391" lon="-116.67471"><ele>1183.0</ele></trkpt>
    <trkpt lat="33.36439" lon="-116.67464"><ele>1186.0</ele></trkpt>
    <trkpt lat="33.36508" lon="-116.67393"><ele>1186.0</ele></trkpt>
    <trkpt lat="33.36530" lon="-116.67393"><ele>1186.0</ele></trkpt>
    <trkpt lat="33.36592" lon="-116.67445"><ele>1186.0</ele></trkpt>
    <trkpt lat="33.36609" lon="-116.67491"><ele>1196.0</ele></trkpt>
    <trkpt lat="33.36615" lon="-116.67538"><ele>1196.0</ele></trkpt>
    <trkpt lat="33.36645" lon="-116.67597"><ele>1196.0</ele></trkpt>
    <trkpt lat="33.36662" lon="-116.67722"><ele>1202.0</ele></trkpt>
    <trkpt lat="33.36656" lon="-116.67870"><ele>1202.0</ele></trkpt>
    <trkpt lat="33.36639" lon="-116.67929"><ele>1202.0</ele></trkpt>
    <trkpt lat="33.36669" lon="-116.67979"><ele>1202.0</ele></trkpt>
    <trkpt lat="33.36690" lon="-116.68041"><ele>1229.0</ele></trkpt>
    <trkpt lat="33.36693" lon="-116.68076"><ele>1229.0</ele></trkpt>
    <trkpt lat="33.36738" lon="-116.68105"><ele>1229.0</ele></trkpt>
    <trkpt lat="33.36754" lon="-116.68175"><ele>1229.0</ele></trkpt>
    <trkpt lat="33.36740" lon="-116.68234"><ele>1240.0</ele></trkpt>
    <trkpt lat="33.36737" lon="-116.68265"><ele>1240.0</ele></trkpt>
    <trkpt lat="33.36754" lon="-116.68293"><ele>1240.0</ele></trkpt>
    <trkpt lat="33.36756" lon="-116.68322"><ele>1255.0</ele></trkpt>
    <trkpt lat="33.36744" lon="-116.68355"><ele>1255.0</ele></trkpt>
    <trkpt lat="33.36747" lon="-116.68376"><ele>1255.0</ele></trkpt>
    <trkpt lat="33.36782" lon="-116.68365"><ele>1255.0</ele></trkpt>
    <trkpt lat="33.36800" lon="-116.68385"><ele>1265.0</ele></trkpt>
    <trkpt lat="33.36813" lon="-116.68444"><ele>1265.0</ele></trkpt>
    <trkpt lat="33.36834" lon="-116.68453"><ele>1265.0</ele></trkpt>
    <trkpt lat="33.36843" lon="-116.68486"><ele>1265.0</ele></trkpt>
    <trkpt lat="33.36856" lon="-116.68490"><ele>1259.0</ele></trkpt>
    <trkpt lat="33.36901" lon="-116.68417"><ele>1259.0</ele></trkpt>
    <trkpt lat="33.36988" lon="-116.68443"><ele>1259.0</ele></trkpt>
    <trkpt lat="33.37007" lon="-116.68484"><ele>1278.0</ele></trkpt>
    <trkpt lat="33.37009" lon="-116.68536"><ele>1278.0</ele></trkpt>
    <trkpt lat="33.37025" lon="-116.68536"><ele>1278.0</ele></trkpt>
    <trkpt lat="33.37039" lon="-116.68578"><ele>1278.0</ele></trkpt>
    <trkpt lat="33.37016" lon="-116.68606"><ele>1294.0</ele></trkpt>
    <trkpt lat="33.37007" lon="-116.68668"><ele>1294.0</ele></trkpt>
    <trkpt lat="33.36977" lon="-116.68702"><ele>1294.0</ele></trkpt>
    <trkpt lat="33.36962" lon="-116.68738"><ele>1294.0</ele></trkpt>
    <trkpt lat="33.36967" lon="-116.68748"><ele>1300.0</ele></trkpt>
    <trkpt lat="33.36984" lon="-116.68736"><ele>1300.0</ele></trkpt>
    <trkpt lat="33.37031" lon="-116.68716"><ele>1300.0</ele></trkpt>
    <trkpt lat="33.37041" lon="-116.68678"><ele>1296.0</ele></trkpt>
    <trkpt lat="33.37063" lon="-116.68651"><ele>1296.0</ele></trkpt>
    <trkpt lat="33.37101" lon="-116.68644"><ele>1296.0</ele></trkpt>
    <trkpt lat="33.37123" lon="-116.68670"><ele>1296.0</ele></trkpt>
    <trkpt lat="33.37125" lon="-116.68695"><ele>1304.0</ele></trkpt>
    <trkpt lat="33.37109" lon="-116.68725"><ele>1304.0</ele></trkpt>
    <trkpt lat="33.37119" lon="-116.68743"><ele>1304.0</ele></trkpt>
    <trkpt lat="33.37103" lon="-116.68776"><ele>1304.0</ele></trkpt>
    <trkpt lat="33.37140" lon="-116.68817"><ele>1310.0</ele></trkpt>
    <trkpt lat="33.37157" lon="-116.68861"><ele>1310.0</ele></trkpt>
    <trkpt lat="33.37121" lon="-116.68923"><ele>1310.0</ele></trkpt>
    <trkpt lat="33.37087" lon="-116.68929"><ele>1322.0</ele></trkpt>
    <trkpt lat="33.37109" lon="-116.68997"><ele>1322.0</ele></trkpt>
    <trkpt lat="33.37137" lon="-116.69042"><ele>1322.0</ele></trkpt>
    <trkpt lat="33.37194" lon="-116.69102"><ele>1322.0</ele></trkpt>
    <trkpt lat="33.37256" lon="-116.69105"><ele>1327.0</ele></trkpt>
    <trkpt lat="33.37269" lon="-116.69066"><ele>1327.0</ele></trkpt>
    <trkpt lat="33.37289" lon="-116.69058"><ele>1327.0</ele></trkpt>
    <trkpt lat="33.37303" lon="-116.69066"><ele>1327.0</ele></trkpt>
    <trkpt lat="33.37315" lon="-116.69125"><ele>1326.0</ele></trkpt>
    <trkpt lat="33.37332" lon="-116.69163"><ele>1326.0</ele></trkpt>
    <trkpt lat="33.37314" lon="-116.69194"><ele>1326.0</ele></trkpt>
    <trkpt lat="33.37312" lon="-116.69205"><ele>1327.0</ele></trkpt>
    <trkpt lat="33.37311" lon="-116.69208"><ele>1327.0</ele></trkpt>
    <trkpt lat="33.37337" lon="-116.69238"><ele>1327.0</ele></trkpt>
    <trkpt lat="33.37399" lon="-116.69230"><ele>1327.0</ele></trkpt>
    <trkpt lat="33.37460" lon="-116.69231"><ele>1313.0</ele></trkpt>
    <trkpt lat="33.37484" lon="-116.69225"><ele>1313.0</ele></trkpt>
    <trkpt lat="33.37508" lon="-116.69228"><ele>1313.0</ele></trkpt>
    <trkpt lat="33.37550" lon="-116.69153"><ele>1313.0</ele></trkpt>
    <trkpt lat="33.37578" lon="-116.69071"><ele>1296.0</ele></trkpt>
    <trkpt lat="33.37566" lon="-116.69037"><ele>1296.0</ele></trkpt>
    <trkpt lat="33.37565" lon="-116.69016"><ele>1296.0</ele></trkpt>
    <trkpt lat="33.37623" lon="-116.68974"><ele>1296.0</ele></trkpt>
    <trkpt lat="33.37639" lon="-116.68840"><ele>1296.0</ele></trkpt>
    <trkpt lat="33.37659" lon="-116.68808"><ele>1296.0</ele></trkpt>
    <trkpt lat="33.37690" lon="-116.68676"><ele>1296.0</ele></trkpt>
    <trkpt lat="33.37712" lon="-116.68653"><ele>1293.0</ele></trkpt>
    <trkpt lat="33.37804" lon="-116.68652"><ele>1293.0</ele></trkpt>
  </trkseg></trk>
</gpx>
